{
    "features": [
        {
            "geometry": {
                "coordinates": [
                    9.990276,
                    53.712712
                ],
                "type": "Point"
            },
            "properties": {
                "capacity": 6,
                "is_installed": true,
                "is_renting": true,
                "is_returning": true,
                "is_virtual_station": false,
                "last_reported": 1789285710,
                "name": "Waldstra\u00dfe",
                "num_bikes_available": 0,
                "num_docks_available": 6,
                "region_id": "177",
                "rental_uris": {
                    "android": "https://app.nextbike.net/station?id=101392060",
                    "ios": "https://app.nextbike.net/station?id=101392060",
                    "web": "https://nxtb.it/p/101392060"
                },
                "short_name": "4718",
                "station_id": "101392060",
                "vehicle_types_available": []
            },
            "type": "Feature"
        },
        {
            "geometry": {
                "coordinates": [
                    9.987597,
                    53.717736
                ],
                "type": "Point"
            },
            "properties": {
                "capacity": 5,
                "is_installed": true,
                "is_renting": true,
                "is_returning": true,
                "is_virtual_station": false,
                "last_reported": 1789285710,
                "name": "Friedrichsgaber Weg / Neue L\u00fcbecker",
                "num_bikes_available": 12,
                "num_docks_available": 0,
                "region_id": "177",
                "rental_uris": {
                    "android": "https://app.nextbike.net/station?id=209171746",
                    "ios": "https://app.nextbike.net/station?id=209171746",
                    "web": "https://nxtb.it/p/209171746"
                },
                "short_name": "4738",
                "station_id": "209171746",
                "vehicle_types_available": [
                    {
                        "count": 7,
                        "vehicle_type_id": "150"
                    },
                    {
                        "count": 5,
                        "vehicle_type_id": "196"
                    }
                ]
            },
            "type": "Feature"
        },
        {
            "geometry": {
                "coordinates": [
                    9.999951,
                    53.715879
                ],
                "type": "Point"
            },
            "properties": {
                "capacity": 10,
                "is_installed": true,
                "is_renting": true,
                "is_returning": true,
                "is_virtual_station": false,
                "last_reported": 1789285710,
                "name": "Ulzburger Str. / Glash\u00fctter Weg",
                "num_bikes_available": 4,
                "num_docks_available": 5,
                "region_id": "177",
                "rental_uris": {
                    "android": "https://app.nextbike.net/station?id=238457",
                    "ios": "https://app.nextbike.net/station?id=238457",
                    "web": "https://nxtb.it/p/238457"
                },
                "short_name": "4730",
                "station_id": "238457",
                "vehicle_types_available": [
                    {
                        "count": 1,
                        "vehicle_type_id": "150"
                    },
                    {
                        "count": 3,
                        "vehicle_type_id": "196"
                    }
                ]
            },
            "type": "Feature"
        },
        {
            "geometry": {
                "coordinates": [
                    9.99855,
                    53.68238
                ],
                "type": "Point"
            },
            "properties": {
                "capacity": 10,
                "is_installed": true,
                "is_renting": true,
                "is_returning": true,
                "is_virtual_station": false,
                "last_reported": 1789285710,
                "name": "Schmuggelstieg",
                "num_bikes_available": 4,
                "num_docks_available": 6,
                "region_id": "177",
                "rental_uris": {
                    "android": "https://app.nextbike.net/station?id=254785",
                    "ios": "https://app.nextbike.net/station?id=254785",
                    "web": "https://nxtb.it/p/254785"
                },
                "short_name": "4731",
                "station_id": "254785",
                "vehicle_types_available": [
                    {
                        "count": 2,
                        "vehicle_type_id": "150"
                    },
                    {
                        "count": 2,
                        "vehicle_type_id": "196"
                    }
                ]
            },
            "type": "Feature"
        },
        {
            "geometry": {
                "coordinates": [
                    9.98945,
                    53.69599
                ],
                "type": "Point"
            },
            "properties": {
                "capacity": 10,
                "is_installed": true,
                "is_renting": true,
                "is_returning": true,
                "is_virtual_station": false,
                "last_reported": 1789285710,
                "name": "Richtweg",
                "num_bikes_available": 1,
                "num_docks_available": 8,
                "region_id": "177",
                "rental_uris": {
                    "android": "https://app.nextbike.net/station?id=262106",
                    "ios": "https://app.nextbike.net/station?id=262106",
                    "web": "https://nxtb.it/p/262106"
                },
                "short_name": "4732",
                "station_id": "262106",
                "vehicle_types_available": [
                    {
                        "count": 1,
                        "vehicle_type_id": "150"
                    }
                ]
            },
            "type": "Feature"
        },
        {
            "geometry": {
                "coordinates": [
                    10.006387,
                    53.733744
                ],
                "type": "Point"
            },
            "properties": {
                "capacity": 7,
                "is_installed": true,
                "is_renting": true,
                "is_returning": true,
                "is_virtual_station": false,
                "last_reported": 1789285710,
                "name": "Strandkorbsiedlung",
                "num_bikes_available": 14,
                "num_docks_available": 0,
                "region_id": "177",
                "rental_uris": {
                    "android": "https://app.nextbike.net/station?id=319412",
                    "ios": "https://app.nextbike.net/station?id=319412",
                    "web": "https://nxtb.it/p/319412"
                },
                "short_name": "4728",
                "station_id": "319412",
                "vehicle_types_available": [
                    {
                        "count": 4,
                        "vehicle_type_id": "150"
                    },
                    {
                        "count": 10,
                        "vehicle_type_id": "196"
                    }
                ]
            },
            "type": "Feature"
        },
        {
            "geometry": {
                "coordinates": [
                    9.979804,
                    53.703094
                ],
                "type": "Point"
            },
            "properties": {
                "capacity": 10,
                "is_installed": true,
                "is_renting": true,
                "is_returning": true,
                "is_virtual_station": false,
                "last_reported": 1789285710,
                "name": "Feuerwehrmuseum",
                "num_bikes_available": 12,
                "num_docks_available": 0,
                "region_id": "177",
                "rental_uris": {
                    "android": "https://app.nextbike.net/station?id=319413",
                    "ios": "https://app.nextbike.net/station?id=319413",
                    "web": "https://nxtb.it/p/319413"
                },
                "short_name": "4729",
                "station_id": "319413",
                "vehicle_types_available": [
                    {
                        "count": 1,
                        "vehicle_type_id": "71"
                    },
                    {
                        "count": 6,
                        "vehicle_type_id": "150"
                    },
                    {
                        "count": 5,
                        "vehicle_type_id": "196"
                    }
                ]
            },
            "type": "Feature"
        },
        {
            "geometry": {
                "coordinates": [
                    9.997203,
                    53.727361
                ],
                "type": "Point"
            },
            "properties": {
                "capacity": 4,
                "is_installed": true,
                "is_renting": true,
                "is_returning": true,
                "is_virtual_station": false,
                "last_reported": 1789285710,
                "name": "Bahnhofstr. / Erlengang",
                "num_bikes_available": 16,
                "num_docks_available": 0,
                "region_id": "177",
                "rental_uris": {
                    "android": "https://app.nextbike.net/station?id=3328739",
                    "ios": "https://app.nextbike.net/station?id=3328739",
                    "web": "https://nxtb.it/p/3328739"
                },
                "short_name": "4736",
                "station_id": "3328739",
                "vehicle_types_available": [
                    {
                        "count": 3,
                        "vehicle_type_id": "71"
                    },
                    {
                        "count": 4,
                        "vehicle_type_id": "150"
                    },
                    {
                        "count": 9,
                        "vehicle_type_id": "196"
                    }
                ]
            },
            "type": "Feature"
        },
        {
            "geometry": {
                "coordinates": [
                    10.023217,
                    53.685608
                ],
                "type": "Point"
            },
            "properties": {
                "capacity": 4,
                "is_installed": true,
                "is_renting": true,
                "is_returning": true,
                "is_virtual_station": false,
                "last_reported": 1789285710,
                "name": "Segeberger Chaussee",
                "num_bikes_available": 6,
                "num_docks_available": 0,
                "region_id": "177",
                "rental_uris": {
                    "android": "https://app.nextbike.net/station?id=4392971",
                    "ios": "https://app.nextbike.net/station?id=4392971",
                    "web": "https://nxtb.it/p/4392971"
                },
                "short_name": "4737",
                "station_id": "4392971",
                "vehicle_types_available": [
                    {
                        "count": 2,
                        "vehicle_type_id": "150"
                    },
                    {
                        "count": 4,
                        "vehicle_type_id": "196"
                    }
                ]
            },
            "type": "Feature"
        },
        {
            "geometry": {
                "coordinates": [
                    10.00514,
                    53.723079
                ],
                "type": "Point"
            },
            "properties": {
                "capacity": 5,
                "is_installed": true,
                "is_renting": true,
                "is_returning": true,
                "is_virtual_station": false,
                "last_reported": 1789285710,
                "name": "Albert-Schweitzer-Stra\u00dfe",
                "num_bikes_available": 20,
                "num_docks_available": 0,
                "region_id": "177",
                "rental_uris": {
                    "android": "https://app.nextbike.net/station?id=466777304",
                    "ios": "https://app.nextbike.net/station?id=466777304",
                    "web": "https://nxtb.it/p/466777304"
                },
                "short_name": "4740",
                "station_id": "466777304",
                "vehicle_types_available": [
                    {
                        "count": 7,
                        "vehicle_type_id": "150"
                    },
                    {
                        "count": 13,
                        "vehicle_type_id": "196"
                    }
                ]
            },
            "type": "Feature"
        },
        {
            "geometry": {
                "coordinates": [
                    9.979679,
                    53.681643
                ],
                "type": "Point"
            },
            "properties": {
                "capacity": 8,
                "is_installed": true,
                "is_renting": true,
                "is_returning": true,
                "is_virtual_station": false,
                "last_reported": 1789285710,
                "name": "Hogenfelde / Ochsenzoller Stra\u00dfe",
                "num_bikes_available": 16,
                "num_docks_available": 0,
                "region_id": "177",
                "rental_uris": {
                    "android": "https://app.nextbike.net/station?id=492390",
                    "ios": "https://app.nextbike.net/station?id=492390",
                    "web": "https://nxtb.it/p/492390"
                },
                "short_name": "4734",
                "station_id": "492390",
                "vehicle_types_available": [
                    {
                        "count": 7,
                        "vehicle_type_id": "150"
                    },
                    {
                        "count": 8,
                        "vehicle_type_id": "196"
                    },
                    {
                        "count": 1,
                        "vehicle_type_id": "29"
                    }
                ]
            },
            "type": "Feature"
        },
        {
            "geometry": {
                "coordinates": [
                    10.008845,
                    53.704586
                ],
                "type": "Point"
            },
            "properties": {
                "capacity": 9,
                "is_installed": true,
                "is_renting": true,
                "is_returning": true,
                "is_virtual_station": false,
                "last_reported": 1789285710,
                "name": "Harksheider Markt",
                "num_bikes_available": 2,
                "num_docks_available": 7,
                "region_id": "177",
                "rental_uris": {
                    "android": "https://app.nextbike.net/station?id=66552",
                    "ios": "https://app.nextbike.net/station?id=66552",
                    "web": "https://nxtb.it/p/66552"
                },
                "short_name": "4721",
                "station_id": "66552",
                "vehicle_types_available": [
                    {
                        "count": 1,
                        "vehicle_type_id": "29"
                    },
                    {
                        "count": 1,
                        "vehicle_type_id": "196"
                    }
                ]
            },
            "type": "Feature"
        },
        {
            "geometry": {
                "coordinates": [
                    10.036901,
                    53.687879
                ],
                "type": "Point"
            },
            "properties": {
                "capacity": 10,
                "is_installed": true,
                "is_renting": true,
                "is_returning": true,
                "is_virtual_station": false,
                "last_reported": 1789285710,
                "name": "Glash\u00fctte, Markt ",
                "num_bikes_available": 3,
                "num_docks_available": 7,
                "region_id": "177",
                "rental_uris": {
                    "android": "https://app.nextbike.net/station?id=66576",
                    "ios": "https://app.nextbike.net/station?id=66576",
                    "web": "https://nxtb.it/p/66576"
                },
                "short_name": "4723",
                "station_id": "66576",
                "vehicle_types_available": [
                    {
                        "count": 3,
                        "vehicle_type_id": "29"
                    }
                ]
            },
            "type": "Feature"
        },
        {
            "geometry": {
                "coordinates": [
                    10.018646,
                    53.71324
                ],
                "type": "Point"
            },
            "properties": {
                "is_installed": true,
                "is_renting": true,
                "is_returning": true,
                "is_virtual_station": false,
                "last_reported": 1789285710,
                "name": "Stadtpark",
                "num_bikes_available": 1,
                "num_docks_available": 0,
                "region_id": "177",
                "rental_uris": {
                    "android": "https://app.nextbike.net/station?id=66681",
                    "ios": "https://app.nextbike.net/station?id=66681",
                    "web": "https://nxtb.it/p/66681"
                },
                "short_name": "4725",
                "station_id": "66681",
                "vehicle_types_available": [
                    {
                        "count": 1,
                        "vehicle_type_id": "150"
                    }
                ]
            },
            "type": "Feature"
        },
        {
            "geometry": {
                "coordinates": [
                    9.989464,
                    53.734158
                ],
                "type": "Point"
            },
            "properties": {
                "capacity": 15,
                "is_installed": true,
                "is_renting": true,
                "is_returning": true,
                "is_virtual_station": false,
                "last_reported": 1789285710,
                "name": "Quickborner Str.",
                "num_bikes_available": 4,
                "num_docks_available": 11,
                "region_id": "177",
                "rental_uris": {
                    "android": "https://app.nextbike.net/station?id=66682",
                    "ios": "https://app.nextbike.net/station?id=66682",
                    "web": "https://nxtb.it/p/66682"
                },
                "short_name": "4726",
                "station_id": "66682",
                "vehicle_types_available": [
                    {
                        "count": 1,
                        "vehicle_type_id": "150"
                    },
                    {
                        "count": 1,
                        "vehicle_type_id": "29"
                    },
                    {
                        "count": 2,
                        "vehicle_type_id": "196"
                    }
                ]
            },
            "type": "Feature"
        },
        {
            "geometry": {
                "coordinates": [
                    9.984925,
                    53.68441
                ],
                "type": "Point"
            },
            "properties": {
                "is_installed": true,
                "is_renting": true,
                "is_returning": true,
                "is_virtual_station": false,
                "last_reported": 1789285710,
                "name": "Herold Center",
                "num_bikes_available": 0,
                "num_docks_available": 0,
                "region_id": "177",
                "rental_uris": {
                    "android": "https://app.nextbike.net/station?id=66684",
                    "ios": "https://app.nextbike.net/station?id=66684",
                    "web": "https://nxtb.it/p/66684"
                },
                "short_name": "4724",
                "station_id": "66684",
                "vehicle_types_available": []
            },
            "type": "Feature"
        },
        {
            "geometry": {
                "coordinates": [
                    9.984644,
                    53.704753
                ],
                "type": "Point"
            },
            "properties": {
                "capacity": 5,
                "is_installed": true,
                "is_renting": true,
                "is_returning": true,
                "is_virtual_station": false,
                "last_reported": 1789285710,
                "name": "Buckh\u00f6rner Moor",
                "num_bikes_available": 1,
                "num_docks_available": 4,
                "region_id": "177",
                "rental_uris": {
                    "android": "https://app.nextbike.net/station?id=74510638",
                    "ios": "https://app.nextbike.net/station?id=74510638",
                    "web": "https://nxtb.it/p/74510638"
                },
                "short_name": "4719",
                "station_id": "74510638",
                "vehicle_types_available": [
                    {
                        "count": 1,
                        "vehicle_type_id": "150"
                    }
                ]
            },
            "type": "Feature"
        },
        {
            "geometry": {
                "coordinates": [
                    10.046037,
                    53.686666
                ],
                "type": "Point"
            },
            "properties": {
                "capacity": 10,
                "is_installed": true,
                "is_renting": true,
                "is_returning": true,
                "is_virtual_station": false,
                "last_reported": 1789285710,
                "name": "Johnson/Johnson",
                "num_bikes_available": 5,
                "num_docks_available": 5,
                "region_id": "177",
                "rental_uris": {
                    "android": "https://app.nextbike.net/station?id=80593712",
                    "ios": "https://app.nextbike.net/station?id=80593712",
                    "web": "https://nxtb.it/p/80593712"
                },
                "short_name": "4735",
                "station_id": "80593712",
                "vehicle_types_available": [
                    {
                        "count": 4,
                        "vehicle_type_id": "150"
                    },
                    {
                        "count": 1,
                        "vehicle_type_id": "196"
                    }
                ]
            },
            "type": "Feature"
        },
        {
            "geometry": {
                "coordinates": [
                    9.999619,
                    53.689677
                ],
                "type": "Point"
            },
            "properties": {
                "capacity": 8,
                "is_installed": true,
                "is_renting": true,
                "is_returning": true,
                "is_virtual_station": false,
                "last_reported": 1789285710,
                "name": "Arriba Erlebnisbad",
                "num_bikes_available": 3,
                "num_docks_available": 5,
                "region_id": "177",
                "rental_uris": {
                    "android": "https://app.nextbike.net/station?id=92292",
                    "ios": "https://app.nextbike.net/station?id=92292",
                    "web": "https://nxtb.it/p/92292"
                },
                "short_name": "4727",
                "station_id": "92292",
                "vehicle_types_available": [
                    {
                        "count": 1,
                        "vehicle_type_id": "150"
                    },
                    {
                        "count": 2,
                        "vehicle_type_id": "196"
                    }
                ]
            },
            "type": "Feature"
        }
    ],
    "gbfs": {
        "station_information": {
            "last_updated": 1789285710,
            "ttl": 60,
            "version": "2.3"
        },
        "station_status": {
            "last_updated": 1789285710,
            "ttl": 60,
            "version": "2.3"
        }
    },
    "type": "FeatureCollection"
}