{
    "features": [
        {
            "geometry": {
                "coordinates": [
                    17.122376,
                    49.01035
                ],
                "type": "Point"
            },
            "properties": {
                "capacity": 5,
                "is_installed": true,
                "is_renting": true,
                "is_returning": true,
                "is_virtual_station": false,
                "last_reported": 1789273508,
                "name": "Masarykovo n\u00e1m\u011bst\u00ed, Radnice",
                "num_bikes_available": 0,
                "num_docks_available": 5,
                "region_id": "1311",
                "rental_uris": {
                    "android": "https://app.nextbike.net/station?id=610683821",
                    "ios": "https://app.nextbike.net/station?id=610683821",
                    "web": "https://nxtb.it/p/610683821"
                },
                "short_name": "495430",
                "station_id": "610683821",
                "vehicle_types_available": []
            },
            "type": "Feature"
        },
        {
            "geometry": {
                "coordinates": [
                    17.108681,
                    49.004579
                ],
                "type": "Point"
            },
            "properties": {
                "capacity": 5,
                "is_installed": true,
                "is_renting": true,
                "is_returning": true,
                "is_virtual_station": false,
                "last_reported": 1789273508,
                "name": "Kaufland",
                "num_bikes_available": 1,
                "num_docks_available": 4,
                "region_id": "1311",
                "rental_uris": {
                    "android": "https://app.nextbike.net/station?id=610683898",
                    "ios": "https://app.nextbike.net/station?id=610683898",
                    "web": "https://nxtb.it/p/610683898"
                },
                "short_name": "495431",
                "station_id": "610683898",
                "vehicle_types_available": [
                    {
                        "count": 1,
                        "vehicle_type_id": "426"
                    }
                ]
            },
            "type": "Feature"
        },
        {
            "geometry": {
                "coordinates": [
                    17.125999,
                    49.012065
                ],
                "type": "Point"
            },
            "properties": {
                "capacity": 5,
                "is_installed": true,
                "is_renting": true,
                "is_returning": true,
                "is_virtual_station": false,
                "last_reported": 1789273508,
                "name": "N\u00e1m\u011bst\u00ed Hrdin\u016f",
                "num_bikes_available": 0,
                "num_docks_available": 5,
                "region_id": "1311",
                "rental_uris": {
                    "android": "https://app.nextbike.net/station?id=610683964",
                    "ios": "https://app.nextbike.net/station?id=610683964",
                    "web": "https://nxtb.it/p/610683964"
                },
                "short_name": "495432",
                "station_id": "610683964",
                "vehicle_types_available": []
            },
            "type": "Feature"
        },
        {
            "geometry": {
                "coordinates": [
                    17.125009,
                    49.007223
                ],
                "type": "Point"
            },
            "properties": {
                "capacity": 5,
                "is_installed": true,
                "is_renting": true,
                "is_returning": true,
                "is_virtual_station": false,
                "last_reported": 1789273508,
                "name": "Nerudova (nov\u011b p\u0159esunuto)",
                "num_bikes_available": 4,
                "num_docks_available": 1,
                "region_id": "1311",
                "rental_uris": {
                    "android": "https://app.nextbike.net/station?id=610684065",
                    "ios": "https://app.nextbike.net/station?id=610684065",
                    "web": "https://nxtb.it/p/610684065"
                },
                "short_name": "495433",
                "station_id": "610684065",
                "vehicle_types_available": [
                    {
                        "count": 4,
                        "vehicle_type_id": "426"
                    }
                ]
            },
            "type": "Feature"
        },
        {
            "geometry": {
                "coordinates": [
                    17.123767,
                    49.0163
                ],
                "type": "Point"
            },
            "properties": {
                "capacity": 5,
                "is_installed": true,
                "is_renting": true,
                "is_returning": true,
                "is_virtual_station": false,
                "last_reported": 1789273508,
                "name": "Vlakov\u00e9 n\u00e1dra\u017e\u00ed",
                "num_bikes_available": 3,
                "num_docks_available": 2,
                "region_id": "1311",
                "rental_uris": {
                    "android": "https://app.nextbike.net/station?id=610684153",
                    "ios": "https://app.nextbike.net/station?id=610684153",
                    "web": "https://nxtb.it/p/610684153"
                },
                "short_name": "495434",
                "station_id": "610684153",
                "vehicle_types_available": [
                    {
                        "count": 3,
                        "vehicle_type_id": "426"
                    }
                ]
            },
            "type": "Feature"
        },
        {
            "geometry": {
                "coordinates": [
                    17.132884,
                    49.007781
                ],
                "type": "Point"
            },
            "properties": {
                "capacity": 5,
                "is_installed": true,
                "is_renting": true,
                "is_returning": true,
                "is_virtual_station": false,
                "last_reported": 1789273508,
                "name": "Brandlova (u Penny marketu)",
                "num_bikes_available": 3,
                "num_docks_available": 2,
                "region_id": "1311",
                "rental_uris": {
                    "android": "https://app.nextbike.net/station?id=610685709",
                    "ios": "https://app.nextbike.net/station?id=610685709",
                    "web": "https://nxtb.it/p/610685709"
                },
                "short_name": "495435",
                "station_id": "610685709",
                "vehicle_types_available": [
                    {
                        "count": 3,
                        "vehicle_type_id": "426"
                    }
                ]
            },
            "type": "Feature"
        },
        {
            "geometry": {
                "coordinates": [
                    17.135218,
                    49.012863
                ],
                "type": "Point"
            },
            "properties": {
                "capacity": 5,
                "is_installed": true,
                "is_renting": true,
                "is_returning": true,
                "is_virtual_station": false,
                "last_reported": 1789273508,
                "name": "S\u00eddli\u0161t\u011b U Vodojemu",
                "num_bikes_available": 0,
                "num_docks_available": 5,
                "region_id": "1311",
                "rental_uris": {
                    "android": "https://app.nextbike.net/station?id=610685771",
                    "ios": "https://app.nextbike.net/station?id=610685771",
                    "web": "https://nxtb.it/p/610685771"
                },
                "short_name": "495436",
                "station_id": "610685771",
                "vehicle_types_available": []
            },
            "type": "Feature"
        },
        {
            "geometry": {
                "coordinates": [
                    17.131419,
                    49.020742
                ],
                "type": "Point"
            },
            "properties": {
                "capacity": 5,
                "is_installed": true,
                "is_renting": true,
                "is_returning": true,
                "is_virtual_station": false,
                "last_reported": 1789273508,
                "name": "Lu\u010dn\u00ed, u P\u00e1lenice",
                "num_bikes_available": 2,
                "num_docks_available": 3,
                "region_id": "1311",
                "rental_uris": {
                    "android": "https://app.nextbike.net/station?id=610685878",
                    "ios": "https://app.nextbike.net/station?id=610685878",
                    "web": "https://nxtb.it/p/610685878"
                },
                "short_name": "495437",
                "station_id": "610685878",
                "vehicle_types_available": [
                    {
                        "count": 2,
                        "vehicle_type_id": "426"
                    }
                ]
            },
            "type": "Feature"
        },
        {
            "geometry": {
                "coordinates": [
                    17.130791,
                    49.016675
                ],
                "type": "Point"
            },
            "properties": {
                "capacity": 5,
                "is_installed": true,
                "is_renting": true,
                "is_returning": true,
                "is_virtual_station": false,
                "last_reported": 1789273508,
                "name": "S\u00eddli\u0161t\u011b Za Stadionem",
                "num_bikes_available": 1,
                "num_docks_available": 3,
                "region_id": "1311",
                "rental_uris": {
                    "android": "https://app.nextbike.net/station?id=610685956",
                    "ios": "https://app.nextbike.net/station?id=610685956",
                    "web": "https://nxtb.it/p/610685956"
                },
                "short_name": "495438",
                "station_id": "610685956",
                "vehicle_types_available": [
                    {
                        "count": 1,
                        "vehicle_type_id": "426"
                    }
                ]
            },
            "type": "Feature"
        },
        {
            "geometry": {
                "coordinates": [
                    17.124437,
                    49.027865
                ],
                "type": "Point"
            },
            "properties": {
                "capacity": 5,
                "is_installed": true,
                "is_renting": true,
                "is_returning": true,
                "is_virtual_station": false,
                "last_reported": 1789273508,
                "name": "Fotbalov\u00e9 h\u0159i\u0161t\u011b Bor\u0161ov",
                "num_bikes_available": 10,
                "num_docks_available": 0,
                "region_id": "1311",
                "rental_uris": {
                    "android": "https://app.nextbike.net/station?id=610686021",
                    "ios": "https://app.nextbike.net/station?id=610686021",
                    "web": "https://nxtb.it/p/610686021"
                },
                "short_name": "495439",
                "station_id": "610686021",
                "vehicle_types_available": [
                    {
                        "count": 10,
                        "vehicle_type_id": "426"
                    }
                ]
            },
            "type": "Feature"
        },
        {
            "geometry": {
                "coordinates": [
                    17.123149,
                    49.049694
                ],
                "type": "Point"
            },
            "properties": {
                "capacity": 5,
                "is_installed": true,
                "is_renting": true,
                "is_returning": true,
                "is_virtual_station": false,
                "last_reported": 1789273508,
                "name": "Bohuslavice",
                "num_bikes_available": 2,
                "num_docks_available": 3,
                "region_id": "1311",
                "rental_uris": {
                    "android": "https://app.nextbike.net/station?id=626676521",
                    "ios": "https://app.nextbike.net/station?id=626676521",
                    "web": "https://nxtb.it/p/626676521"
                },
                "short_name": "495440",
                "station_id": "626676521",
                "vehicle_types_available": [
                    {
                        "count": 2,
                        "vehicle_type_id": "426"
                    }
                ]
            },
            "type": "Feature"
        }
    ],
    "gbfs": {
        "station_information": {
            "last_updated": 1789273508,
            "ttl": 60,
            "version": "2.3"
        },
        "station_status": {
            "last_updated": 1789273508,
            "ttl": 60,
            "version": "2.3"
        }
    },
    "type": "FeatureCollection"
}