{
    "features": [
        {
            "geometry": {
                "coordinates": [
                    2.3898,
                    48.829
                ],
                "type": "Point"
            },
            "properties": {
                "is_installed": true,
                "is_renting": true,
                "is_returning": true,
                "last_reported": 1711342128,
                "name": "Paris",
                "num_bikes_available": 10334,
                "num_docks_available": 999999,
                "station_id": "paris"
            },
            "type": "Feature"
        }
    ],
    "type": "FeatureCollection"
}