{
    "features": [
        {
            "geometry": {
                "coordinates": [
                    -2.454264,
                    42.474202
                ],
                "type": "Point"
            },
            "properties": {
                "capacity": 10,
                "is_installed": true,
                "is_renting": true,
                "is_returning": true,
                "is_virtual_station": false,
                "last_reported": 1789321758,
                "name": "LAS NORIAS",
                "num_bikes_available": 5,
                "num_docks_available": 4,
                "region_id": "1052",
                "rental_uris": {
                    "android": "https://app.nextbike.net/station?id=413987501",
                    "ios": "https://app.nextbike.net/station?id=413987501",
                    "web": "https://nxtb.it/p/413987501"
                },
                "short_name": "37500",
                "station_id": "413987501",
                "vehicle_types_available": [
                    {
                        "count": 2,
                        "vehicle_type_id": "150"
                    },
                    {
                        "count": 3,
                        "vehicle_type_id": "196"
                    }
                ]
            },
            "type": "Feature"
        },
        {
            "geometry": {
                "coordinates": [
                    -2.462483,
                    42.47042
                ],
                "type": "Point"
            },
            "properties": {
                "capacity": 14,
                "is_installed": true,
                "is_renting": true,
                "is_returning": true,
                "is_virtual_station": false,
                "last_reported": 1789321758,
                "name": "EL CUBO",
                "num_bikes_available": 11,
                "num_docks_available": 3,
                "region_id": "1052",
                "rental_uris": {
                    "android": "https://app.nextbike.net/station?id=413989562",
                    "ios": "https://app.nextbike.net/station?id=413989562",
                    "web": "https://nxtb.it/p/413989562"
                },
                "short_name": "37501",
                "station_id": "413989562",
                "vehicle_types_available": [
                    {
                        "count": 5,
                        "vehicle_type_id": "150"
                    },
                    {
                        "count": 5,
                        "vehicle_type_id": "196"
                    },
                    {
                        "count": 1,
                        "vehicle_type_id": "204"
                    }
                ]
            },
            "type": "Feature"
        },
        {
            "geometry": {
                "coordinates": [
                    -2.450635,
                    42.466588
                ],
                "type": "Point"
            },
            "properties": {
                "capacity": 24,
                "is_installed": true,
                "is_renting": true,
                "is_returning": true,
                "is_virtual_station": false,
                "last_reported": 1789321758,
                "name": "MURRIETA",
                "num_bikes_available": 16,
                "num_docks_available": 8,
                "region_id": "1052",
                "rental_uris": {
                    "android": "https://app.nextbike.net/station?id=413990119",
                    "ios": "https://app.nextbike.net/station?id=413990119",
                    "web": "https://nxtb.it/p/413990119"
                },
                "short_name": "37502",
                "station_id": "413990119",
                "vehicle_types_available": [
                    {
                        "count": 4,
                        "vehicle_type_id": "150"
                    },
                    {
                        "count": 11,
                        "vehicle_type_id": "196"
                    },
                    {
                        "count": 1,
                        "vehicle_type_id": "204"
                    }
                ]
            },
            "type": "Feature"
        },
        {
            "geometry": {
                "coordinates": [
                    -2.445139,
                    42.462946
                ],
                "type": "Point"
            },
            "properties": {
                "capacity": 18,
                "is_installed": true,
                "is_renting": true,
                "is_returning": true,
                "is_virtual_station": false,
                "last_reported": 1789321758,
                "name": "GRAN V\u00cdA",
                "num_bikes_available": 2,
                "num_docks_available": 16,
                "region_id": "1052",
                "rental_uris": {
                    "android": "https://app.nextbike.net/station?id=413990609",
                    "ios": "https://app.nextbike.net/station?id=413990609",
                    "web": "https://nxtb.it/p/413990609"
                },
                "short_name": "37503",
                "station_id": "413990609",
                "vehicle_types_available": [
                    {
                        "count": 1,
                        "vehicle_type_id": "150"
                    },
                    {
                        "count": 1,
                        "vehicle_type_id": "196"
                    }
                ]
            },
            "type": "Feature"
        },
        {
            "geometry": {
                "coordinates": [
                    -2.440212,
                    42.466821
                ],
                "type": "Point"
            },
            "properties": {
                "capacity": 20,
                "is_installed": true,
                "is_renting": true,
                "is_returning": true,
                "is_virtual_station": false,
                "last_reported": 1789321758,
                "name": "AYUNTAMIENTO",
                "num_bikes_available": 9,
                "num_docks_available": 11,
                "region_id": "1052",
                "rental_uris": {
                    "android": "https://app.nextbike.net/station?id=413991056",
                    "ios": "https://app.nextbike.net/station?id=413991056",
                    "web": "https://nxtb.it/p/413991056"
                },
                "short_name": "37504",
                "station_id": "413991056",
                "vehicle_types_available": [
                    {
                        "count": 4,
                        "vehicle_type_id": "150"
                    },
                    {
                        "count": 5,
                        "vehicle_type_id": "196"
                    }
                ]
            },
            "type": "Feature"
        },
        {
            "geometry": {
                "coordinates": [
                    -2.437412,
                    42.463007
                ],
                "type": "Point"
            },
            "properties": {
                "capacity": 14,
                "is_installed": true,
                "is_renting": true,
                "is_returning": true,
                "is_virtual_station": false,
                "last_reported": 1789321758,
                "name": "LOBETE",
                "num_bikes_available": 7,
                "num_docks_available": 7,
                "region_id": "1052",
                "rental_uris": {
                    "android": "https://app.nextbike.net/station?id=413991595",
                    "ios": "https://app.nextbike.net/station?id=413991595",
                    "web": "https://nxtb.it/p/413991595"
                },
                "short_name": "37505",
                "station_id": "413991595",
                "vehicle_types_available": [
                    {
                        "count": 3,
                        "vehicle_type_id": "150"
                    },
                    {
                        "count": 3,
                        "vehicle_type_id": "196"
                    },
                    {
                        "count": 1,
                        "vehicle_type_id": "204"
                    }
                ]
            },
            "type": "Feature"
        },
        {
            "geometry": {
                "coordinates": [
                    -2.428246,
                    42.463406
                ],
                "type": "Point"
            },
            "properties": {
                "capacity": 17,
                "is_installed": true,
                "is_renting": true,
                "is_returning": true,
                "is_virtual_station": false,
                "last_reported": 1789321758,
                "name": "UNIVERSIDAD",
                "num_bikes_available": 9,
                "num_docks_available": 8,
                "region_id": "1052",
                "rental_uris": {
                    "android": "https://app.nextbike.net/station?id=413992389",
                    "ios": "https://app.nextbike.net/station?id=413992389",
                    "web": "https://nxtb.it/p/413992389"
                },
                "short_name": "37506",
                "station_id": "413992389",
                "vehicle_types_available": [
                    {
                        "count": 3,
                        "vehicle_type_id": "150"
                    },
                    {
                        "count": 6,
                        "vehicle_type_id": "196"
                    }
                ]
            },
            "type": "Feature"
        },
        {
            "geometry": {
                "coordinates": [
                    -2.427152,
                    42.467372
                ],
                "type": "Point"
            },
            "properties": {
                "capacity": 18,
                "is_installed": true,
                "is_renting": true,
                "is_returning": true,
                "is_virtual_station": false,
                "last_reported": 1789321758,
                "name": "LA RIBERA",
                "num_bikes_available": 14,
                "num_docks_available": 4,
                "region_id": "1052",
                "rental_uris": {
                    "android": "https://app.nextbike.net/station?id=413993102",
                    "ios": "https://app.nextbike.net/station?id=413993102",
                    "web": "https://nxtb.it/p/413993102"
                },
                "short_name": "37507",
                "station_id": "413993102",
                "vehicle_types_available": [
                    {
                        "count": 6,
                        "vehicle_type_id": "150"
                    },
                    {
                        "count": 4,
                        "vehicle_type_id": "196"
                    },
                    {
                        "count": 4,
                        "vehicle_type_id": "204"
                    }
                ]
            },
            "type": "Feature"
        },
        {
            "geometry": {
                "coordinates": [
                    -2.421219,
                    42.460985
                ],
                "type": "Point"
            },
            "properties": {
                "capacity": 16,
                "is_installed": true,
                "is_renting": true,
                "is_returning": true,
                "is_virtual_station": false,
                "last_reported": 1789321758,
                "name": "LOS LIRIOS",
                "num_bikes_available": 8,
                "num_docks_available": 8,
                "region_id": "1052",
                "rental_uris": {
                    "android": "https://app.nextbike.net/station?id=413993540",
                    "ios": "https://app.nextbike.net/station?id=413993540",
                    "web": "https://nxtb.it/p/413993540"
                },
                "short_name": "37508",
                "station_id": "413993540",
                "vehicle_types_available": [
                    {
                        "count": 2,
                        "vehicle_type_id": "150"
                    },
                    {
                        "count": 2,
                        "vehicle_type_id": "196"
                    },
                    {
                        "count": 4,
                        "vehicle_type_id": "204"
                    }
                ]
            },
            "type": "Feature"
        },
        {
            "geometry": {
                "coordinates": [
                    -2.426086,
                    42.453773
                ],
                "type": "Point"
            },
            "properties": {
                "capacity": 14,
                "is_installed": true,
                "is_renting": true,
                "is_returning": true,
                "is_virtual_station": false,
                "last_reported": 1789321758,
                "name": "LA ESTRELLA",
                "num_bikes_available": 9,
                "num_docks_available": 5,
                "region_id": "1052",
                "rental_uris": {
                    "android": "https://app.nextbike.net/station?id=413993997",
                    "ios": "https://app.nextbike.net/station?id=413993997",
                    "web": "https://nxtb.it/p/413993997"
                },
                "short_name": "37509",
                "station_id": "413993997",
                "vehicle_types_available": [
                    {
                        "count": 4,
                        "vehicle_type_id": "196"
                    },
                    {
                        "count": 2,
                        "vehicle_type_id": "150"
                    },
                    {
                        "count": 3,
                        "vehicle_type_id": "204"
                    }
                ]
            },
            "type": "Feature"
        },
        {
            "geometry": {
                "coordinates": [
                    -2.436585,
                    42.455951
                ],
                "type": "Point"
            },
            "properties": {
                "capacity": 16,
                "is_installed": true,
                "is_renting": true,
                "is_returning": true,
                "is_virtual_station": false,
                "last_reported": 1789321758,
                "name": "CASCAJOS",
                "num_bikes_available": 5,
                "num_docks_available": 11,
                "region_id": "1052",
                "rental_uris": {
                    "android": "https://app.nextbike.net/station?id=413994448",
                    "ios": "https://app.nextbike.net/station?id=413994448",
                    "web": "https://nxtb.it/p/413994448"
                },
                "short_name": "37510",
                "station_id": "413994448",
                "vehicle_types_available": [
                    {
                        "count": 2,
                        "vehicle_type_id": "150"
                    },
                    {
                        "count": 2,
                        "vehicle_type_id": "196"
                    },
                    {
                        "count": 1,
                        "vehicle_type_id": "204"
                    }
                ]
            },
            "type": "Feature"
        },
        {
            "geometry": {
                "coordinates": [
                    -2.451472,
                    42.456444
                ],
                "type": "Point"
            },
            "properties": {
                "capacity": 16,
                "is_installed": true,
                "is_renting": true,
                "is_returning": true,
                "is_virtual_station": false,
                "last_reported": 1789321758,
                "name": "LAS GAUNAS",
                "num_bikes_available": 5,
                "num_docks_available": 11,
                "region_id": "1052",
                "rental_uris": {
                    "android": "https://app.nextbike.net/station?id=413994929",
                    "ios": "https://app.nextbike.net/station?id=413994929",
                    "web": "https://nxtb.it/p/413994929"
                },
                "short_name": "37511",
                "station_id": "413994929",
                "vehicle_types_available": [
                    {
                        "count": 1,
                        "vehicle_type_id": "150"
                    },
                    {
                        "count": 3,
                        "vehicle_type_id": "196"
                    },
                    {
                        "count": 1,
                        "vehicle_type_id": "204"
                    }
                ]
            },
            "type": "Feature"
        },
        {
            "geometry": {
                "coordinates": [
                    -2.460953,
                    42.453125
                ],
                "type": "Point"
            },
            "properties": {
                "capacity": 14,
                "is_installed": true,
                "is_renting": true,
                "is_returning": true,
                "is_virtual_station": false,
                "last_reported": 1789321758,
                "name": "LA CAVA",
                "num_bikes_available": 11,
                "num_docks_available": 3,
                "region_id": "1052",
                "rental_uris": {
                    "android": "https://app.nextbike.net/station?id=413995382",
                    "ios": "https://app.nextbike.net/station?id=413995382",
                    "web": "https://nxtb.it/p/413995382"
                },
                "short_name": "37512",
                "station_id": "413995382",
                "vehicle_types_available": [
                    {
                        "count": 2,
                        "vehicle_type_id": "150"
                    },
                    {
                        "count": 7,
                        "vehicle_type_id": "196"
                    },
                    {
                        "count": 2,
                        "vehicle_type_id": "204"
                    }
                ]
            },
            "type": "Feature"
        },
        {
            "geometry": {
                "coordinates": [
                    -2.481917,
                    42.457194
                ],
                "type": "Point"
            },
            "properties": {
                "capacity": 11,
                "is_installed": true,
                "is_renting": true,
                "is_returning": true,
                "is_virtual_station": false,
                "last_reported": 1789321758,
                "name": "EL ARCO",
                "num_bikes_available": 9,
                "num_docks_available": 2,
                "region_id": "1052",
                "rental_uris": {
                    "android": "https://app.nextbike.net/station?id=413995896",
                    "ios": "https://app.nextbike.net/station?id=413995896",
                    "web": "https://nxtb.it/p/413995896"
                },
                "short_name": "37513",
                "station_id": "413995896",
                "vehicle_types_available": [
                    {
                        "count": 7,
                        "vehicle_type_id": "196"
                    },
                    {
                        "count": 1,
                        "vehicle_type_id": "150"
                    },
                    {
                        "count": 1,
                        "vehicle_type_id": "204"
                    }
                ]
            },
            "type": "Feature"
        },
        {
            "geometry": {
                "coordinates": [
                    -2.465592,
                    42.462351
                ],
                "type": "Point"
            },
            "properties": {
                "capacity": 11,
                "is_installed": true,
                "is_renting": true,
                "is_returning": true,
                "is_virtual_station": false,
                "last_reported": 1789321758,
                "name": "AVD. BURGOS",
                "num_bikes_available": 5,
                "num_docks_available": 6,
                "region_id": "1052",
                "rental_uris": {
                    "android": "https://app.nextbike.net/station?id=413996331",
                    "ios": "https://app.nextbike.net/station?id=413996331",
                    "web": "https://nxtb.it/p/413996331"
                },
                "short_name": "37514",
                "station_id": "413996331",
                "vehicle_types_available": [
                    {
                        "count": 2,
                        "vehicle_type_id": "150"
                    },
                    {
                        "count": 2,
                        "vehicle_type_id": "196"
                    },
                    {
                        "count": 1,
                        "vehicle_type_id": "204"
                    }
                ]
            },
            "type": "Feature"
        },
        {
            "geometry": {
                "coordinates": [
                    -2.461142,
                    42.460961
                ],
                "type": "Point"
            },
            "properties": {
                "capacity": 14,
                "is_installed": true,
                "is_renting": true,
                "is_returning": true,
                "is_virtual_station": false,
                "last_reported": 1789321758,
                "name": "LA LAGUNA",
                "num_bikes_available": 11,
                "num_docks_available": 3,
                "region_id": "1052",
                "rental_uris": {
                    "android": "https://app.nextbike.net/station?id=413998567",
                    "ios": "https://app.nextbike.net/station?id=413998567",
                    "web": "https://nxtb.it/p/413998567"
                },
                "short_name": "37516",
                "station_id": "413998567",
                "vehicle_types_available": [
                    {
                        "count": 6,
                        "vehicle_type_id": "150"
                    },
                    {
                        "count": 4,
                        "vehicle_type_id": "196"
                    },
                    {
                        "count": 1,
                        "vehicle_type_id": "204"
                    }
                ]
            },
            "type": "Feature"
        },
        {
            "geometry": {
                "coordinates": [
                    -2.452467,
                    42.46207
                ],
                "type": "Point"
            },
            "properties": {
                "capacity": 16,
                "is_installed": true,
                "is_renting": true,
                "is_returning": true,
                "is_virtual_station": false,
                "last_reported": 1789321758,
                "name": "PLAZA 1o DE MAYO",
                "num_bikes_available": 4,
                "num_docks_available": 12,
                "region_id": "1052",
                "rental_uris": {
                    "android": "https://app.nextbike.net/station?id=413999056",
                    "ios": "https://app.nextbike.net/station?id=413999056",
                    "web": "https://nxtb.it/p/413999056"
                },
                "short_name": "37517",
                "station_id": "413999056",
                "vehicle_types_available": [
                    {
                        "count": 2,
                        "vehicle_type_id": "150"
                    },
                    {
                        "count": 2,
                        "vehicle_type_id": "196"
                    }
                ]
            },
            "type": "Feature"
        },
        {
            "geometry": {
                "coordinates": [
                    -2.434605,
                    42.460345
                ],
                "type": "Point"
            },
            "properties": {
                "capacity": 13,
                "is_installed": true,
                "is_renting": true,
                "is_returning": true,
                "is_virtual_station": false,
                "last_reported": 1789321758,
                "name": "ELISEO PINEDO",
                "num_bikes_available": 4,
                "num_docks_available": 9,
                "region_id": "1052",
                "rental_uris": {
                    "android": "https://app.nextbike.net/station?id=413999412",
                    "ios": "https://app.nextbike.net/station?id=413999412",
                    "web": "https://nxtb.it/p/413999412"
                },
                "short_name": "37518",
                "station_id": "413999412",
                "vehicle_types_available": [
                    {
                        "count": 3,
                        "vehicle_type_id": "150"
                    },
                    {
                        "count": 1,
                        "vehicle_type_id": "196"
                    }
                ]
            },
            "type": "Feature"
        },
        {
            "geometry": {
                "coordinates": [
                    -2.459412,
                    42.466423
                ],
                "type": "Point"
            },
            "properties": {
                "capacity": 16,
                "is_installed": true,
                "is_renting": true,
                "is_returning": true,
                "is_virtual_station": false,
                "last_reported": 1789321758,
                "name": "LA COMETA",
                "num_bikes_available": 7,
                "num_docks_available": 9,
                "region_id": "1052",
                "rental_uris": {
                    "android": "https://app.nextbike.net/station?id=413999884",
                    "ios": "https://app.nextbike.net/station?id=413999884",
                    "web": "https://nxtb.it/p/413999884"
                },
                "short_name": "37519",
                "station_id": "413999884",
                "vehicle_types_available": [
                    {
                        "count": 2,
                        "vehicle_type_id": "150"
                    },
                    {
                        "count": 4,
                        "vehicle_type_id": "196"
                    },
                    {
                        "count": 1,
                        "vehicle_type_id": "204"
                    }
                ]
            },
            "type": "Feature"
        },
        {
            "geometry": {
                "coordinates": [
                    -2.461458,
                    42.457175
                ],
                "type": "Point"
            },
            "properties": {
                "capacity": 11,
                "is_installed": true,
                "is_renting": true,
                "is_returning": true,
                "is_virtual_station": false,
                "last_reported": 1789321758,
                "name": "7 INFANTES",
                "num_bikes_available": 12,
                "num_docks_available": 0,
                "region_id": "1052",
                "rental_uris": {
                    "android": "https://app.nextbike.net/station?id=414000354",
                    "ios": "https://app.nextbike.net/station?id=414000354",
                    "web": "https://nxtb.it/p/414000354"
                },
                "short_name": "37520",
                "station_id": "414000354",
                "vehicle_types_available": [
                    {
                        "count": 4,
                        "vehicle_type_id": "150"
                    },
                    {
                        "count": 8,
                        "vehicle_type_id": "204"
                    }
                ]
            },
            "type": "Feature"
        },
        {
            "geometry": {
                "coordinates": [
                    -2.441331,
                    42.45717
                ],
                "type": "Point"
            },
            "properties": {
                "capacity": 17,
                "is_installed": true,
                "is_renting": true,
                "is_returning": true,
                "is_virtual_station": false,
                "last_reported": 1789321758,
                "name": "ESTACI\u00d3N DE TREN",
                "num_bikes_available": 5,
                "num_docks_available": 11,
                "region_id": "1052",
                "rental_uris": {
                    "android": "https://app.nextbike.net/station?id=414000977",
                    "ios": "https://app.nextbike.net/station?id=414000977",
                    "web": "https://nxtb.it/p/414000977"
                },
                "short_name": "37521",
                "station_id": "414000977",
                "vehicle_types_available": [
                    {
                        "count": 2,
                        "vehicle_type_id": "196"
                    },
                    {
                        "count": 3,
                        "vehicle_type_id": "150"
                    }
                ]
            },
            "type": "Feature"
        },
        {
            "geometry": {
                "coordinates": [
                    -2.432233,
                    42.467431
                ],
                "type": "Point"
            },
            "properties": {
                "capacity": 15,
                "is_installed": true,
                "is_renting": true,
                "is_returning": true,
                "is_virtual_station": false,
                "last_reported": 1789321758,
                "name": "San Mill\u00e1n ",
                "num_bikes_available": 18,
                "num_docks_available": 0,
                "region_id": "1052",
                "rental_uris": {
                    "android": "https://app.nextbike.net/station?id=414001924",
                    "ios": "https://app.nextbike.net/station?id=414001924",
                    "web": "https://nxtb.it/p/414001924"
                },
                "short_name": "37522",
                "station_id": "414001924",
                "vehicle_types_available": [
                    {
                        "count": 4,
                        "vehicle_type_id": "150"
                    },
                    {
                        "count": 10,
                        "vehicle_type_id": "196"
                    },
                    {
                        "count": 4,
                        "vehicle_type_id": "204"
                    }
                ]
            },
            "type": "Feature"
        },
        {
            "geometry": {
                "coordinates": [
                    -2.447354,
                    42.474438
                ],
                "type": "Point"
            },
            "properties": {
                "capacity": 9,
                "is_installed": true,
                "is_renting": true,
                "is_returning": true,
                "is_virtual_station": false,
                "last_reported": 1789321758,
                "name": "EL CAMPILLO",
                "num_bikes_available": 7,
                "num_docks_available": 2,
                "region_id": "1052",
                "rental_uris": {
                    "android": "https://app.nextbike.net/station?id=414002864",
                    "ios": "https://app.nextbike.net/station?id=414002864",
                    "web": "https://nxtb.it/p/414002864"
                },
                "short_name": "37523",
                "station_id": "414002864",
                "vehicle_types_available": [
                    {
                        "count": 4,
                        "vehicle_type_id": "196"
                    },
                    {
                        "count": 2,
                        "vehicle_type_id": "150"
                    },
                    {
                        "count": 1,
                        "vehicle_type_id": "204"
                    }
                ]
            },
            "type": "Feature"
        },
        {
            "geometry": {
                "coordinates": [
                    -2.408016,
                    42.461497
                ],
                "type": "Point"
            },
            "properties": {
                "capacity": 8,
                "is_installed": true,
                "is_renting": true,
                "is_returning": true,
                "is_virtual_station": false,
                "last_reported": 1789321758,
                "name": "PLAZA DE LA JUVENTUD",
                "num_bikes_available": 2,
                "num_docks_available": 6,
                "region_id": "1052",
                "rental_uris": {
                    "android": "https://app.nextbike.net/station?id=414003366",
                    "ios": "https://app.nextbike.net/station?id=414003366",
                    "web": "https://nxtb.it/p/414003366"
                },
                "short_name": "37524",
                "station_id": "414003366",
                "vehicle_types_available": [
                    {
                        "count": 2,
                        "vehicle_type_id": "150"
                    }
                ]
            },
            "type": "Feature"
        },
        {
            "geometry": {
                "coordinates": [
                    -2.47557,
                    42.461485
                ],
                "type": "Point"
            },
            "properties": {
                "capacity": 9,
                "is_installed": true,
                "is_renting": true,
                "is_returning": true,
                "is_virtual_station": false,
                "last_reported": 1789321758,
                "name": "PLAZA DE LOS FUEROS",
                "num_bikes_available": 4,
                "num_docks_available": 5,
                "region_id": "1052",
                "rental_uris": {
                    "android": "https://app.nextbike.net/station?id=414003839",
                    "ios": "https://app.nextbike.net/station?id=414003839",
                    "web": "https://nxtb.it/p/414003839"
                },
                "short_name": "37525",
                "station_id": "414003839",
                "vehicle_types_available": [
                    {
                        "count": 3,
                        "vehicle_type_id": "196"
                    },
                    {
                        "count": 1,
                        "vehicle_type_id": "204"
                    }
                ]
            },
            "type": "Feature"
        },
        {
            "geometry": {
                "coordinates": [
                    -2.475423,
                    42.468507
                ],
                "type": "Point"
            },
            "properties": {
                "capacity": 11,
                "is_installed": true,
                "is_renting": true,
                "is_returning": true,
                "is_virtual_station": false,
                "last_reported": 1789321758,
                "name": "VALDEGASTEA",
                "num_bikes_available": 10,
                "num_docks_available": 1,
                "region_id": "1052",
                "rental_uris": {
                    "android": "https://app.nextbike.net/station?id=42602929",
                    "ios": "https://app.nextbike.net/station?id=42602929",
                    "web": "https://nxtb.it/p/42602929"
                },
                "short_name": "37515",
                "station_id": "42602929",
                "vehicle_types_available": [
                    {
                        "count": 5,
                        "vehicle_type_id": "150"
                    },
                    {
                        "count": 1,
                        "vehicle_type_id": "196"
                    },
                    {
                        "count": 4,
                        "vehicle_type_id": "204"
                    }
                ]
            },
            "type": "Feature"
        },
        {
            "geometry": {
                "coordinates": [
                    -2.44635,
                    42.464945
                ],
                "type": "Point"
            },
            "properties": {
                "capacity": 16,
                "is_installed": true,
                "is_renting": true,
                "is_returning": true,
                "is_virtual_station": true,
                "last_reported": 1789321758,
                "name": "EL ESPOLON VIRTUAL",
                "num_bikes_available": 7,
                "num_docks_available": 9,
                "region_id": "1052",
                "rental_uris": {
                    "android": "https://app.nextbike.net/station?id=511748191",
                    "ios": "https://app.nextbike.net/station?id=511748191",
                    "web": "https://nxtb.it/p/511748191"
                },
                "short_name": "37529",
                "station_area": {
                    "coordinates": [
                        [
                            [
                                [
                                    -2.44635,
                                    42.46517
                                ],
                                [
                                    -2.446086,
                                    42.465057
                                ],
                                [
                                    -2.446086,
                                    42.464833
                                ],
                                [
                                    -2.44635,
                                    42.46472
                                ],
                                [
                                    -2.446614,
                                    42.464833
                                ],
                                [
                                    -2.446614,
                                    42.465057
                                ],
                                [
                                    -2.44635,
                                    42.46517
                                ]
                            ]
                        ]
                    ],
                    "type": "MultiPolygon"
                },
                "station_id": "511748191",
                "vehicle_types_available": [
                    {
                        "count": 2,
                        "vehicle_type_id": "150"
                    },
                    {
                        "count": 4,
                        "vehicle_type_id": "196"
                    },
                    {
                        "count": 1,
                        "vehicle_type_id": "204"
                    }
                ]
            },
            "type": "Feature"
        },
        {
            "geometry": {
                "coordinates": [
                    -2.454334,
                    42.451973
                ],
                "type": "Point"
            },
            "properties": {
                "capacity": 10,
                "is_installed": true,
                "is_renting": true,
                "is_returning": true,
                "is_virtual_station": true,
                "last_reported": 1789321758,
                "name": "LA GUINDALERA VIRTUAL",
                "num_bikes_available": 7,
                "num_docks_available": 3,
                "region_id": "1052",
                "rental_uris": {
                    "android": "https://app.nextbike.net/station?id=521058311",
                    "ios": "https://app.nextbike.net/station?id=521058311",
                    "web": "https://nxtb.it/p/521058311"
                },
                "short_name": "37530",
                "station_area": {
                    "coordinates": [
                        [
                            [
                                [
                                    -2.454334,
                                    42.452198
                                ],
                                [
                                    -2.45407,
                                    42.452085
                                ],
                                [
                                    -2.45407,
                                    42.451861
                                ],
                                [
                                    -2.454334,
                                    42.451748
                                ],
                                [
                                    -2.454598,
                                    42.451861
                                ],
                                [
                                    -2.454598,
                                    42.452085
                                ],
                                [
                                    -2.454334,
                                    42.452198
                                ]
                            ]
                        ]
                    ],
                    "type": "MultiPolygon"
                },
                "station_id": "521058311",
                "vehicle_types_available": [
                    {
                        "count": 4,
                        "vehicle_type_id": "150"
                    },
                    {
                        "count": 2,
                        "vehicle_type_id": "196"
                    },
                    {
                        "count": 1,
                        "vehicle_type_id": "204"
                    }
                ]
            },
            "type": "Feature"
        },
        {
            "geometry": {
                "coordinates": [
                    -2.453164,
                    42.465002
                ],
                "type": "Point"
            },
            "properties": {
                "capacity": 14,
                "is_installed": true,
                "is_renting": true,
                "is_returning": true,
                "is_virtual_station": true,
                "last_reported": 1789321758,
                "name": "GRAN V\u00cdA \u2013 LAS PALMERAS VIRTUAL",
                "num_bikes_available": 6,
                "num_docks_available": 8,
                "region_id": "1052",
                "rental_uris": {
                    "android": "https://app.nextbike.net/station?id=521058849",
                    "ios": "https://app.nextbike.net/station?id=521058849",
                    "web": "https://nxtb.it/p/521058849"
                },
                "short_name": "37531",
                "station_area": {
                    "coordinates": [
                        [
                            [
                                [
                                    -2.453164,
                                    42.465227
                                ],
                                [
                                    -2.4529,
                                    42.465114
                                ],
                                [
                                    -2.4529,
                                    42.46489
                                ],
                                [
                                    -2.453164,
                                    42.464777
                                ],
                                [
                                    -2.453428,
                                    42.46489
                                ],
                                [
                                    -2.453428,
                                    42.465114
                                ],
                                [
                                    -2.453164,
                                    42.465227
                                ]
                            ]
                        ]
                    ],
                    "type": "MultiPolygon"
                },
                "station_id": "521058849",
                "vehicle_types_available": [
                    {
                        "count": 4,
                        "vehicle_type_id": "150"
                    },
                    {
                        "count": 2,
                        "vehicle_type_id": "196"
                    }
                ]
            },
            "type": "Feature"
        },
        {
            "geometry": {
                "coordinates": [
                    -2.449629,
                    42.464112
                ],
                "type": "Point"
            },
            "properties": {
                "capacity": 8,
                "is_installed": true,
                "is_renting": true,
                "is_returning": true,
                "is_virtual_station": true,
                "last_reported": 1789321758,
                "name": "GRAN V\u00cdA \u2013 PASAJE VIRTUAL",
                "num_bikes_available": 4,
                "num_docks_available": 4,
                "region_id": "1052",
                "rental_uris": {
                    "android": "https://app.nextbike.net/station?id=521058938",
                    "ios": "https://app.nextbike.net/station?id=521058938",
                    "web": "https://nxtb.it/p/521058938"
                },
                "short_name": "37532",
                "station_area": {
                    "coordinates": [
                        [
                            [
                                [
                                    -2.449629,
                                    42.464337
                                ],
                                [
                                    -2.449365,
                                    42.464224
                                ],
                                [
                                    -2.449365,
                                    42.464
                                ],
                                [
                                    -2.449629,
                                    42.463887
                                ],
                                [
                                    -2.449893,
                                    42.464
                                ],
                                [
                                    -2.449893,
                                    42.464224
                                ],
                                [
                                    -2.449629,
                                    42.464337
                                ]
                            ]
                        ]
                    ],
                    "type": "MultiPolygon"
                },
                "station_id": "521058938",
                "vehicle_types_available": [
                    {
                        "count": 3,
                        "vehicle_type_id": "150"
                    },
                    {
                        "count": 1,
                        "vehicle_type_id": "196"
                    }
                ]
            },
            "type": "Feature"
        },
        {
            "geometry": {
                "coordinates": [
                    -2.430012,
                    42.456683
                ],
                "type": "Point"
            },
            "properties": {
                "capacity": 9,
                "is_installed": true,
                "is_renting": true,
                "is_returning": true,
                "is_virtual_station": true,
                "last_reported": 1789321758,
                "name": "PIQUERAS",
                "num_bikes_available": 12,
                "num_docks_available": 0,
                "region_id": "1052",
                "rental_uris": {
                    "android": "https://app.nextbike.net/station?id=593348552",
                    "ios": "https://app.nextbike.net/station?id=593348552",
                    "web": "https://nxtb.it/p/593348552"
                },
                "short_name": "37533",
                "station_area": {
                    "coordinates": [
                        [
                            [
                                [
                                    -2.430012,
                                    42.456908
                                ],
                                [
                                    -2.429748,
                                    42.456795
                                ],
                                [
                                    -2.429748,
                                    42.456571
                                ],
                                [
                                    -2.430012,
                                    42.456458
                                ],
                                [
                                    -2.430276,
                                    42.456571
                                ],
                                [
                                    -2.430276,
                                    42.456795
                                ],
                                [
                                    -2.430012,
                                    42.456908
                                ]
                            ]
                        ]
                    ],
                    "type": "MultiPolygon"
                },
                "station_id": "593348552",
                "vehicle_types_available": [
                    {
                        "count": 2,
                        "vehicle_type_id": "150"
                    },
                    {
                        "count": 10,
                        "vehicle_type_id": "196"
                    }
                ]
            },
            "type": "Feature"
        },
        {
            "geometry": {
                "coordinates": [
                    -2.447478,
                    42.457807
                ],
                "type": "Point"
            },
            "properties": {
                "capacity": 9,
                "is_installed": true,
                "is_renting": true,
                "is_returning": true,
                "is_virtual_station": true,
                "last_reported": 1789321758,
                "name": "VARA DE REY VIRTUAL",
                "num_bikes_available": 4,
                "num_docks_available": 5,
                "region_id": "1052",
                "rental_uris": {
                    "android": "https://app.nextbike.net/station?id=593348658",
                    "ios": "https://app.nextbike.net/station?id=593348658",
                    "web": "https://nxtb.it/p/593348658"
                },
                "short_name": "37534",
                "station_area": {
                    "coordinates": [
                        [
                            [
                                [
                                    -2.447478,
                                    42.458032
                                ],
                                [
                                    -2.447214,
                                    42.457919
                                ],
                                [
                                    -2.447214,
                                    42.457695
                                ],
                                [
                                    -2.447478,
                                    42.457582
                                ],
                                [
                                    -2.447742,
                                    42.457695
                                ],
                                [
                                    -2.447742,
                                    42.457919
                                ],
                                [
                                    -2.447478,
                                    42.458032
                                ]
                            ]
                        ]
                    ],
                    "type": "MultiPolygon"
                },
                "station_id": "593348658",
                "vehicle_types_available": [
                    {
                        "count": 2,
                        "vehicle_type_id": "150"
                    },
                    {
                        "count": 2,
                        "vehicle_type_id": "204"
                    }
                ]
            },
            "type": "Feature"
        },
        {
            "geometry": {
                "coordinates": [
                    -2.466452,
                    42.450528
                ],
                "type": "Point"
            },
            "properties": {
                "capacity": 10,
                "is_installed": true,
                "is_renting": true,
                "is_returning": true,
                "is_virtual_station": true,
                "last_reported": 1789321758,
                "name": "PRADOVIEJO VIRTUAL",
                "num_bikes_available": 7,
                "num_docks_available": 3,
                "region_id": "1052",
                "rental_uris": {
                    "android": "https://app.nextbike.net/station?id=593348750",
                    "ios": "https://app.nextbike.net/station?id=593348750",
                    "web": "https://nxtb.it/p/593348750"
                },
                "short_name": "37535",
                "station_area": {
                    "coordinates": [
                        [
                            [
                                [
                                    -2.466452,
                                    42.450753
                                ],
                                [
                                    -2.466188,
                                    42.45064
                                ],
                                [
                                    -2.466188,
                                    42.450416
                                ],
                                [
                                    -2.466452,
                                    42.450303
                                ],
                                [
                                    -2.466716,
                                    42.450416
                                ],
                                [
                                    -2.466716,
                                    42.45064
                                ],
                                [
                                    -2.466452,
                                    42.450753
                                ]
                            ]
                        ]
                    ],
                    "type": "MultiPolygon"
                },
                "station_id": "593348750",
                "vehicle_types_available": [
                    {
                        "count": 1,
                        "vehicle_type_id": "150"
                    },
                    {
                        "count": 6,
                        "vehicle_type_id": "196"
                    }
                ]
            },
            "type": "Feature"
        },
        {
            "geometry": {
                "coordinates": [
                    -2.424301,
                    42.466968
                ],
                "type": "Point"
            },
            "properties": {
                "capacity": 10,
                "is_installed": true,
                "is_renting": true,
                "is_returning": true,
                "is_virtual_station": true,
                "last_reported": 1789321758,
                "name": "UNIVERSIDAD- CIENT\u00cdFICO TECNOL\u00d3GICO ",
                "num_bikes_available": 3,
                "num_docks_available": 7,
                "region_id": "1052",
                "rental_uris": {
                    "android": "https://app.nextbike.net/station?id=603180777",
                    "ios": "https://app.nextbike.net/station?id=603180777",
                    "web": "https://nxtb.it/p/603180777"
                },
                "short_name": "37536",
                "station_area": {
                    "coordinates": [
                        [
                            [
                                [
                                    -2.424301,
                                    42.467193
                                ],
                                [
                                    -2.424037,
                                    42.46708
                                ],
                                [
                                    -2.424037,
                                    42.466856
                                ],
                                [
                                    -2.424301,
                                    42.466743
                                ],
                                [
                                    -2.424565,
                                    42.466856
                                ],
                                [
                                    -2.424565,
                                    42.46708
                                ],
                                [
                                    -2.424301,
                                    42.467193
                                ]
                            ]
                        ]
                    ],
                    "type": "MultiPolygon"
                },
                "station_id": "603180777",
                "vehicle_types_available": [
                    {
                        "count": 3,
                        "vehicle_type_id": "196"
                    }
                ]
            },
            "type": "Feature"
        },
        {
            "geometry": {
                "coordinates": [
                    -2.42593,
                    42.464463
                ],
                "type": "Point"
            },
            "properties": {
                "capacity": 12,
                "is_installed": true,
                "is_renting": true,
                "is_returning": true,
                "is_virtual_station": true,
                "last_reported": 1789321758,
                "name": "UNIVERSIDAD- BIBLIOTECA ",
                "num_bikes_available": 8,
                "num_docks_available": 4,
                "region_id": "1052",
                "rental_uris": {
                    "android": "https://app.nextbike.net/station?id=603180941",
                    "ios": "https://app.nextbike.net/station?id=603180941",
                    "web": "https://nxtb.it/p/603180941"
                },
                "short_name": "37537",
                "station_area": {
                    "coordinates": [
                        [
                            [
                                [
                                    -2.42593,
                                    42.464688
                                ],
                                [
                                    -2.425666,
                                    42.464575
                                ],
                                [
                                    -2.425666,
                                    42.464351
                                ],
                                [
                                    -2.42593,
                                    42.464238
                                ],
                                [
                                    -2.426194,
                                    42.464351
                                ],
                                [
                                    -2.426194,
                                    42.464575
                                ],
                                [
                                    -2.42593,
                                    42.464688
                                ]
                            ]
                        ]
                    ],
                    "type": "MultiPolygon"
                },
                "station_id": "603180941",
                "vehicle_types_available": [
                    {
                        "count": 7,
                        "vehicle_type_id": "196"
                    },
                    {
                        "count": 1,
                        "vehicle_type_id": "150"
                    }
                ]
            },
            "type": "Feature"
        }
    ],
    "gbfs": {
        "station_information": {
            "last_updated": 1789321758,
            "ttl": 60,
            "version": "2.3"
        },
        "station_status": {
            "last_updated": 1789321758,
            "ttl": 60,
            "version": "2.3"
        }
    },
    "type": "FeatureCollection"
}