{
    "features": [
        {
            "geometry": {
                "coordinates": [
                    15.570749,
                    54.181918
                ],
                "type": "Point"
            },
            "properties": {
                "is_installed": true,
                "is_renting": true,
                "is_returning": true,
                "is_virtual_station": false,
                "last_reported": 1789279242,
                "name": "Dworzec PKP",
                "num_bikes_available": 15,
                "num_docks_available": 0,
                "region_id": "422",
                "rental_uris": {
                    "android": "https://app.nextbike.net/station?id=3562243",
                    "ios": "https://app.nextbike.net/station?id=3562243",
                    "web": "https://nxtb.it/p/3562243"
                },
                "short_name": "6305",
                "station_id": "3562243",
                "vehicle_types_available": [
                    {
                        "count": 9,
                        "vehicle_type_id": "71"
                    },
                    {
                        "count": 6,
                        "vehicle_type_id": "348"
                    }
                ]
            },
            "type": "Feature"
        },
        {
            "geometry": {
                "coordinates": [
                    15.583066,
                    54.175918
                ],
                "type": "Point"
            },
            "properties": {
                "is_installed": true,
                "is_renting": true,
                "is_returning": true,
                "is_virtual_station": false,
                "last_reported": 1789279242,
                "name": "Ul. S\u0142owi\u0144c\u00f3w",
                "num_bikes_available": 4,
                "num_docks_available": 0,
                "region_id": "422",
                "rental_uris": {
                    "android": "https://app.nextbike.net/station?id=3575154",
                    "ios": "https://app.nextbike.net/station?id=3575154",
                    "web": "https://nxtb.it/p/3575154"
                },
                "short_name": "6304",
                "station_id": "3575154",
                "vehicle_types_available": [
                    {
                        "count": 3,
                        "vehicle_type_id": "71"
                    },
                    {
                        "count": 1,
                        "vehicle_type_id": "348"
                    }
                ]
            },
            "type": "Feature"
        },
        {
            "geometry": {
                "coordinates": [
                    15.57261,
                    54.17793
                ],
                "type": "Point"
            },
            "properties": {
                "is_installed": true,
                "is_renting": true,
                "is_returning": true,
                "is_virtual_station": false,
                "last_reported": 1789279242,
                "name": "Ratusz",
                "num_bikes_available": 4,
                "num_docks_available": 0,
                "region_id": "422",
                "rental_uris": {
                    "android": "https://app.nextbike.net/station?id=3576237",
                    "ios": "https://app.nextbike.net/station?id=3576237",
                    "web": "https://nxtb.it/p/3576237"
                },
                "short_name": "6303",
                "station_id": "3576237",
                "vehicle_types_available": [
                    {
                        "count": 4,
                        "vehicle_type_id": "348"
                    }
                ]
            },
            "type": "Feature"
        },
        {
            "geometry": {
                "coordinates": [
                    15.590422,
                    54.17906
                ],
                "type": "Point"
            },
            "properties": {
                "is_installed": true,
                "is_renting": true,
                "is_returning": true,
                "is_virtual_station": false,
                "last_reported": 1789279242,
                "name": "Ogrody - ul. Fredry",
                "num_bikes_available": 14,
                "num_docks_available": 0,
                "region_id": "422",
                "rental_uris": {
                    "android": "https://app.nextbike.net/station?id=3580557",
                    "ios": "https://app.nextbike.net/station?id=3580557",
                    "web": "https://nxtb.it/p/3580557"
                },
                "short_name": "6311",
                "station_id": "3580557",
                "vehicle_types_available": [
                    {
                        "count": 11,
                        "vehicle_type_id": "71"
                    },
                    {
                        "count": 3,
                        "vehicle_type_id": "348"
                    }
                ]
            },
            "type": "Feature"
        },
        {
            "geometry": {
                "coordinates": [
                    15.592078,
                    54.187195
                ],
                "type": "Point"
            },
            "properties": {
                "is_installed": true,
                "is_renting": true,
                "is_returning": true,
                "is_virtual_station": false,
                "last_reported": 1789279242,
                "name": "Kamienny Szaniec",
                "num_bikes_available": 10,
                "num_docks_available": 0,
                "region_id": "422",
                "rental_uris": {
                    "android": "https://app.nextbike.net/station?id=3580938",
                    "ios": "https://app.nextbike.net/station?id=3580938",
                    "web": "https://nxtb.it/p/3580938"
                },
                "short_name": "6307",
                "station_id": "3580938",
                "vehicle_types_available": [
                    {
                        "count": 10,
                        "vehicle_type_id": "71"
                    }
                ]
            },
            "type": "Feature"
        },
        {
            "geometry": {
                "coordinates": [
                    15.567225,
                    54.171124
                ],
                "type": "Point"
            },
            "properties": {
                "is_installed": true,
                "is_renting": true,
                "is_returning": true,
                "is_virtual_station": false,
                "last_reported": 1789279242,
                "name": "ul. 1 Maja",
                "num_bikes_available": 4,
                "num_docks_available": 0,
                "region_id": "422",
                "rental_uris": {
                    "android": "https://app.nextbike.net/station?id=3581049",
                    "ios": "https://app.nextbike.net/station?id=3581049",
                    "web": "https://nxtb.it/p/3581049"
                },
                "short_name": "6302",
                "station_id": "3581049",
                "vehicle_types_available": [
                    {
                        "count": 3,
                        "vehicle_type_id": "71"
                    },
                    {
                        "count": 1,
                        "vehicle_type_id": "348"
                    }
                ]
            },
            "type": "Feature"
        },
        {
            "geometry": {
                "coordinates": [
                    15.553748,
                    54.185878
                ],
                "type": "Point"
            },
            "properties": {
                "is_installed": true,
                "is_renting": true,
                "is_returning": true,
                "is_virtual_station": false,
                "last_reported": 1789279242,
                "name": "Latarnia Morska",
                "num_bikes_available": 0,
                "num_docks_available": 0,
                "region_id": "422",
                "rental_uris": {
                    "android": "https://app.nextbike.net/station?id=3581060",
                    "ios": "https://app.nextbike.net/station?id=3581060",
                    "web": "https://nxtb.it/p/3581060"
                },
                "short_name": "6306",
                "station_id": "3581060",
                "vehicle_types_available": []
            },
            "type": "Feature"
        },
        {
            "geometry": {
                "coordinates": [
                    15.542635,
                    54.177299
                ],
                "type": "Point"
            },
            "properties": {
                "is_installed": true,
                "is_renting": true,
                "is_returning": true,
                "is_virtual_station": false,
                "last_reported": 1789279242,
                "name": "ul. Arciszewskiego",
                "num_bikes_available": 8,
                "num_docks_available": 0,
                "region_id": "422",
                "rental_uris": {
                    "android": "https://app.nextbike.net/station?id=3581070",
                    "ios": "https://app.nextbike.net/station?id=3581070",
                    "web": "https://nxtb.it/p/3581070"
                },
                "short_name": "6308",
                "station_id": "3581070",
                "vehicle_types_available": [
                    {
                        "count": 2,
                        "vehicle_type_id": "71"
                    },
                    {
                        "count": 6,
                        "vehicle_type_id": "348"
                    }
                ]
            },
            "type": "Feature"
        },
        {
            "geometry": {
                "coordinates": [
                    15.548692,
                    54.162546
                ],
                "type": "Point"
            },
            "properties": {
                "is_installed": true,
                "is_renting": true,
                "is_returning": true,
                "is_virtual_station": false,
                "last_reported": 1789279242,
                "name": "ul. Toru\u0144ska",
                "num_bikes_available": 11,
                "num_docks_available": 0,
                "region_id": "422",
                "rental_uris": {
                    "android": "https://app.nextbike.net/station?id=3581078",
                    "ios": "https://app.nextbike.net/station?id=3581078",
                    "web": "https://nxtb.it/p/3581078"
                },
                "short_name": "6309",
                "station_id": "3581078",
                "vehicle_types_available": [
                    {
                        "count": 7,
                        "vehicle_type_id": "71"
                    },
                    {
                        "count": 4,
                        "vehicle_type_id": "348"
                    }
                ]
            },
            "type": "Feature"
        },
        {
            "geometry": {
                "coordinates": [
                    15.553797,
                    54.156749
                ],
                "type": "Point"
            },
            "properties": {
                "is_installed": true,
                "is_renting": true,
                "is_returning": true,
                "is_virtual_station": false,
                "last_reported": 1789279242,
                "name": "ul. \u015awi\u0119tego Wojciecha",
                "num_bikes_available": 6,
                "num_docks_available": 0,
                "region_id": "422",
                "rental_uris": {
                    "android": "https://app.nextbike.net/station?id=3581080",
                    "ios": "https://app.nextbike.net/station?id=3581080",
                    "web": "https://nxtb.it/p/3581080"
                },
                "short_name": "6310",
                "station_id": "3581080",
                "vehicle_types_available": [
                    {
                        "count": 2,
                        "vehicle_type_id": "71"
                    },
                    {
                        "count": 4,
                        "vehicle_type_id": "348"
                    }
                ]
            },
            "type": "Feature"
        },
        {
            "geometry": {
                "coordinates": [
                    15.662689,
                    54.192712
                ],
                "type": "Point"
            },
            "properties": {
                "is_installed": true,
                "is_renting": true,
                "is_returning": true,
                "is_virtual_station": false,
                "last_reported": 1789279242,
                "name": "Podczele - ul. Brzeska",
                "num_bikes_available": 6,
                "num_docks_available": 0,
                "region_id": "422",
                "rental_uris": {
                    "android": "https://app.nextbike.net/station?id=3581086",
                    "ios": "https://app.nextbike.net/station?id=3581086",
                    "web": "https://nxtb.it/p/3581086"
                },
                "short_name": "6312",
                "station_id": "3581086",
                "vehicle_types_available": [
                    {
                        "count": 3,
                        "vehicle_type_id": "71"
                    },
                    {
                        "count": 3,
                        "vehicle_type_id": "348"
                    }
                ]
            },
            "type": "Feature"
        },
        {
            "geometry": {
                "coordinates": [
                    15.56142,
                    54.18509
                ],
                "type": "Point"
            },
            "properties": {
                "is_installed": true,
                "is_renting": true,
                "is_returning": true,
                "is_virtual_station": false,
                "last_reported": 1789279242,
                "name": "Galeria Molo",
                "num_bikes_available": 10,
                "num_docks_available": 0,
                "region_id": "422",
                "rental_uris": {
                    "android": "https://app.nextbike.net/station?id=525759888",
                    "ios": "https://app.nextbike.net/station?id=525759888",
                    "web": "https://nxtb.it/p/525759888"
                },
                "short_name": "6301",
                "station_id": "525759888",
                "vehicle_types_available": [
                    {
                        "count": 10,
                        "vehicle_type_id": "71"
                    }
                ]
            },
            "type": "Feature"
        },
        {
            "geometry": {
                "coordinates": [
                    15.58144,
                    54.18535
                ],
                "type": "Point"
            },
            "properties": {
                "is_installed": true,
                "is_renting": true,
                "is_returning": true,
                "is_virtual_station": false,
                "last_reported": 1789279242,
                "name": "ul. Sikorskiego - parking rowerowy",
                "num_bikes_available": 1,
                "num_docks_available": 0,
                "region_id": "422",
                "rental_uris": {
                    "android": "https://app.nextbike.net/station?id=525761464",
                    "ios": "https://app.nextbike.net/station?id=525761464",
                    "web": "https://nxtb.it/p/525761464"
                },
                "short_name": "6314",
                "station_id": "525761464",
                "vehicle_types_available": [
                    {
                        "count": 1,
                        "vehicle_type_id": "348"
                    }
                ]
            },
            "type": "Feature"
        },
        {
            "geometry": {
                "coordinates": [
                    15.6085,
                    54.1907
                ],
                "type": "Point"
            },
            "properties": {
                "is_installed": true,
                "is_renting": true,
                "is_returning": true,
                "is_virtual_station": false,
                "last_reported": 1789279242,
                "name": "ul. Su\u0142kowskiego - przy Arce",
                "num_bikes_available": 5,
                "num_docks_available": 0,
                "region_id": "422",
                "rental_uris": {
                    "android": "https://app.nextbike.net/station?id=525762930",
                    "ios": "https://app.nextbike.net/station?id=525762930",
                    "web": "https://nxtb.it/p/525762930"
                },
                "short_name": "6315",
                "station_id": "525762930",
                "vehicle_types_available": [
                    {
                        "count": 4,
                        "vehicle_type_id": "71"
                    },
                    {
                        "count": 1,
                        "vehicle_type_id": "348"
                    }
                ]
            },
            "type": "Feature"
        },
        {
            "geometry": {
                "coordinates": [
                    15.56723,
                    54.17505
                ],
                "type": "Point"
            },
            "properties": {
                "is_installed": true,
                "is_renting": true,
                "is_returning": true,
                "is_virtual_station": false,
                "last_reported": 1789279242,
                "name": "MOSIR- ul. \u0141opuskiego",
                "num_bikes_available": 0,
                "num_docks_available": 0,
                "region_id": "422",
                "rental_uris": {
                    "android": "https://app.nextbike.net/station?id=525763474",
                    "ios": "https://app.nextbike.net/station?id=525763474",
                    "web": "https://nxtb.it/p/525763474"
                },
                "short_name": "6316",
                "station_id": "525763474",
                "vehicle_types_available": []
            },
            "type": "Feature"
        },
        {
            "geometry": {
                "coordinates": [
                    15.58803,
                    54.18362
                ],
                "type": "Point"
            },
            "properties": {
                "is_installed": true,
                "is_renting": true,
                "is_returning": true,
                "is_virtual_station": false,
                "last_reported": 1789279242,
                "name": "ul. J. Kasprowicza/ H. Ko\u0142\u0142\u0105taja",
                "num_bikes_available": 7,
                "num_docks_available": 0,
                "region_id": "422",
                "rental_uris": {
                    "android": "https://app.nextbike.net/station?id=525763802",
                    "ios": "https://app.nextbike.net/station?id=525763802",
                    "web": "https://nxtb.it/p/525763802"
                },
                "short_name": "6317",
                "station_id": "525763802",
                "vehicle_types_available": [
                    {
                        "count": 5,
                        "vehicle_type_id": "71"
                    },
                    {
                        "count": 2,
                        "vehicle_type_id": "348"
                    }
                ]
            },
            "type": "Feature"
        },
        {
            "geometry": {
                "coordinates": [
                    15.56888,
                    54.16748
                ],
                "type": "Point"
            },
            "properties": {
                "is_installed": true,
                "is_renting": true,
                "is_returning": true,
                "is_virtual_station": false,
                "last_reported": 1789279242,
                "name": "ul. Artyleryjska",
                "num_bikes_available": 6,
                "num_docks_available": 0,
                "region_id": "422",
                "rental_uris": {
                    "android": "https://app.nextbike.net/station?id=525764126",
                    "ios": "https://app.nextbike.net/station?id=525764126",
                    "web": "https://nxtb.it/p/525764126"
                },
                "short_name": "6318",
                "station_id": "525764126",
                "vehicle_types_available": [
                    {
                        "count": 6,
                        "vehicle_type_id": "71"
                    }
                ]
            },
            "type": "Feature"
        },
        {
            "geometry": {
                "coordinates": [
                    15.54244,
                    54.1561
                ],
                "type": "Point"
            },
            "properties": {
                "is_installed": true,
                "is_renting": true,
                "is_returning": true,
                "is_virtual_station": false,
                "last_reported": 1789279242,
                "name": "ul. K. Szymanowskiego",
                "num_bikes_available": 6,
                "num_docks_available": 0,
                "region_id": "422",
                "rental_uris": {
                    "android": "https://app.nextbike.net/station?id=525768212",
                    "ios": "https://app.nextbike.net/station?id=525768212",
                    "web": "https://nxtb.it/p/525768212"
                },
                "short_name": "6319",
                "station_id": "525768212",
                "vehicle_types_available": [
                    {
                        "count": 3,
                        "vehicle_type_id": "71"
                    },
                    {
                        "count": 3,
                        "vehicle_type_id": "348"
                    }
                ]
            },
            "type": "Feature"
        },
        {
            "geometry": {
                "coordinates": [
                    15.56219,
                    54.17501
                ],
                "type": "Point"
            },
            "properties": {
                "is_installed": true,
                "is_renting": true,
                "is_returning": true,
                "is_virtual_station": false,
                "last_reported": 1789279242,
                "name": "ul. \u015aliwi\u0144skiego",
                "num_bikes_available": 3,
                "num_docks_available": 0,
                "region_id": "422",
                "rental_uris": {
                    "android": "https://app.nextbike.net/station?id=525768624",
                    "ios": "https://app.nextbike.net/station?id=525768624",
                    "web": "https://nxtb.it/p/525768624"
                },
                "short_name": "6320",
                "station_id": "525768624",
                "vehicle_types_available": [
                    {
                        "count": 3,
                        "vehicle_type_id": "348"
                    }
                ]
            },
            "type": "Feature"
        },
        {
            "geometry": {
                "coordinates": [
                    15.57087,
                    54.18481
                ],
                "type": "Point"
            },
            "properties": {
                "is_installed": true,
                "is_renting": true,
                "is_returning": true,
                "is_virtual_station": false,
                "last_reported": 1789279242,
                "name": "Park im. \u017beromskiego/ ul. Konopnickiej",
                "num_bikes_available": 3,
                "num_docks_available": 0,
                "region_id": "422",
                "rental_uris": {
                    "android": "https://app.nextbike.net/station?id=6920527",
                    "ios": "https://app.nextbike.net/station?id=6920527",
                    "web": "https://nxtb.it/p/6920527"
                },
                "short_name": "6313",
                "station_id": "6920527",
                "vehicle_types_available": [
                    {
                        "count": 3,
                        "vehicle_type_id": "71"
                    }
                ]
            },
            "type": "Feature"
        }
    ],
    "gbfs": {
        "station_information": {
            "last_updated": 1789279242,
            "ttl": 60,
            "version": "2.3"
        },
        "station_status": {
            "last_updated": 1789279242,
            "ttl": 60,
            "version": "2.3"
        }
    },
    "type": "FeatureCollection"
}