{
    "features": [
        {
            "geometry": {
                "coordinates": [
                    -60.655986964702606,
                    -32.95421439665977
                ],
                "type": "Point"
            },
            "properties": {
                "address": "Oro\u00f1o 1658",
                "capacity": 20,
                "is_installed": 1,
                "is_renting": 1,
                "is_returning": 1,
                "last_reported": 1789321713,
                "name": "Museo Castagnino",
                "num_bikes_available": 16,
                "num_bikes_disabled": 0,
                "num_docks_available": 2,
                "num_docks_disabled": 2,
                "rental_methods": [
                    "KEY",
                    "CREDITCARD"
                ],
                "station_code": 1,
                "station_id": 1
            },
            "type": "Feature"
        },
        {
            "geometry": {
                "coordinates": [
                    -60.64486920833588,
                    -32.956663076908484
                ],
                "type": "Point"
            },
            "properties": {
                "address": "Av. Pellegrini 1377",
                "capacity": 28,
                "is_installed": 1,
                "is_renting": 1,
                "is_returning": 1,
                "last_reported": 1789321722,
                "name": "Paseo Pellegrini",
                "num_bikes_available": 11,
                "num_bikes_disabled": 0,
                "num_docks_available": 14,
                "num_docks_disabled": 3,
                "rental_methods": [
                    "KEY",
                    "CREDITCARD"
                ],
                "station_code": 2,
                "station_id": 2
            },
            "type": "Feature"
        },
        {
            "geometry": {
                "coordinates": [
                    -60.63670188188553,
                    -32.95812144981906
                ],
                "type": "Point"
            },
            "properties": {
                "address": "Pellegrini  779",
                "capacity": 28,
                "is_installed": 1,
                "is_renting": 1,
                "is_returning": 1,
                "last_reported": 1789321740,
                "name": "Plaza L\u00f3pez",
                "num_bikes_available": 6,
                "num_bikes_disabled": 0,
                "num_docks_available": 18,
                "num_docks_disabled": 4,
                "rental_methods": [
                    "KEY",
                    "CREDITCARD"
                ],
                "station_code": 3,
                "station_id": 3
            },
            "type": "Feature"
        },
        {
            "geometry": {
                "coordinates": [
                    -60.62944918870926,
                    -32.959215213707765
                ],
                "type": "Point"
            },
            "properties": {
                "address": "Av. Pellegrini 280",
                "capacity": 24,
                "is_installed": 1,
                "is_renting": 1,
                "is_returning": 1,
                "last_reported": 1789321724,
                "name": "Fac. de Ingenier\u00eda",
                "num_bikes_available": 5,
                "num_bikes_disabled": 1,
                "num_docks_available": 17,
                "num_docks_disabled": 1,
                "rental_methods": [
                    "KEY",
                    "CREDITCARD"
                ],
                "station_code": 4,
                "station_id": 4
            },
            "type": "Feature"
        },
        {
            "geometry": {
                "coordinates": [
                    -60.62357246875763,
                    -32.96736625395059
                ],
                "type": "Point"
            },
            "properties": {
                "address": "Riobamba 239 BIS",
                "capacity": 21,
                "is_installed": 1,
                "is_renting": 1,
                "is_returning": 1,
                "last_reported": 1789321724,
                "name": "Ciudad Univ. I",
                "num_bikes_available": 2,
                "num_bikes_disabled": 0,
                "num_docks_available": 18,
                "num_docks_disabled": 1,
                "rental_methods": [
                    "KEY",
                    "CREDITCARD"
                ],
                "station_code": 5,
                "station_id": 5
            },
            "type": "Feature"
        },
        {
            "geometry": {
                "coordinates": [
                    -60.62398016452789,
                    -32.96850040867347
                ],
                "type": "Point"
            },
            "properties": {
                "address": "Berruti 2271",
                "capacity": 16,
                "is_installed": 1,
                "is_renting": 1,
                "is_returning": 1,
                "last_reported": 1789321738,
                "name": "Ciudad Univ. II",
                "num_bikes_available": 5,
                "num_bikes_disabled": 1,
                "num_docks_available": 8,
                "num_docks_disabled": 2,
                "rental_methods": [
                    "KEY",
                    "CREDITCARD"
                ],
                "station_code": 6,
                "station_id": 6
            },
            "type": "Feature"
        },
        {
            "geometry": {
                "coordinates": [
                    -60.67054331302643,
                    -32.93944885753075
                ],
                "type": "Point"
            },
            "properties": {
                "address": "Cafferata 723",
                "capacity": 28,
                "is_installed": 1,
                "is_renting": 1,
                "is_returning": 1,
                "last_reported": 1789321733,
                "name": "Terminal",
                "num_bikes_available": 16,
                "num_bikes_disabled": 1,
                "num_docks_available": 10,
                "num_docks_disabled": 1,
                "rental_methods": [
                    "KEY",
                    "CREDITCARD"
                ],
                "station_code": 7,
                "station_id": 7
            },
            "type": "Feature"
        },
        {
            "geometry": {
                "coordinates": [
                    -60.665243268013,
                    -32.9403492658816
                ],
                "type": "Point"
            },
            "properties": {
                "address": "Av. Francia 723",
                "capacity": 21,
                "is_installed": 1,
                "is_renting": 1,
                "is_returning": 1,
                "last_reported": 1789321723,
                "name": "Fac. Medicina",
                "num_bikes_available": 6,
                "num_bikes_disabled": 0,
                "num_docks_available": 13,
                "num_docks_disabled": 2,
                "rental_methods": [
                    "KEY",
                    "CREDITCARD"
                ],
                "station_code": 8,
                "station_id": 8
            },
            "type": "Feature"
        },
        {
            "geometry": {
                "coordinates": [
                    -60.657239,
                    -32.945899
                ],
                "type": "Point"
            },
            "properties": {
                "address": "San Luis 2435",
                "capacity": 20,
                "is_installed": 1,
                "is_renting": 1,
                "is_returning": 1,
                "last_reported": 1789321718,
                "name": "Pueyrred\u00f3n",
                "num_bikes_available": 8,
                "num_bikes_disabled": 0,
                "num_docks_available": 11,
                "num_docks_disabled": 1,
                "rental_methods": [
                    "KEY",
                    "CREDITCARD"
                ],
                "station_code": 9,
                "station_id": 9
            },
            "type": "Feature"
        },
        {
            "geometry": {
                "coordinates": [
                    -60.654785335063934,
                    -32.94996730598237
                ],
                "type": "Point"
            },
            "properties": {
                "address": "Bv. Oro\u00f1o 1283",
                "capacity": 28,
                "is_installed": 1,
                "is_renting": 1,
                "is_returning": 1,
                "last_reported": 1789321737,
                "name": "Fac. Ciencias Econ\u00f3micas",
                "num_bikes_available": 13,
                "num_bikes_disabled": 0,
                "num_docks_available": 12,
                "num_docks_disabled": 3,
                "rental_methods": [
                    "KEY",
                    "CREDITCARD"
                ],
                "station_code": 10,
                "station_id": 10
            },
            "type": "Feature"
        },
        {
            "geometry": {
                "coordinates": [
                    -60.650536715984344,
                    -32.94402733877261
                ],
                "type": "Point"
            },
            "properties": {
                "address": "Mariano Moreno 779",
                "capacity": 20,
                "is_installed": 1,
                "is_renting": 1,
                "is_returning": 1,
                "last_reported": 1789321730,
                "name": "Plaza San Mart\u00edn",
                "num_bikes_available": 4,
                "num_bikes_disabled": 0,
                "num_docks_available": 14,
                "num_docks_disabled": 2,
                "rental_methods": [
                    "KEY",
                    "CREDITCARD"
                ],
                "station_code": 11,
                "station_id": 11
            },
            "type": "Feature"
        },
        {
            "geometry": {
                "coordinates": [
                    -60.644497722387314,
                    -32.94531035146112
                ],
                "type": "Point"
            },
            "properties": {
                "address": "C\u00f3rdoba 1551",
                "capacity": 20,
                "is_installed": 1,
                "is_renting": 1,
                "is_returning": 1,
                "last_reported": 1789321730,
                "name": "Plaza Pringles",
                "num_bikes_available": 3,
                "num_bikes_disabled": 1,
                "num_docks_available": 14,
                "num_docks_disabled": 2,
                "rental_methods": [
                    "KEY",
                    "CREDITCARD"
                ],
                "station_code": 12,
                "station_id": 12
            },
            "type": "Feature"
        },
        {
            "geometry": {
                "coordinates": [
                    -60.63740864396095,
                    -32.9493843560409
                ],
                "type": "Point"
            },
            "properties": {
                "address": "San Luis 1020",
                "capacity": 21,
                "is_installed": 1,
                "is_renting": 1,
                "is_returning": 1,
                "last_reported": 1789321722,
                "name": "Plaza Montenegro",
                "num_bikes_available": 7,
                "num_bikes_disabled": 0,
                "num_docks_available": 14,
                "num_docks_disabled": 0,
                "rental_methods": [
                    "KEY",
                    "CREDITCARD"
                ],
                "station_code": 14,
                "station_id": 13
            },
            "type": "Feature"
        },
        {
            "geometry": {
                "coordinates": [
                    -60.641776621341705,
                    -32.94882616098827
                ],
                "type": "Point"
            },
            "properties": {
                "address": "Entre Rios 1016",
                "capacity": 35,
                "is_installed": 1,
                "is_renting": 1,
                "is_returning": 1,
                "last_reported": 1789321725,
                "name": "Plaza Sarmiento",
                "num_bikes_available": 10,
                "num_bikes_disabled": 0,
                "num_docks_available": 25,
                "num_docks_disabled": 0,
                "rental_methods": [
                    "KEY",
                    "CREDITCARD"
                ],
                "station_code": 13,
                "station_id": 14
            },
            "type": "Feature"
        },
        {
            "geometry": {
                "coordinates": [
                    -60.63288778066635,
                    -32.94755220262625
                ],
                "type": "Point"
            },
            "properties": {
                "address": "C\u00f3rdoba 720",
                "capacity": 35,
                "is_installed": 1,
                "is_renting": 1,
                "is_returning": 1,
                "last_reported": 1789321719,
                "name": "Plaza 25 de Mayo",
                "num_bikes_available": 12,
                "num_bikes_disabled": 0,
                "num_docks_available": 16,
                "num_docks_disabled": 7,
                "rental_methods": [
                    "KEY",
                    "CREDITCARD"
                ],
                "station_code": 15,
                "station_id": 15
            },
            "type": "Feature"
        },
        {
            "geometry": {
                "coordinates": [
                    -60.651848591567685,
                    -32.93664295494056
                ],
                "type": "Point"
            },
            "properties": {
                "address": "Salta 2220",
                "capacity": 20,
                "is_installed": 1,
                "is_renting": 1,
                "is_returning": 1,
                "last_reported": 1789321736,
                "name": "Pichincha",
                "num_bikes_available": 2,
                "num_bikes_disabled": 0,
                "num_docks_available": 17,
                "num_docks_disabled": 1,
                "rental_methods": [
                    "KEY",
                    "CREDITCARD"
                ],
                "station_code": 16,
                "station_id": 16
            },
            "type": "Feature"
        },
        {
            "geometry": {
                "coordinates": [
                    -60.64261347055435,
                    -32.935878648179575
                ],
                "type": "Point"
            },
            "properties": {
                "address": "Wheelwright 1587",
                "capacity": 20,
                "is_installed": 1,
                "is_renting": 1,
                "is_returning": 1,
                "last_reported": 1789321733,
                "name": "Distrito Centro",
                "num_bikes_available": 12,
                "num_bikes_disabled": 0,
                "num_docks_available": 7,
                "num_docks_disabled": 1,
                "rental_methods": [
                    "KEY",
                    "CREDITCARD"
                ],
                "station_code": 17,
                "station_id": 17
            },
            "type": "Feature"
        },
        {
            "geometry": {
                "coordinates": [
                    -60.63473045825958,
                    -32.94099755421734
                ],
                "type": "Point"
            },
            "properties": {
                "address": "Dr. Mario Armas 1005",
                "capacity": 35,
                "is_installed": 1,
                "is_renting": 1,
                "is_returning": 1,
                "last_reported": 1789321720,
                "name": "Parque Espa\u00f1a",
                "num_bikes_available": 9,
                "num_bikes_disabled": 0,
                "num_docks_available": 26,
                "num_docks_disabled": 0,
                "rental_methods": [
                    "KEY",
                    "CREDITCARD"
                ],
                "station_code": 18,
                "station_id": 18
            },
            "type": "Feature"
        },
        {
            "geometry": {
                "coordinates": [
                    -60.66343545913696,
                    -32.95358421061909
                ],
                "type": "Point"
            },
            "properties": {
                "address": "Av. Pellegrini 2775",
                "capacity": 12,
                "is_installed": 1,
                "is_renting": 1,
                "is_returning": 1,
                "last_reported": 1789321737,
                "name": "Parque Independencia I",
                "num_bikes_available": 6,
                "num_bikes_disabled": 0,
                "num_docks_available": 6,
                "num_docks_disabled": 0,
                "rental_methods": [
                    "KEY",
                    "CREDITCARD"
                ],
                "station_code": 19,
                "station_id": 21
            },
            "type": "Feature"
        },
        {
            "geometry": {
                "coordinates": [
                    -60.67079275846481,
                    -32.95206724436681
                ],
                "type": "Point"
            },
            "properties": {
                "address": "Av. Pellegrini 3275",
                "capacity": 20,
                "is_installed": 1,
                "is_renting": 1,
                "is_returning": 1,
                "last_reported": 1789321711,
                "name": "HECA / UCA",
                "num_bikes_available": 11,
                "num_bikes_disabled": 0,
                "num_docks_available": 7,
                "num_docks_disabled": 2,
                "rental_methods": [
                    "KEY",
                    "CREDITCARD"
                ],
                "station_code": 33,
                "station_id": 22
            },
            "type": "Feature"
        },
        {
            "geometry": {
                "coordinates": [
                    -60.65592795610428,
                    -32.96512040461018
                ],
                "type": "Point"
            },
            "properties": {
                "address": "Av. J Coronado 2667",
                "capacity": 20,
                "is_installed": 1,
                "is_renting": 1,
                "is_returning": 1,
                "last_reported": 1789321737,
                "name": "Parque Independencia II",
                "num_bikes_available": 12,
                "num_bikes_disabled": 0,
                "num_docks_available": 6,
                "num_docks_disabled": 2,
                "rental_methods": [
                    "KEY",
                    "CREDITCARD"
                ],
                "station_code": 31,
                "station_id": 23
            },
            "type": "Feature"
        },
        {
            "geometry": {
                "coordinates": [
                    -60.65880596637726,
                    -32.92663505330592
                ],
                "type": "Point"
            },
            "properties": {
                "address": "Av. Estanislao L\u00f3pez 2861",
                "capacity": 20,
                "is_installed": 1,
                "is_renting": 1,
                "is_returning": 1,
                "last_reported": 1789321723,
                "name": "Parque de la Arenera",
                "num_bikes_available": 9,
                "num_bikes_disabled": 0,
                "num_docks_available": 8,
                "num_docks_disabled": 3,
                "rental_methods": [
                    "KEY",
                    "CREDITCARD"
                ],
                "station_code": 36,
                "station_id": 24
            },
            "type": "Feature"
        },
        {
            "geometry": {
                "coordinates": [
                    -60.65018132328987,
                    -32.93184904583995
                ],
                "type": "Point"
            },
            "properties": {
                "address": "Bv. Oro\u00f1o 239 bis",
                "capacity": 20,
                "is_installed": 1,
                "is_renting": 1,
                "is_returning": 1,
                "last_reported": 1789321713,
                "name": "Plaza Suecia",
                "num_bikes_available": 8,
                "num_bikes_disabled": 0,
                "num_docks_available": 11,
                "num_docks_disabled": 1,
                "rental_methods": [
                    "KEY",
                    "CREDITCARD"
                ],
                "station_code": 28,
                "station_id": 25
            },
            "type": "Feature"
        },
        {
            "geometry": {
                "coordinates": [
                    -60.64960062503815,
                    -32.94041229412281
                ],
                "type": "Point"
            },
            "properties": {
                "address": "Mariano Moreno 483",
                "capacity": 20,
                "is_installed": 1,
                "is_renting": 1,
                "is_returning": 1,
                "last_reported": 1789321739,
                "name": "Gimnasio UNR",
                "num_bikes_available": 4,
                "num_bikes_disabled": 0,
                "num_docks_available": 13,
                "num_docks_disabled": 3,
                "rental_methods": [
                    "KEY",
                    "CREDITCARD"
                ],
                "station_code": 26,
                "station_id": 26
            },
            "type": "Feature"
        },
        {
            "geometry": {
                "coordinates": [
                    -60.64523935317993,
                    -32.962680960480846
                ],
                "type": "Point"
            },
            "properties": {
                "address": "Entre R\u00edos 2230",
                "capacity": 20,
                "is_installed": 1,
                "is_renting": 1,
                "is_returning": 1,
                "last_reported": 1789321737,
                "name": "Abasto",
                "num_bikes_available": 8,
                "num_bikes_disabled": 0,
                "num_docks_available": 8,
                "num_docks_disabled": 4,
                "rental_methods": [
                    "KEY",
                    "CREDITCARD"
                ],
                "station_code": 21,
                "station_id": 27
            },
            "type": "Feature"
        },
        {
            "geometry": {
                "coordinates": [
                    -60.64059376716614,
                    -32.96806835144843
                ],
                "type": "Point"
            },
            "properties": {
                "address": "27 de Febrero 891",
                "capacity": 16,
                "is_installed": 1,
                "is_renting": 1,
                "is_returning": 1,
                "last_reported": 1789321737,
                "name": "Parque Hip\u00f3lito Yrigoyen",
                "num_bikes_available": 3,
                "num_bikes_disabled": 0,
                "num_docks_available": 9,
                "num_docks_disabled": 4,
                "rental_methods": [
                    "KEY",
                    "CREDITCARD"
                ],
                "station_code": 32,
                "station_id": 28
            },
            "type": "Feature"
        },
        {
            "geometry": {
                "coordinates": [
                    -60.63680648803711,
                    -32.96399070730771
                ],
                "type": "Point"
            },
            "properties": {
                "address": "Buenos Aires 2181",
                "capacity": 20,
                "is_installed": 1,
                "is_renting": 1,
                "is_returning": 1,
                "last_reported": 1789321715,
                "name": "Rep\u00fablica de la Sexta",
                "num_bikes_available": 5,
                "num_bikes_disabled": 0,
                "num_docks_available": 12,
                "num_docks_disabled": 3,
                "rental_methods": [
                    "KEY",
                    "CREDITCARD"
                ],
                "station_code": 22,
                "station_id": 29
            },
            "type": "Feature"
        },
        {
            "geometry": {
                "coordinates": [
                    -60.62930703163147,
                    -32.95339515393067
                ],
                "type": "Point"
            },
            "properties": {
                "address": "Mendoza 391",
                "capacity": 16,
                "is_installed": 1,
                "is_renting": 1,
                "is_returning": 1,
                "last_reported": 1789321727,
                "name": "Barrio Martin",
                "num_bikes_available": 2,
                "num_bikes_disabled": 0,
                "num_docks_available": 10,
                "num_docks_disabled": 4,
                "rental_methods": [
                    "KEY",
                    "CREDITCARD"
                ],
                "station_code": 24,
                "station_id": 30
            },
            "type": "Feature"
        },
        {
            "geometry": {
                "coordinates": [
                    -60.65977692604065,
                    -32.935162788101124
                ],
                "type": "Point"
            },
            "properties": {
                "address": "Salta 2820",
                "capacity": 20,
                "is_installed": 1,
                "is_renting": 1,
                "is_returning": 1,
                "last_reported": 1789321736,
                "name": "Pichincha II",
                "num_bikes_available": 6,
                "num_bikes_disabled": 0,
                "num_docks_available": 11,
                "num_docks_disabled": 3,
                "rental_methods": [
                    "KEY",
                    "CREDITCARD"
                ],
                "station_code": 25,
                "station_id": 31
            },
            "type": "Feature"
        },
        {
            "geometry": {
                "coordinates": [
                    -60.63880205154419,
                    -32.94162782998716
                ],
                "type": "Point"
            },
            "properties": {
                "address": "Tucuman 1221",
                "capacity": 20,
                "is_installed": 1,
                "is_renting": 1,
                "is_returning": 1,
                "last_reported": 1789321733,
                "name": "Plaza Cooperaci\u00f3n",
                "num_bikes_available": 5,
                "num_bikes_disabled": 0,
                "num_docks_available": 6,
                "num_docks_disabled": 9,
                "rental_methods": [
                    "KEY",
                    "CREDITCARD"
                ],
                "station_code": 27,
                "station_id": 32
            },
            "type": "Feature"
        },
        {
            "geometry": {
                "coordinates": [
                    -60.67002296447754,
                    -32.95894064873677
                ],
                "type": "Point"
            },
            "properties": {
                "address": "Av. Francia 2270",
                "capacity": 12,
                "is_installed": 1,
                "is_renting": 1,
                "is_returning": 1,
                "last_reported": 1789321720,
                "name": "Barrio Parque",
                "num_bikes_available": 6,
                "num_bikes_disabled": 1,
                "num_docks_available": 5,
                "num_docks_disabled": 0,
                "rental_methods": [
                    "KEY",
                    "CREDITCARD"
                ],
                "station_code": 29,
                "station_id": 33
            },
            "type": "Feature"
        },
        {
            "geometry": {
                "coordinates": [
                    -60.66525936126709,
                    -32.963612638052126
                ],
                "type": "Point"
            },
            "properties": {
                "address": "27 de Febrero 2700",
                "capacity": 20,
                "is_installed": 1,
                "is_renting": 1,
                "is_returning": 1,
                "last_reported": 1789321711,
                "name": "Estadio Municipal",
                "num_bikes_available": 8,
                "num_bikes_disabled": 0,
                "num_docks_available": 11,
                "num_docks_disabled": 1,
                "rental_methods": [
                    "KEY",
                    "CREDITCARD"
                ],
                "station_code": 30,
                "station_id": 34
            },
            "type": "Feature"
        },
        {
            "geometry": {
                "coordinates": [
                    -60.672104358673096,
                    -32.94575602519591
                ],
                "type": "Point"
            },
            "properties": {
                "address": "Mendoza 3481",
                "capacity": 20,
                "is_installed": 1,
                "is_renting": 1,
                "is_returning": 1,
                "last_reported": 1789321715,
                "name": "CC Echesortu",
                "num_bikes_available": 2,
                "num_bikes_disabled": 0,
                "num_docks_available": 14,
                "num_docks_disabled": 4,
                "rental_methods": [
                    "KEY",
                    "CREDITCARD"
                ],
                "station_code": 34,
                "station_id": 35
            },
            "type": "Feature"
        },
        {
            "geometry": {
                "coordinates": [
                    -60.651172399520874,
                    -32.9556277975818
                ],
                "type": "Point"
            },
            "properties": {
                "address": "Av. Pellegrini 1851",
                "capacity": 20,
                "is_installed": 1,
                "is_renting": 1,
                "is_returning": 1,
                "last_reported": 1789321731,
                "name": "Paseo Pellegrini II",
                "num_bikes_available": 9,
                "num_bikes_disabled": 0,
                "num_docks_available": 9,
                "num_docks_disabled": 2,
                "rental_methods": [
                    "KEY",
                    "CREDITCARD"
                ],
                "station_code": 20,
                "station_id": 36
            },
            "type": "Feature"
        },
        {
            "geometry": {
                "coordinates": [
                    -60.6603080034256,
                    -32.971511248782775
                ],
                "type": "Point"
            },
            "properties": {
                "address": "Bv. Oro\u00f1o 3180",
                "capacity": 16,
                "is_installed": 1,
                "is_renting": 1,
                "is_returning": 1,
                "last_reported": 1789321723,
                "name": "Club Provincial",
                "num_bikes_available": 10,
                "num_bikes_disabled": 0,
                "num_docks_available": 4,
                "num_docks_disabled": 2,
                "rental_methods": [
                    "KEY",
                    "CREDITCARD"
                ],
                "station_code": 49,
                "station_id": 37
            },
            "type": "Feature"
        },
        {
            "geometry": {
                "coordinates": [
                    -60.64461708068848,
                    -32.97084968284816
                ],
                "type": "Point"
            },
            "properties": {
                "address": "Rueda 1128",
                "capacity": 20,
                "is_installed": 1,
                "is_renting": 1,
                "is_returning": 1,
                "last_reported": 1789321731,
                "name": "Barrio Hospitales",
                "num_bikes_available": 15,
                "num_bikes_disabled": 0,
                "num_docks_available": 3,
                "num_docks_disabled": 2,
                "rental_methods": [
                    "KEY",
                    "CREDITCARD"
                ],
                "station_code": 37,
                "station_id": 38
            },
            "type": "Feature"
        },
        {
            "geometry": {
                "coordinates": [
                    -60.633952617645264,
                    -32.96977681526667
                ],
                "type": "Point"
            },
            "properties": {
                "address": "Al\u00e9m 2624",
                "capacity": 16,
                "is_installed": 1,
                "is_renting": 1,
                "is_returning": 1,
                "last_reported": 1789321723,
                "name": "Parque Hip\u00f3lito Yrigoyen II",
                "num_bikes_available": 3,
                "num_bikes_disabled": 0,
                "num_docks_available": 11,
                "num_docks_disabled": 2,
                "rental_methods": [
                    "KEY",
                    "CREDITCARD"
                ],
                "station_code": 38,
                "station_id": 39
            },
            "type": "Feature"
        },
        {
            "geometry": {
                "coordinates": [
                    -60.64409136772156,
                    -32.97733374029842
                ],
                "type": "Point"
            },
            "properties": {
                "address": "Av. San Mart\u00edn 3427 y Uruguay",
                "capacity": 16,
                "is_installed": 1,
                "is_renting": 1,
                "is_returning": 1,
                "last_reported": 1789321654,
                "name": "Plaza Gral. Toribio de Luzuriaga",
                "num_bikes_available": 10,
                "num_bikes_disabled": 0,
                "num_docks_available": 4,
                "num_docks_disabled": 2,
                "rental_methods": [
                    "KEY",
                    "CREDITCARD"
                ],
                "station_code": 51,
                "station_id": 40
            },
            "type": "Feature"
        },
        {
            "geometry": {
                "coordinates": [
                    -60.68156719207764,
                    -32.95019913442736
                ],
                "type": "Point"
            },
            "properties": {
                "address": " Av. Pellegrini 4079",
                "capacity": 12,
                "is_installed": 1,
                "is_renting": 1,
                "is_returning": 1,
                "last_reported": 1789321736,
                "name": "Pellegrini y Avellaneda",
                "num_bikes_available": 5,
                "num_bikes_disabled": 0,
                "num_docks_available": 4,
                "num_docks_disabled": 3,
                "rental_methods": [
                    "KEY",
                    "CREDITCARD"
                ],
                "station_code": 41,
                "station_id": 41
            },
            "type": "Feature"
        },
        {
            "geometry": {
                "coordinates": [
                    -60.66567778587341,
                    -32.92301479484789
                ],
                "type": "Point"
            },
            "properties": {
                "address": "Carballo 184",
                "capacity": 28,
                "is_installed": 1,
                "is_renting": 1,
                "is_returning": 1,
                "last_reported": 1789321723,
                "name": "Puerto Norte",
                "num_bikes_available": 12,
                "num_bikes_disabled": 0,
                "num_docks_available": 16,
                "num_docks_disabled": 0,
                "rental_methods": [
                    "KEY",
                    "CREDITCARD"
                ],
                "station_code": 44,
                "station_id": 42
            },
            "type": "Feature"
        },
        {
            "geometry": {
                "coordinates": [
                    -60.669100284576416,
                    -32.974683996129144
                ],
                "type": "Point"
            },
            "properties": {
                "address": "Ov. Lagos 3581 y Segui",
                "capacity": 16,
                "is_installed": 1,
                "is_renting": 1,
                "is_returning": 1,
                "last_reported": 1789321718,
                "name": "Lagos y Segui",
                "num_bikes_available": 10,
                "num_bikes_disabled": 1,
                "num_docks_available": 3,
                "num_docks_disabled": 2,
                "rental_methods": [
                    "KEY",
                    "CREDITCARD"
                ],
                "station_code": 47,
                "station_id": 43
            },
            "type": "Feature"
        },
        {
            "geometry": {
                "coordinates": [
                    -60.649391412734985,
                    -32.978554143531696
                ],
                "type": "Point"
            },
            "properties": {
                "address": "Bv. Segui 1319 y Entre R\u00edos",
                "capacity": 16,
                "is_installed": 1,
                "is_renting": 0,
                "is_returning": 1,
                "last_reported": 1784804504,
                "name": "Barrio Matheu",
                "num_bikes_available": 0,
                "num_bikes_disabled": 0,
                "num_docks_available": 13,
                "num_docks_disabled": 3,
                "rental_methods": [
                    "KEY",
                    "CREDITCARD"
                ],
                "station_code": 50,
                "station_id": 44
            },
            "type": "Feature"
        },
        {
            "geometry": {
                "coordinates": [
                    -60.68002223968506,
                    -32.944418997251766
                ],
                "type": "Point"
            },
            "properties": {
                "address": "Mendoza 4085 y Av. Avellaneda",
                "capacity": 20,
                "is_installed": 1,
                "is_renting": 1,
                "is_returning": 1,
                "last_reported": 1789321719,
                "name": "CC Echesortu II",
                "num_bikes_available": 7,
                "num_bikes_disabled": 0,
                "num_docks_available": 10,
                "num_docks_disabled": 3,
                "rental_methods": [
                    "KEY",
                    "CREDITCARD"
                ],
                "station_code": 45,
                "station_id": 45
            },
            "type": "Feature"
        },
        {
            "geometry": {
                "coordinates": [
                    -60.68373441696167,
                    -32.957783865637914
                ],
                "type": "Point"
            },
            "properties": {
                "address": "Bv. Avellaneda 2389 y Godoy",
                "capacity": 12,
                "is_installed": 1,
                "is_renting": 1,
                "is_returning": 1,
                "last_reported": 1789321715,
                "name": "Bella Vista",
                "num_bikes_available": 2,
                "num_bikes_disabled": 0,
                "num_docks_available": 9,
                "num_docks_disabled": 1,
                "rental_methods": [
                    "KEY",
                    "CREDITCARD"
                ],
                "station_code": 39,
                "station_id": 46
            },
            "type": "Feature"
        },
        {
            "geometry": {
                "coordinates": [
                    -60.6690788269043,
                    -32.92653599347845
                ],
                "type": "Point"
            },
            "properties": {
                "address": "Junin 391",
                "capacity": 20,
                "is_installed": 1,
                "is_renting": 1,
                "is_returning": 1,
                "last_reported": 1789321698,
                "name": "Alto Rosario",
                "num_bikes_available": 15,
                "num_bikes_disabled": 0,
                "num_docks_available": 3,
                "num_docks_disabled": 2,
                "rental_methods": [
                    "KEY",
                    "CREDITCARD"
                ],
                "station_code": 43,
                "station_id": 47
            },
            "type": "Feature"
        },
        {
            "geometry": {
                "coordinates": [
                    -60.66103219985962,
                    -32.97646608507204
                ],
                "type": "Point"
            },
            "properties": {
                "address": "Bv. Segui 2186",
                "capacity": 16,
                "is_installed": 1,
                "is_renting": 0,
                "is_returning": 0,
                "last_reported": 1773670166,
                "name": "Oro\u00f1o y Segui",
                "num_bikes_available": 0,
                "num_bikes_disabled": 0,
                "num_docks_available": 0,
                "num_docks_disabled": 16,
                "rental_methods": [
                    "KEY",
                    "CREDITCARD"
                ],
                "station_code": 48,
                "station_id": 48
            },
            "type": "Feature"
        },
        {
            "geometry": {
                "coordinates": [
                    -60.63432276248932,
                    -32.97858114396427
                ],
                "type": "Point"
            },
            "properties": {
                "address": "Ayacucho 3385 y Ayolas",
                "capacity": 20,
                "is_installed": 1,
                "is_renting": 1,
                "is_returning": 1,
                "last_reported": 1789321737,
                "name": "Plaza Eva Duarte de Per\u00f3n",
                "num_bikes_available": 7,
                "num_bikes_disabled": 0,
                "num_docks_available": 11,
                "num_docks_disabled": 2,
                "rental_methods": [
                    "KEY",
                    "CREDITCARD"
                ],
                "station_code": 52,
                "station_id": 49
            },
            "type": "Feature"
        },
        {
            "geometry": {
                "coordinates": [
                    -60.674591048545835,
                    -32.92171051403622
                ],
                "type": "Point"
            },
            "properties": {
                "address": "Bv. Avellaneda  518 BIS y Carballo",
                "capacity": 16,
                "is_installed": 1,
                "is_renting": 1,
                "is_returning": 1,
                "last_reported": 1789321738,
                "name": "Refiner\u00eda",
                "num_bikes_available": 9,
                "num_bikes_disabled": 0,
                "num_docks_available": 5,
                "num_docks_disabled": 2,
                "rental_methods": [
                    "KEY",
                    "CREDITCARD"
                ],
                "station_code": 42,
                "station_id": 50
            },
            "type": "Feature"
        },
        {
            "geometry": {
                "coordinates": [
                    -60.673173501081465,
                    -32.916072619129054
                ],
                "type": "Point"
            },
            "properties": {
                "address": "Bv. Avellaneda 1006 BIS y J. Ingenieros",
                "capacity": 16,
                "is_installed": 1,
                "is_renting": 1,
                "is_returning": 1,
                "last_reported": 1789321729,
                "name": "Arroyito",
                "num_bikes_available": 7,
                "num_bikes_disabled": 0,
                "num_docks_available": 4,
                "num_docks_disabled": 5,
                "rental_methods": [
                    "KEY",
                    "CREDITCARD"
                ],
                "station_code": 46,
                "station_id": 51
            },
            "type": "Feature"
        },
        {
            "geometry": {
                "coordinates": [
                    -60.66570220787048,
                    -32.934106315234914
                ],
                "type": "Point"
            },
            "properties": {
                "address": "Salta 3228",
                "capacity": 20,
                "is_installed": 1,
                "is_renting": 1,
                "is_returning": 1,
                "last_reported": 1789321737,
                "name": "Barrio Agote",
                "num_bikes_available": 0,
                "num_bikes_disabled": 0,
                "num_docks_available": 17,
                "num_docks_disabled": 3,
                "rental_methods": [
                    "KEY",
                    "CREDITCARD"
                ],
                "station_code": 35,
                "station_id": 52
            },
            "type": "Feature"
        },
        {
            "geometry": {
                "coordinates": [
                    -60.676323755569456,
                    -32.95708325593757
                ],
                "type": "Point"
            },
            "properties": {
                "address": "Riobamba 3585  y San Nicol\u00e1s ",
                "capacity": 12,
                "is_installed": 1,
                "is_renting": 1,
                "is_returning": 1,
                "last_reported": 1789321724,
                "name": "Cinco esquinas",
                "num_bikes_available": 7,
                "num_bikes_disabled": 0,
                "num_docks_available": 5,
                "num_docks_disabled": 0,
                "rental_methods": [
                    "KEY",
                    "CREDITCARD"
                ],
                "station_code": 40,
                "station_id": 53
            },
            "type": "Feature"
        },
        {
            "geometry": {
                "coordinates": [
                    -60.662102683372495,
                    -32.947594287181566
                ],
                "type": "Point"
            },
            "properties": {
                "address": "Mendoza 2771",
                "capacity": 20,
                "is_installed": 1,
                "is_renting": 1,
                "is_returning": 1,
                "last_reported": 1789321713,
                "name": "Barrio Lourdes",
                "num_bikes_available": 8,
                "num_bikes_disabled": 0,
                "num_docks_available": 11,
                "num_docks_disabled": 1,
                "rental_methods": [
                    "KEY",
                    "CREDITCARD"
                ],
                "station_code": 23,
                "station_id": 54
            },
            "type": "Feature"
        },
        {
            "geometry": {
                "coordinates": [
                    -60.679149,
                    -32.939457
                ],
                "type": "Point"
            },
            "properties": {
                "address": "Avellaneda 835",
                "capacity": 20,
                "is_installed": 1,
                "is_renting": 1,
                "is_returning": 1,
                "last_reported": 1789321719,
                "name": "Avellaneda y C\u00f3rdoba",
                "num_bikes_available": 7,
                "num_bikes_disabled": 0,
                "num_docks_available": 9,
                "num_docks_disabled": 4,
                "rental_methods": [
                    "KEY",
                    "CREDITCARD"
                ],
                "station_code": 53,
                "station_id": 57
            },
            "type": "Feature"
        },
        {
            "geometry": {
                "coordinates": [
                    -60.6913242,
                    -32.9581866
                ],
                "type": "Point"
            },
            "properties": {
                "address": "Av. Pte. Per\u00f3n 4602",
                "capacity": 20,
                "is_installed": 1,
                "is_renting": 1,
                "is_returning": 1,
                "last_reported": 1789321727,
                "name": "Distrito Oeste",
                "num_bikes_available": 4,
                "num_bikes_disabled": 0,
                "num_docks_available": 4,
                "num_docks_disabled": 12,
                "rental_methods": [
                    "KEY",
                    "CREDITCARD"
                ],
                "station_code": 54,
                "station_id": 58
            },
            "type": "Feature"
        },
        {
            "geometry": {
                "coordinates": [
                    -60.6833951,
                    -32.9093257
                ],
                "type": "Point"
            },
            "properties": {
                "address": "Nansen 335",
                "capacity": 20,
                "is_installed": 1,
                "is_renting": 1,
                "is_returning": 1,
                "last_reported": 1789321735,
                "name": "Portal Rosario",
                "num_bikes_available": 11,
                "num_bikes_disabled": 0,
                "num_docks_available": 7,
                "num_docks_disabled": 2,
                "rental_methods": [
                    "KEY",
                    "CREDITCARD"
                ],
                "station_code": 56,
                "station_id": 60
            },
            "type": "Feature"
        },
        {
            "geometry": {
                "coordinates": [
                    -60.686350568660984,
                    -32.91422795893311
                ],
                "type": "Point"
            },
            "properties": {
                "address": "Bv. Rondeau 112",
                "capacity": 21,
                "is_installed": 1,
                "is_renting": 1,
                "is_returning": 1,
                "last_reported": 1789321740,
                "name": "Lisandro de la Torre",
                "num_bikes_available": 13,
                "num_bikes_disabled": 0,
                "num_docks_available": 7,
                "num_docks_disabled": 1,
                "rental_methods": [
                    "KEY",
                    "CREDITCARD"
                ],
                "station_code": 57,
                "station_id": 62
            },
            "type": "Feature"
        },
        {
            "geometry": {
                "coordinates": [
                    -60.69265425549448,
                    -32.894645560577175
                ],
                "type": "Point"
            },
            "properties": {
                "address": "Bv. Rondeau 1950",
                "capacity": 20,
                "is_installed": 1,
                "is_renting": 1,
                "is_returning": 1,
                "last_reported": 1789321722,
                "name": "Plaza Alberdi",
                "num_bikes_available": 5,
                "num_bikes_disabled": 0,
                "num_docks_available": 14,
                "num_docks_disabled": 1,
                "rental_methods": [
                    "KEY",
                    "CREDITCARD"
                ],
                "station_code": 60,
                "station_id": 67
            },
            "type": "Feature"
        },
        {
            "geometry": {
                "coordinates": [
                    -60.69081468532575,
                    -32.9004262817609
                ],
                "type": "Point"
            },
            "properties": {
                "address": "Bv. Rondeau 1365",
                "capacity": 16,
                "is_installed": 1,
                "is_renting": 1,
                "is_returning": 1,
                "last_reported": 1789321735,
                "name": "Rondeau y Washington",
                "num_bikes_available": 5,
                "num_bikes_disabled": 0,
                "num_docks_available": 9,
                "num_docks_disabled": 2,
                "rental_methods": [
                    "KEY",
                    "CREDITCARD"
                ],
                "station_code": 59,
                "station_id": 68
            },
            "type": "Feature"
        },
        {
            "geometry": {
                "coordinates": [
                    -60.68009608761775,
                    -32.91293717782394
                ],
                "type": "Point"
            },
            "properties": {
                "address": "Oliv\u00e9 1175",
                "capacity": 20,
                "is_installed": 1,
                "is_renting": 1,
                "is_returning": 1,
                "last_reported": 1789321727,
                "name": "PAMI II",
                "num_bikes_available": 10,
                "num_bikes_disabled": 0,
                "num_docks_available": 9,
                "num_docks_disabled": 1,
                "rental_methods": [
                    "KEY",
                    "CREDITCARD"
                ],
                "station_code": 55,
                "station_id": 69
            },
            "type": "Feature"
        },
        {
            "geometry": {
                "coordinates": [
                    -60.68577111042986,
                    -32.89180515414552
                ],
                "type": "Point"
            },
            "properties": {
                "address": "Av. Eudoro Carrasco 2034",
                "capacity": 42,
                "is_installed": 1,
                "is_renting": 1,
                "is_returning": 1,
                "last_reported": 1789321731,
                "name": "La Rambla",
                "num_bikes_available": 24,
                "num_bikes_disabled": 0,
                "num_docks_available": 17,
                "num_docks_disabled": 1,
                "rental_methods": [
                    "KEY",
                    "CREDITCARD"
                ],
                "station_code": 61,
                "station_id": 70
            },
            "type": "Feature"
        },
        {
            "geometry": {
                "coordinates": [
                    -60.687353021309754,
                    -32.88490773761225
                ],
                "type": "Point"
            },
            "properties": {
                "address": "Av. Eudoro Carrasco 3226",
                "capacity": 20,
                "is_installed": 1,
                "is_renting": 0,
                "is_returning": 0,
                "last_reported": 1783977164,
                "name": "La Florida",
                "num_bikes_available": 0,
                "num_bikes_disabled": 0,
                "num_docks_available": 0,
                "num_docks_disabled": 20,
                "rental_methods": [
                    "KEY",
                    "CREDITCARD"
                ],
                "station_code": 62,
                "station_id": 71
            },
            "type": "Feature"
        },
        {
            "geometry": {
                "coordinates": [
                    -60.677572,
                    -32.910503
                ],
                "type": "Point"
            },
            "properties": {
                "address": "Av. Frondizi 335",
                "capacity": 20,
                "is_installed": 1,
                "is_renting": 1,
                "is_returning": 1,
                "last_reported": 1789321721,
                "name": "Parque Alem",
                "num_bikes_available": 5,
                "num_bikes_disabled": 0,
                "num_docks_available": 12,
                "num_docks_disabled": 3,
                "rental_methods": [
                    "KEY",
                    "CREDITCARD"
                ],
                "station_code": 63,
                "station_id": 72
            },
            "type": "Feature"
        },
        {
            "geometry": {
                "coordinates": [
                    -60.688922467747204,
                    -32.906549276588485
                ],
                "type": "Point"
            },
            "properties": {
                "address": "Bv. Rondeau 883",
                "capacity": 16,
                "is_installed": 1,
                "is_renting": 1,
                "is_returning": 1,
                "last_reported": 1789321736,
                "name": "Rondeau y Sorrento",
                "num_bikes_available": 9,
                "num_bikes_disabled": 0,
                "num_docks_available": 6,
                "num_docks_disabled": 1,
                "rental_methods": [
                    "KEY",
                    "CREDITCARD"
                ],
                "station_code": 58,
                "station_id": 73
            },
            "type": "Feature"
        },
        {
            "geometry": {
                "coordinates": [
                    -60.691032,
                    -32.942375
                ],
                "type": "Point"
            },
            "properties": {
                "address": "Mendoza 4881",
                "capacity": 20,
                "is_installed": 1,
                "is_renting": 1,
                "is_returning": 1,
                "last_reported": 1789321728,
                "name": "Mendoza y Sucre",
                "num_bikes_available": 4,
                "num_bikes_disabled": 0,
                "num_docks_available": 14,
                "num_docks_disabled": 2,
                "rental_methods": [
                    "KEY",
                    "CREDITCARD"
                ],
                "station_code": 64,
                "station_id": 74
            },
            "type": "Feature"
        },
        {
            "geometry": {
                "coordinates": [
                    -60.696252,
                    -32.941427
                ],
                "type": "Point"
            },
            "properties": {
                "address": "Mendoza 5335",
                "capacity": 20,
                "is_installed": 1,
                "is_renting": 1,
                "is_returning": 1,
                "last_reported": 1789321727,
                "name": "Plaza Azcu\u00e9naga",
                "num_bikes_available": 7,
                "num_bikes_disabled": 0,
                "num_docks_available": 12,
                "num_docks_disabled": 1,
                "rental_methods": [
                    "KEY",
                    "CREDITCARD"
                ],
                "station_code": 65,
                "station_id": 75
            },
            "type": "Feature"
        },
        {
            "geometry": {
                "coordinates": [
                    -60.705073,
                    -32.940079
                ],
                "type": "Point"
            },
            "properties": {
                "address": "Mendoza 6043",
                "capacity": 20,
                "is_installed": 1,
                "is_renting": 1,
                "is_returning": 1,
                "last_reported": 1789321738,
                "name": "Mendoza y Magallanes",
                "num_bikes_available": 10,
                "num_bikes_disabled": 2,
                "num_docks_available": 8,
                "num_docks_disabled": 0,
                "rental_methods": [
                    "KEY",
                    "CREDITCARD"
                ],
                "station_code": 66,
                "station_id": 76
            },
            "type": "Feature"
        },
        {
            "geometry": {
                "coordinates": [
                    -60.711147,
                    -32.940247
                ],
                "type": "Point"
            },
            "properties": {
                "address": "Mendoza 6591",
                "capacity": 20,
                "is_installed": 1,
                "is_renting": 1,
                "is_returning": 1,
                "last_reported": 1789321735,
                "name": "Cuatro Plazas",
                "num_bikes_available": 7,
                "num_bikes_disabled": 0,
                "num_docks_available": 13,
                "num_docks_disabled": 0,
                "rental_methods": [
                    "KEY",
                    "CREDITCARD"
                ],
                "station_code": 67,
                "station_id": 77
            },
            "type": "Feature"
        },
        {
            "geometry": {
                "coordinates": [
                    -60.713076,
                    -32.933226
                ],
                "type": "Point"
            },
            "properties": {
                "address": "Av. Provincias Unidas 410",
                "capacity": 20,
                "is_installed": 1,
                "is_renting": 1,
                "is_returning": 1,
                "last_reported": 1789321729,
                "name": "Provincias Unidas y Eva Per\u00f3n",
                "num_bikes_available": 3,
                "num_bikes_disabled": 0,
                "num_docks_available": 17,
                "num_docks_disabled": 0,
                "rental_methods": [
                    "KEY",
                    "CREDITCARD"
                ],
                "station_code": 68,
                "station_id": 78
            },
            "type": "Feature"
        },
        {
            "geometry": {
                "coordinates": [
                    -60.712881,
                    -32.928205
                ],
                "type": "Point"
            },
            "properties": {
                "address": "Av. Provincias Unidas 150 bis",
                "capacity": 20,
                "is_installed": 1,
                "is_renting": 1,
                "is_returning": 1,
                "last_reported": 1789321736,
                "name": "Distrito Noroeste",
                "num_bikes_available": 9,
                "num_bikes_disabled": 0,
                "num_docks_available": 11,
                "num_docks_disabled": 0,
                "rental_methods": [
                    "KEY",
                    "CREDITCARD"
                ],
                "station_code": 69,
                "station_id": 82
            },
            "type": "Feature"
        },
        {
            "geometry": {
                "coordinates": [
                    -60.695824,
                    -32.884702
                ],
                "type": "Point"
            },
            "properties": {
                "address": "Bv. Rondeau 3263",
                "capacity": 20,
                "is_installed": 1,
                "is_renting": 1,
                "is_returning": 1,
                "last_reported": 1789321740,
                "name": "Rondeau y Ricardo N\u00fa\u00f1ez",
                "num_bikes_available": 8,
                "num_bikes_disabled": 0,
                "num_docks_available": 11,
                "num_docks_disabled": 1,
                "rental_methods": [
                    "KEY",
                    "CREDITCARD"
                ],
                "station_code": 70,
                "station_id": 83
            },
            "type": "Feature"
        },
        {
            "geometry": {
                "coordinates": [
                    -60.697782,
                    -32.878274
                ],
                "type": "Point"
            },
            "properties": {
                "address": "Bv. Rondeau 3967",
                "capacity": 20,
                "is_installed": 1,
                "is_renting": 1,
                "is_returning": 1,
                "last_reported": 1789321725,
                "name": "Rondeau y Mart\u00edn Fierro",
                "num_bikes_available": 11,
                "num_bikes_disabled": 0,
                "num_docks_available": 7,
                "num_docks_disabled": 2,
                "rental_methods": [
                    "KEY",
                    "CREDITCARD"
                ],
                "station_code": 71,
                "station_id": 84
            },
            "type": "Feature"
        },
        {
            "geometry": {
                "coordinates": [
                    -60.6890764,
                    -32.8736414
                ],
                "type": "Point"
            },
            "properties": {
                "address": "Av. Eudoro Carrasco 4217",
                "capacity": 20,
                "is_installed": 1,
                "is_renting": 0,
                "is_returning": 1,
                "last_reported": 1789321733,
                "name": "Costa Alta",
                "num_bikes_available": 7,
                "num_bikes_disabled": 0,
                "num_docks_available": 12,
                "num_docks_disabled": 1,
                "rental_methods": [
                    "KEY",
                    "CREDITCARD"
                ],
                "station_code": 72,
                "station_id": 85
            },
            "type": "Feature"
        },
        {
            "geometry": {
                "coordinates": [
                    -60.712254,
                    -32.965652
                ],
                "type": "Point"
            },
            "properties": {
                "address": "Av. Rivarola 6750",
                "capacity": 42,
                "is_installed": 1,
                "is_renting": 0,
                "is_returning": 1,
                "last_reported": 1783704606,
                "name": "Estaci\u00f3n de Prueba",
                "num_bikes_available": 0,
                "num_bikes_disabled": 0,
                "num_docks_available": 20,
                "num_docks_disabled": 22,
                "rental_methods": [
                    "KEY",
                    "CREDITCARD"
                ],
                "station_code": 503,
                "station_id": 86
            },
            "type": "Feature"
        },
        {
            "geometry": {
                "coordinates": [
                    -60.645027,
                    -32.982582
                ],
                "type": "Point"
            },
            "properties": {
                "address": "Av. San Mart\u00edn 3851",
                "capacity": 20,
                "is_installed": 1,
                "is_renting": 1,
                "is_returning": 1,
                "last_reported": 1789321719,
                "name": " San Mart\u00edn y Quintana",
                "num_bikes_available": 7,
                "num_bikes_disabled": 0,
                "num_docks_available": 9,
                "num_docks_disabled": 4,
                "rental_methods": [
                    "KEY",
                    "CREDITCARD"
                ],
                "station_code": 73,
                "station_id": 87
            },
            "type": "Feature"
        },
        {
            "geometry": {
                "coordinates": [
                    -60.643197,
                    -32.990427
                ],
                "type": "Point"
            },
            "properties": {
                "address": "Av. Uriburu 670",
                "capacity": 20,
                "is_installed": 1,
                "is_renting": 1,
                "is_returning": 1,
                "last_reported": 1789321725,
                "name": "Distrito Sur",
                "num_bikes_available": 10,
                "num_bikes_disabled": 0,
                "num_docks_available": 9,
                "num_docks_disabled": 1,
                "rental_methods": [
                    "KEY",
                    "CREDITCARD"
                ],
                "station_code": 74,
                "station_id": 88
            },
            "type": "Feature"
        },
        {
            "geometry": {
                "coordinates": [
                    -60.657499,
                    -32.930972
                ],
                "type": "Point"
            },
            "properties": {
                "address": "Av. del Valle 2750",
                "capacity": 20,
                "is_installed": 1,
                "is_renting": 1,
                "is_returning": 1,
                "last_reported": 1789321674,
                "name": "Rosario Norte",
                "num_bikes_available": 6,
                "num_bikes_disabled": 0,
                "num_docks_available": 11,
                "num_docks_disabled": 3,
                "rental_methods": [
                    "KEY",
                    "CREDITCARD"
                ],
                "station_code": 75,
                "station_id": 89
            },
            "type": "Feature"
        },
        {
            "geometry": {
                "coordinates": [
                    -60.648263,
                    -32.998501
                ],
                "type": "Point"
            },
            "properties": {
                "address": "San Mart\u00edn 5291",
                "capacity": 20,
                "is_installed": 1,
                "is_renting": 1,
                "is_returning": 1,
                "last_reported": 1789321723,
                "name": "San Mart\u00edn y Regimiento 11",
                "num_bikes_available": 9,
                "num_bikes_disabled": 0,
                "num_docks_available": 10,
                "num_docks_disabled": 1,
                "rental_methods": [
                    "KEY",
                    "CREDITCARD"
                ],
                "station_code": 76,
                "station_id": 90
            },
            "type": "Feature"
        },
        {
            "geometry": {
                "coordinates": [
                    -60.62874616458971,
                    -32.94793448901754
                ],
                "type": "Point"
            },
            "properties": {
                "address": "Av. Belgrano 850",
                "capacity": 30,
                "is_installed": 1,
                "is_renting": 1,
                "is_returning": 1,
                "last_reported": 1789321736,
                "name": "Monumento Nacional a la Bandera",
                "num_bikes_available": 2,
                "num_bikes_disabled": 1,
                "num_docks_available": 26,
                "num_docks_disabled": 1,
                "rental_methods": [
                    "KEY",
                    "CREDITCARD"
                ],
                "station_code": 77,
                "station_id": 91
            },
            "type": "Feature"
        },
        {
            "geometry": {
                "coordinates": [
                    -60.64309500526114,
                    -32.99968591719347
                ],
                "type": "Point"
            },
            "properties": {
                "address": "Av. Ntra. Sra. del Rosario 610",
                "capacity": 20,
                "is_installed": 1,
                "is_renting": 1,
                "is_returning": 1,
                "last_reported": 1789321738,
                "name": "Las Heras",
                "num_bikes_available": 6,
                "num_bikes_disabled": 0,
                "num_docks_available": 12,
                "num_docks_disabled": 2,
                "rental_methods": [
                    "KEY",
                    "CREDITCARD"
                ],
                "station_code": 79,
                "station_id": 92
            },
            "type": "Feature"
        },
        {
            "geometry": {
                "coordinates": [
                    -60.629811,
                    -32.999253
                ],
                "type": "Point"
            },
            "properties": {
                "address": "Av. Ntra. Sra. del Rosario 10",
                "capacity": 20,
                "is_installed": 1,
                "is_renting": 1,
                "is_returning": 1,
                "last_reported": 1789321735,
                "name": "O'Higgins",
                "num_bikes_available": 7,
                "num_bikes_disabled": 0,
                "num_docks_available": 12,
                "num_docks_disabled": 1,
                "rental_methods": [
                    "KEY",
                    "CREDITCARD"
                ],
                "station_code": 80,
                "station_id": 93
            },
            "type": "Feature"
        },
        {
            "geometry": {
                "coordinates": [
                    -60.649179,
                    -33.002414
                ],
                "type": "Point"
            },
            "properties": {
                "address": "Av. San Mart\u00edn 5661",
                "capacity": 20,
                "is_installed": 1,
                "is_renting": 1,
                "is_returning": 1,
                "last_reported": 1789321722,
                "name": "San Mart\u00edn y Arij\u00f3n",
                "num_bikes_available": 7,
                "num_bikes_disabled": 0,
                "num_docks_available": 11,
                "num_docks_disabled": 2,
                "rental_methods": [
                    "KEY",
                    "CREDITCARD"
                ],
                "station_code": 78,
                "station_id": 94
            },
            "type": "Feature"
        },
        {
            "geometry": {
                "coordinates": [
                    -60.636076,
                    -33.002331
                ],
                "type": "Point"
            },
            "properties": {
                "address": "Ayacucho 5671",
                "capacity": 20,
                "is_installed": 1,
                "is_renting": 1,
                "is_returning": 1,
                "last_reported": 1789321715,
                "name": "Ayacucho y Arij\u00f3n",
                "num_bikes_available": 8,
                "num_bikes_disabled": 0,
                "num_docks_available": 10,
                "num_docks_disabled": 2,
                "rental_methods": [
                    "KEY",
                    "CREDITCARD"
                ],
                "station_code": 83,
                "station_id": 95
            },
            "type": "Feature"
        },
        {
            "geometry": {
                "coordinates": [
                    -60.63696,
                    -32.995666
                ],
                "type": "Point"
            },
            "properties": {
                "address": "Ayacucho 5010",
                "capacity": 0,
                "is_installed": 1,
                "is_renting": 1,
                "is_returning": 0,
                "last_reported": null,
                "name": "Polo Tecnol\u00f3gico",
                "num_bikes_available": 0,
                "num_bikes_disabled": 0,
                "num_docks_available": 0,
                "num_docks_disabled": 0,
                "rental_methods": [
                    "KEY",
                    "CREDITCARD"
                ],
                "station_code": 84,
                "station_id": 96
            },
            "type": "Feature"
        },
        {
            "geometry": {
                "coordinates": [
                    -60.63696,
                    -32.995666
                ],
                "type": "Point"
            },
            "properties": {
                "address": "Ayacucho 5010",
                "capacity": 20,
                "is_installed": 1,
                "is_renting": 1,
                "is_returning": 1,
                "last_reported": 1789321740,
                "name": "Polo Tecnol\u00f3gico",
                "num_bikes_available": 10,
                "num_bikes_disabled": 0,
                "num_docks_available": 9,
                "num_docks_disabled": 1,
                "rental_methods": [
                    "KEY",
                    "CREDITCARD"
                ],
                "station_code": 84,
                "station_id": 97
            },
            "type": "Feature"
        },
        {
            "geometry": {
                "coordinates": [
                    -60.628047,
                    -32.98661
                ],
                "type": "Point"
            },
            "properties": {
                "address": "G\u00fciraldes 206 bis",
                "capacity": 16,
                "is_installed": 1,
                "is_renting": 1,
                "is_returning": 1,
                "last_reported": 1789321725,
                "name": "De la Resistencia",
                "num_bikes_available": 8,
                "num_bikes_disabled": 0,
                "num_docks_available": 7,
                "num_docks_disabled": 1,
                "rental_methods": [
                    "KEY",
                    "CREDITCARD"
                ],
                "station_code": 85,
                "station_id": 98
            },
            "type": "Feature"
        },
        {
            "geometry": {
                "coordinates": [
                    -60.6503745,
                    -33.0078763
                ],
                "type": "Point"
            },
            "properties": {
                "address": "San Mart\u00edn 6147",
                "capacity": 20,
                "is_installed": 1,
                "is_renting": 1,
                "is_returning": 1,
                "last_reported": 1789321738,
                "name": "San Mart\u00edn y Cabildo",
                "num_bikes_available": 6,
                "num_bikes_disabled": 0,
                "num_docks_available": 12,
                "num_docks_disabled": 2,
                "rental_methods": [
                    "KEY",
                    "CREDITCARD"
                ],
                "station_code": 81,
                "station_id": 99
            },
            "type": "Feature"
        },
        {
            "geometry": {
                "coordinates": [
                    -60.65696083,
                    -32.99091227
                ],
                "type": "Point"
            },
            "properties": {
                "address": "Uriburu 1620",
                "capacity": 20,
                "is_installed": 1,
                "is_renting": 1,
                "is_returning": 1,
                "last_reported": 1789321713,
                "name": "La Guardia",
                "num_bikes_available": 4,
                "num_bikes_disabled": 0,
                "num_docks_available": 15,
                "num_docks_disabled": 1,
                "rental_methods": [
                    "KEY",
                    "CREDITCARD"
                ],
                "station_code": 86,
                "station_id": 100
            },
            "type": "Feature"
        },
        {
            "geometry": {
                "coordinates": [
                    -60.65622,
                    -32.938759
                ],
                "type": "Point"
            },
            "properties": {
                "address": "Pueyrred\u00f3n 425",
                "capacity": 20,
                "is_installed": 1,
                "is_renting": 1,
                "is_returning": 1,
                "last_reported": 1789321729,
                "name": "Pueyrred\u00f3n y Tucum\u00e1n",
                "num_bikes_available": 2,
                "num_bikes_disabled": 0,
                "num_docks_available": 18,
                "num_docks_disabled": 0,
                "rental_methods": [
                    "KEY",
                    "CREDITCARD"
                ],
                "station_code": 88,
                "station_id": 101
            },
            "type": "Feature"
        },
        {
            "geometry": {
                "coordinates": [
                    -60.676701,
                    -32.983896
                ],
                "type": "Point"
            },
            "properties": {
                "address": "Av. Francia 4485",
                "capacity": 20,
                "is_installed": 1,
                "is_renting": 1,
                "is_returning": 1,
                "last_reported": 1789321725,
                "name": "Distrito Sudoeste",
                "num_bikes_available": 6,
                "num_bikes_disabled": 0,
                "num_docks_available": 13,
                "num_docks_disabled": 1,
                "rental_methods": [
                    "KEY",
                    "CREDITCARD"
                ],
                "station_code": 96,
                "station_id": 102
            },
            "type": "Feature"
        },
        {
            "geometry": {
                "coordinates": [
                    -60.664799,
                    -33.006679
                ],
                "type": "Point"
            },
            "properties": {
                "address": "Oro\u00f1o 5920",
                "capacity": 20,
                "is_installed": 1,
                "is_renting": 1,
                "is_returning": 1,
                "last_reported": 1789321724,
                "name": "Oro\u00f1o y Omb\u00fa",
                "num_bikes_available": 12,
                "num_bikes_disabled": 0,
                "num_docks_available": 7,
                "num_docks_disabled": 1,
                "rental_methods": [
                    "KEY",
                    "CREDITCARD"
                ],
                "station_code": 102,
                "station_id": 103
            },
            "type": "Feature"
        },
        {
            "geometry": {
                "coordinates": [
                    -60.671761,
                    -32.966915
                ],
                "type": "Point"
            },
            "properties": {
                "address": "Francia 2965",
                "capacity": 20,
                "is_installed": 1,
                "is_renting": 1,
                "is_returning": 1,
                "last_reported": 1789321735,
                "name": "Diagonales",
                "num_bikes_available": 15,
                "num_bikes_disabled": 0,
                "num_docks_available": 5,
                "num_docks_disabled": 0,
                "rental_methods": [
                    "KEY",
                    "CREDITCARD"
                ],
                "station_code": 94,
                "station_id": 104
            },
            "type": "Feature"
        },
        {
            "geometry": {
                "coordinates": [
                    -60.64682,
                    -32.991173
                ],
                "type": "Point"
            },
            "properties": {
                "address": "Av San Martin 4640",
                "capacity": 20,
                "is_installed": 1,
                "is_renting": 1,
                "is_returning": 1,
                "last_reported": 1789321724,
                "name": "San Mart\u00edn y Uriburu",
                "num_bikes_available": 5,
                "num_bikes_disabled": 0,
                "num_docks_available": 14,
                "num_docks_disabled": 1,
                "rental_methods": [
                    "KEY",
                    "CREDITCARD"
                ],
                "station_code": 82,
                "station_id": 105
            },
            "type": "Feature"
        },
        {
            "geometry": {
                "coordinates": [
                    -60.63454,
                    -32.954599
                ],
                "type": "Point"
            },
            "properties": {
                "address": "Buenos Aires 1369",
                "capacity": 20,
                "is_installed": 1,
                "is_renting": 1,
                "is_returning": 1,
                "last_reported": 1789321723,
                "name": "Buenos Aires y 9 de Julio",
                "num_bikes_available": 6,
                "num_bikes_disabled": 0,
                "num_docks_available": 14,
                "num_docks_disabled": 0,
                "rental_methods": [
                    "KEY",
                    "CREDITCARD"
                ],
                "station_code": 91,
                "station_id": 106
            },
            "type": "Feature"
        },
        {
            "geometry": {
                "coordinates": [
                    -60.670695,
                    -32.991532
                ],
                "type": "Point"
            },
            "properties": {
                "address": "Uriburu 2575",
                "capacity": 0,
                "is_installed": 1,
                "is_renting": 0,
                "is_returning": 0,
                "last_reported": 1758634608,
                "name": "Uriburu y Rodriguez",
                "num_bikes_available": 0,
                "num_bikes_disabled": 0,
                "num_docks_available": 0,
                "num_docks_disabled": 0,
                "rental_methods": [
                    "KEY",
                    "CREDITCARD"
                ],
                "station_code": 98,
                "station_id": 107
            },
            "type": "Feature"
        },
        {
            "geometry": {
                "coordinates": [
                    -60.670695,
                    -32.991532
                ],
                "type": "Point"
            },
            "properties": {
                "address": "Uriburu 2575",
                "capacity": 20,
                "is_installed": 1,
                "is_renting": 1,
                "is_returning": 1,
                "last_reported": 1789321718,
                "name": "Uriburu y Rodriguez",
                "num_bikes_available": 8,
                "num_bikes_disabled": 0,
                "num_docks_available": 11,
                "num_docks_disabled": 1,
                "rental_methods": [
                    "KEY",
                    "CREDITCARD"
                ],
                "station_code": 98,
                "station_id": 108
            },
            "type": "Feature"
        },
        {
            "geometry": {
                "coordinates": [
                    -60.67795206103914,
                    -32.961474280643294
                ],
                "type": "Point"
            },
            "properties": {
                "address": "27 de Febrero 3619",
                "capacity": 20,
                "is_installed": 1,
                "is_renting": 1,
                "is_returning": 1,
                "last_reported": 1789321739,
                "name": "27 de Febrero y San Nicolas",
                "num_bikes_available": 12,
                "num_bikes_disabled": 0,
                "num_docks_available": 8,
                "num_docks_disabled": 0,
                "rental_methods": [
                    "KEY",
                    "CREDITCARD"
                ],
                "station_code": 93,
                "station_id": 109
            },
            "type": "Feature"
        },
        {
            "geometry": {
                "coordinates": [
                    -60.6652264,
                    -32.9938616
                ],
                "type": "Point"
            },
            "properties": {
                "address": "Oro\u00f1o 4845",
                "capacity": 20,
                "is_installed": 1,
                "is_renting": 1,
                "is_returning": 1,
                "last_reported": 1789321720,
                "name": "Bv. Oro\u00f1o y Gutierrez",
                "num_bikes_available": 7,
                "num_bikes_disabled": 0,
                "num_docks_available": 13,
                "num_docks_disabled": 0,
                "rental_methods": [
                    "KEY",
                    "CREDITCARD"
                ],
                "station_code": 100,
                "station_id": 110
            },
            "type": "Feature"
        },
        {
            "geometry": {
                "coordinates": [
                    -60.665165703757964,
                    -32.99787451818087
                ],
                "type": "Point"
            },
            "properties": {
                "address": "Bv. Oro\u00f1o 5140",
                "capacity": 20,
                "is_installed": 1,
                "is_renting": 1,
                "is_returning": 1,
                "last_reported": 1789321715,
                "name": "Bv. Oro\u00f1o y Lamadrid",
                "num_bikes_available": 4,
                "num_bikes_disabled": 1,
                "num_docks_available": 14,
                "num_docks_disabled": 1,
                "rental_methods": [
                    "KEY",
                    "CREDITCARD"
                ],
                "station_code": 101,
                "station_id": 111
            },
            "type": "Feature"
        },
        {
            "geometry": {
                "coordinates": [
                    -60.6630621,
                    -32.9812269
                ],
                "type": "Point"
            },
            "properties": {
                "address": "Bv. Oro\u00f1o 4030",
                "capacity": 20,
                "is_installed": 1,
                "is_renting": 1,
                "is_returning": 1,
                "last_reported": 1789321732,
                "name": "Bv. Oro\u00f1o y Dr. Riva",
                "num_bikes_available": 11,
                "num_bikes_disabled": 0,
                "num_docks_available": 9,
                "num_docks_disabled": 0,
                "rental_methods": [
                    "KEY",
                    "CREDITCARD"
                ],
                "station_code": 99,
                "station_id": 112
            },
            "type": "Feature"
        },
        {
            "geometry": {
                "coordinates": [
                    -60.6346916,
                    -32.9633253
                ],
                "type": "Point"
            },
            "properties": {
                "address": "Leandro N Alem 2060",
                "capacity": 20,
                "is_installed": 1,
                "is_renting": 1,
                "is_returning": 1,
                "last_reported": 1789321738,
                "name": "Alem y Cerrito",
                "num_bikes_available": 0,
                "num_bikes_disabled": 0,
                "num_docks_available": 20,
                "num_docks_disabled": 0,
                "rental_methods": [
                    "KEY",
                    "CREDITCARD"
                ],
                "station_code": 92,
                "station_id": 113
            },
            "type": "Feature"
        },
        {
            "geometry": {
                "coordinates": [
                    -60.6726343,
                    -32.9781443
                ],
                "type": "Point"
            },
            "properties": {
                "address": "Av. Ov. Lagos 3877",
                "capacity": 20,
                "is_installed": 1,
                "is_renting": 0,
                "is_returning": 0,
                "last_reported": 1787671540,
                "name": "Ov. Lagos y Quintana",
                "num_bikes_available": 0,
                "num_bikes_disabled": 0,
                "num_docks_available": 0,
                "num_docks_disabled": 20,
                "rental_methods": [
                    "KEY",
                    "CREDITCARD"
                ],
                "station_code": 97,
                "station_id": 114
            },
            "type": "Feature"
        }
    ],
    "gbfs": {
        "station_information": {
            "last_updated": 1789321741,
            "ttl": 60
        },
        "station_status": {
            "last_updated": 1789321741,
            "ttl": 60
        }
    },
    "type": "FeatureCollection"
}