{
    "features": [
        {
            "geometry": {
                "coordinates": [
                    15.899234,
                    43.739406
                ],
                "type": "Point"
            },
            "properties": {
                "is_installed": true,
                "is_renting": true,
                "is_returning": true,
                "is_virtual_station": false,
                "last_reported": 1789254091,
                "name": "\u0160ubi\u0107evac-Kuglana",
                "num_bikes_available": 2,
                "num_docks_available": 0,
                "region_id": "248",
                "rental_uris": {
                    "android": "https://app.nextbike.net/station?id=209680856",
                    "ios": "https://app.nextbike.net/station?id=209680856",
                    "web": "https://nxtb.it/p/209680856"
                },
                "short_name": "2327",
                "station_id": "209680856",
                "vehicle_types_available": [
                    {
                        "count": 2,
                        "vehicle_type_id": "150"
                    }
                ]
            },
            "type": "Feature"
        },
        {
            "geometry": {
                "coordinates": [
                    15.905587,
                    43.72552
                ],
                "type": "Point"
            },
            "properties": {
                "is_installed": true,
                "is_renting": true,
                "is_returning": true,
                "is_virtual_station": false,
                "last_reported": 1789254091,
                "name": "Kri\u017eanje ul. S.Radi\u0107a- F. Supila",
                "num_bikes_available": 2,
                "num_docks_available": 0,
                "region_id": "248",
                "rental_uris": {
                    "android": "https://app.nextbike.net/station?id=209681308",
                    "ios": "https://app.nextbike.net/station?id=209681308",
                    "web": "https://nxtb.it/p/209681308"
                },
                "short_name": "2328",
                "station_id": "209681308",
                "vehicle_types_available": [
                    {
                        "count": 2,
                        "vehicle_type_id": "150"
                    }
                ]
            },
            "type": "Feature"
        },
        {
            "geometry": {
                "coordinates": [
                    15.884852,
                    43.746393
                ],
                "type": "Point"
            },
            "properties": {
                "is_installed": true,
                "is_renting": true,
                "is_returning": true,
                "is_virtual_station": false,
                "last_reported": 1789254091,
                "name": "\u0160RC Crnica",
                "num_bikes_available": 0,
                "num_docks_available": 0,
                "region_id": "248",
                "rental_uris": {
                    "android": "https://app.nextbike.net/station?id=209682764",
                    "ios": "https://app.nextbike.net/station?id=209682764",
                    "web": "https://nxtb.it/p/209682764"
                },
                "short_name": "2329",
                "station_id": "209682764",
                "vehicle_types_available": []
            },
            "type": "Feature"
        },
        {
            "geometry": {
                "coordinates": [
                    15.888616,
                    43.735903
                ],
                "type": "Point"
            },
            "properties": {
                "is_installed": true,
                "is_renting": true,
                "is_returning": true,
                "is_virtual_station": false,
                "last_reported": 1789254091,
                "name": "Katedrala\u2013podno\u017eje",
                "num_bikes_available": 6,
                "num_docks_available": 0,
                "region_id": "248",
                "rental_uris": {
                    "android": "https://app.nextbike.net/station?id=209685242",
                    "ios": "https://app.nextbike.net/station?id=209685242",
                    "web": "https://nxtb.it/p/209685242"
                },
                "short_name": "2331",
                "station_id": "209685242",
                "vehicle_types_available": [
                    {
                        "count": 6,
                        "vehicle_type_id": "150"
                    }
                ]
            },
            "type": "Feature"
        },
        {
            "geometry": {
                "coordinates": [
                    15.900999,
                    43.720622
                ],
                "type": "Point"
            },
            "properties": {
                "is_installed": true,
                "is_renting": true,
                "is_returning": true,
                "is_virtual_station": false,
                "last_reported": 1789254091,
                "name": "Komunalna luka Vrna\u017ea",
                "num_bikes_available": 3,
                "num_docks_available": 0,
                "region_id": "248",
                "rental_uris": {
                    "android": "https://app.nextbike.net/station?id=209690395",
                    "ios": "https://app.nextbike.net/station?id=209690395",
                    "web": "https://nxtb.it/p/209690395"
                },
                "short_name": "2330",
                "station_id": "209690395",
                "vehicle_types_available": [
                    {
                        "count": 3,
                        "vehicle_type_id": "150"
                    }
                ]
            },
            "type": "Feature"
        },
        {
            "geometry": {
                "coordinates": [
                    15.892678,
                    43.732119
                ],
                "type": "Point"
            },
            "properties": {
                "is_installed": true,
                "is_renting": true,
                "is_returning": true,
                "is_virtual_station": false,
                "last_reported": 1789254091,
                "name": "Autobusni kolodvor",
                "num_bikes_available": 5,
                "num_docks_available": 0,
                "region_id": "248",
                "rental_uris": {
                    "android": "https://app.nextbike.net/station?id=2687297",
                    "ios": "https://app.nextbike.net/station?id=2687297",
                    "web": "https://nxtb.it/p/2687297"
                },
                "short_name": "2324",
                "station_id": "2687297",
                "vehicle_types_available": [
                    {
                        "count": 5,
                        "vehicle_type_id": "150"
                    }
                ]
            },
            "type": "Feature"
        },
        {
            "geometry": {
                "coordinates": [
                    15.891531,
                    43.733577
                ],
                "type": "Point"
            },
            "properties": {
                "is_installed": true,
                "is_renting": true,
                "is_returning": true,
                "is_virtual_station": false,
                "last_reported": 1789254091,
                "name": "Gat Krka",
                "num_bikes_available": 12,
                "num_docks_available": 0,
                "region_id": "248",
                "rental_uris": {
                    "android": "https://app.nextbike.net/station?id=296984",
                    "ios": "https://app.nextbike.net/station?id=296984",
                    "web": "https://nxtb.it/p/296984"
                },
                "short_name": "2322",
                "station_id": "296984",
                "vehicle_types_available": [
                    {
                        "count": 12,
                        "vehicle_type_id": "150"
                    }
                ]
            },
            "type": "Feature"
        },
        {
            "geometry": {
                "coordinates": [
                    15.893779,
                    43.73424
                ],
                "type": "Point"
            },
            "properties": {
                "is_installed": true,
                "is_renting": true,
                "is_returning": true,
                "is_virtual_station": false,
                "last_reported": 1789254091,
                "name": "Poljana",
                "num_bikes_available": 4,
                "num_docks_available": 0,
                "region_id": "248",
                "rental_uris": {
                    "android": "https://app.nextbike.net/station?id=296986",
                    "ios": "https://app.nextbike.net/station?id=296986",
                    "web": "https://nxtb.it/p/296986"
                },
                "short_name": "2320",
                "station_id": "296986",
                "vehicle_types_available": [
                    {
                        "count": 4,
                        "vehicle_type_id": "150"
                    }
                ]
            },
            "type": "Feature"
        },
        {
            "geometry": {
                "coordinates": [
                    15.902714,
                    43.728791
                ],
                "type": "Point"
            },
            "properties": {
                "is_installed": true,
                "is_renting": true,
                "is_returning": true,
                "is_virtual_station": false,
                "last_reported": 1789254091,
                "name": "Baldekin",
                "num_bikes_available": 0,
                "num_docks_available": 0,
                "region_id": "248",
                "rental_uris": {
                    "android": "https://app.nextbike.net/station?id=296988",
                    "ios": "https://app.nextbike.net/station?id=296988",
                    "web": "https://nxtb.it/p/296988"
                },
                "short_name": "2323",
                "station_id": "296988",
                "vehicle_types_available": []
            },
            "type": "Feature"
        },
        {
            "geometry": {
                "coordinates": [
                    15.884392,
                    43.741624
                ],
                "type": "Point"
            },
            "properties": {
                "is_installed": true,
                "is_renting": true,
                "is_returning": true,
                "is_virtual_station": false,
                "last_reported": 1789254091,
                "name": "Pla\u017ea Banj",
                "num_bikes_available": 4,
                "num_docks_available": 0,
                "region_id": "248",
                "rental_uris": {
                    "android": "https://app.nextbike.net/station?id=297000",
                    "ios": "https://app.nextbike.net/station?id=297000",
                    "web": "https://nxtb.it/p/297000"
                },
                "short_name": "2321",
                "station_id": "297000",
                "vehicle_types_available": [
                    {
                        "count": 4,
                        "vehicle_type_id": "150"
                    }
                ]
            },
            "type": "Feature"
        },
        {
            "geometry": {
                "coordinates": [
                    15.895908,
                    43.745739
                ],
                "type": "Point"
            },
            "properties": {
                "is_installed": true,
                "is_renting": true,
                "is_returning": true,
                "is_virtual_station": false,
                "last_reported": 1789254091,
                "name": "\u0160ubi\u0107evac-Caffe bar Shuby",
                "num_bikes_available": 2,
                "num_docks_available": 0,
                "region_id": "248",
                "rental_uris": {
                    "android": "https://app.nextbike.net/station?id=409896",
                    "ios": "https://app.nextbike.net/station?id=409896",
                    "web": "https://nxtb.it/p/409896"
                },
                "short_name": "2326",
                "station_id": "409896",
                "vehicle_types_available": [
                    {
                        "count": 2,
                        "vehicle_type_id": "150"
                    }
                ]
            },
            "type": "Feature"
        }
    ],
    "gbfs": {
        "station_information": {
            "last_updated": 1789254091,
            "ttl": 60,
            "version": "2.3"
        },
        "station_status": {
            "last_updated": 1789254091,
            "ttl": 60,
            "version": "2.3"
        }
    },
    "type": "FeatureCollection"
}