{
    "features": [
        {
            "geometry": {
                "coordinates": [
                    15.91089,
                    50.5649
                ],
                "type": "Point"
            },
            "properties": {
                "is_installed": true,
                "is_renting": true,
                "is_returning": true,
                "is_virtual_station": false,
                "last_reported": 1789323960,
                "name": "Vlakov\u00e9 n\u00e1dra\u017e\u00ed",
                "num_bikes_available": 0,
                "num_docks_available": 0,
                "region_id": "792",
                "rental_uris": {
                    "android": "https://app.nextbike.net/station?id=379610029",
                    "ios": "https://app.nextbike.net/station?id=379610029",
                    "web": "https://nxtb.it/p/379610029"
                },
                "short_name": "46950",
                "station_id": "379610029",
                "vehicle_types_available": []
            },
            "type": "Feature"
        },
        {
            "geometry": {
                "coordinates": [
                    15.90931,
                    50.56443
                ],
                "type": "Point"
            },
            "properties": {
                "is_installed": true,
                "is_renting": true,
                "is_returning": true,
                "is_virtual_station": false,
                "last_reported": 1789323960,
                "name": "Autobusov\u00e9 n\u00e1dra\u017e\u00ed",
                "num_bikes_available": 1,
                "num_docks_available": 0,
                "region_id": "792",
                "rental_uris": {
                    "android": "https://app.nextbike.net/station?id=379610203",
                    "ios": "https://app.nextbike.net/station?id=379610203",
                    "web": "https://nxtb.it/p/379610203"
                },
                "short_name": "46951",
                "station_id": "379610203",
                "vehicle_types_available": [
                    {
                        "count": 1,
                        "vehicle_type_id": "183"
                    }
                ]
            },
            "type": "Feature"
        },
        {
            "geometry": {
                "coordinates": [
                    15.91247,
                    50.56068
                ],
                "type": "Point"
            },
            "properties": {
                "is_installed": true,
                "is_renting": true,
                "is_returning": true,
                "is_virtual_station": false,
                "last_reported": 1789323960,
                "name": "Krakono\u0161ovo n\u00e1m\u011bst\u00ed",
                "num_bikes_available": 4,
                "num_docks_available": 0,
                "region_id": "792",
                "rental_uris": {
                    "android": "https://app.nextbike.net/station?id=379610370",
                    "ios": "https://app.nextbike.net/station?id=379610370",
                    "web": "https://nxtb.it/p/379610370"
                },
                "short_name": "46952",
                "station_id": "379610370",
                "vehicle_types_available": [
                    {
                        "count": 3,
                        "vehicle_type_id": "258"
                    },
                    {
                        "count": 1,
                        "vehicle_type_id": "183"
                    }
                ]
            },
            "type": "Feature"
        },
        {
            "geometry": {
                "coordinates": [
                    15.91562,
                    50.56168
                ],
                "type": "Point"
            },
            "properties": {
                "is_installed": true,
                "is_renting": true,
                "is_returning": true,
                "is_virtual_station": false,
                "last_reported": 1789323960,
                "name": "M\u011bstsk\u00fd \u00fa\u0159ad",
                "num_bikes_available": 0,
                "num_docks_available": 0,
                "region_id": "792",
                "rental_uris": {
                    "android": "https://app.nextbike.net/station?id=379611162",
                    "ios": "https://app.nextbike.net/station?id=379611162",
                    "web": "https://nxtb.it/p/379611162"
                },
                "short_name": "46956",
                "station_id": "379611162",
                "vehicle_types_available": []
            },
            "type": "Feature"
        },
        {
            "geometry": {
                "coordinates": [
                    15.91977,
                    50.56067
                ],
                "type": "Point"
            },
            "properties": {
                "is_installed": true,
                "is_renting": true,
                "is_returning": true,
                "is_virtual_station": false,
                "last_reported": 1789323960,
                "name": "Nemocnice",
                "num_bikes_available": 0,
                "num_docks_available": 0,
                "region_id": "792",
                "rental_uris": {
                    "android": "https://app.nextbike.net/station?id=379611319",
                    "ios": "https://app.nextbike.net/station?id=379611319",
                    "web": "https://nxtb.it/p/379611319"
                },
                "short_name": "46957",
                "station_id": "379611319",
                "vehicle_types_available": []
            },
            "type": "Feature"
        },
        {
            "geometry": {
                "coordinates": [
                    15.92134,
                    50.56254
                ],
                "type": "Point"
            },
            "properties": {
                "is_installed": true,
                "is_renting": true,
                "is_returning": true,
                "is_virtual_station": false,
                "last_reported": 1789323960,
                "name": "Plaveck\u00fd baz\u00e9n",
                "num_bikes_available": 5,
                "num_docks_available": 0,
                "region_id": "792",
                "rental_uris": {
                    "android": "https://app.nextbike.net/station?id=379611438",
                    "ios": "https://app.nextbike.net/station?id=379611438",
                    "web": "https://nxtb.it/p/379611438"
                },
                "short_name": "46958",
                "station_id": "379611438",
                "vehicle_types_available": [
                    {
                        "count": 2,
                        "vehicle_type_id": "258"
                    },
                    {
                        "count": 2,
                        "vehicle_type_id": "303"
                    },
                    {
                        "count": 1,
                        "vehicle_type_id": "183"
                    }
                ]
            },
            "type": "Feature"
        },
        {
            "geometry": {
                "coordinates": [
                    15.89965,
                    50.55936
                ],
                "type": "Point"
            },
            "properties": {
                "is_installed": true,
                "is_renting": true,
                "is_returning": true,
                "is_virtual_station": false,
                "last_reported": 1789323960,
                "name": "Z\u0160 Komensk\u00e9ho",
                "num_bikes_available": 0,
                "num_docks_available": 0,
                "region_id": "792",
                "rental_uris": {
                    "android": "https://app.nextbike.net/station?id=379611511",
                    "ios": "https://app.nextbike.net/station?id=379611511",
                    "web": "https://nxtb.it/p/379611511"
                },
                "short_name": "46959",
                "station_id": "379611511",
                "vehicle_types_available": []
            },
            "type": "Feature"
        },
        {
            "geometry": {
                "coordinates": [
                    15.91691,
                    50.56532
                ],
                "type": "Point"
            },
            "properties": {
                "is_installed": true,
                "is_renting": true,
                "is_returning": true,
                "is_virtual_station": false,
                "last_reported": 1789323960,
                "name": "Jir\u00e1skovo n\u00e1m\u011bst\u00ed",
                "num_bikes_available": 0,
                "num_docks_available": 0,
                "region_id": "792",
                "rental_uris": {
                    "android": "https://app.nextbike.net/station?id=379611604",
                    "ios": "https://app.nextbike.net/station?id=379611604",
                    "web": "https://nxtb.it/p/379611604"
                },
                "short_name": "46960",
                "station_id": "379611604",
                "vehicle_types_available": []
            },
            "type": "Feature"
        },
        {
            "geometry": {
                "coordinates": [
                    15.9262,
                    50.5651
                ],
                "type": "Point"
            },
            "properties": {
                "is_installed": true,
                "is_renting": true,
                "is_returning": true,
                "is_virtual_station": false,
                "last_reported": 1789323960,
                "name": "U Stadionu - Patria",
                "num_bikes_available": 2,
                "num_docks_available": 0,
                "region_id": "792",
                "rental_uris": {
                    "android": "https://app.nextbike.net/station?id=379611665",
                    "ios": "https://app.nextbike.net/station?id=379611665",
                    "web": "https://nxtb.it/p/379611665"
                },
                "short_name": "46961",
                "station_id": "379611665",
                "vehicle_types_available": [
                    {
                        "count": 2,
                        "vehicle_type_id": "258"
                    }
                ]
            },
            "type": "Feature"
        },
        {
            "geometry": {
                "coordinates": [
                    15.92622,
                    50.56029
                ],
                "type": "Point"
            },
            "properties": {
                "is_installed": true,
                "is_renting": true,
                "is_returning": true,
                "is_virtual_station": false,
                "last_reported": 1789323960,
                "name": "Maxima Gork\u00e9ho",
                "num_bikes_available": 3,
                "num_docks_available": 0,
                "region_id": "792",
                "rental_uris": {
                    "android": "https://app.nextbike.net/station?id=379611759",
                    "ios": "https://app.nextbike.net/station?id=379611759",
                    "web": "https://nxtb.it/p/379611759"
                },
                "short_name": "46962",
                "station_id": "379611759",
                "vehicle_types_available": [
                    {
                        "count": 1,
                        "vehicle_type_id": "258"
                    },
                    {
                        "count": 1,
                        "vehicle_type_id": "303"
                    },
                    {
                        "count": 1,
                        "vehicle_type_id": "183"
                    }
                ]
            },
            "type": "Feature"
        },
        {
            "geometry": {
                "coordinates": [
                    15.90075,
                    50.56995
                ],
                "type": "Point"
            },
            "properties": {
                "is_installed": true,
                "is_renting": true,
                "is_returning": true,
                "is_virtual_station": false,
                "last_reported": 1789323960,
                "name": "Horsk\u00e1 - Texlen",
                "num_bikes_available": 3,
                "num_docks_available": 0,
                "region_id": "792",
                "rental_uris": {
                    "android": "https://app.nextbike.net/station?id=379611840",
                    "ios": "https://app.nextbike.net/station?id=379611840",
                    "web": "https://nxtb.it/p/379611840"
                },
                "short_name": "46963",
                "station_id": "379611840",
                "vehicle_types_available": [
                    {
                        "count": 2,
                        "vehicle_type_id": "258"
                    },
                    {
                        "count": 1,
                        "vehicle_type_id": "440"
                    }
                ]
            },
            "type": "Feature"
        },
        {
            "geometry": {
                "coordinates": [
                    15.90159,
                    50.56781
                ],
                "type": "Point"
            },
            "properties": {
                "is_installed": true,
                "is_renting": true,
                "is_returning": true,
                "is_virtual_station": false,
                "last_reported": 1789323960,
                "name": "\u0160estidom\u00ed - Rub\u00edn",
                "num_bikes_available": 6,
                "num_docks_available": 0,
                "region_id": "792",
                "rental_uris": {
                    "android": "https://app.nextbike.net/station?id=379612015",
                    "ios": "https://app.nextbike.net/station?id=379612015",
                    "web": "https://nxtb.it/p/379612015"
                },
                "short_name": "46965",
                "station_id": "379612015",
                "vehicle_types_available": [
                    {
                        "count": 3,
                        "vehicle_type_id": "258"
                    },
                    {
                        "count": 3,
                        "vehicle_type_id": "183"
                    }
                ]
            },
            "type": "Feature"
        },
        {
            "geometry": {
                "coordinates": [
                    15.91348,
                    50.56317
                ],
                "type": "Point"
            },
            "properties": {
                "is_installed": true,
                "is_renting": true,
                "is_returning": true,
                "is_virtual_station": false,
                "last_reported": 1789323960,
                "name": "Promen\u00e1da - obchodn\u00ed akademie",
                "num_bikes_available": 3,
                "num_docks_available": 0,
                "region_id": "792",
                "rental_uris": {
                    "android": "https://app.nextbike.net/station?id=379612186",
                    "ios": "https://app.nextbike.net/station?id=379612186",
                    "web": "https://nxtb.it/p/379612186"
                },
                "short_name": "46966",
                "station_id": "379612186",
                "vehicle_types_available": [
                    {
                        "count": 1,
                        "vehicle_type_id": "258"
                    },
                    {
                        "count": 2,
                        "vehicle_type_id": "440"
                    }
                ]
            },
            "type": "Feature"
        },
        {
            "geometry": {
                "coordinates": [
                    15.88629,
                    50.58668
                ],
                "type": "Point"
            },
            "properties": {
                "is_installed": true,
                "is_renting": true,
                "is_returning": true,
                "is_virtual_station": false,
                "last_reported": 1789323960,
                "name": "Horsk\u00e1 - h\u0159i\u0161t\u011b",
                "num_bikes_available": 5,
                "num_docks_available": 0,
                "region_id": "792",
                "rental_uris": {
                    "android": "https://app.nextbike.net/station?id=379612887",
                    "ios": "https://app.nextbike.net/station?id=379612887",
                    "web": "https://nxtb.it/p/379612887"
                },
                "short_name": "46967",
                "station_id": "379612887",
                "vehicle_types_available": [
                    {
                        "count": 2,
                        "vehicle_type_id": "441"
                    },
                    {
                        "count": 3,
                        "vehicle_type_id": "258"
                    }
                ]
            },
            "type": "Feature"
        },
        {
            "geometry": {
                "coordinates": [
                    15.89128,
                    50.58161
                ],
                "type": "Point"
            },
            "properties": {
                "is_installed": true,
                "is_renting": true,
                "is_returning": true,
                "is_virtual_station": false,
                "last_reported": 1789323960,
                "name": "Horsk\u00e1 - Zelen\u00e1 Louka",
                "num_bikes_available": 2,
                "num_docks_available": 0,
                "region_id": "792",
                "rental_uris": {
                    "android": "https://app.nextbike.net/station?id=379613386",
                    "ios": "https://app.nextbike.net/station?id=379613386",
                    "web": "https://nxtb.it/p/379613386"
                },
                "short_name": "46968",
                "station_id": "379613386",
                "vehicle_types_available": [
                    {
                        "count": 2,
                        "vehicle_type_id": "183"
                    }
                ]
            },
            "type": "Feature"
        },
        {
            "geometry": {
                "coordinates": [
                    15.91343,
                    50.57559
                ],
                "type": "Point"
            },
            "properties": {
                "is_installed": true,
                "is_renting": true,
                "is_returning": true,
                "is_virtual_station": false,
                "last_reported": 1789323960,
                "name": "Dvora\u010dka",
                "num_bikes_available": 3,
                "num_docks_available": 0,
                "region_id": "792",
                "rental_uris": {
                    "android": "https://app.nextbike.net/station?id=379613625",
                    "ios": "https://app.nextbike.net/station?id=379613625",
                    "web": "https://nxtb.it/p/379613625"
                },
                "short_name": "46969",
                "station_id": "379613625",
                "vehicle_types_available": [
                    {
                        "count": 1,
                        "vehicle_type_id": "441"
                    },
                    {
                        "count": 1,
                        "vehicle_type_id": "258"
                    },
                    {
                        "count": 1,
                        "vehicle_type_id": "183"
                    }
                ]
            },
            "type": "Feature"
        },
        {
            "geometry": {
                "coordinates": [
                    15.86926,
                    50.54563
                ],
                "type": "Point"
            },
            "properties": {
                "is_installed": true,
                "is_renting": true,
                "is_returning": true,
                "is_virtual_station": false,
                "last_reported": 1789323960,
                "name": "Dolce (+25 minut na p\u0159\u00edjezd i odjezd)",
                "num_bikes_available": 0,
                "num_docks_available": 0,
                "region_id": "792",
                "rental_uris": {
                    "android": "https://app.nextbike.net/station?id=379613865",
                    "ios": "https://app.nextbike.net/station?id=379613865",
                    "web": "https://nxtb.it/p/379613865"
                },
                "short_name": "46970",
                "station_id": "379613865",
                "vehicle_types_available": []
            },
            "type": "Feature"
        },
        {
            "geometry": {
                "coordinates": [
                    15.94885,
                    50.574164
                ],
                "type": "Point"
            },
            "properties": {
                "is_installed": true,
                "is_renting": true,
                "is_returning": true,
                "is_virtual_station": false,
                "last_reported": 1789323960,
                "name": "Po\u0159\u00ed\u010d\u00ed - kostel (do\u010dasn\u00e9 um\u00edst\u011bn\u00ed)",
                "num_bikes_available": 9,
                "num_docks_available": 0,
                "region_id": "792",
                "rental_uris": {
                    "android": "https://app.nextbike.net/station?id=379614982",
                    "ios": "https://app.nextbike.net/station?id=379614982",
                    "web": "https://nxtb.it/p/379614982"
                },
                "short_name": "46964",
                "station_id": "379614982",
                "vehicle_types_available": [
                    {
                        "count": 1,
                        "vehicle_type_id": "441"
                    },
                    {
                        "count": 7,
                        "vehicle_type_id": "258"
                    },
                    {
                        "count": 1,
                        "vehicle_type_id": "303"
                    }
                ]
            },
            "type": "Feature"
        },
        {
            "geometry": {
                "coordinates": [
                    15.89986,
                    50.56442
                ],
                "type": "Point"
            },
            "properties": {
                "is_installed": true,
                "is_renting": true,
                "is_returning": true,
                "is_virtual_station": false,
                "last_reported": 1789323960,
                "name": "Z\u0160 V Domc\u00edch",
                "num_bikes_available": 1,
                "num_docks_available": 0,
                "region_id": "792",
                "rental_uris": {
                    "android": "https://app.nextbike.net/station?id=458670939",
                    "ios": "https://app.nextbike.net/station?id=458670939",
                    "web": "https://nxtb.it/p/458670939"
                },
                "short_name": "46974",
                "station_id": "458670939",
                "vehicle_types_available": [
                    {
                        "count": 1,
                        "vehicle_type_id": "258"
                    }
                ]
            },
            "type": "Feature"
        },
        {
            "geometry": {
                "coordinates": [
                    15.90389,
                    50.55547
                ],
                "type": "Point"
            },
            "properties": {
                "is_installed": true,
                "is_renting": true,
                "is_returning": true,
                "is_virtual_station": false,
                "last_reported": 1789323960,
                "name": "M\u011bstsk\u00fd h\u0159bitov",
                "num_bikes_available": 2,
                "num_docks_available": 0,
                "region_id": "792",
                "rental_uris": {
                    "android": "https://app.nextbike.net/station?id=458671106",
                    "ios": "https://app.nextbike.net/station?id=458671106",
                    "web": "https://nxtb.it/p/458671106"
                },
                "short_name": "46975",
                "station_id": "458671106",
                "vehicle_types_available": [
                    {
                        "count": 1,
                        "vehicle_type_id": "258"
                    },
                    {
                        "count": 1,
                        "vehicle_type_id": "183"
                    }
                ]
            },
            "type": "Feature"
        },
        {
            "geometry": {
                "coordinates": [
                    15.87873,
                    50.55907
                ],
                "type": "Point"
            },
            "properties": {
                "is_installed": true,
                "is_renting": true,
                "is_returning": true,
                "is_virtual_station": false,
                "last_reported": 1789323960,
                "name": "Volanov",
                "num_bikes_available": 2,
                "num_docks_available": 0,
                "region_id": "792",
                "rental_uris": {
                    "android": "https://app.nextbike.net/station?id=458671229",
                    "ios": "https://app.nextbike.net/station?id=458671229",
                    "web": "https://nxtb.it/p/458671229"
                },
                "short_name": "46976",
                "station_id": "458671229",
                "vehicle_types_available": [
                    {
                        "count": 2,
                        "vehicle_type_id": "258"
                    }
                ]
            },
            "type": "Feature"
        },
        {
            "geometry": {
                "coordinates": [
                    15.909968,
                    50.567763
                ],
                "type": "Point"
            },
            "properties": {
                "capacity": 4,
                "is_installed": true,
                "is_renting": true,
                "is_returning": true,
                "is_virtual_station": false,
                "last_reported": 1789323960,
                "name": "Z\u0160 R. Frimla",
                "num_bikes_available": 1,
                "num_docks_available": 3,
                "region_id": "792",
                "rental_uris": {
                    "android": "https://app.nextbike.net/station?id=535349317",
                    "ios": "https://app.nextbike.net/station?id=535349317",
                    "web": "https://nxtb.it/p/535349317"
                },
                "short_name": "49855",
                "station_id": "535349317",
                "vehicle_types_available": [
                    {
                        "count": 1,
                        "vehicle_type_id": "183"
                    }
                ]
            },
            "type": "Feature"
        },
        {
            "geometry": {
                "coordinates": [
                    15.912956,
                    50.565254
                ],
                "type": "Point"
            },
            "properties": {
                "capacity": 4,
                "is_installed": true,
                "is_renting": true,
                "is_returning": true,
                "is_virtual_station": false,
                "last_reported": 1789323960,
                "name": "Na Niv\u00e1ch SV\u010c",
                "num_bikes_available": 2,
                "num_docks_available": 2,
                "region_id": "792",
                "rental_uris": {
                    "android": "https://app.nextbike.net/station?id=535349516",
                    "ios": "https://app.nextbike.net/station?id=535349516",
                    "web": "https://nxtb.it/p/535349516"
                },
                "short_name": "49856",
                "station_id": "535349516",
                "vehicle_types_available": [
                    {
                        "count": 2,
                        "vehicle_type_id": "258"
                    }
                ]
            },
            "type": "Feature"
        },
        {
            "geometry": {
                "coordinates": [
                    15.911249,
                    50.561726
                ],
                "type": "Point"
            },
            "properties": {
                "capacity": 4,
                "is_installed": true,
                "is_renting": true,
                "is_returning": true,
                "is_virtual_station": false,
                "last_reported": 1789323960,
                "name": "Svatojansk\u00e9 n\u00e1m\u011bst\u00ed",
                "num_bikes_available": 2,
                "num_docks_available": 1,
                "region_id": "792",
                "rental_uris": {
                    "android": "https://app.nextbike.net/station?id=535349694",
                    "ios": "https://app.nextbike.net/station?id=535349694",
                    "web": "https://nxtb.it/p/535349694"
                },
                "short_name": "49857",
                "station_id": "535349694",
                "vehicle_types_available": [
                    {
                        "count": 2,
                        "vehicle_type_id": "258"
                    }
                ]
            },
            "type": "Feature"
        },
        {
            "geometry": {
                "coordinates": [
                    15.943984,
                    50.580123
                ],
                "type": "Point"
            },
            "properties": {
                "capacity": 4,
                "is_installed": true,
                "is_renting": true,
                "is_returning": true,
                "is_virtual_station": false,
                "last_reported": 1789323960,
                "name": "Voletiny (+25 minut na p\u0159\u00edjezd i odjezd)",
                "num_bikes_available": 7,
                "num_docks_available": 0,
                "region_id": "792",
                "rental_uris": {
                    "android": "https://app.nextbike.net/station?id=535349853",
                    "ios": "https://app.nextbike.net/station?id=535349853",
                    "web": "https://nxtb.it/p/535349853"
                },
                "short_name": "49858",
                "station_id": "535349853",
                "vehicle_types_available": [
                    {
                        "count": 1,
                        "vehicle_type_id": "441"
                    },
                    {
                        "count": 5,
                        "vehicle_type_id": "258"
                    },
                    {
                        "count": 1,
                        "vehicle_type_id": "303"
                    }
                ]
            },
            "type": "Feature"
        },
        {
            "geometry": {
                "coordinates": [
                    15.980012,
                    50.577363
                ],
                "type": "Point"
            },
            "properties": {
                "capacity": 4,
                "is_installed": true,
                "is_renting": true,
                "is_returning": true,
                "is_virtual_station": false,
                "last_reported": 1789323960,
                "name": "Lhota u Trutnova (+25 minut na p\u0159\u00edjezd i odjezd)",
                "num_bikes_available": 2,
                "num_docks_available": 2,
                "region_id": "792",
                "rental_uris": {
                    "android": "https://app.nextbike.net/station?id=535349990",
                    "ios": "https://app.nextbike.net/station?id=535349990",
                    "web": "https://nxtb.it/p/535349990"
                },
                "short_name": "49859",
                "station_id": "535349990",
                "vehicle_types_available": [
                    {
                        "count": 1,
                        "vehicle_type_id": "303"
                    },
                    {
                        "count": 1,
                        "vehicle_type_id": "258"
                    }
                ]
            },
            "type": "Feature"
        },
        {
            "geometry": {
                "coordinates": [
                    15.937047,
                    50.569684
                ],
                "type": "Point"
            },
            "properties": {
                "capacity": 4,
                "is_installed": true,
                "is_renting": true,
                "is_returning": true,
                "is_virtual_station": false,
                "last_reported": 1789323960,
                "name": "Ekvita",
                "num_bikes_available": 8,
                "num_docks_available": 0,
                "region_id": "792",
                "rental_uris": {
                    "android": "https://app.nextbike.net/station?id=535350155",
                    "ios": "https://app.nextbike.net/station?id=535350155",
                    "web": "https://nxtb.it/p/535350155"
                },
                "short_name": "49860",
                "station_id": "535350155",
                "vehicle_types_available": [
                    {
                        "count": 7,
                        "vehicle_type_id": "258"
                    },
                    {
                        "count": 1,
                        "vehicle_type_id": "183"
                    }
                ]
            },
            "type": "Feature"
        },
        {
            "geometry": {
                "coordinates": [
                    15.894121,
                    50.568687
                ],
                "type": "Point"
            },
            "properties": {
                "capacity": 4,
                "is_installed": true,
                "is_renting": true,
                "is_returning": true,
                "is_virtual_station": false,
                "last_reported": 1789323960,
                "name": "Obchodn\u00ed/pr\u016fmyslov\u00e1 z\u00f3na",
                "num_bikes_available": 0,
                "num_docks_available": 4,
                "region_id": "792",
                "rental_uris": {
                    "android": "https://app.nextbike.net/station?id=535350312",
                    "ios": "https://app.nextbike.net/station?id=535350312",
                    "web": "https://nxtb.it/p/535350312"
                },
                "short_name": "49861",
                "station_id": "535350312",
                "vehicle_types_available": []
            },
            "type": "Feature"
        },
        {
            "geometry": {
                "coordinates": [
                    15.895483,
                    50.580234
                ],
                "type": "Point"
            },
            "properties": {
                "capacity": 4,
                "is_installed": true,
                "is_renting": true,
                "is_returning": true,
                "is_virtual_station": false,
                "last_reported": 1789323960,
                "name": "Za Kom\u00ednem",
                "num_bikes_available": 8,
                "num_docks_available": 0,
                "region_id": "792",
                "rental_uris": {
                    "android": "https://app.nextbike.net/station?id=535350468",
                    "ios": "https://app.nextbike.net/station?id=535350468",
                    "web": "https://nxtb.it/p/535350468"
                },
                "short_name": "49862",
                "station_id": "535350468",
                "vehicle_types_available": [
                    {
                        "count": 6,
                        "vehicle_type_id": "258"
                    },
                    {
                        "count": 2,
                        "vehicle_type_id": "183"
                    }
                ]
            },
            "type": "Feature"
        },
        {
            "geometry": {
                "coordinates": [
                    15.88847,
                    50.585884
                ],
                "type": "Point"
            },
            "properties": {
                "capacity": 4,
                "is_installed": true,
                "is_renting": true,
                "is_returning": true,
                "is_virtual_station": false,
                "last_reported": 1789323960,
                "name": "HSM u po\u0161ty",
                "num_bikes_available": 4,
                "num_docks_available": 0,
                "region_id": "792",
                "rental_uris": {
                    "android": "https://app.nextbike.net/station?id=535350627",
                    "ios": "https://app.nextbike.net/station?id=535350627",
                    "web": "https://nxtb.it/p/535350627"
                },
                "short_name": "49863",
                "station_id": "535350627",
                "vehicle_types_available": [
                    {
                        "count": 2,
                        "vehicle_type_id": "258"
                    },
                    {
                        "count": 1,
                        "vehicle_type_id": "303"
                    },
                    {
                        "count": 1,
                        "vehicle_type_id": "183"
                    }
                ]
            },
            "type": "Feature"
        },
        {
            "geometry": {
                "coordinates": [
                    15.87775,
                    50.595559
                ],
                "type": "Point"
            },
            "properties": {
                "is_installed": true,
                "is_renting": true,
                "is_returning": true,
                "is_virtual_station": false,
                "last_reported": 1789323960,
                "name": "HSM U Kousala (+25 minut na p\u0159\u00edjezd i odjezd)",
                "num_bikes_available": 1,
                "num_docks_available": 0,
                "region_id": "792",
                "rental_uris": {
                    "android": "https://app.nextbike.net/station?id=535359259",
                    "ios": "https://app.nextbike.net/station?id=535359259",
                    "web": "https://nxtb.it/p/535359259"
                },
                "short_name": "49864",
                "station_id": "535359259",
                "vehicle_types_available": [
                    {
                        "count": 1,
                        "vehicle_type_id": "183"
                    }
                ]
            },
            "type": "Feature"
        },
        {
            "geometry": {
                "coordinates": [
                    15.9282,
                    50.56525
                ],
                "type": "Point"
            },
            "properties": {
                "is_installed": true,
                "is_renting": true,
                "is_returning": true,
                "is_virtual_station": false,
                "last_reported": 1789323960,
                "name": "Letn\u00ed koupali\u0161t\u011b Trutnov",
                "num_bikes_available": 5,
                "num_docks_available": 0,
                "region_id": "792",
                "rental_uris": {
                    "android": "https://app.nextbike.net/station?id=554734831",
                    "ios": "https://app.nextbike.net/station?id=554734831",
                    "web": "https://nxtb.it/p/554734831"
                },
                "short_name": "49865",
                "station_id": "554734831",
                "vehicle_types_available": [
                    {
                        "count": 1,
                        "vehicle_type_id": "441"
                    },
                    {
                        "count": 4,
                        "vehicle_type_id": "258"
                    }
                ]
            },
            "type": "Feature"
        },
        {
            "geometry": {
                "coordinates": [
                    15.91133,
                    50.5456
                ],
                "type": "Point"
            },
            "properties": {
                "is_installed": true,
                "is_renting": true,
                "is_returning": true,
                "is_virtual_station": false,
                "last_reported": 1789323960,
                "name": "Boji\u0161t\u011b (+25 minut na p\u0159\u00edjezd i odjezd)",
                "num_bikes_available": 2,
                "num_docks_available": 0,
                "region_id": "792",
                "rental_uris": {
                    "android": "https://app.nextbike.net/station?id=557264771",
                    "ios": "https://app.nextbike.net/station?id=557264771",
                    "web": "https://nxtb.it/p/557264771"
                },
                "short_name": "49866",
                "station_id": "557264771",
                "vehicle_types_available": [
                    {
                        "count": 1,
                        "vehicle_type_id": "258"
                    },
                    {
                        "count": 1,
                        "vehicle_type_id": "183"
                    }
                ]
            },
            "type": "Feature"
        },
        {
            "geometry": {
                "coordinates": [
                    15.94994,
                    50.57664
                ],
                "type": "Point"
            },
            "properties": {
                "is_installed": true,
                "is_renting": true,
                "is_returning": true,
                "is_virtual_station": false,
                "last_reported": 1789323960,
                "name": "Sportovn\u00ed - FK Po\u0159\u00ed\u010d\u00ed",
                "num_bikes_available": 3,
                "num_docks_available": 0,
                "region_id": "792",
                "rental_uris": {
                    "android": "https://app.nextbike.net/station?id=563232247",
                    "ios": "https://app.nextbike.net/station?id=563232247",
                    "web": "https://nxtb.it/p/563232247"
                },
                "short_name": "49867",
                "station_id": "563232247",
                "vehicle_types_available": [
                    {
                        "count": 2,
                        "vehicle_type_id": "258"
                    },
                    {
                        "count": 1,
                        "vehicle_type_id": "440"
                    }
                ]
            },
            "type": "Feature"
        },
        {
            "geometry": {
                "coordinates": [
                    15.95928,
                    50.57517
                ],
                "type": "Point"
            },
            "properties": {
                "is_installed": true,
                "is_renting": true,
                "is_returning": true,
                "is_virtual_station": false,
                "last_reported": 1789323960,
                "name": "N\u00e1chodsk\u00e1/Pet\u0159\u00edkovick\u00e1",
                "num_bikes_available": 2,
                "num_docks_available": 0,
                "region_id": "792",
                "rental_uris": {
                    "android": "https://app.nextbike.net/station?id=563232556",
                    "ios": "https://app.nextbike.net/station?id=563232556",
                    "web": "https://nxtb.it/p/563232556"
                },
                "short_name": "49868",
                "station_id": "563232556",
                "vehicle_types_available": [
                    {
                        "count": 2,
                        "vehicle_type_id": "258"
                    }
                ]
            },
            "type": "Feature"
        },
        {
            "geometry": {
                "coordinates": [
                    15.89173,
                    50.55813
                ],
                "type": "Point"
            },
            "properties": {
                "is_installed": true,
                "is_renting": true,
                "is_returning": true,
                "is_virtual_station": false,
                "last_reported": 1789323960,
                "name": "Siemens",
                "num_bikes_available": 0,
                "num_docks_available": 0,
                "region_id": "792",
                "rental_uris": {
                    "android": "https://app.nextbike.net/station?id=571525981",
                    "ios": "https://app.nextbike.net/station?id=571525981",
                    "web": "https://nxtb.it/p/571525981"
                },
                "short_name": "49869",
                "station_id": "571525981",
                "vehicle_types_available": []
            },
            "type": "Feature"
        },
        {
            "geometry": {
                "coordinates": [
                    15.87175,
                    50.558087
                ],
                "type": "Point"
            },
            "properties": {
                "is_installed": true,
                "is_renting": true,
                "is_returning": true,
                "is_virtual_station": false,
                "last_reported": 1789323960,
                "name": "Volanov - obrati\u0161t\u011b autobusu",
                "num_bikes_available": 2,
                "num_docks_available": 0,
                "region_id": "792",
                "rental_uris": {
                    "android": "https://app.nextbike.net/station?id=620518685",
                    "ios": "https://app.nextbike.net/station?id=620518685",
                    "web": "https://nxtb.it/p/620518685"
                },
                "short_name": "47096",
                "station_id": "620518685",
                "vehicle_types_available": [
                    {
                        "count": 2,
                        "vehicle_type_id": "258"
                    }
                ]
            },
            "type": "Feature"
        },
        {
            "geometry": {
                "coordinates": [
                    15.965217,
                    50.579811
                ],
                "type": "Point"
            },
            "properties": {
                "is_installed": true,
                "is_renting": true,
                "is_returning": true,
                "is_virtual_station": false,
                "last_reported": 1789323960,
                "name": "Trutnov, Po\u0159\u00ed\u010d\u00ed - obrati\u0161t\u011b autobusu",
                "num_bikes_available": 5,
                "num_docks_available": 0,
                "region_id": "792",
                "rental_uris": {
                    "android": "https://app.nextbike.net/station?id=620519482",
                    "ios": "https://app.nextbike.net/station?id=620519482",
                    "web": "https://nxtb.it/p/620519482"
                },
                "short_name": "47106",
                "station_id": "620519482",
                "vehicle_types_available": [
                    {
                        "count": 5,
                        "vehicle_type_id": "258"
                    }
                ]
            },
            "type": "Feature"
        }
    ],
    "gbfs": {
        "station_information": {
            "last_updated": 1789323960,
            "ttl": 60,
            "version": "2.3"
        },
        "station_status": {
            "last_updated": 1789323960,
            "ttl": 60,
            "version": "2.3"
        }
    },
    "type": "FeatureCollection"
}