{
    "features": [
        {
            "geometry": {
                "coordinates": [
                    13.491517,
                    52.636179
                ],
                "type": "Point"
            },
            "properties": {
                "capacity": 10,
                "is_installed": true,
                "is_renting": true,
                "is_returning": true,
                "is_virtual_station": false,
                "last_reported": 1789132426,
                "name": "Jelbi S Buch/Moorwiese (BUC/BUC)",
                "num_bikes_available": 22,
                "num_docks_available": 0,
                "region_id": "508",
                "rental_uris": {
                    "android": "https://app.nextbike.net/station?id=122954251",
                    "ios": "https://app.nextbike.net/station?id=122954251",
                    "web": "https://nxtb.it/p/122954251"
                },
                "short_name": "1886",
                "station_id": "122954251",
                "vehicle_types_available": [
                    {
                        "count": 21,
                        "vehicle_type_id": "196"
                    },
                    {
                        "count": 1,
                        "vehicle_type_id": "150"
                    }
                ]
            },
            "type": "Feature"
        },
        {
            "geometry": {
                "coordinates": [
                    13.49584,
                    52.6258
                ],
                "type": "Point"
            },
            "properties": {
                "capacity": 4,
                "is_installed": true,
                "is_renting": true,
                "is_returning": true,
                "is_virtual_station": false,
                "last_reported": 1789132426,
                "name": "Jelbi Karower Chaussee (BUC/KA)",
                "num_bikes_available": 2,
                "num_docks_available": 2,
                "region_id": "508",
                "rental_uris": {
                    "android": "https://app.nextbike.net/station?id=122954602",
                    "ios": "https://app.nextbike.net/station?id=122954602",
                    "web": "https://nxtb.it/p/122954602"
                },
                "short_name": "1887",
                "station_id": "122954602",
                "vehicle_types_available": [
                    {
                        "count": 2,
                        "vehicle_type_id": "196"
                    }
                ]
            },
            "type": "Feature"
        },
        {
            "geometry": {
                "coordinates": [
                    13.507435,
                    52.626968
                ],
                "type": "Point"
            },
            "properties": {
                "capacity": 8,
                "is_installed": true,
                "is_renting": true,
                "is_returning": true,
                "is_virtual_station": false,
                "last_reported": 1789132426,
                "name": "Jelbi Campus Buch/B51 (BUC/B51)",
                "num_bikes_available": 2,
                "num_docks_available": 6,
                "region_id": "508",
                "rental_uris": {
                    "android": "https://app.nextbike.net/station?id=167824186",
                    "ios": "https://app.nextbike.net/station?id=167824186",
                    "web": "https://nxtb.it/p/167824186"
                },
                "short_name": "11391",
                "station_id": "167824186",
                "vehicle_types_available": [
                    {
                        "count": 1,
                        "vehicle_type_id": "150"
                    },
                    {
                        "count": 1,
                        "vehicle_type_id": "196"
                    }
                ]
            },
            "type": "Feature"
        },
        {
            "geometry": {
                "coordinates": [
                    13.499832,
                    52.624643
                ],
                "type": "Point"
            },
            "properties": {
                "capacity": 4,
                "is_installed": true,
                "is_renting": true,
                "is_returning": true,
                "is_virtual_station": true,
                "last_reported": 1789132426,
                "name": "Campus Buch/D85",
                "num_bikes_available": 0,
                "num_docks_available": 4,
                "region_id": "508",
                "rental_uris": {
                    "android": "https://app.nextbike.net/station?id=359545716",
                    "ios": "https://app.nextbike.net/station?id=359545716",
                    "web": "https://nxtb.it/p/359545716"
                },
                "short_name": "13447",
                "station_area": {
                    "coordinates": [
                        [
                            [
                                [
                                    13.499832,
                                    52.624868
                                ],
                                [
                                    13.500153,
                                    52.624755
                                ],
                                [
                                    13.500153,
                                    52.624531
                                ],
                                [
                                    13.499832,
                                    52.624418
                                ],
                                [
                                    13.499511,
                                    52.624531
                                ],
                                [
                                    13.499511,
                                    52.624755
                                ],
                                [
                                    13.499832,
                                    52.624868
                                ]
                            ]
                        ]
                    ],
                    "type": "MultiPolygon"
                },
                "station_id": "359545716",
                "vehicle_types_available": []
            },
            "type": "Feature"
        },
        {
            "geometry": {
                "coordinates": [
                    13.500072,
                    52.625081
                ],
                "type": "Point"
            },
            "properties": {
                "capacity": 4,
                "is_installed": true,
                "is_renting": true,
                "is_returning": true,
                "is_virtual_station": true,
                "last_reported": 1789132426,
                "name": "Campus Buch/Haus 95",
                "num_bikes_available": 2,
                "num_docks_available": 2,
                "region_id": "508",
                "rental_uris": {
                    "android": "https://app.nextbike.net/station?id=359583489",
                    "ios": "https://app.nextbike.net/station?id=359583489",
                    "web": "https://nxtb.it/p/359583489"
                },
                "short_name": "13446",
                "station_area": {
                    "coordinates": [
                        [
                            [
                                [
                                    13.500072,
                                    52.625306
                                ],
                                [
                                    13.500393,
                                    52.625193
                                ],
                                [
                                    13.500393,
                                    52.624969
                                ],
                                [
                                    13.500072,
                                    52.624856
                                ],
                                [
                                    13.499751,
                                    52.624969
                                ],
                                [
                                    13.499751,
                                    52.625193
                                ],
                                [
                                    13.500072,
                                    52.625306
                                ]
                            ]
                        ]
                    ],
                    "type": "MultiPolygon"
                },
                "station_id": "359583489",
                "vehicle_types_available": [
                    {
                        "count": 2,
                        "vehicle_type_id": "196"
                    }
                ]
            },
            "type": "Feature"
        },
        {
            "geometry": {
                "coordinates": [
                    13.504254,
                    52.625456
                ],
                "type": "Point"
            },
            "properties": {
                "capacity": 4,
                "is_installed": true,
                "is_renting": true,
                "is_returning": true,
                "is_virtual_station": true,
                "last_reported": 1789132426,
                "name": "Campus Buch/Haus C87",
                "num_bikes_available": 1,
                "num_docks_available": 3,
                "region_id": "508",
                "rental_uris": {
                    "android": "https://app.nextbike.net/station?id=408990364",
                    "ios": "https://app.nextbike.net/station?id=408990364",
                    "web": "https://nxtb.it/p/408990364"
                },
                "short_name": "13753",
                "station_area": {
                    "coordinates": [
                        [
                            [
                                [
                                    13.504254,
                                    52.625681
                                ],
                                [
                                    13.504575,
                                    52.625568
                                ],
                                [
                                    13.504575,
                                    52.625344
                                ],
                                [
                                    13.504254,
                                    52.625231
                                ],
                                [
                                    13.503933,
                                    52.625344
                                ],
                                [
                                    13.503933,
                                    52.625568
                                ],
                                [
                                    13.504254,
                                    52.625681
                                ]
                            ]
                        ]
                    ],
                    "type": "MultiPolygon"
                },
                "station_id": "408990364",
                "vehicle_types_available": [
                    {
                        "count": 1,
                        "vehicle_type_id": "196"
                    }
                ]
            },
            "type": "Feature"
        },
        {
            "geometry": {
                "coordinates": [
                    13.492504,
                    52.634492
                ],
                "type": "Point"
            },
            "properties": {
                "capacity": 40,
                "is_installed": true,
                "is_renting": true,
                "is_returning": true,
                "is_virtual_station": false,
                "last_reported": 1789132426,
                "name": "Jelbi S Buch/P+R-Parkplatz 2 (BUC/BP)",
                "num_bikes_available": 9,
                "num_docks_available": 31,
                "region_id": "508",
                "rental_uris": {
                    "android": "https://app.nextbike.net/station?id=422741451",
                    "ios": "https://app.nextbike.net/station?id=422741451",
                    "web": "https://nxtb.it/p/422741451"
                },
                "short_name": "13780",
                "station_id": "422741451",
                "vehicle_types_available": [
                    {
                        "count": 8,
                        "vehicle_type_id": "196"
                    },
                    {
                        "count": 1,
                        "vehicle_type_id": "150"
                    }
                ]
            },
            "type": "Feature"
        },
        {
            "geometry": {
                "coordinates": [
                    13.506747,
                    52.628431
                ],
                "type": "Point"
            },
            "properties": {
                "is_installed": true,
                "is_renting": true,
                "is_returning": true,
                "is_virtual_station": false,
                "last_reported": 1789132426,
                "name": "Jelbi Campus Buch/Lindenberger Weg 2 (BUC/LIN)",
                "num_bikes_available": 2,
                "num_docks_available": 0,
                "region_id": "508",
                "rental_uris": {
                    "android": "https://app.nextbike.net/station?id=422753412",
                    "ios": "https://app.nextbike.net/station?id=422753412",
                    "web": "https://nxtb.it/p/422753412"
                },
                "short_name": "13781",
                "station_id": "422753412",
                "vehicle_types_available": [
                    {
                        "count": 2,
                        "vehicle_type_id": "196"
                    }
                ]
            },
            "type": "Feature"
        },
        {
            "geometry": {
                "coordinates": [
                    13.500336,
                    52.626349
                ],
                "type": "Point"
            },
            "properties": {
                "capacity": 6,
                "is_installed": true,
                "is_renting": true,
                "is_returning": true,
                "is_virtual_station": false,
                "last_reported": 1789132426,
                "name": "Jelbi Campus Buch/Robert-R\u00f6ssle-Stra\u00dfe (BUC/ROB)",
                "num_bikes_available": 0,
                "num_docks_available": 6,
                "region_id": "508",
                "rental_uris": {
                    "android": "https://app.nextbike.net/station?id=46077350",
                    "ios": "https://app.nextbike.net/station?id=46077350",
                    "web": "https://nxtb.it/p/46077350"
                },
                "short_name": "3196",
                "station_id": "46077350",
                "vehicle_types_available": []
            },
            "type": "Feature"
        },
        {
            "geometry": {
                "coordinates": [
                    13.49929,
                    52.624945
                ],
                "type": "Point"
            },
            "properties": {
                "capacity": 8,
                "is_installed": true,
                "is_renting": true,
                "is_returning": true,
                "is_virtual_station": false,
                "last_reported": 1789132426,
                "name": "Jelbi Campus Buch/D85 (BUC/D85)",
                "num_bikes_available": 0,
                "num_docks_available": 8,
                "region_id": "508",
                "rental_uris": {
                    "android": "https://app.nextbike.net/station?id=46077425",
                    "ios": "https://app.nextbike.net/station?id=46077425",
                    "web": "https://nxtb.it/p/46077425"
                },
                "short_name": "3195",
                "station_id": "46077425",
                "vehicle_types_available": []
            },
            "type": "Feature"
        },
        {
            "geometry": {
                "coordinates": [
                    13.506183,
                    52.628137
                ],
                "type": "Point"
            },
            "properties": {
                "capacity": 12,
                "is_installed": true,
                "is_renting": true,
                "is_returning": true,
                "is_virtual_station": false,
                "last_reported": 1789132426,
                "name": "Jelbi Campus Buch/Lindenberger Weg (BUC/LIN)",
                "num_bikes_available": 2,
                "num_docks_available": 10,
                "region_id": "508",
                "rental_uris": {
                    "android": "https://app.nextbike.net/station?id=46077466",
                    "ios": "https://app.nextbike.net/station?id=46077466",
                    "web": "https://nxtb.it/p/46077466"
                },
                "short_name": "3194",
                "station_id": "46077466",
                "vehicle_types_available": [
                    {
                        "count": 1,
                        "vehicle_type_id": "150"
                    },
                    {
                        "count": 1,
                        "vehicle_type_id": "196"
                    }
                ]
            },
            "type": "Feature"
        },
        {
            "geometry": {
                "coordinates": [
                    13.503181,
                    52.624279
                ],
                "type": "Point"
            },
            "properties": {
                "capacity": 9,
                "is_installed": true,
                "is_renting": true,
                "is_returning": true,
                "is_virtual_station": false,
                "last_reported": 1789132426,
                "name": "Jelbi Campus Buch/C31 (BUC/C31)",
                "num_bikes_available": 13,
                "num_docks_available": 0,
                "region_id": "508",
                "rental_uris": {
                    "android": "https://app.nextbike.net/station?id=46077490",
                    "ios": "https://app.nextbike.net/station?id=46077490",
                    "web": "https://nxtb.it/p/46077490"
                },
                "short_name": "3193",
                "station_id": "46077490",
                "vehicle_types_available": [
                    {
                        "count": 1,
                        "vehicle_type_id": "150"
                    },
                    {
                        "count": 12,
                        "vehicle_type_id": "196"
                    }
                ]
            },
            "type": "Feature"
        },
        {
            "geometry": {
                "coordinates": [
                    13.492751,
                    52.634606
                ],
                "type": "Point"
            },
            "properties": {
                "capacity": 40,
                "is_installed": true,
                "is_renting": true,
                "is_returning": true,
                "is_virtual_station": false,
                "last_reported": 1789132426,
                "name": "Jelbi S Buch/P+R-Parkplatz (BUC/BP)",
                "num_bikes_available": 28,
                "num_docks_available": 12,
                "region_id": "508",
                "rental_uris": {
                    "android": "https://app.nextbike.net/station?id=7560421",
                    "ios": "https://app.nextbike.net/station?id=7560421",
                    "web": "https://nxtb.it/p/7560421"
                },
                "short_name": "3200",
                "station_id": "7560421",
                "vehicle_types_available": [
                    {
                        "count": 27,
                        "vehicle_type_id": "196"
                    },
                    {
                        "count": 1,
                        "vehicle_type_id": "150"
                    }
                ]
            },
            "type": "Feature"
        },
        {
            "geometry": {
                "coordinates": [
                    13.510754,
                    52.631881
                ],
                "type": "Point"
            },
            "properties": {
                "capacity": 20,
                "is_installed": true,
                "is_renting": true,
                "is_returning": true,
                "is_virtual_station": false,
                "last_reported": 1789132426,
                "name": "Helios Klinikum Berlin-Buch",
                "num_bikes_available": 2,
                "num_docks_available": 18,
                "region_id": "508",
                "rental_uris": {
                    "android": "https://app.nextbike.net/station?id=7560434",
                    "ios": "https://app.nextbike.net/station?id=7560434",
                    "web": "https://nxtb.it/p/7560434"
                },
                "short_name": "3199",
                "station_id": "7560434",
                "vehicle_types_available": [
                    {
                        "count": 2,
                        "vehicle_type_id": "196"
                    }
                ]
            },
            "type": "Feature"
        },
        {
            "geometry": {
                "coordinates": [
                    13.501709,
                    52.625639
                ],
                "type": "Point"
            },
            "properties": {
                "capacity": 10,
                "is_installed": true,
                "is_renting": true,
                "is_returning": true,
                "is_virtual_station": false,
                "last_reported": 1789132426,
                "name": "Jelbi Campus Buch/D79 (BUC/D79)",
                "num_bikes_available": 8,
                "num_docks_available": 2,
                "region_id": "508",
                "rental_uris": {
                    "android": "https://app.nextbike.net/station?id=7560448",
                    "ios": "https://app.nextbike.net/station?id=7560448",
                    "web": "https://nxtb.it/p/7560448"
                },
                "short_name": "3198",
                "station_id": "7560448",
                "vehicle_types_available": [
                    {
                        "count": 8,
                        "vehicle_type_id": "196"
                    }
                ]
            },
            "type": "Feature"
        },
        {
            "geometry": {
                "coordinates": [
                    13.502682,
                    52.625857
                ],
                "type": "Point"
            },
            "properties": {
                "capacity": 10,
                "is_installed": true,
                "is_renting": true,
                "is_returning": true,
                "is_virtual_station": false,
                "last_reported": 1789132426,
                "name": "Jelbi Campus Buch/D24 (BUC/D24)",
                "num_bikes_available": 6,
                "num_docks_available": 4,
                "region_id": "508",
                "rental_uris": {
                    "android": "https://app.nextbike.net/station?id=7560461",
                    "ios": "https://app.nextbike.net/station?id=7560461",
                    "web": "https://nxtb.it/p/7560461"
                },
                "short_name": "3197",
                "station_id": "7560461",
                "vehicle_types_available": [
                    {
                        "count": 6,
                        "vehicle_type_id": "196"
                    }
                ]
            },
            "type": "Feature"
        }
    ],
    "gbfs": {
        "station_information": {
            "last_updated": 1789132426,
            "ttl": 60,
            "version": "2.3"
        },
        "station_status": {
            "last_updated": 1789132426,
            "ttl": 60,
            "version": "2.3"
        }
    },
    "type": "FeatureCollection"
}