{
    "features": [
        {
            "geometry": {
                "coordinates": [
                    9.447008,
                    51.306439
                ],
                "type": "Point"
            },
            "properties": {
                "capacity": 6,
                "is_installed": true,
                "is_renting": true,
                "is_returning": true,
                "is_virtual_station": false,
                "last_reported": 1789297967,
                "name": "DAV Kassel",
                "num_bikes_available": 2,
                "num_docks_available": 4,
                "region_id": "462",
                "rental_uris": {
                    "android": "https://app.nextbike.net/station?id=217138511",
                    "ios": "https://app.nextbike.net/station?id=217138511",
                    "web": "https://nxtb.it/p/217138511"
                },
                "short_name": "7094",
                "station_id": "217138511",
                "vehicle_types_available": [
                    {
                        "count": 1,
                        "vehicle_type_id": "150"
                    },
                    {
                        "count": 1,
                        "vehicle_type_id": "196"
                    }
                ]
            },
            "type": "Feature"
        },
        {
            "geometry": {
                "coordinates": [
                    9.483653,
                    51.297021
                ],
                "type": "Point"
            },
            "properties": {
                "capacity": 10,
                "is_installed": true,
                "is_renting": true,
                "is_returning": true,
                "is_virtual_station": false,
                "last_reported": 1789297967,
                "name": "Damaschkestra\u00dfe",
                "num_bikes_available": 2,
                "num_docks_available": 8,
                "region_id": "462",
                "rental_uris": {
                    "android": "https://app.nextbike.net/station?id=25708482",
                    "ios": "https://app.nextbike.net/station?id=25708482",
                    "web": "https://nxtb.it/p/25708482"
                },
                "short_name": "7034",
                "station_id": "25708482",
                "vehicle_types_available": [
                    {
                        "count": 1,
                        "vehicle_type_id": "71"
                    },
                    {
                        "count": 1,
                        "vehicle_type_id": "196"
                    }
                ]
            },
            "type": "Feature"
        },
        {
            "geometry": {
                "coordinates": [
                    9.489237,
                    51.317588
                ],
                "type": "Point"
            },
            "properties": {
                "capacity": 10,
                "is_installed": true,
                "is_renting": true,
                "is_returning": true,
                "is_virtual_station": false,
                "last_reported": 1789297967,
                "name": "Mobility Hub Hbf",
                "num_bikes_available": 2,
                "num_docks_available": 8,
                "region_id": "462",
                "rental_uris": {
                    "android": "https://app.nextbike.net/station?id=394324957",
                    "ios": "https://app.nextbike.net/station?id=394324957",
                    "web": "https://nxtb.it/p/394324957"
                },
                "short_name": "7095",
                "station_id": "394324957",
                "vehicle_types_available": [
                    {
                        "count": 1,
                        "vehicle_type_id": "71"
                    },
                    {
                        "count": 1,
                        "vehicle_type_id": "150"
                    }
                ]
            },
            "type": "Feature"
        },
        {
            "geometry": {
                "coordinates": [
                    9.504843,
                    51.323444
                ],
                "type": "Point"
            },
            "properties": {
                "capacity": 20,
                "is_installed": true,
                "is_renting": true,
                "is_returning": true,
                "is_virtual_station": false,
                "last_reported": 1789297967,
                "name": "Moritzstr. / LEO",
                "num_bikes_available": 29,
                "num_docks_available": 0,
                "region_id": "462",
                "rental_uris": {
                    "android": "https://app.nextbike.net/station?id=457336095",
                    "ios": "https://app.nextbike.net/station?id=457336095",
                    "web": "https://nxtb.it/p/457336095"
                },
                "short_name": "7096",
                "station_id": "457336095",
                "vehicle_types_available": [
                    {
                        "count": 17,
                        "vehicle_type_id": "71"
                    },
                    {
                        "count": 9,
                        "vehicle_type_id": "150"
                    },
                    {
                        "count": 3,
                        "vehicle_type_id": "196"
                    }
                ]
            },
            "type": "Feature"
        },
        {
            "geometry": {
                "coordinates": [
                    9.504294,
                    51.325766
                ],
                "type": "Point"
            },
            "properties": {
                "capacity": 8,
                "is_installed": true,
                "is_renting": true,
                "is_returning": true,
                "is_virtual_station": false,
                "last_reported": 1789297967,
                "name": "Gottschalkstr. / Nordcampus",
                "num_bikes_available": 5,
                "num_docks_available": 3,
                "region_id": "462",
                "rental_uris": {
                    "android": "https://app.nextbike.net/station?id=457337269",
                    "ios": "https://app.nextbike.net/station?id=457337269",
                    "web": "https://nxtb.it/p/457337269"
                },
                "short_name": "7097",
                "station_id": "457337269",
                "vehicle_types_available": [
                    {
                        "count": 2,
                        "vehicle_type_id": "71"
                    },
                    {
                        "count": 3,
                        "vehicle_type_id": "150"
                    }
                ]
            },
            "type": "Feature"
        },
        {
            "geometry": {
                "coordinates": [
                    9.445608,
                    51.312612
                ],
                "type": "Point"
            },
            "properties": {
                "capacity": 8,
                "is_installed": true,
                "is_renting": true,
                "is_returning": true,
                "is_virtual_station": false,
                "last_reported": 1789297967,
                "name": "Mobility Hub Kassel-Wilhelmsh\u00f6he",
                "num_bikes_available": 3,
                "num_docks_available": 5,
                "region_id": "462",
                "rental_uris": {
                    "android": "https://app.nextbike.net/station?id=462746086",
                    "ios": "https://app.nextbike.net/station?id=462746086",
                    "web": "https://nxtb.it/p/462746086"
                },
                "short_name": "7098",
                "station_id": "462746086",
                "vehicle_types_available": [
                    {
                        "count": 1,
                        "vehicle_type_id": "71"
                    },
                    {
                        "count": 1,
                        "vehicle_type_id": "150"
                    },
                    {
                        "count": 1,
                        "vehicle_type_id": "196"
                    }
                ]
            },
            "type": "Feature"
        },
        {
            "geometry": {
                "coordinates": [
                    9.498684,
                    51.331074
                ],
                "type": "Point"
            },
            "properties": {
                "capacity": 10,
                "is_installed": true,
                "is_renting": true,
                "is_returning": true,
                "is_virtual_station": false,
                "last_reported": 1789297967,
                "name": "Hauptfriedhof / Eisenschmiede",
                "num_bikes_available": 6,
                "num_docks_available": 4,
                "region_id": "462",
                "rental_uris": {
                    "android": "https://app.nextbike.net/station?id=518486268",
                    "ios": "https://app.nextbike.net/station?id=518486268",
                    "web": "https://nxtb.it/p/518486268"
                },
                "short_name": "7099",
                "station_id": "518486268",
                "vehicle_types_available": [
                    {
                        "count": 5,
                        "vehicle_type_id": "150"
                    },
                    {
                        "count": 1,
                        "vehicle_type_id": "196"
                    }
                ]
            },
            "type": "Feature"
        },
        {
            "geometry": {
                "coordinates": [
                    9.49729,
                    51.31609
                ],
                "type": "Point"
            },
            "properties": {
                "capacity": 12,
                "is_installed": true,
                "is_renting": true,
                "is_returning": true,
                "is_virtual_station": false,
                "last_reported": 1789297967,
                "name": "K\u00f6nigsplatz West",
                "num_bikes_available": 0,
                "num_docks_available": 12,
                "region_id": "462",
                "rental_uris": {
                    "android": "https://app.nextbike.net/station?id=5560003",
                    "ios": "https://app.nextbike.net/station?id=5560003",
                    "web": "https://nxtb.it/p/5560003"
                },
                "short_name": "7036",
                "station_id": "5560003",
                "vehicle_types_available": []
            },
            "type": "Feature"
        },
        {
            "geometry": {
                "coordinates": [
                    9.49885,
                    51.31554
                ],
                "type": "Point"
            },
            "properties": {
                "capacity": 8,
                "is_installed": true,
                "is_renting": true,
                "is_returning": true,
                "is_virtual_station": false,
                "last_reported": 1789297967,
                "name": "K\u00f6nigsplatz Ost",
                "num_bikes_available": 1,
                "num_docks_available": 7,
                "region_id": "462",
                "rental_uris": {
                    "android": "https://app.nextbike.net/station?id=5560017",
                    "ios": "https://app.nextbike.net/station?id=5560017",
                    "web": "https://nxtb.it/p/5560017"
                },
                "short_name": "7037",
                "station_id": "5560017",
                "vehicle_types_available": [
                    {
                        "count": 1,
                        "vehicle_type_id": "71"
                    }
                ]
            },
            "type": "Feature"
        },
        {
            "geometry": {
                "coordinates": [
                    9.50202,
                    51.31546
                ],
                "type": "Point"
            },
            "properties": {
                "capacity": 6,
                "is_installed": true,
                "is_renting": true,
                "is_returning": true,
                "is_virtual_station": false,
                "last_reported": 1789297967,
                "name": "Markthalle",
                "num_bikes_available": 1,
                "num_docks_available": 5,
                "region_id": "462",
                "rental_uris": {
                    "android": "https://app.nextbike.net/station?id=5560027",
                    "ios": "https://app.nextbike.net/station?id=5560027",
                    "web": "https://nxtb.it/p/5560027"
                },
                "short_name": "7038",
                "station_id": "5560027",
                "vehicle_types_available": [
                    {
                        "count": 1,
                        "vehicle_type_id": "150"
                    }
                ]
            },
            "type": "Feature"
        },
        {
            "geometry": {
                "coordinates": [
                    9.493845,
                    51.3139
                ],
                "type": "Point"
            },
            "properties": {
                "capacity": 10,
                "is_installed": true,
                "is_renting": true,
                "is_returning": true,
                "is_virtual_station": false,
                "last_reported": 1789297967,
                "name": "Friedrichsplatz",
                "num_bikes_available": 0,
                "num_docks_available": 10,
                "region_id": "462",
                "rental_uris": {
                    "android": "https://app.nextbike.net/station?id=5560030",
                    "ios": "https://app.nextbike.net/station?id=5560030",
                    "web": "https://nxtb.it/p/5560030"
                },
                "short_name": "7039",
                "station_id": "5560030",
                "vehicle_types_available": []
            },
            "type": "Feature"
        },
        {
            "geometry": {
                "coordinates": [
                    9.498689,
                    51.312213
                ],
                "type": "Point"
            },
            "properties": {
                "capacity": 15,
                "is_installed": true,
                "is_renting": true,
                "is_returning": true,
                "is_virtual_station": false,
                "last_reported": 1789297967,
                "name": "Staatstheater",
                "num_bikes_available": 0,
                "num_docks_available": 15,
                "region_id": "462",
                "rental_uris": {
                    "android": "https://app.nextbike.net/station?id=5560034",
                    "ios": "https://app.nextbike.net/station?id=5560034",
                    "web": "https://nxtb.it/p/5560034"
                },
                "short_name": "7040",
                "station_id": "5560034",
                "vehicle_types_available": []
            },
            "type": "Feature"
        },
        {
            "geometry": {
                "coordinates": [
                    9.49335,
                    51.31257
                ],
                "type": "Point"
            },
            "properties": {
                "capacity": 10,
                "is_installed": true,
                "is_renting": true,
                "is_returning": true,
                "is_virtual_station": false,
                "last_reported": 1789297967,
                "name": "Rathaus",
                "num_bikes_available": 3,
                "num_docks_available": 7,
                "region_id": "462",
                "rental_uris": {
                    "android": "https://app.nextbike.net/station?id=5560041",
                    "ios": "https://app.nextbike.net/station?id=5560041",
                    "web": "https://nxtb.it/p/5560041"
                },
                "short_name": "7041",
                "station_id": "5560041",
                "vehicle_types_available": [
                    {
                        "count": 2,
                        "vehicle_type_id": "71"
                    },
                    {
                        "count": 1,
                        "vehicle_type_id": "196"
                    }
                ]
            },
            "type": "Feature"
        },
        {
            "geometry": {
                "coordinates": [
                    9.49071,
                    51.31431
                ],
                "type": "Point"
            },
            "properties": {
                "capacity": 8,
                "is_installed": true,
                "is_renting": true,
                "is_returning": true,
                "is_virtual_station": false,
                "last_reported": 1789297967,
                "name": "Wilhelmsstra\u00dfe",
                "num_bikes_available": 0,
                "num_docks_available": 8,
                "region_id": "462",
                "rental_uris": {
                    "android": "https://app.nextbike.net/station?id=5560067",
                    "ios": "https://app.nextbike.net/station?id=5560067",
                    "web": "https://nxtb.it/p/5560067"
                },
                "short_name": "7042",
                "station_id": "5560067",
                "vehicle_types_available": []
            },
            "type": "Feature"
        },
        {
            "geometry": {
                "coordinates": [
                    9.48602,
                    51.31139
                ],
                "type": "Point"
            },
            "properties": {
                "capacity": 8,
                "is_installed": true,
                "is_renting": true,
                "is_returning": true,
                "is_virtual_station": false,
                "last_reported": 1789297967,
                "name": "Volkshochschule",
                "num_bikes_available": 0,
                "num_docks_available": 8,
                "region_id": "462",
                "rental_uris": {
                    "android": "https://app.nextbike.net/station?id=5560080",
                    "ios": "https://app.nextbike.net/station?id=5560080",
                    "web": "https://nxtb.it/p/5560080"
                },
                "short_name": "7043",
                "station_id": "5560080",
                "vehicle_types_available": []
            },
            "type": "Feature"
        },
        {
            "geometry": {
                "coordinates": [
                    9.488548,
                    51.312947
                ],
                "type": "Point"
            },
            "properties": {
                "capacity": 7,
                "is_installed": true,
                "is_renting": true,
                "is_returning": true,
                "is_virtual_station": false,
                "last_reported": 1789297967,
                "name": "K\u00f6nigstor",
                "num_bikes_available": 0,
                "num_docks_available": 7,
                "region_id": "462",
                "rental_uris": {
                    "android": "https://app.nextbike.net/station?id=5560096",
                    "ios": "https://app.nextbike.net/station?id=5560096",
                    "web": "https://nxtb.it/p/5560096"
                },
                "short_name": "7044",
                "station_id": "5560096",
                "vehicle_types_available": []
            },
            "type": "Feature"
        },
        {
            "geometry": {
                "coordinates": [
                    9.491111,
                    51.317819
                ],
                "type": "Point"
            },
            "properties": {
                "capacity": 20,
                "is_installed": true,
                "is_renting": true,
                "is_returning": true,
                "is_virtual_station": false,
                "last_reported": 1789297967,
                "name": "Hauptbahnhof",
                "num_bikes_available": 8,
                "num_docks_available": 12,
                "region_id": "462",
                "rental_uris": {
                    "android": "https://app.nextbike.net/station?id=5560105",
                    "ios": "https://app.nextbike.net/station?id=5560105",
                    "web": "https://nxtb.it/p/5560105"
                },
                "short_name": "7045",
                "station_id": "5560105",
                "vehicle_types_available": [
                    {
                        "count": 3,
                        "vehicle_type_id": "71"
                    },
                    {
                        "count": 3,
                        "vehicle_type_id": "150"
                    },
                    {
                        "count": 2,
                        "vehicle_type_id": "196"
                    }
                ]
            },
            "type": "Feature"
        },
        {
            "geometry": {
                "coordinates": [
                    9.485512,
                    51.314839
                ],
                "type": "Point"
            },
            "properties": {
                "capacity": 12,
                "is_installed": true,
                "is_renting": true,
                "is_returning": true,
                "is_virtual_station": false,
                "last_reported": 1789297967,
                "name": "Karth\u00e4userstra\u00dfe",
                "num_bikes_available": 4,
                "num_docks_available": 8,
                "region_id": "462",
                "rental_uris": {
                    "android": "https://app.nextbike.net/station?id=5560114",
                    "ios": "https://app.nextbike.net/station?id=5560114",
                    "web": "https://nxtb.it/p/5560114"
                },
                "short_name": "7046",
                "station_id": "5560114",
                "vehicle_types_available": [
                    {
                        "count": 1,
                        "vehicle_type_id": "71"
                    },
                    {
                        "count": 3,
                        "vehicle_type_id": "150"
                    }
                ]
            },
            "type": "Feature"
        },
        {
            "geometry": {
                "coordinates": [
                    9.478739,
                    51.315274
                ],
                "type": "Point"
            },
            "properties": {
                "capacity": 6,
                "is_installed": true,
                "is_renting": true,
                "is_returning": true,
                "is_virtual_station": false,
                "last_reported": 1789297967,
                "name": "Annastra\u00dfe",
                "num_bikes_available": 2,
                "num_docks_available": 3,
                "region_id": "462",
                "rental_uris": {
                    "android": "https://app.nextbike.net/station?id=5560128",
                    "ios": "https://app.nextbike.net/station?id=5560128",
                    "web": "https://nxtb.it/p/5560128"
                },
                "short_name": "7047",
                "station_id": "5560128",
                "vehicle_types_available": [
                    {
                        "count": 1,
                        "vehicle_type_id": "71"
                    },
                    {
                        "count": 1,
                        "vehicle_type_id": "150"
                    }
                ]
            },
            "type": "Feature"
        },
        {
            "geometry": {
                "coordinates": [
                    9.475371,
                    51.319367
                ],
                "type": "Point"
            },
            "properties": {
                "capacity": 8,
                "is_installed": true,
                "is_renting": true,
                "is_returning": true,
                "is_virtual_station": false,
                "last_reported": 1789297967,
                "name": "Jugendherberge",
                "num_bikes_available": 0,
                "num_docks_available": 8,
                "region_id": "462",
                "rental_uris": {
                    "android": "https://app.nextbike.net/station?id=5560138",
                    "ios": "https://app.nextbike.net/station?id=5560138",
                    "web": "https://nxtb.it/p/5560138"
                },
                "short_name": "7048",
                "station_id": "5560138",
                "vehicle_types_available": []
            },
            "type": "Feature"
        },
        {
            "geometry": {
                "coordinates": [
                    9.47255,
                    51.314379
                ],
                "type": "Point"
            },
            "properties": {
                "capacity": 7,
                "is_installed": true,
                "is_renting": true,
                "is_returning": true,
                "is_virtual_station": false,
                "last_reported": 1789297967,
                "name": "Goethestra\u00dfe",
                "num_bikes_available": 3,
                "num_docks_available": 4,
                "region_id": "462",
                "rental_uris": {
                    "android": "https://app.nextbike.net/station?id=5560164",
                    "ios": "https://app.nextbike.net/station?id=5560164",
                    "web": "https://nxtb.it/p/5560164"
                },
                "short_name": "7050",
                "station_id": "5560164",
                "vehicle_types_available": [
                    {
                        "count": 2,
                        "vehicle_type_id": "71"
                    },
                    {
                        "count": 1,
                        "vehicle_type_id": "150"
                    }
                ]
            },
            "type": "Feature"
        },
        {
            "geometry": {
                "coordinates": [
                    9.474651,
                    51.311955
                ],
                "type": "Point"
            },
            "properties": {
                "capacity": 10,
                "is_installed": true,
                "is_renting": true,
                "is_returning": true,
                "is_virtual_station": false,
                "last_reported": 1789297967,
                "name": "Murhardstra\u00dfe / Uni",
                "num_bikes_available": 0,
                "num_docks_available": 10,
                "region_id": "462",
                "rental_uris": {
                    "android": "https://app.nextbike.net/station?id=5560170",
                    "ios": "https://app.nextbike.net/station?id=5560170",
                    "web": "https://nxtb.it/p/5560170"
                },
                "short_name": "7051",
                "station_id": "5560170",
                "vehicle_types_available": []
            },
            "type": "Feature"
        },
        {
            "geometry": {
                "coordinates": [
                    9.460285,
                    51.316036
                ],
                "type": "Point"
            },
            "properties": {
                "capacity": 10,
                "is_installed": true,
                "is_renting": true,
                "is_returning": true,
                "is_virtual_station": false,
                "last_reported": 1789297967,
                "name": "Stadthalle",
                "num_bikes_available": 4,
                "num_docks_available": 6,
                "region_id": "462",
                "rental_uris": {
                    "android": "https://app.nextbike.net/station?id=5560256",
                    "ios": "https://app.nextbike.net/station?id=5560256",
                    "web": "https://nxtb.it/p/5560256"
                },
                "short_name": "7052",
                "station_id": "5560256",
                "vehicle_types_available": [
                    {
                        "count": 3,
                        "vehicle_type_id": "71"
                    },
                    {
                        "count": 1,
                        "vehicle_type_id": "150"
                    }
                ]
            },
            "type": "Feature"
        },
        {
            "geometry": {
                "coordinates": [
                    9.463214,
                    51.314803
                ],
                "type": "Point"
            },
            "properties": {
                "capacity": 6,
                "is_installed": true,
                "is_renting": true,
                "is_returning": true,
                "is_virtual_station": false,
                "last_reported": 1789297967,
                "name": "Diakonie-Kliniken",
                "num_bikes_available": 10,
                "num_docks_available": 0,
                "region_id": "462",
                "rental_uris": {
                    "android": "https://app.nextbike.net/station?id=5560267",
                    "ios": "https://app.nextbike.net/station?id=5560267",
                    "web": "https://nxtb.it/p/5560267"
                },
                "short_name": "7053",
                "station_id": "5560267",
                "vehicle_types_available": [
                    {
                        "count": 3,
                        "vehicle_type_id": "71"
                    },
                    {
                        "count": 6,
                        "vehicle_type_id": "150"
                    },
                    {
                        "count": 1,
                        "vehicle_type_id": "196"
                    }
                ]
            },
            "type": "Feature"
        },
        {
            "geometry": {
                "coordinates": [
                    9.465542,
                    51.312303
                ],
                "type": "Point"
            },
            "properties": {
                "capacity": 8,
                "is_installed": true,
                "is_renting": true,
                "is_returning": true,
                "is_virtual_station": false,
                "last_reported": 1789297967,
                "name": "Kirchweg",
                "num_bikes_available": 8,
                "num_docks_available": 0,
                "region_id": "462",
                "rental_uris": {
                    "android": "https://app.nextbike.net/station?id=5560285",
                    "ios": "https://app.nextbike.net/station?id=5560285",
                    "web": "https://nxtb.it/p/5560285"
                },
                "short_name": "7054",
                "station_id": "5560285",
                "vehicle_types_available": [
                    {
                        "count": 4,
                        "vehicle_type_id": "71"
                    },
                    {
                        "count": 3,
                        "vehicle_type_id": "150"
                    },
                    {
                        "count": 1,
                        "vehicle_type_id": "196"
                    }
                ]
            },
            "type": "Feature"
        },
        {
            "geometry": {
                "coordinates": [
                    9.468461,
                    51.309326
                ],
                "type": "Point"
            },
            "properties": {
                "capacity": 8,
                "is_installed": true,
                "is_renting": true,
                "is_returning": true,
                "is_virtual_station": false,
                "last_reported": 1789297967,
                "name": "Georg-Stock-Platz",
                "num_bikes_available": 4,
                "num_docks_available": 4,
                "region_id": "462",
                "rental_uris": {
                    "android": "https://app.nextbike.net/station?id=5560295",
                    "ios": "https://app.nextbike.net/station?id=5560295",
                    "web": "https://nxtb.it/p/5560295"
                },
                "short_name": "7055",
                "station_id": "5560295",
                "vehicle_types_available": [
                    {
                        "count": 2,
                        "vehicle_type_id": "150"
                    },
                    {
                        "count": 2,
                        "vehicle_type_id": "196"
                    }
                ]
            },
            "type": "Feature"
        },
        {
            "geometry": {
                "coordinates": [
                    9.454979,
                    51.312021
                ],
                "type": "Point"
            },
            "properties": {
                "capacity": 8,
                "is_installed": true,
                "is_renting": true,
                "is_returning": true,
                "is_virtual_station": false,
                "last_reported": 1789297967,
                "name": "Rotes Kreuz",
                "num_bikes_available": 5,
                "num_docks_available": 3,
                "region_id": "462",
                "rental_uris": {
                    "android": "https://app.nextbike.net/station?id=5560307",
                    "ios": "https://app.nextbike.net/station?id=5560307",
                    "web": "https://nxtb.it/p/5560307"
                },
                "short_name": "7056",
                "station_id": "5560307",
                "vehicle_types_available": [
                    {
                        "count": 1,
                        "vehicle_type_id": "71"
                    },
                    {
                        "count": 3,
                        "vehicle_type_id": "150"
                    },
                    {
                        "count": 1,
                        "vehicle_type_id": "196"
                    }
                ]
            },
            "type": "Feature"
        },
        {
            "geometry": {
                "coordinates": [
                    9.446036,
                    51.313125
                ],
                "type": "Point"
            },
            "properties": {
                "capacity": 40,
                "is_installed": true,
                "is_renting": true,
                "is_returning": true,
                "is_virtual_station": false,
                "last_reported": 1789297967,
                "name": "ICE-Bahnhof",
                "num_bikes_available": 11,
                "num_docks_available": 29,
                "region_id": "462",
                "rental_uris": {
                    "android": "https://app.nextbike.net/station?id=5560319",
                    "ios": "https://app.nextbike.net/station?id=5560319",
                    "web": "https://nxtb.it/p/5560319"
                },
                "short_name": "7057",
                "station_id": "5560319",
                "vehicle_types_available": [
                    {
                        "count": 4,
                        "vehicle_type_id": "71"
                    },
                    {
                        "count": 7,
                        "vehicle_type_id": "150"
                    }
                ]
            },
            "type": "Feature"
        },
        {
            "geometry": {
                "coordinates": [
                    9.423904,
                    51.31542
                ],
                "type": "Point"
            },
            "properties": {
                "capacity": 8,
                "is_installed": true,
                "is_renting": true,
                "is_returning": true,
                "is_virtual_station": false,
                "last_reported": 1789297967,
                "name": "Wilhelmsh\u00f6he (Park)",
                "num_bikes_available": 1,
                "num_docks_available": 7,
                "region_id": "462",
                "rental_uris": {
                    "android": "https://app.nextbike.net/station?id=5560328",
                    "ios": "https://app.nextbike.net/station?id=5560328",
                    "web": "https://nxtb.it/p/5560328"
                },
                "short_name": "7058",
                "station_id": "5560328",
                "vehicle_types_available": [
                    {
                        "count": 1,
                        "vehicle_type_id": "150"
                    }
                ]
            },
            "type": "Feature"
        },
        {
            "geometry": {
                "coordinates": [
                    9.426645,
                    51.307824
                ],
                "type": "Point"
            },
            "properties": {
                "capacity": 8,
                "is_installed": true,
                "is_renting": true,
                "is_returning": true,
                "is_virtual_station": false,
                "last_reported": 1789297967,
                "name": "Freibad Wilhelmsh\u00f6he",
                "num_bikes_available": 1,
                "num_docks_available": 7,
                "region_id": "462",
                "rental_uris": {
                    "android": "https://app.nextbike.net/station?id=5560391",
                    "ios": "https://app.nextbike.net/station?id=5560391",
                    "web": "https://nxtb.it/p/5560391"
                },
                "short_name": "7059",
                "station_id": "5560391",
                "vehicle_types_available": [
                    {
                        "count": 1,
                        "vehicle_type_id": "150"
                    }
                ]
            },
            "type": "Feature"
        },
        {
            "geometry": {
                "coordinates": [
                    9.530147,
                    51.328259
                ],
                "type": "Point"
            },
            "properties": {
                "capacity": 12,
                "is_installed": true,
                "is_renting": true,
                "is_returning": true,
                "is_virtual_station": false,
                "last_reported": 1789297967,
                "name": "Wolfsgraben",
                "num_bikes_available": 20,
                "num_docks_available": 0,
                "region_id": "462",
                "rental_uris": {
                    "android": "https://app.nextbike.net/station?id=5560744",
                    "ios": "https://app.nextbike.net/station?id=5560744",
                    "web": "https://nxtb.it/p/5560744"
                },
                "short_name": "7060",
                "station_id": "5560744",
                "vehicle_types_available": [
                    {
                        "count": 4,
                        "vehicle_type_id": "71"
                    },
                    {
                        "count": 8,
                        "vehicle_type_id": "150"
                    },
                    {
                        "count": 8,
                        "vehicle_type_id": "196"
                    }
                ]
            },
            "type": "Feature"
        },
        {
            "geometry": {
                "coordinates": [
                    9.517355,
                    51.339359
                ],
                "type": "Point"
            },
            "properties": {
                "capacity": 6,
                "is_installed": true,
                "is_renting": true,
                "is_returning": true,
                "is_virtual_station": false,
                "last_reported": 1789297967,
                "name": "Ihringsh\u00e4user Stra\u00dfe",
                "num_bikes_available": 0,
                "num_docks_available": 6,
                "region_id": "462",
                "rental_uris": {
                    "android": "https://app.nextbike.net/station?id=5560763",
                    "ios": "https://app.nextbike.net/station?id=5560763",
                    "web": "https://nxtb.it/p/5560763"
                },
                "short_name": "7061",
                "station_id": "5560763",
                "vehicle_types_available": []
            },
            "type": "Feature"
        },
        {
            "geometry": {
                "coordinates": [
                    9.512976,
                    51.323173
                ],
                "type": "Point"
            },
            "properties": {
                "capacity": 6,
                "is_installed": true,
                "is_renting": true,
                "is_returning": true,
                "is_virtual_station": false,
                "last_reported": 1789297967,
                "name": "Weserspitze",
                "num_bikes_available": 21,
                "num_docks_available": 0,
                "region_id": "462",
                "rental_uris": {
                    "android": "https://app.nextbike.net/station?id=5560771",
                    "ios": "https://app.nextbike.net/station?id=5560771",
                    "web": "https://nxtb.it/p/5560771"
                },
                "short_name": "7062",
                "station_id": "5560771",
                "vehicle_types_available": [
                    {
                        "count": 11,
                        "vehicle_type_id": "71"
                    },
                    {
                        "count": 8,
                        "vehicle_type_id": "150"
                    },
                    {
                        "count": 2,
                        "vehicle_type_id": "196"
                    }
                ]
            },
            "type": "Feature"
        },
        {
            "geometry": {
                "coordinates": [
                    9.509572,
                    51.327568
                ],
                "type": "Point"
            },
            "properties": {
                "capacity": 8,
                "is_installed": true,
                "is_renting": true,
                "is_returning": true,
                "is_virtual_station": false,
                "last_reported": 1789297967,
                "name": "Klinikum Kassel",
                "num_bikes_available": 0,
                "num_docks_available": 8,
                "region_id": "462",
                "rental_uris": {
                    "android": "https://app.nextbike.net/station?id=5560790",
                    "ios": "https://app.nextbike.net/station?id=5560790",
                    "web": "https://nxtb.it/p/5560790"
                },
                "short_name": "7063",
                "station_id": "5560790",
                "vehicle_types_available": []
            },
            "type": "Feature"
        },
        {
            "geometry": {
                "coordinates": [
                    9.500279,
                    51.326898
                ],
                "type": "Point"
            },
            "properties": {
                "capacity": 4,
                "is_installed": true,
                "is_renting": true,
                "is_returning": true,
                "is_virtual_station": false,
                "last_reported": 1789297967,
                "name": "Mombachstra\u00dfe",
                "num_bikes_available": 17,
                "num_docks_available": 0,
                "region_id": "462",
                "rental_uris": {
                    "android": "https://app.nextbike.net/station?id=5560804",
                    "ios": "https://app.nextbike.net/station?id=5560804",
                    "web": "https://nxtb.it/p/5560804"
                },
                "short_name": "7064",
                "station_id": "5560804",
                "vehicle_types_available": [
                    {
                        "count": 6,
                        "vehicle_type_id": "71"
                    },
                    {
                        "count": 8,
                        "vehicle_type_id": "150"
                    },
                    {
                        "count": 3,
                        "vehicle_type_id": "196"
                    }
                ]
            },
            "type": "Feature"
        },
        {
            "geometry": {
                "coordinates": [
                    9.503909,
                    51.32155
                ],
                "type": "Point"
            },
            "properties": {
                "capacity": 20,
                "is_installed": true,
                "is_renting": true,
                "is_returning": true,
                "is_virtual_station": false,
                "last_reported": 1789297967,
                "name": "Uni / Diagonale",
                "num_bikes_available": 8,
                "num_docks_available": 12,
                "region_id": "462",
                "rental_uris": {
                    "android": "https://app.nextbike.net/station?id=5560816",
                    "ios": "https://app.nextbike.net/station?id=5560816",
                    "web": "https://nxtb.it/p/5560816"
                },
                "short_name": "7065",
                "station_id": "5560816",
                "vehicle_types_available": [
                    {
                        "count": 8,
                        "vehicle_type_id": "150"
                    }
                ]
            },
            "type": "Feature"
        },
        {
            "geometry": {
                "coordinates": [
                    9.50268,
                    51.321503
                ],
                "type": "Point"
            },
            "properties": {
                "capacity": 18,
                "is_installed": true,
                "is_renting": true,
                "is_returning": true,
                "is_virtual_station": false,
                "last_reported": 1789297967,
                "name": "Uni / Holl\u00e4ndischer Platz",
                "num_bikes_available": 36,
                "num_docks_available": 0,
                "region_id": "462",
                "rental_uris": {
                    "android": "https://app.nextbike.net/station?id=5560834",
                    "ios": "https://app.nextbike.net/station?id=5560834",
                    "web": "https://nxtb.it/p/5560834"
                },
                "short_name": "7066",
                "station_id": "5560834",
                "vehicle_types_available": [
                    {
                        "count": 12,
                        "vehicle_type_id": "71"
                    },
                    {
                        "count": 19,
                        "vehicle_type_id": "150"
                    },
                    {
                        "count": 5,
                        "vehicle_type_id": "196"
                    }
                ]
            },
            "type": "Feature"
        },
        {
            "geometry": {
                "coordinates": [
                    9.480582,
                    51.340163
                ],
                "type": "Point"
            },
            "properties": {
                "capacity": 7,
                "is_installed": true,
                "is_renting": true,
                "is_returning": true,
                "is_virtual_station": false,
                "last_reported": 1789297967,
                "name": "Holl\u00e4ndische Stra\u00dfe",
                "num_bikes_available": 0,
                "num_docks_available": 7,
                "region_id": "462",
                "rental_uris": {
                    "android": "https://app.nextbike.net/station?id=5560844",
                    "ios": "https://app.nextbike.net/station?id=5560844",
                    "web": "https://nxtb.it/p/5560844"
                },
                "short_name": "7067",
                "station_id": "5560844",
                "vehicle_types_available": []
            },
            "type": "Feature"
        },
        {
            "geometry": {
                "coordinates": [
                    9.474805,
                    51.325718
                ],
                "type": "Point"
            },
            "properties": {
                "capacity": 8,
                "is_installed": true,
                "is_renting": true,
                "is_returning": true,
                "is_virtual_station": false,
                "last_reported": 1789297967,
                "name": "Engelhardstra\u00dfe",
                "num_bikes_available": 6,
                "num_docks_available": 2,
                "region_id": "462",
                "rental_uris": {
                    "android": "https://app.nextbike.net/station?id=5560848",
                    "ios": "https://app.nextbike.net/station?id=5560848",
                    "web": "https://nxtb.it/p/5560848"
                },
                "short_name": "7068",
                "station_id": "5560848",
                "vehicle_types_available": [
                    {
                        "count": 1,
                        "vehicle_type_id": "71"
                    },
                    {
                        "count": 1,
                        "vehicle_type_id": "150"
                    },
                    {
                        "count": 4,
                        "vehicle_type_id": "196"
                    }
                ]
            },
            "type": "Feature"
        },
        {
            "geometry": {
                "coordinates": [
                    9.464089,
                    51.339265
                ],
                "type": "Point"
            },
            "properties": {
                "capacity": 14,
                "is_installed": true,
                "is_renting": true,
                "is_returning": true,
                "is_virtual_station": false,
                "last_reported": 1789297967,
                "name": "Jungfernkopf",
                "num_bikes_available": 1,
                "num_docks_available": 13,
                "region_id": "462",
                "rental_uris": {
                    "android": "https://app.nextbike.net/station?id=5560863",
                    "ios": "https://app.nextbike.net/station?id=5560863",
                    "web": "https://nxtb.it/p/5560863"
                },
                "short_name": "7069",
                "station_id": "5560863",
                "vehicle_types_available": [
                    {
                        "count": 1,
                        "vehicle_type_id": "196"
                    }
                ]
            },
            "type": "Feature"
        },
        {
            "geometry": {
                "coordinates": [
                    9.451718,
                    51.324793
                ],
                "type": "Point"
            },
            "properties": {
                "capacity": 8,
                "is_installed": true,
                "is_renting": true,
                "is_returning": true,
                "is_virtual_station": false,
                "last_reported": 1789297967,
                "name": "Kirchditmold",
                "num_bikes_available": 4,
                "num_docks_available": 4,
                "region_id": "462",
                "rental_uris": {
                    "android": "https://app.nextbike.net/station?id=5560877",
                    "ios": "https://app.nextbike.net/station?id=5560877",
                    "web": "https://nxtb.it/p/5560877"
                },
                "short_name": "7070",
                "station_id": "5560877",
                "vehicle_types_available": [
                    {
                        "count": 1,
                        "vehicle_type_id": "71"
                    },
                    {
                        "count": 1,
                        "vehicle_type_id": "150"
                    },
                    {
                        "count": 2,
                        "vehicle_type_id": "196"
                    }
                ]
            },
            "type": "Feature"
        },
        {
            "geometry": {
                "coordinates": [
                    9.438513,
                    51.336623
                ],
                "type": "Point"
            },
            "properties": {
                "capacity": 6,
                "is_installed": true,
                "is_renting": true,
                "is_returning": true,
                "is_virtual_station": false,
                "last_reported": 1789297967,
                "name": "Karlshafener Stra\u00dfe",
                "num_bikes_available": 0,
                "num_docks_available": 6,
                "region_id": "462",
                "rental_uris": {
                    "android": "https://app.nextbike.net/station?id=5560891",
                    "ios": "https://app.nextbike.net/station?id=5560891",
                    "web": "https://nxtb.it/p/5560891"
                },
                "short_name": "7071",
                "station_id": "5560891",
                "vehicle_types_available": []
            },
            "type": "Feature"
        },
        {
            "geometry": {
                "coordinates": [
                    9.429219,
                    51.340659
                ],
                "type": "Point"
            },
            "properties": {
                "capacity": 6,
                "is_installed": true,
                "is_renting": true,
                "is_returning": true,
                "is_virtual_station": false,
                "last_reported": 1789297967,
                "name": "Freibad Harleshausen",
                "num_bikes_available": 0,
                "num_docks_available": 6,
                "region_id": "462",
                "rental_uris": {
                    "android": "https://app.nextbike.net/station?id=5560899",
                    "ios": "https://app.nextbike.net/station?id=5560899",
                    "web": "https://nxtb.it/p/5560899"
                },
                "short_name": "7072",
                "station_id": "5560899",
                "vehicle_types_available": []
            },
            "type": "Feature"
        },
        {
            "geometry": {
                "coordinates": [
                    9.531139,
                    51.303159
                ],
                "type": "Point"
            },
            "properties": {
                "capacity": 8,
                "is_installed": true,
                "is_renting": true,
                "is_returning": true,
                "is_virtual_station": false,
                "last_reported": 1789297967,
                "name": "Leipziger Platz",
                "num_bikes_available": 3,
                "num_docks_available": 5,
                "region_id": "462",
                "rental_uris": {
                    "android": "https://app.nextbike.net/station?id=5560913",
                    "ios": "https://app.nextbike.net/station?id=5560913",
                    "web": "https://nxtb.it/p/5560913"
                },
                "short_name": "7073",
                "station_id": "5560913",
                "vehicle_types_available": [
                    {
                        "count": 1,
                        "vehicle_type_id": "71"
                    },
                    {
                        "count": 1,
                        "vehicle_type_id": "150"
                    },
                    {
                        "count": 1,
                        "vehicle_type_id": "196"
                    }
                ]
            },
            "type": "Feature"
        },
        {
            "geometry": {
                "coordinates": [
                    9.536782,
                    51.313276
                ],
                "type": "Point"
            },
            "properties": {
                "capacity": 18,
                "is_installed": true,
                "is_renting": true,
                "is_returning": true,
                "is_virtual_station": false,
                "last_reported": 1789297967,
                "name": "Salzmannshausen",
                "num_bikes_available": 9,
                "num_docks_available": 9,
                "region_id": "462",
                "rental_uris": {
                    "android": "https://app.nextbike.net/station?id=5561254",
                    "ios": "https://app.nextbike.net/station?id=5561254",
                    "web": "https://nxtb.it/p/5561254"
                },
                "short_name": "7074",
                "station_id": "5561254",
                "vehicle_types_available": [
                    {
                        "count": 4,
                        "vehicle_type_id": "71"
                    },
                    {
                        "count": 3,
                        "vehicle_type_id": "150"
                    },
                    {
                        "count": 2,
                        "vehicle_type_id": "196"
                    }
                ]
            },
            "type": "Feature"
        },
        {
            "geometry": {
                "coordinates": [
                    9.509055,
                    51.313255
                ],
                "type": "Point"
            },
            "properties": {
                "capacity": 20,
                "is_installed": true,
                "is_renting": true,
                "is_returning": true,
                "is_virtual_station": false,
                "last_reported": 1789297967,
                "name": "Unterneustadt",
                "num_bikes_available": 23,
                "num_docks_available": 0,
                "region_id": "462",
                "rental_uris": {
                    "android": "https://app.nextbike.net/station?id=5561262",
                    "ios": "https://app.nextbike.net/station?id=5561262",
                    "web": "https://nxtb.it/p/5561262"
                },
                "short_name": "7075",
                "station_id": "5561262",
                "vehicle_types_available": [
                    {
                        "count": 8,
                        "vehicle_type_id": "71"
                    },
                    {
                        "count": 9,
                        "vehicle_type_id": "150"
                    },
                    {
                        "count": 6,
                        "vehicle_type_id": "196"
                    }
                ]
            },
            "type": "Feature"
        },
        {
            "geometry": {
                "coordinates": [
                    9.515107,
                    51.289957
                ],
                "type": "Point"
            },
            "properties": {
                "capacity": 8,
                "is_installed": true,
                "is_renting": true,
                "is_returning": true,
                "is_virtual_station": false,
                "last_reported": 1789297967,
                "name": "Alt Waldau",
                "num_bikes_available": 8,
                "num_docks_available": 0,
                "region_id": "462",
                "rental_uris": {
                    "android": "https://app.nextbike.net/station?id=5561270",
                    "ios": "https://app.nextbike.net/station?id=5561270",
                    "web": "https://nxtb.it/p/5561270"
                },
                "short_name": "7076",
                "station_id": "5561270",
                "vehicle_types_available": [
                    {
                        "count": 4,
                        "vehicle_type_id": "71"
                    },
                    {
                        "count": 2,
                        "vehicle_type_id": "150"
                    },
                    {
                        "count": 2,
                        "vehicle_type_id": "196"
                    }
                ]
            },
            "type": "Feature"
        },
        {
            "geometry": {
                "coordinates": [
                    9.499535,
                    51.300761
                ],
                "type": "Point"
            },
            "properties": {
                "capacity": 20,
                "is_installed": true,
                "is_renting": true,
                "is_returning": true,
                "is_virtual_station": false,
                "last_reported": 1789297967,
                "name": "Auebad",
                "num_bikes_available": 0,
                "num_docks_available": 20,
                "region_id": "462",
                "rental_uris": {
                    "android": "https://app.nextbike.net/station?id=5561309",
                    "ios": "https://app.nextbike.net/station?id=5561309",
                    "web": "https://nxtb.it/p/5561309"
                },
                "short_name": "7077",
                "station_id": "5561309",
                "vehicle_types_available": []
            },
            "type": "Feature"
        },
        {
            "geometry": {
                "coordinates": [
                    9.487205,
                    51.303978
                ],
                "type": "Point"
            },
            "properties": {
                "capacity": 4,
                "is_installed": true,
                "is_renting": true,
                "is_returning": true,
                "is_virtual_station": false,
                "last_reported": 1789297967,
                "name": "Menzelstra\u00dfe / Uni",
                "num_bikes_available": 17,
                "num_docks_available": 0,
                "region_id": "462",
                "rental_uris": {
                    "android": "https://app.nextbike.net/station?id=5561317",
                    "ios": "https://app.nextbike.net/station?id=5561317",
                    "web": "https://nxtb.it/p/5561317"
                },
                "short_name": "7078",
                "station_id": "5561317",
                "vehicle_types_available": [
                    {
                        "count": 4,
                        "vehicle_type_id": "71"
                    },
                    {
                        "count": 8,
                        "vehicle_type_id": "150"
                    },
                    {
                        "count": 5,
                        "vehicle_type_id": "196"
                    }
                ]
            },
            "type": "Feature"
        },
        {
            "geometry": {
                "coordinates": [
                    9.481636,
                    51.29903
                ],
                "type": "Point"
            },
            "properties": {
                "capacity": 12,
                "is_installed": true,
                "is_renting": true,
                "is_returning": true,
                "is_virtual_station": false,
                "last_reported": 1789297967,
                "name": "Auestadion",
                "num_bikes_available": 2,
                "num_docks_available": 10,
                "region_id": "462",
                "rental_uris": {
                    "android": "https://app.nextbike.net/station?id=5561350",
                    "ios": "https://app.nextbike.net/station?id=5561350",
                    "web": "https://nxtb.it/p/5561350"
                },
                "short_name": "7079",
                "station_id": "5561350",
                "vehicle_types_available": [
                    {
                        "count": 1,
                        "vehicle_type_id": "71"
                    },
                    {
                        "count": 1,
                        "vehicle_type_id": "150"
                    }
                ]
            },
            "type": "Feature"
        },
        {
            "geometry": {
                "coordinates": [
                    9.468818,
                    51.284675
                ],
                "type": "Point"
            },
            "properties": {
                "capacity": 7,
                "is_installed": true,
                "is_renting": true,
                "is_returning": true,
                "is_virtual_station": false,
                "last_reported": 1789297967,
                "name": "Dennh\u00e4user Stra\u00dfe",
                "num_bikes_available": 12,
                "num_docks_available": 0,
                "region_id": "462",
                "rental_uris": {
                    "android": "https://app.nextbike.net/station?id=5561363",
                    "ios": "https://app.nextbike.net/station?id=5561363",
                    "web": "https://nxtb.it/p/5561363"
                },
                "short_name": "7080",
                "station_id": "5561363",
                "vehicle_types_available": [
                    {
                        "count": 6,
                        "vehicle_type_id": "71"
                    },
                    {
                        "count": 5,
                        "vehicle_type_id": "150"
                    },
                    {
                        "count": 1,
                        "vehicle_type_id": "196"
                    }
                ]
            },
            "type": "Feature"
        },
        {
            "geometry": {
                "coordinates": [
                    9.444193,
                    51.305012
                ],
                "type": "Point"
            },
            "properties": {
                "capacity": 8,
                "is_installed": true,
                "is_renting": true,
                "is_returning": true,
                "is_virtual_station": false,
                "last_reported": 1789297967,
                "name": "Marbachsh\u00f6he",
                "num_bikes_available": 4,
                "num_docks_available": 4,
                "region_id": "462",
                "rental_uris": {
                    "android": "https://app.nextbike.net/station?id=5561375",
                    "ios": "https://app.nextbike.net/station?id=5561375",
                    "web": "https://nxtb.it/p/5561375"
                },
                "short_name": "7082",
                "station_id": "5561375",
                "vehicle_types_available": [
                    {
                        "count": 2,
                        "vehicle_type_id": "71"
                    },
                    {
                        "count": 2,
                        "vehicle_type_id": "196"
                    }
                ]
            },
            "type": "Feature"
        },
        {
            "geometry": {
                "coordinates": [
                    9.446438,
                    51.280527
                ],
                "type": "Point"
            },
            "properties": {
                "capacity": 6,
                "is_installed": true,
                "is_renting": true,
                "is_returning": true,
                "is_virtual_station": false,
                "last_reported": 1789297967,
                "name": "Heinrich-Plett-Str./Uni",
                "num_bikes_available": 2,
                "num_docks_available": 4,
                "region_id": "462",
                "rental_uris": {
                    "android": "https://app.nextbike.net/station?id=5561382",
                    "ios": "https://app.nextbike.net/station?id=5561382",
                    "web": "https://nxtb.it/p/5561382"
                },
                "short_name": "7083",
                "station_id": "5561382",
                "vehicle_types_available": [
                    {
                        "count": 2,
                        "vehicle_type_id": "150"
                    }
                ]
            },
            "type": "Feature"
        },
        {
            "geometry": {
                "coordinates": [
                    9.504772,
                    51.29165
                ],
                "type": "Point"
            },
            "properties": {
                "capacity": 8,
                "is_installed": true,
                "is_renting": true,
                "is_returning": true,
                "is_virtual_station": false,
                "last_reported": 1789297967,
                "name": "Buga / Seglergastst\u00e4tte",
                "num_bikes_available": 4,
                "num_docks_available": 4,
                "region_id": "462",
                "rental_uris": {
                    "android": "https://app.nextbike.net/station?id=5561394",
                    "ios": "https://app.nextbike.net/station?id=5561394",
                    "web": "https://nxtb.it/p/5561394"
                },
                "short_name": "7084",
                "station_id": "5561394",
                "vehicle_types_available": [
                    {
                        "count": 3,
                        "vehicle_type_id": "150"
                    },
                    {
                        "count": 1,
                        "vehicle_type_id": "196"
                    }
                ]
            },
            "type": "Feature"
        },
        {
            "geometry": {
                "coordinates": [
                    9.452539,
                    51.29523
                ],
                "type": "Point"
            },
            "properties": {
                "capacity": 10,
                "is_installed": true,
                "is_renting": true,
                "is_returning": true,
                "is_virtual_station": false,
                "last_reported": 1789297967,
                "name": "Rh\u00f6nplatz",
                "num_bikes_available": 11,
                "num_docks_available": 0,
                "region_id": "462",
                "rental_uris": {
                    "android": "https://app.nextbike.net/station?id=5561407",
                    "ios": "https://app.nextbike.net/station?id=5561407",
                    "web": "https://nxtb.it/p/5561407"
                },
                "short_name": "7085",
                "station_id": "5561407",
                "vehicle_types_available": [
                    {
                        "count": 3,
                        "vehicle_type_id": "71"
                    },
                    {
                        "count": 7,
                        "vehicle_type_id": "150"
                    },
                    {
                        "count": 1,
                        "vehicle_type_id": "196"
                    }
                ]
            },
            "type": "Feature"
        },
        {
            "geometry": {
                "coordinates": [
                    9.456335,
                    51.278967
                ],
                "type": "Point"
            },
            "properties": {
                "capacity": 8,
                "is_installed": true,
                "is_renting": true,
                "is_returning": true,
                "is_virtual_station": false,
                "last_reported": 1789297967,
                "name": "Keilsbergsiedlung",
                "num_bikes_available": 3,
                "num_docks_available": 5,
                "region_id": "462",
                "rental_uris": {
                    "android": "https://app.nextbike.net/station?id=5561415",
                    "ios": "https://app.nextbike.net/station?id=5561415",
                    "web": "https://nxtb.it/p/5561415"
                },
                "short_name": "7086",
                "station_id": "5561415",
                "vehicle_types_available": [
                    {
                        "count": 3,
                        "vehicle_type_id": "150"
                    }
                ]
            },
            "type": "Feature"
        },
        {
            "geometry": {
                "coordinates": [
                    9.469083,
                    51.306284
                ],
                "type": "Point"
            },
            "properties": {
                "capacity": 4,
                "is_installed": true,
                "is_renting": true,
                "is_returning": true,
                "is_virtual_station": false,
                "last_reported": 1789297967,
                "name": "Sternbergstra\u00dfe",
                "num_bikes_available": 5,
                "num_docks_available": 0,
                "region_id": "462",
                "rental_uris": {
                    "android": "https://app.nextbike.net/station?id=5561422",
                    "ios": "https://app.nextbike.net/station?id=5561422",
                    "web": "https://nxtb.it/p/5561422"
                },
                "short_name": "7087",
                "station_id": "5561422",
                "vehicle_types_available": [
                    {
                        "count": 2,
                        "vehicle_type_id": "71"
                    },
                    {
                        "count": 2,
                        "vehicle_type_id": "150"
                    },
                    {
                        "count": 1,
                        "vehicle_type_id": "196"
                    }
                ]
            },
            "type": "Feature"
        },
        {
            "geometry": {
                "coordinates": [
                    9.430739,
                    51.314388
                ],
                "type": "Point"
            },
            "properties": {
                "capacity": 6,
                "is_installed": true,
                "is_renting": true,
                "is_returning": true,
                "is_virtual_station": false,
                "last_reported": 1789297967,
                "name": "Betriebshof Wilhelmsh\u00f6he",
                "num_bikes_available": 3,
                "num_docks_available": 2,
                "region_id": "462",
                "rental_uris": {
                    "android": "https://app.nextbike.net/station?id=5561454",
                    "ios": "https://app.nextbike.net/station?id=5561454",
                    "web": "https://nxtb.it/p/5561454"
                },
                "short_name": "7089",
                "station_id": "5561454",
                "vehicle_types_available": [
                    {
                        "count": 2,
                        "vehicle_type_id": "150"
                    },
                    {
                        "count": 1,
                        "vehicle_type_id": "71"
                    }
                ]
            },
            "type": "Feature"
        },
        {
            "geometry": {
                "coordinates": [
                    9.454052,
                    51.308115
                ],
                "type": "Point"
            },
            "properties": {
                "capacity": 7,
                "is_installed": true,
                "is_renting": true,
                "is_returning": true,
                "is_virtual_station": false,
                "last_reported": 1789297967,
                "name": "Am Heimbach",
                "num_bikes_available": 2,
                "num_docks_available": 5,
                "region_id": "462",
                "rental_uris": {
                    "android": "https://app.nextbike.net/station?id=5561460",
                    "ios": "https://app.nextbike.net/station?id=5561460",
                    "web": "https://nxtb.it/p/5561460"
                },
                "short_name": "7090",
                "station_id": "5561460",
                "vehicle_types_available": [
                    {
                        "count": 2,
                        "vehicle_type_id": "150"
                    }
                ]
            },
            "type": "Feature"
        },
        {
            "geometry": {
                "coordinates": [
                    9.495304,
                    51.320795
                ],
                "type": "Point"
            },
            "properties": {
                "capacity": 8,
                "is_installed": true,
                "is_renting": true,
                "is_returning": true,
                "is_virtual_station": false,
                "last_reported": 1789297967,
                "name": "Schillerstra\u00dfe",
                "num_bikes_available": 1,
                "num_docks_available": 7,
                "region_id": "462",
                "rental_uris": {
                    "android": "https://app.nextbike.net/station?id=5561467",
                    "ios": "https://app.nextbike.net/station?id=5561467",
                    "web": "https://nxtb.it/p/5561467"
                },
                "short_name": "7091",
                "station_id": "5561467",
                "vehicle_types_available": [
                    {
                        "count": 1,
                        "vehicle_type_id": "150"
                    }
                ]
            },
            "type": "Feature"
        },
        {
            "geometry": {
                "coordinates": [
                    9.518731,
                    51.309078
                ],
                "type": "Point"
            },
            "properties": {
                "capacity": 7,
                "is_installed": true,
                "is_renting": true,
                "is_returning": true,
                "is_virtual_station": false,
                "last_reported": 1789297967,
                "name": "Sandersh\u00e4user Str. KVG",
                "num_bikes_available": 10,
                "num_docks_available": 0,
                "region_id": "462",
                "rental_uris": {
                    "android": "https://app.nextbike.net/station?id=5561482",
                    "ios": "https://app.nextbike.net/station?id=5561482",
                    "web": "https://nxtb.it/p/5561482"
                },
                "short_name": "7093",
                "station_id": "5561482",
                "vehicle_types_available": [
                    {
                        "count": 2,
                        "vehicle_type_id": "71"
                    },
                    {
                        "count": 4,
                        "vehicle_type_id": "150"
                    },
                    {
                        "count": 4,
                        "vehicle_type_id": "196"
                    }
                ]
            },
            "type": "Feature"
        },
        {
            "geometry": {
                "coordinates": [
                    9.449827,
                    51.282801
                ],
                "type": "Point"
            },
            "properties": {
                "capacity": 6,
                "is_installed": true,
                "is_renting": true,
                "is_returning": true,
                "is_virtual_station": true,
                "last_reported": 1789297967,
                "name": "AVZ - Heinrich-Plett-Stra\u00dfe",
                "num_bikes_available": 0,
                "num_docks_available": 5,
                "region_id": "462",
                "rental_uris": {
                    "android": "https://app.nextbike.net/station?id=560400675",
                    "ios": "https://app.nextbike.net/station?id=560400675",
                    "web": "https://nxtb.it/p/560400675"
                },
                "short_name": "70991",
                "station_area": {
                    "coordinates": [
                        [
                            [
                                [
                                    9.449827,
                                    51.283026
                                ],
                                [
                                    9.450138,
                                    51.282913
                                ],
                                [
                                    9.450138,
                                    51.282689
                                ],
                                [
                                    9.449827,
                                    51.282576
                                ],
                                [
                                    9.449516,
                                    51.282689
                                ],
                                [
                                    9.449516,
                                    51.282913
                                ],
                                [
                                    9.449827,
                                    51.283026
                                ]
                            ]
                        ]
                    ],
                    "type": "MultiPolygon"
                },
                "station_id": "560400675",
                "vehicle_types_available": []
            },
            "type": "Feature"
        },
        {
            "geometry": {
                "coordinates": [
                    9.505804,
                    51.320463
                ],
                "type": "Point"
            },
            "properties": {
                "capacity": 8,
                "is_installed": true,
                "is_renting": true,
                "is_returning": true,
                "is_virtual_station": false,
                "last_reported": 1789297967,
                "name": "Kurt-Wolters-Stra\u00dfe / An der Ahna",
                "num_bikes_available": 21,
                "num_docks_available": 0,
                "region_id": "462",
                "rental_uris": {
                    "android": "https://app.nextbike.net/station?id=564864724",
                    "ios": "https://app.nextbike.net/station?id=564864724",
                    "web": "https://nxtb.it/p/564864724"
                },
                "short_name": "70992",
                "station_id": "564864724",
                "vehicle_types_available": [
                    {
                        "count": 5,
                        "vehicle_type_id": "71"
                    },
                    {
                        "count": 14,
                        "vehicle_type_id": "150"
                    },
                    {
                        "count": 2,
                        "vehicle_type_id": "196"
                    }
                ]
            },
            "type": "Feature"
        },
        {
            "geometry": {
                "coordinates": [
                    9.493372,
                    51.338653
                ],
                "type": "Point"
            },
            "properties": {
                "capacity": 16,
                "is_installed": true,
                "is_renting": true,
                "is_returning": true,
                "is_virtual_station": false,
                "last_reported": 1789297967,
                "name": "Hegelsbergstra\u00dfe",
                "num_bikes_available": 1,
                "num_docks_available": 15,
                "region_id": "462",
                "rental_uris": {
                    "android": "https://app.nextbike.net/station?id=5680593",
                    "ios": "https://app.nextbike.net/station?id=5680593",
                    "web": "https://nxtb.it/p/5680593"
                },
                "short_name": "7092",
                "station_id": "5680593",
                "vehicle_types_available": [
                    {
                        "count": 1,
                        "vehicle_type_id": "71"
                    }
                ]
            },
            "type": "Feature"
        }
    ],
    "gbfs": {
        "station_information": {
            "last_updated": 1789297967,
            "ttl": 60,
            "version": "2.3"
        },
        "station_status": {
            "last_updated": 1789297967,
            "ttl": 60,
            "version": "2.3"
        }
    },
    "type": "FeatureCollection"
}