{
    "features": [
        {
            "geometry": {
                "coordinates": [
                    20.644822,
                    52.114299
                ],
                "type": "Point"
            },
            "properties": {
                "capacity": 12,
                "is_installed": true,
                "is_renting": true,
                "is_returning": true,
                "is_virtual_station": false,
                "last_reported": 1789321087,
                "name": "ul. Teligi / ul. 3 Maja",
                "num_bikes_available": 12,
                "num_docks_available": 0,
                "region_id": "255",
                "rental_uris": {
                    "android": "https://app.nextbike.net/station?id=139497008",
                    "ios": "https://app.nextbike.net/station?id=139497008",
                    "web": "https://nxtb.it/p/139497008"
                },
                "short_name": "6813",
                "station_id": "139497008",
                "vehicle_types_available": [
                    {
                        "count": 11,
                        "vehicle_type_id": "4"
                    },
                    {
                        "count": 1,
                        "vehicle_type_id": "111"
                    }
                ]
            },
            "type": "Feature"
        },
        {
            "geometry": {
                "coordinates": [
                    20.621309,
                    52.110906
                ],
                "type": "Point"
            },
            "properties": {
                "capacity": 12,
                "is_installed": true,
                "is_renting": true,
                "is_returning": true,
                "is_virtual_station": false,
                "last_reported": 1789321087,
                "name": "Parking / ul. Traugutta",
                "num_bikes_available": 10,
                "num_docks_available": 1,
                "region_id": "255",
                "rental_uris": {
                    "android": "https://app.nextbike.net/station?id=140158652",
                    "ios": "https://app.nextbike.net/station?id=140158652",
                    "web": "https://nxtb.it/p/140158652"
                },
                "short_name": "6815",
                "station_id": "140158652",
                "vehicle_types_available": [
                    {
                        "count": 10,
                        "vehicle_type_id": "4"
                    }
                ]
            },
            "type": "Feature"
        },
        {
            "geometry": {
                "coordinates": [
                    20.628861,
                    52.077653
                ],
                "type": "Point"
            },
            "properties": {
                "capacity": 12,
                "is_installed": true,
                "is_renting": true,
                "is_returning": true,
                "is_virtual_station": false,
                "last_reported": 1789321087,
                "name": "Adamowizna - parking / ul. Osowiecka",
                "num_bikes_available": 12,
                "num_docks_available": 0,
                "region_id": "255",
                "rental_uris": {
                    "android": "https://app.nextbike.net/station?id=140162201",
                    "ios": "https://app.nextbike.net/station?id=140162201",
                    "web": "https://nxtb.it/p/140162201"
                },
                "short_name": "6816",
                "station_id": "140162201",
                "vehicle_types_available": [
                    {
                        "count": 11,
                        "vehicle_type_id": "4"
                    },
                    {
                        "count": 1,
                        "vehicle_type_id": "111"
                    }
                ]
            },
            "type": "Feature"
        },
        {
            "geometry": {
                "coordinates": [
                    20.621729,
                    52.109289
                ],
                "type": "Point"
            },
            "properties": {
                "capacity": 16,
                "is_installed": true,
                "is_renting": true,
                "is_returning": true,
                "is_virtual_station": false,
                "last_reported": 1789321087,
                "name": "PKP Deptak / ul. 1 Maja",
                "num_bikes_available": 7,
                "num_docks_available": 8,
                "region_id": "255",
                "rental_uris": {
                    "android": "https://app.nextbike.net/station?id=322936",
                    "ios": "https://app.nextbike.net/station?id=322936",
                    "web": "https://nxtb.it/p/322936"
                },
                "short_name": "6101",
                "station_id": "322936",
                "vehicle_types_available": [
                    {
                        "count": 1,
                        "vehicle_type_id": "111"
                    },
                    {
                        "count": 6,
                        "vehicle_type_id": "4"
                    }
                ]
            },
            "type": "Feature"
        },
        {
            "geometry": {
                "coordinates": [
                    20.628607,
                    52.109503
                ],
                "type": "Point"
            },
            "properties": {
                "capacity": 10,
                "is_installed": true,
                "is_renting": true,
                "is_returning": true,
                "is_virtual_station": false,
                "last_reported": 1789321087,
                "name": "Park im. hr. Skarbk\u00f3w / ul. 3 Maja",
                "num_bikes_available": 1,
                "num_docks_available": 9,
                "region_id": "255",
                "rental_uris": {
                    "android": "https://app.nextbike.net/station?id=322947",
                    "ios": "https://app.nextbike.net/station?id=322947",
                    "web": "https://nxtb.it/p/322947"
                },
                "short_name": "6102",
                "station_id": "322947",
                "vehicle_types_available": [
                    {
                        "count": 1,
                        "vehicle_type_id": "4"
                    }
                ]
            },
            "type": "Feature"
        },
        {
            "geometry": {
                "coordinates": [
                    20.640424,
                    52.111592
                ],
                "type": "Point"
            },
            "properties": {
                "capacity": 12,
                "is_installed": true,
                "is_renting": true,
                "is_returning": true,
                "is_virtual_station": false,
                "last_reported": 1789321087,
                "name": "Hala Sportowa / ul. Westfala",
                "num_bikes_available": 3,
                "num_docks_available": 7,
                "region_id": "255",
                "rental_uris": {
                    "android": "https://app.nextbike.net/station?id=322950",
                    "ios": "https://app.nextbike.net/station?id=322950",
                    "web": "https://nxtb.it/p/322950"
                },
                "short_name": "6103",
                "station_id": "322950",
                "vehicle_types_available": [
                    {
                        "count": 2,
                        "vehicle_type_id": "111"
                    },
                    {
                        "count": 1,
                        "vehicle_type_id": "4"
                    }
                ]
            },
            "type": "Feature"
        },
        {
            "geometry": {
                "coordinates": [
                    20.630404,
                    52.104825
                ],
                "type": "Point"
            },
            "properties": {
                "capacity": 16,
                "is_installed": true,
                "is_renting": true,
                "is_returning": true,
                "is_virtual_station": false,
                "last_reported": 1789321087,
                "name": "Stawy Goliana / ul. Marii Sk\u0142odowskiej-Curie",
                "num_bikes_available": 8,
                "num_docks_available": 8,
                "region_id": "255",
                "rental_uris": {
                    "android": "https://app.nextbike.net/station?id=322952",
                    "ios": "https://app.nextbike.net/station?id=322952",
                    "web": "https://nxtb.it/p/322952"
                },
                "short_name": "6104",
                "station_id": "322952",
                "vehicle_types_available": [
                    {
                        "count": 8,
                        "vehicle_type_id": "4"
                    }
                ]
            },
            "type": "Feature"
        },
        {
            "geometry": {
                "coordinates": [
                    20.639078,
                    52.101342
                ],
                "type": "Point"
            },
            "properties": {
                "capacity": 12,
                "is_installed": true,
                "is_renting": true,
                "is_returning": true,
                "is_virtual_station": false,
                "last_reported": 1789321087,
                "name": "Stawy Walczewskiego / ul. Nadarzy\u0144ska",
                "num_bikes_available": 5,
                "num_docks_available": 7,
                "region_id": "255",
                "rental_uris": {
                    "android": "https://app.nextbike.net/station?id=322954",
                    "ios": "https://app.nextbike.net/station?id=322954",
                    "web": "https://nxtb.it/p/322954"
                },
                "short_name": "6105",
                "station_id": "322954",
                "vehicle_types_available": [
                    {
                        "count": 3,
                        "vehicle_type_id": "111"
                    },
                    {
                        "count": 2,
                        "vehicle_type_id": "4"
                    }
                ]
            },
            "type": "Feature"
        },
        {
            "geometry": {
                "coordinates": [
                    20.62313,
                    52.098057
                ],
                "type": "Point"
            },
            "properties": {
                "capacity": 8,
                "is_installed": true,
                "is_renting": true,
                "is_returning": true,
                "is_virtual_station": false,
                "last_reported": 1789321087,
                "name": "P\u0142ywalnia WODNIK 2000 / ul. Montwi\u0142\u0142a",
                "num_bikes_available": 0,
                "num_docks_available": 8,
                "region_id": "255",
                "rental_uris": {
                    "android": "https://app.nextbike.net/station?id=322956",
                    "ios": "https://app.nextbike.net/station?id=322956",
                    "web": "https://nxtb.it/p/322956"
                },
                "short_name": "6106",
                "station_id": "322956",
                "vehicle_types_available": []
            },
            "type": "Feature"
        },
        {
            "geometry": {
                "coordinates": [
                    20.627587,
                    52.100245
                ],
                "type": "Point"
            },
            "properties": {
                "capacity": 20,
                "is_installed": true,
                "is_renting": true,
                "is_returning": true,
                "is_virtual_station": false,
                "last_reported": 1789321087,
                "name": "Targowisko Miejskie / ul. Rado\u0144ska",
                "num_bikes_available": 7,
                "num_docks_available": 13,
                "region_id": "255",
                "rental_uris": {
                    "android": "https://app.nextbike.net/station?id=322958",
                    "ios": "https://app.nextbike.net/station?id=322958",
                    "web": "https://nxtb.it/p/322958"
                },
                "short_name": "6107",
                "station_id": "322958",
                "vehicle_types_available": [
                    {
                        "count": 7,
                        "vehicle_type_id": "4"
                    }
                ]
            },
            "type": "Feature"
        },
        {
            "geometry": {
                "coordinates": [
                    20.624068,
                    52.104957
                ],
                "type": "Point"
            },
            "properties": {
                "capacity": 22,
                "is_installed": true,
                "is_renting": true,
                "is_returning": true,
                "is_virtual_station": false,
                "last_reported": 1789321087,
                "name": "Centrum Kultury / ul. Sp\u00f3\u0142dzielcza",
                "num_bikes_available": 6,
                "num_docks_available": 16,
                "region_id": "255",
                "rental_uris": {
                    "android": "https://app.nextbike.net/station?id=322962",
                    "ios": "https://app.nextbike.net/station?id=322962",
                    "web": "https://nxtb.it/p/322962"
                },
                "short_name": "6108",
                "station_id": "322962",
                "vehicle_types_available": [
                    {
                        "count": 5,
                        "vehicle_type_id": "4"
                    },
                    {
                        "count": 1,
                        "vehicle_type_id": "111"
                    }
                ]
            },
            "type": "Feature"
        },
        {
            "geometry": {
                "coordinates": [
                    20.696183,
                    52.072045
                ],
                "type": "Point"
            },
            "properties": {
                "capacity": 5,
                "is_installed": true,
                "is_renting": true,
                "is_returning": true,
                "is_virtual_station": false,
                "last_reported": 1789321087,
                "name": "Szko\u0142a Ksi\u0105\u017cenice",
                "num_bikes_available": 3,
                "num_docks_available": 2,
                "region_id": "255",
                "rental_uris": {
                    "android": "https://app.nextbike.net/station?id=326572",
                    "ios": "https://app.nextbike.net/station?id=326572",
                    "web": "https://nxtb.it/p/326572"
                },
                "short_name": "6109",
                "station_id": "326572",
                "vehicle_types_available": [
                    {
                        "count": 1,
                        "vehicle_type_id": "111"
                    },
                    {
                        "count": 2,
                        "vehicle_type_id": "4"
                    }
                ]
            },
            "type": "Feature"
        },
        {
            "geometry": {
                "coordinates": [
                    20.612935,
                    52.118686
                ],
                "type": "Point"
            },
            "properties": {
                "capacity": 4,
                "is_installed": true,
                "is_renting": true,
                "is_returning": true,
                "is_virtual_station": false,
                "last_reported": 1789321087,
                "name": "\u015awietlica - \u0141\u0105ki",
                "num_bikes_available": 2,
                "num_docks_available": 2,
                "region_id": "255",
                "rental_uris": {
                    "android": "https://app.nextbike.net/station?id=408963016",
                    "ios": "https://app.nextbike.net/station?id=408963016",
                    "web": "https://nxtb.it/p/408963016"
                },
                "short_name": "6817",
                "station_id": "408963016",
                "vehicle_types_available": [
                    {
                        "count": 1,
                        "vehicle_type_id": "4"
                    },
                    {
                        "count": 1,
                        "vehicle_type_id": "111"
                    }
                ]
            },
            "type": "Feature"
        },
        {
            "geometry": {
                "coordinates": [
                    20.65551,
                    52.12415
                ],
                "type": "Point"
            },
            "properties": {
                "is_installed": true,
                "is_renting": true,
                "is_returning": true,
                "is_virtual_station": false,
                "last_reported": 1789321087,
                "name": "Spacerowa Biblioteka",
                "num_bikes_available": 2,
                "num_docks_available": 0,
                "region_id": "1325",
                "rental_uris": {
                    "android": "https://app.nextbike.net/station?id=623925607",
                    "ios": "https://app.nextbike.net/station?id=623925607",
                    "web": "https://nxtb.it/p/623925607"
                },
                "short_name": "6818",
                "station_id": "623925607",
                "vehicle_types_available": [
                    {
                        "count": 2,
                        "vehicle_type_id": "4"
                    }
                ]
            },
            "type": "Feature"
        },
        {
            "geometry": {
                "coordinates": [
                    20.66215,
                    52.12804
                ],
                "type": "Point"
            },
            "properties": {
                "is_installed": true,
                "is_renting": true,
                "is_returning": true,
                "is_virtual_station": false,
                "last_reported": 1789321087,
                "name": "Ko\u015bciuszki Urz\u0105d Miasta",
                "num_bikes_available": 4,
                "num_docks_available": 0,
                "region_id": "1325",
                "rental_uris": {
                    "android": "https://app.nextbike.net/station?id=623925804",
                    "ios": "https://app.nextbike.net/station?id=623925804",
                    "web": "https://nxtb.it/p/623925804"
                },
                "short_name": "6819",
                "station_id": "623925804",
                "vehicle_types_available": [
                    {
                        "count": 4,
                        "vehicle_type_id": "4"
                    }
                ]
            },
            "type": "Feature"
        },
        {
            "geometry": {
                "coordinates": [
                    20.66701,
                    52.12459
                ],
                "type": "Point"
            },
            "properties": {
                "is_installed": true,
                "is_renting": true,
                "is_returning": true,
                "is_virtual_station": false,
                "last_reported": 1789321087,
                "name": "PKP Warszawska",
                "num_bikes_available": 8,
                "num_docks_available": 0,
                "region_id": "1325",
                "rental_uris": {
                    "android": "https://app.nextbike.net/station?id=623925981",
                    "ios": "https://app.nextbike.net/station?id=623925981",
                    "web": "https://nxtb.it/p/623925981"
                },
                "short_name": "6820",
                "station_id": "623925981",
                "vehicle_types_available": [
                    {
                        "count": 8,
                        "vehicle_type_id": "4"
                    }
                ]
            },
            "type": "Feature"
        },
        {
            "geometry": {
                "coordinates": [
                    20.66727,
                    52.12511
                ],
                "type": "Point"
            },
            "properties": {
                "is_installed": true,
                "is_renting": true,
                "is_returning": true,
                "is_virtual_station": false,
                "last_reported": 1789321087,
                "name": "PKP Krakowska",
                "num_bikes_available": 4,
                "num_docks_available": 0,
                "region_id": "1325",
                "rental_uris": {
                    "android": "https://app.nextbike.net/station?id=623926183",
                    "ios": "https://app.nextbike.net/station?id=623926183",
                    "web": "https://nxtb.it/p/623926183"
                },
                "short_name": "6822",
                "station_id": "623926183",
                "vehicle_types_available": [
                    {
                        "count": 4,
                        "vehicle_type_id": "4"
                    }
                ]
            },
            "type": "Feature"
        },
        {
            "geometry": {
                "coordinates": [
                    20.65875,
                    52.1376
                ],
                "type": "Point"
            },
            "properties": {
                "is_installed": true,
                "is_renting": true,
                "is_returning": true,
                "is_virtual_station": false,
                "last_reported": 1789321087,
                "name": "Park Lasockiego",
                "num_bikes_available": 6,
                "num_docks_available": 0,
                "region_id": "1325",
                "rental_uris": {
                    "android": "https://app.nextbike.net/station?id=623926695",
                    "ios": "https://app.nextbike.net/station?id=623926695",
                    "web": "https://nxtb.it/p/623926695"
                },
                "short_name": "6823",
                "station_id": "623926695",
                "vehicle_types_available": [
                    {
                        "count": 2,
                        "vehicle_type_id": "111"
                    },
                    {
                        "count": 4,
                        "vehicle_type_id": "4"
                    }
                ]
            },
            "type": "Feature"
        },
        {
            "geometry": {
                "coordinates": [
                    20.68112,
                    52.12256
                ],
                "type": "Point"
            },
            "properties": {
                "is_installed": true,
                "is_renting": true,
                "is_returning": true,
                "is_virtual_station": false,
                "last_reported": 1789321087,
                "name": "WKD Grud\u00f3w",
                "num_bikes_available": 3,
                "num_docks_available": 0,
                "region_id": "1325",
                "rental_uris": {
                    "android": "https://app.nextbike.net/station?id=623926924",
                    "ios": "https://app.nextbike.net/station?id=623926924",
                    "web": "https://nxtb.it/p/623926924"
                },
                "short_name": "6824",
                "station_id": "623926924",
                "vehicle_types_available": [
                    {
                        "count": 3,
                        "vehicle_type_id": "4"
                    }
                ]
            },
            "type": "Feature"
        },
        {
            "geometry": {
                "coordinates": [
                    20.67264,
                    52.12108
                ],
                "type": "Point"
            },
            "properties": {
                "is_installed": true,
                "is_renting": true,
                "is_returning": true,
                "is_virtual_station": false,
                "last_reported": 1789321087,
                "name": "Park Zielony Do\u0142ek",
                "num_bikes_available": 4,
                "num_docks_available": 0,
                "region_id": "1325",
                "rental_uris": {
                    "android": "https://app.nextbike.net/station?id=623927100",
                    "ios": "https://app.nextbike.net/station?id=623927100",
                    "web": "https://nxtb.it/p/623927100"
                },
                "short_name": "6825",
                "station_id": "623927100",
                "vehicle_types_available": [
                    {
                        "count": 4,
                        "vehicle_type_id": "4"
                    }
                ]
            },
            "type": "Feature"
        },
        {
            "geometry": {
                "coordinates": [
                    20.62347,
                    52.11303
                ],
                "type": "Point"
            },
            "properties": {
                "capacity": 10,
                "is_installed": true,
                "is_renting": true,
                "is_returning": true,
                "is_virtual_station": false,
                "last_reported": 1789321087,
                "name": "Parking/ ul. \u017bydowska",
                "num_bikes_available": 12,
                "num_docks_available": 0,
                "region_id": "255",
                "rental_uris": {
                    "android": "https://app.nextbike.net/station?id=7845585",
                    "ios": "https://app.nextbike.net/station?id=7845585",
                    "web": "https://nxtb.it/p/7845585"
                },
                "short_name": "6810",
                "station_id": "7845585",
                "vehicle_types_available": [
                    {
                        "count": 1,
                        "vehicle_type_id": "111"
                    },
                    {
                        "count": 11,
                        "vehicle_type_id": "4"
                    }
                ]
            },
            "type": "Feature"
        },
        {
            "geometry": {
                "coordinates": [
                    20.65031,
                    52.10237
                ],
                "type": "Point"
            },
            "properties": {
                "capacity": 12,
                "is_installed": true,
                "is_renting": true,
                "is_returning": true,
                "is_virtual_station": false,
                "last_reported": 1789321087,
                "name": "Parking/ ul. Piaskowa",
                "num_bikes_available": 11,
                "num_docks_available": 1,
                "region_id": "255",
                "rental_uris": {
                    "android": "https://app.nextbike.net/station?id=7845592",
                    "ios": "https://app.nextbike.net/station?id=7845592",
                    "web": "https://nxtb.it/p/7845592"
                },
                "short_name": "6811",
                "station_id": "7845592",
                "vehicle_types_available": [
                    {
                        "count": 9,
                        "vehicle_type_id": "4"
                    },
                    {
                        "count": 2,
                        "vehicle_type_id": "111"
                    }
                ]
            },
            "type": "Feature"
        },
        {
            "geometry": {
                "coordinates": [
                    20.65438,
                    52.11002
                ],
                "type": "Point"
            },
            "properties": {
                "capacity": 21,
                "is_installed": true,
                "is_renting": true,
                "is_returning": true,
                "is_virtual_station": false,
                "last_reported": 1789321087,
                "name": "Plac zabaw/ ul. Okr\u0119\u017cna",
                "num_bikes_available": 15,
                "num_docks_available": 5,
                "region_id": "255",
                "rental_uris": {
                    "android": "https://app.nextbike.net/station?id=7845603",
                    "ios": "https://app.nextbike.net/station?id=7845603",
                    "web": "https://nxtb.it/p/7845603"
                },
                "short_name": "6812",
                "station_id": "7845603",
                "vehicle_types_available": [
                    {
                        "count": 12,
                        "vehicle_type_id": "4"
                    },
                    {
                        "count": 3,
                        "vehicle_type_id": "111"
                    }
                ]
            },
            "type": "Feature"
        }
    ],
    "gbfs": {
        "station_information": {
            "last_updated": 1789321087,
            "ttl": 60,
            "version": "2.3"
        },
        "station_status": {
            "last_updated": 1789321087,
            "ttl": 60,
            "version": "2.3"
        }
    },
    "type": "FeatureCollection"
}