{
    "features": [
        {
            "geometry": {
                "coordinates": [
                    7.742056,
                    48.611639
                ],
                "type": "Point"
            },
            "properties": {
                "capacity": 5,
                "is_installed": true,
                "is_renting": true,
                "is_returning": true,
                "is_virtual_station": false,
                "last_reported": 1789275700,
                "name": "Bischheim Gare",
                "num_bikes_available": 0,
                "num_docks_available": 5,
                "region_id": "924",
                "rental_uris": {
                    "android": "https://velhop.nextbike.app/station?id=245557155",
                    "ios": "https://velhop.nextbike.app/station?id=245557155",
                    "web": "https://nxtb.it/p/245557155"
                },
                "short_name": "62000",
                "station_id": "245557155",
                "vehicle_types_available": []
            },
            "type": "Feature"
        },
        {
            "geometry": {
                "coordinates": [
                    7.720056,
                    48.616361
                ],
                "type": "Point"
            },
            "properties": {
                "capacity": 10,
                "is_installed": true,
                "is_renting": true,
                "is_returning": true,
                "is_virtual_station": false,
                "last_reported": 1789275700,
                "name": "Bischheim Espace Europ\u00e9en",
                "num_bikes_available": 4,
                "num_docks_available": 6,
                "region_id": "924",
                "rental_uris": {
                    "android": "https://velhop.nextbike.app/station?id=245557947",
                    "ios": "https://velhop.nextbike.app/station?id=245557947",
                    "web": "https://nxtb.it/p/245557947"
                },
                "short_name": "62001",
                "station_id": "245557947",
                "vehicle_types_available": [
                    {
                        "count": 4,
                        "vehicle_type_id": "272"
                    }
                ]
            },
            "type": "Feature"
        },
        {
            "geometry": {
                "coordinates": [
                    7.628056,
                    48.547222
                ],
                "type": "Point"
            },
            "properties": {
                "capacity": 10,
                "is_installed": true,
                "is_renting": true,
                "is_returning": true,
                "is_virtual_station": false,
                "last_reported": 1789275700,
                "name": "Entzheim Gare",
                "num_bikes_available": 5,
                "num_docks_available": 3,
                "region_id": "925",
                "rental_uris": {
                    "android": "https://velhop.nextbike.app/station?id=245559919",
                    "ios": "https://velhop.nextbike.app/station?id=245559919",
                    "web": "https://nxtb.it/p/245559919"
                },
                "short_name": "62003",
                "station_id": "245559919",
                "vehicle_types_available": [
                    {
                        "count": 5,
                        "vehicle_type_id": "272"
                    }
                ]
            },
            "type": "Feature"
        },
        {
            "geometry": {
                "coordinates": [
                    7.684944,
                    48.521222
                ],
                "type": "Point"
            },
            "properties": {
                "capacity": 5,
                "is_installed": true,
                "is_renting": true,
                "is_returning": true,
                "is_virtual_station": false,
                "last_reported": 1789275700,
                "name": "Geispolsheim Gare",
                "num_bikes_available": 5,
                "num_docks_available": 0,
                "region_id": "926",
                "rental_uris": {
                    "android": "https://velhop.nextbike.app/station?id=245564614",
                    "ios": "https://velhop.nextbike.app/station?id=245564614",
                    "web": "https://nxtb.it/p/245564614"
                },
                "short_name": "62004",
                "station_id": "245564614",
                "vehicle_types_available": [
                    {
                        "count": 5,
                        "vehicle_type_id": "272"
                    }
                ]
            },
            "type": "Feature"
        },
        {
            "geometry": {
                "coordinates": [
                    7.758833,
                    48.628333
                ],
                "type": "Point"
            },
            "properties": {
                "capacity": 10,
                "is_installed": true,
                "is_renting": true,
                "is_returning": true,
                "is_virtual_station": false,
                "last_reported": 1789275700,
                "name": "Hoenheim Gare",
                "num_bikes_available": 7,
                "num_docks_available": 3,
                "region_id": "927",
                "rental_uris": {
                    "android": "https://velhop.nextbike.app/station?id=245566026",
                    "ios": "https://velhop.nextbike.app/station?id=245566026",
                    "web": "https://nxtb.it/p/245566026"
                },
                "short_name": "62005",
                "station_id": "245566026",
                "vehicle_types_available": [
                    {
                        "count": 7,
                        "vehicle_type_id": "272"
                    }
                ]
            },
            "type": "Feature"
        },
        {
            "geometry": {
                "coordinates": [
                    7.732778,
                    48.528917
                ],
                "type": "Point"
            },
            "properties": {
                "capacity": 10,
                "is_installed": true,
                "is_renting": true,
                "is_returning": true,
                "is_virtual_station": false,
                "last_reported": 1789275700,
                "name": "Campus d'Illkirch",
                "num_bikes_available": 9,
                "num_docks_available": 1,
                "region_id": "928",
                "rental_uris": {
                    "android": "https://velhop.nextbike.app/station?id=245576518",
                    "ios": "https://velhop.nextbike.app/station?id=245576518",
                    "web": "https://nxtb.it/p/245576518"
                },
                "short_name": "62007",
                "station_id": "245576518",
                "vehicle_types_available": [
                    {
                        "count": 9,
                        "vehicle_type_id": "272"
                    }
                ]
            },
            "type": "Feature"
        },
        {
            "geometry": {
                "coordinates": [
                    7.824972,
                    48.664972
                ],
                "type": "Point"
            },
            "properties": {
                "capacity": 8,
                "is_installed": true,
                "is_renting": true,
                "is_returning": true,
                "is_virtual_station": false,
                "last_reported": 1789275700,
                "name": "La Wantzenau Gare",
                "num_bikes_available": 7,
                "num_docks_available": 1,
                "region_id": "929",
                "rental_uris": {
                    "android": "https://velhop.nextbike.app/station?id=245580402",
                    "ios": "https://velhop.nextbike.app/station?id=245580402",
                    "web": "https://nxtb.it/p/245580402"
                },
                "short_name": "62008",
                "station_id": "245580402",
                "vehicle_types_available": [
                    {
                        "count": 7,
                        "vehicle_type_id": "272"
                    }
                ]
            },
            "type": "Feature"
        },
        {
            "geometry": {
                "coordinates": [
                    7.678194,
                    48.559694
                ],
                "type": "Point"
            },
            "properties": {
                "capacity": 6,
                "is_installed": true,
                "is_renting": true,
                "is_returning": true,
                "is_virtual_station": false,
                "last_reported": 1789275700,
                "name": "Lingolsheim Gare",
                "num_bikes_available": 4,
                "num_docks_available": 2,
                "region_id": "930",
                "rental_uris": {
                    "android": "https://velhop.nextbike.app/station?id=245581065",
                    "ios": "https://velhop.nextbike.app/station?id=245581065",
                    "web": "https://nxtb.it/p/245581065"
                },
                "short_name": "62009",
                "station_id": "245581065",
                "vehicle_types_available": [
                    {
                        "count": 4,
                        "vehicle_type_id": "272"
                    }
                ]
            },
            "type": "Feature"
        },
        {
            "geometry": {
                "coordinates": [
                    7.721483,
                    48.645404
                ],
                "type": "Point"
            },
            "properties": {
                "capacity": 9,
                "is_installed": true,
                "is_renting": true,
                "is_returning": true,
                "is_virtual_station": false,
                "last_reported": 1789275700,
                "name": "Mundolsheim Gare",
                "num_bikes_available": 4,
                "num_docks_available": 5,
                "region_id": "931",
                "rental_uris": {
                    "android": "https://velhop.nextbike.app/station?id=245581709",
                    "ios": "https://velhop.nextbike.app/station?id=245581709",
                    "web": "https://nxtb.it/p/245581709"
                },
                "short_name": "62010",
                "station_id": "245581709",
                "vehicle_types_available": [
                    {
                        "count": 4,
                        "vehicle_type_id": "272"
                    }
                ]
            },
            "type": "Feature"
        },
        {
            "geometry": {
                "coordinates": [
                    7.685699,
                    48.605593
                ],
                "type": "Point"
            },
            "properties": {
                "capacity": 6,
                "is_installed": true,
                "is_renting": true,
                "is_returning": true,
                "is_virtual_station": false,
                "last_reported": 1789275700,
                "name": "Oberhausbergen Mairie",
                "num_bikes_available": 3,
                "num_docks_available": 3,
                "region_id": "932",
                "rental_uris": {
                    "android": "https://velhop.nextbike.app/station?id=245582029",
                    "ios": "https://velhop.nextbike.app/station?id=245582029",
                    "web": "https://nxtb.it/p/245582029"
                },
                "short_name": "62011",
                "station_id": "245582029",
                "vehicle_types_available": [
                    {
                        "count": 3,
                        "vehicle_type_id": "272"
                    }
                ]
            },
            "type": "Feature"
        },
        {
            "geometry": {
                "coordinates": [
                    7.749778,
                    48.606417
                ],
                "type": "Point"
            },
            "properties": {
                "capacity": 20,
                "is_installed": true,
                "is_renting": true,
                "is_returning": true,
                "is_virtual_station": false,
                "last_reported": 1789275700,
                "name": "Schiltigheim Mairie",
                "num_bikes_available": 7,
                "num_docks_available": 13,
                "region_id": "933",
                "rental_uris": {
                    "android": "https://velhop.nextbike.app/station?id=245582844",
                    "ios": "https://velhop.nextbike.app/station?id=245582844",
                    "web": "https://nxtb.it/p/245582844"
                },
                "short_name": "62012",
                "station_id": "245582844",
                "vehicle_types_available": [
                    {
                        "count": 7,
                        "vehicle_type_id": "272"
                    }
                ]
            },
            "type": "Feature"
        },
        {
            "geometry": {
                "coordinates": [
                    7.73475,
                    48.584306
                ],
                "type": "Point"
            },
            "properties": {
                "capacity": 50,
                "is_installed": true,
                "is_renting": true,
                "is_returning": true,
                "is_virtual_station": false,
                "last_reported": 1789275700,
                "name": "Strasbourg Gare Centrale",
                "num_bikes_available": 22,
                "num_docks_available": 27,
                "region_id": "934",
                "rental_uris": {
                    "android": "https://velhop.nextbike.app/station?id=245584292",
                    "ios": "https://velhop.nextbike.app/station?id=245584292",
                    "web": "https://nxtb.it/p/245584292"
                },
                "short_name": "62013",
                "station_id": "245584292",
                "vehicle_types_available": [
                    {
                        "count": 22,
                        "vehicle_type_id": "272"
                    }
                ]
            },
            "type": "Feature"
        },
        {
            "geometry": {
                "coordinates": [
                    7.694944,
                    48.563583
                ],
                "type": "Point"
            },
            "properties": {
                "capacity": 10,
                "is_installed": true,
                "is_renting": true,
                "is_returning": true,
                "is_virtual_station": false,
                "last_reported": 1789275700,
                "name": "Roethig Gare",
                "num_bikes_available": 5,
                "num_docks_available": 5,
                "region_id": "934",
                "rental_uris": {
                    "android": "https://velhop.nextbike.app/station?id=245585106",
                    "ios": "https://velhop.nextbike.app/station?id=245585106",
                    "web": "https://nxtb.it/p/245585106"
                },
                "short_name": "62014",
                "station_id": "245585106",
                "vehicle_types_available": [
                    {
                        "count": 5,
                        "vehicle_type_id": "272"
                    }
                ]
            },
            "type": "Feature"
        },
        {
            "geometry": {
                "coordinates": [
                    7.726917,
                    48.56775
                ],
                "type": "Point"
            },
            "properties": {
                "capacity": 10,
                "is_installed": true,
                "is_renting": true,
                "is_returning": true,
                "is_virtual_station": false,
                "last_reported": 1789275700,
                "name": "Elsau",
                "num_bikes_available": 4,
                "num_docks_available": 6,
                "region_id": "934",
                "rental_uris": {
                    "android": "https://velhop.nextbike.app/station?id=245585847",
                    "ios": "https://velhop.nextbike.app/station?id=245585847",
                    "web": "https://nxtb.it/p/245585847"
                },
                "short_name": "62015",
                "station_id": "245585847",
                "vehicle_types_available": [
                    {
                        "count": 4,
                        "vehicle_type_id": "272"
                    }
                ]
            },
            "type": "Feature"
        },
        {
            "geometry": {
                "coordinates": [
                    7.725278,
                    48.591806
                ],
                "type": "Point"
            },
            "properties": {
                "capacity": 15,
                "is_installed": true,
                "is_renting": true,
                "is_returning": true,
                "is_virtual_station": false,
                "last_reported": 1789275700,
                "name": "Rotonde",
                "num_bikes_available": 7,
                "num_docks_available": 8,
                "region_id": "934",
                "rental_uris": {
                    "android": "https://velhop.nextbike.app/station?id=245586606",
                    "ios": "https://velhop.nextbike.app/station?id=245586606",
                    "web": "https://nxtb.it/p/245586606"
                },
                "short_name": "62016",
                "station_id": "245586606",
                "vehicle_types_available": [
                    {
                        "count": 7,
                        "vehicle_type_id": "272"
                    }
                ]
            },
            "type": "Feature"
        },
        {
            "geometry": {
                "coordinates": [
                    7.754306,
                    48.599972
                ],
                "type": "Point"
            },
            "properties": {
                "capacity": 10,
                "is_installed": true,
                "is_renting": true,
                "is_returning": true,
                "is_virtual_station": false,
                "last_reported": 1789275700,
                "name": "Rives de l Aar",
                "num_bikes_available": 3,
                "num_docks_available": 7,
                "region_id": "934",
                "rental_uris": {
                    "android": "https://velhop.nextbike.app/station?id=245587953",
                    "ios": "https://velhop.nextbike.app/station?id=245587953",
                    "web": "https://nxtb.it/p/245587953"
                },
                "short_name": "62017",
                "station_id": "245587953",
                "vehicle_types_available": [
                    {
                        "count": 3,
                        "vehicle_type_id": "272"
                    }
                ]
            },
            "type": "Feature"
        },
        {
            "geometry": {
                "coordinates": [
                    7.778822,
                    48.598108
                ],
                "type": "Point"
            },
            "properties": {
                "capacity": 16,
                "is_installed": true,
                "is_renting": true,
                "is_returning": true,
                "is_virtual_station": false,
                "last_reported": 1789275700,
                "name": "Robertsau Boecklin",
                "num_bikes_available": 17,
                "num_docks_available": 0,
                "region_id": "934",
                "rental_uris": {
                    "android": "https://velhop.nextbike.app/station?id=245588745",
                    "ios": "https://velhop.nextbike.app/station?id=245588745",
                    "web": "https://nxtb.it/p/245588745"
                },
                "short_name": "62018",
                "station_id": "245588745",
                "vehicle_types_available": [
                    {
                        "count": 17,
                        "vehicle_type_id": "272"
                    }
                ]
            },
            "type": "Feature"
        },
        {
            "geometry": {
                "coordinates": [
                    7.691639,
                    48.583333
                ],
                "type": "Point"
            },
            "properties": {
                "capacity": 10,
                "is_installed": true,
                "is_renting": true,
                "is_returning": true,
                "is_virtual_station": false,
                "last_reported": 1789275700,
                "name": "Poteries",
                "num_bikes_available": 6,
                "num_docks_available": 4,
                "region_id": "934",
                "rental_uris": {
                    "android": "https://velhop.nextbike.app/station?id=245589413",
                    "ios": "https://velhop.nextbike.app/station?id=245589413",
                    "web": "https://nxtb.it/p/245589413"
                },
                "short_name": "62019",
                "station_id": "245589413",
                "vehicle_types_available": [
                    {
                        "count": 6,
                        "vehicle_type_id": "272"
                    }
                ]
            },
            "type": "Feature"
        },
        {
            "geometry": {
                "coordinates": [
                    7.779822,
                    48.5709
                ],
                "type": "Point"
            },
            "properties": {
                "capacity": 10,
                "is_installed": true,
                "is_renting": true,
                "is_returning": true,
                "is_virtual_station": false,
                "last_reported": 1789275700,
                "name": "Citadelle",
                "num_bikes_available": 4,
                "num_docks_available": 6,
                "region_id": "934",
                "rental_uris": {
                    "android": "https://velhop.nextbike.app/station?id=245590268",
                    "ios": "https://velhop.nextbike.app/station?id=245590268",
                    "web": "https://nxtb.it/p/245590268"
                },
                "short_name": "62037",
                "station_id": "245590268",
                "vehicle_types_available": [
                    {
                        "count": 4,
                        "vehicle_type_id": "272"
                    }
                ]
            },
            "type": "Feature"
        },
        {
            "geometry": {
                "coordinates": [
                    7.740345,
                    48.588024
                ],
                "type": "Point"
            },
            "properties": {
                "capacity": 15,
                "is_installed": true,
                "is_renting": true,
                "is_returning": true,
                "is_virtual_station": false,
                "last_reported": 1789275700,
                "name": "Halles",
                "num_bikes_available": 3,
                "num_docks_available": 10,
                "region_id": "934",
                "rental_uris": {
                    "android": "https://velhop.nextbike.app/station?id=245591123",
                    "ios": "https://velhop.nextbike.app/station?id=245591123",
                    "web": "https://nxtb.it/p/245591123"
                },
                "short_name": "62021",
                "station_id": "245591123",
                "vehicle_types_available": [
                    {
                        "count": 3,
                        "vehicle_type_id": "272"
                    }
                ]
            },
            "type": "Feature"
        },
        {
            "geometry": {
                "coordinates": [
                    7.755487,
                    48.587757
                ],
                "type": "Point"
            },
            "properties": {
                "capacity": 10,
                "is_installed": true,
                "is_renting": true,
                "is_returning": true,
                "is_virtual_station": false,
                "last_reported": 1789275700,
                "name": "R\u00e9publique",
                "num_bikes_available": 0,
                "num_docks_available": 10,
                "region_id": "934",
                "rental_uris": {
                    "android": "https://velhop.nextbike.app/station?id=245591375",
                    "ios": "https://velhop.nextbike.app/station?id=245591375",
                    "web": "https://nxtb.it/p/245591375"
                },
                "short_name": "62022",
                "station_id": "245591375",
                "vehicle_types_available": []
            },
            "type": "Feature"
        },
        {
            "geometry": {
                "coordinates": [
                    7.751944,
                    48.578111
                ],
                "type": "Point"
            },
            "properties": {
                "capacity": 32,
                "is_installed": true,
                "is_renting": true,
                "is_returning": true,
                "is_virtual_station": false,
                "last_reported": 1789275700,
                "name": "Austerlitz",
                "num_bikes_available": 7,
                "num_docks_available": 25,
                "region_id": "934",
                "rental_uris": {
                    "android": "https://velhop.nextbike.app/station?id=245591893",
                    "ios": "https://velhop.nextbike.app/station?id=245591893",
                    "web": "https://nxtb.it/p/245591893"
                },
                "short_name": "62023",
                "station_id": "245591893",
                "vehicle_types_available": [
                    {
                        "count": 7,
                        "vehicle_type_id": "272"
                    }
                ]
            },
            "type": "Feature"
        },
        {
            "geometry": {
                "coordinates": [
                    7.723453,
                    48.581129
                ],
                "type": "Point"
            },
            "properties": {
                "capacity": 12,
                "is_installed": true,
                "is_renting": true,
                "is_returning": true,
                "is_virtual_station": false,
                "last_reported": 1789275700,
                "name": "Parc des Romains",
                "num_bikes_available": 5,
                "num_docks_available": 7,
                "region_id": "934",
                "rental_uris": {
                    "android": "https://velhop.nextbike.app/station?id=245592472",
                    "ios": "https://velhop.nextbike.app/station?id=245592472",
                    "web": "https://nxtb.it/p/245592472"
                },
                "short_name": "62024",
                "station_id": "245592472",
                "vehicle_types_available": [
                    {
                        "count": 5,
                        "vehicle_type_id": "272"
                    }
                ]
            },
            "type": "Feature"
        },
        {
            "geometry": {
                "coordinates": [
                    7.749722,
                    48.585333
                ],
                "type": "Point"
            },
            "properties": {
                "capacity": 28,
                "is_installed": true,
                "is_renting": true,
                "is_returning": true,
                "is_virtual_station": false,
                "last_reported": 1789275700,
                "name": "Broglie",
                "num_bikes_available": 14,
                "num_docks_available": 14,
                "region_id": "934",
                "rental_uris": {
                    "android": "https://velhop.nextbike.app/station?id=245593080",
                    "ios": "https://velhop.nextbike.app/station?id=245593080",
                    "web": "https://nxtb.it/p/245593080"
                },
                "short_name": "62025",
                "station_id": "245593080",
                "vehicle_types_available": [
                    {
                        "count": 14,
                        "vehicle_type_id": "272"
                    }
                ]
            },
            "type": "Feature"
        },
        {
            "geometry": {
                "coordinates": [
                    7.766611,
                    48.582028
                ],
                "type": "Point"
            },
            "properties": {
                "capacity": 20,
                "is_installed": true,
                "is_renting": true,
                "is_returning": true,
                "is_virtual_station": false,
                "last_reported": 1789275700,
                "name": "Universit\u00e9",
                "num_bikes_available": 11,
                "num_docks_available": 7,
                "region_id": "934",
                "rental_uris": {
                    "android": "https://velhop.nextbike.app/station?id=245594460",
                    "ios": "https://velhop.nextbike.app/station?id=245594460",
                    "web": "https://nxtb.it/p/245594460"
                },
                "short_name": "62026",
                "station_id": "245594460",
                "vehicle_types_available": [
                    {
                        "count": 11,
                        "vehicle_type_id": "272"
                    }
                ]
            },
            "type": "Feature"
        },
        {
            "geometry": {
                "coordinates": [
                    7.768694,
                    48.584528
                ],
                "type": "Point"
            },
            "properties": {
                "capacity": 15,
                "is_installed": true,
                "is_renting": true,
                "is_returning": true,
                "is_virtual_station": false,
                "last_reported": 1789275700,
                "name": "Place Arnold",
                "num_bikes_available": 3,
                "num_docks_available": 12,
                "region_id": "934",
                "rental_uris": {
                    "android": "https://velhop.nextbike.app/station?id=245595123",
                    "ios": "https://velhop.nextbike.app/station?id=245595123",
                    "web": "https://nxtb.it/p/245595123"
                },
                "short_name": "62027",
                "station_id": "245595123",
                "vehicle_types_available": [
                    {
                        "count": 3,
                        "vehicle_type_id": "272"
                    }
                ]
            },
            "type": "Feature"
        },
        {
            "geometry": {
                "coordinates": [
                    7.759222,
                    48.566222
                ],
                "type": "Point"
            },
            "properties": {
                "capacity": 15,
                "is_installed": true,
                "is_renting": true,
                "is_returning": true,
                "is_virtual_station": false,
                "last_reported": 1789275700,
                "name": "Place du March\u00e9",
                "num_bikes_available": 2,
                "num_docks_available": 12,
                "region_id": "934",
                "rental_uris": {
                    "android": "https://velhop.nextbike.app/station?id=245595689",
                    "ios": "https://velhop.nextbike.app/station?id=245595689",
                    "web": "https://nxtb.it/p/245595689"
                },
                "short_name": "62028",
                "station_id": "245595689",
                "vehicle_types_available": [
                    {
                        "count": 2,
                        "vehicle_type_id": "272"
                    }
                ]
            },
            "type": "Feature"
        },
        {
            "geometry": {
                "coordinates": [
                    7.776972,
                    48.580417
                ],
                "type": "Point"
            },
            "properties": {
                "capacity": 12,
                "is_installed": true,
                "is_renting": true,
                "is_returning": true,
                "is_virtual_station": false,
                "last_reported": 1789275700,
                "name": "Place d'Islande",
                "num_bikes_available": 3,
                "num_docks_available": 8,
                "region_id": "934",
                "rental_uris": {
                    "android": "https://velhop.nextbike.app/station?id=245596275",
                    "ios": "https://velhop.nextbike.app/station?id=245596275",
                    "web": "https://nxtb.it/p/245596275"
                },
                "short_name": "62029",
                "station_id": "245596275",
                "vehicle_types_available": [
                    {
                        "count": 3,
                        "vehicle_type_id": "272"
                    }
                ]
            },
            "type": "Feature"
        },
        {
            "geometry": {
                "coordinates": [
                    7.753833,
                    48.574417
                ],
                "type": "Point"
            },
            "properties": {
                "capacity": 20,
                "is_installed": true,
                "is_renting": true,
                "is_returning": true,
                "is_virtual_station": false,
                "last_reported": 1789275700,
                "name": "Etoile Bourse",
                "num_bikes_available": 6,
                "num_docks_available": 13,
                "region_id": "934",
                "rental_uris": {
                    "android": "https://velhop.nextbike.app/station?id=245597085",
                    "ios": "https://velhop.nextbike.app/station?id=245597085",
                    "web": "https://nxtb.it/p/245597085"
                },
                "short_name": "62030",
                "station_id": "245597085",
                "vehicle_types_available": [
                    {
                        "count": 6,
                        "vehicle_type_id": "272"
                    }
                ]
            },
            "type": "Feature"
        },
        {
            "geometry": {
                "coordinates": [
                    7.762392,
                    48.573512
                ],
                "type": "Point"
            },
            "properties": {
                "capacity": 16,
                "is_installed": true,
                "is_renting": true,
                "is_returning": true,
                "is_virtual_station": false,
                "last_reported": 1789275700,
                "name": "Etoile Cin\u00e9ma",
                "num_bikes_available": 5,
                "num_docks_available": 11,
                "region_id": "934",
                "rental_uris": {
                    "android": "https://velhop.nextbike.app/station?id=245597920",
                    "ios": "https://velhop.nextbike.app/station?id=245597920",
                    "web": "https://nxtb.it/p/245597920"
                },
                "short_name": "62031",
                "station_id": "245597920",
                "vehicle_types_available": [
                    {
                        "count": 5,
                        "vehicle_type_id": "272"
                    }
                ]
            },
            "type": "Feature"
        },
        {
            "geometry": {
                "coordinates": [
                    7.751889,
                    48.561806
                ],
                "type": "Point"
            },
            "properties": {
                "capacity": 10,
                "is_installed": true,
                "is_renting": true,
                "is_returning": true,
                "is_virtual_station": false,
                "last_reported": 1789275700,
                "name": "Krimmeri Gare",
                "num_bikes_available": 4,
                "num_docks_available": 6,
                "region_id": "934",
                "rental_uris": {
                    "android": "https://velhop.nextbike.app/station?id=245598687",
                    "ios": "https://velhop.nextbike.app/station?id=245598687",
                    "web": "https://nxtb.it/p/245598687"
                },
                "short_name": "62032",
                "station_id": "245598687",
                "vehicle_types_available": [
                    {
                        "count": 4,
                        "vehicle_type_id": "272"
                    }
                ]
            },
            "type": "Feature"
        },
        {
            "geometry": {
                "coordinates": [
                    7.766917,
                    48.5995
                ],
                "type": "Point"
            },
            "properties": {
                "capacity": 10,
                "is_installed": true,
                "is_renting": true,
                "is_returning": true,
                "is_virtual_station": false,
                "last_reported": 1789275700,
                "name": "Parlement",
                "num_bikes_available": 7,
                "num_docks_available": 3,
                "region_id": "934",
                "rental_uris": {
                    "android": "https://velhop.nextbike.app/station?id=245599491",
                    "ios": "https://velhop.nextbike.app/station?id=245599491",
                    "web": "https://nxtb.it/p/245599491"
                },
                "short_name": "62033",
                "station_id": "245599491",
                "vehicle_types_available": [
                    {
                        "count": 7,
                        "vehicle_type_id": "272"
                    }
                ]
            },
            "type": "Feature"
        },
        {
            "geometry": {
                "coordinates": [
                    7.736,
                    48.580306
                ],
                "type": "Point"
            },
            "properties": {
                "capacity": 16,
                "is_installed": true,
                "is_renting": true,
                "is_returning": true,
                "is_virtual_station": false,
                "last_reported": 1789275700,
                "name": "Mus\u00e9e d'Art Moderne",
                "num_bikes_available": 3,
                "num_docks_available": 11,
                "region_id": "934",
                "rental_uris": {
                    "android": "https://velhop.nextbike.app/station?id=245602743",
                    "ios": "https://velhop.nextbike.app/station?id=245602743",
                    "web": "https://nxtb.it/p/245602743"
                },
                "short_name": "62034",
                "station_id": "245602743",
                "vehicle_types_available": [
                    {
                        "count": 3,
                        "vehicle_type_id": "272"
                    }
                ]
            },
            "type": "Feature"
        },
        {
            "geometry": {
                "coordinates": [
                    7.757361,
                    48.593778
                ],
                "type": "Point"
            },
            "properties": {
                "capacity": 8,
                "is_installed": true,
                "is_renting": true,
                "is_returning": true,
                "is_virtual_station": false,
                "last_reported": 1789275700,
                "name": "Place de Bordeaux",
                "num_bikes_available": 6,
                "num_docks_available": 1,
                "region_id": "934",
                "rental_uris": {
                    "android": "https://velhop.nextbike.app/station?id=245603512",
                    "ios": "https://velhop.nextbike.app/station?id=245603512",
                    "web": "https://nxtb.it/p/245603512"
                },
                "short_name": "62035",
                "station_id": "245603512",
                "vehicle_types_available": [
                    {
                        "count": 6,
                        "vehicle_type_id": "272"
                    }
                ]
            },
            "type": "Feature"
        },
        {
            "geometry": {
                "coordinates": [
                    7.718611,
                    48.665556
                ],
                "type": "Point"
            },
            "properties": {
                "capacity": 10,
                "is_installed": true,
                "is_renting": true,
                "is_returning": true,
                "is_virtual_station": false,
                "last_reported": 1789275700,
                "name": "Vendenheim Gare",
                "num_bikes_available": 6,
                "num_docks_available": 4,
                "region_id": "935",
                "rental_uris": {
                    "android": "https://velhop.nextbike.app/station?id=245604683",
                    "ios": "https://velhop.nextbike.app/station?id=245604683",
                    "web": "https://nxtb.it/p/245604683"
                },
                "short_name": "62036",
                "station_id": "245604683",
                "vehicle_types_available": [
                    {
                        "count": 6,
                        "vehicle_type_id": "272"
                    }
                ]
            },
            "type": "Feature"
        },
        {
            "geometry": {
                "coordinates": [
                    7.782014,
                    48.581564
                ],
                "type": "Point"
            },
            "properties": {
                "capacity": 10,
                "is_installed": true,
                "is_renting": true,
                "is_returning": true,
                "is_virtual_station": false,
                "last_reported": 1789275700,
                "name": "Rotterdam",
                "num_bikes_available": 5,
                "num_docks_available": 5,
                "region_id": "934",
                "rental_uris": {
                    "android": "https://velhop.nextbike.app/station?id=499948064",
                    "ios": "https://velhop.nextbike.app/station?id=499948064",
                    "web": "https://nxtb.it/p/499948064"
                },
                "short_name": "62020",
                "station_id": "499948064",
                "vehicle_types_available": [
                    {
                        "count": 5,
                        "vehicle_type_id": "272"
                    }
                ]
            },
            "type": "Feature"
        },
        {
            "geometry": {
                "coordinates": [
                    7.772907,
                    48.567206
                ],
                "type": "Point"
            },
            "properties": {
                "capacity": 7,
                "is_installed": true,
                "is_renting": true,
                "is_returning": true,
                "is_virtual_station": false,
                "last_reported": 1789275700,
                "name": "Jean Jaur\u00e8s",
                "num_bikes_available": 3,
                "num_docks_available": 4,
                "region_id": "934",
                "rental_uris": {
                    "android": "https://velhop.nextbike.app/station?id=499949546",
                    "ios": "https://velhop.nextbike.app/station?id=499949546",
                    "web": "https://nxtb.it/p/499949546"
                },
                "short_name": "62002",
                "station_id": "499949546",
                "vehicle_types_available": [
                    {
                        "count": 3,
                        "vehicle_type_id": "272"
                    }
                ]
            },
            "type": "Feature"
        },
        {
            "geometry": {
                "coordinates": [
                    7.707583,
                    48.524194
                ],
                "type": "Point"
            },
            "properties": {
                "capacity": 10,
                "is_installed": true,
                "is_renting": true,
                "is_returning": true,
                "is_virtual_station": false,
                "last_reported": 1789275700,
                "name": "Salle des f\u00eates",
                "num_bikes_available": 8,
                "num_docks_available": 2,
                "region_id": "928",
                "rental_uris": {
                    "android": "https://velhop.nextbike.app/station?id=500084605",
                    "ios": "https://velhop.nextbike.app/station?id=500084605",
                    "web": "https://nxtb.it/p/500084605"
                },
                "short_name": "62006",
                "station_id": "500084605",
                "vehicle_types_available": [
                    {
                        "count": 8,
                        "vehicle_type_id": "272"
                    }
                ]
            },
            "type": "Feature"
        },
        {
            "geometry": {
                "coordinates": [
                    7.672662,
                    48.591485
                ],
                "type": "Point"
            },
            "properties": {
                "capacity": 10,
                "is_installed": true,
                "is_renting": true,
                "is_returning": true,
                "is_virtual_station": false,
                "last_reported": 1789275700,
                "name": "Wolfisheim",
                "num_bikes_available": 3,
                "num_docks_available": 7,
                "region_id": "936",
                "rental_uris": {
                    "android": "https://velhop.nextbike.app/station?id=586719545",
                    "ios": "https://velhop.nextbike.app/station?id=586719545",
                    "web": "https://nxtb.it/p/586719545"
                },
                "short_name": "62039",
                "station_id": "586719545",
                "vehicle_types_available": [
                    {
                        "count": 3,
                        "vehicle_type_id": "272"
                    }
                ]
            },
            "type": "Feature"
        },
        {
            "geometry": {
                "coordinates": [
                    7.690003,
                    48.532635
                ],
                "type": "Point"
            },
            "properties": {
                "capacity": 10,
                "is_installed": true,
                "is_renting": true,
                "is_returning": true,
                "is_virtual_station": false,
                "last_reported": 1789275700,
                "name": "Graffenstaden Gare",
                "num_bikes_available": 6,
                "num_docks_available": 4,
                "region_id": "926",
                "rental_uris": {
                    "android": "https://velhop.nextbike.app/station?id=638093766",
                    "ios": "https://velhop.nextbike.app/station?id=638093766",
                    "web": "https://nxtb.it/p/638093766"
                },
                "short_name": "62043",
                "station_id": "638093766",
                "vehicle_types_available": [
                    {
                        "count": 6,
                        "vehicle_type_id": "272"
                    }
                ]
            },
            "type": "Feature"
        }
    ],
    "gbfs": {
        "station_information": {
            "last_updated": 1789275700,
            "ttl": 60,
            "version": "2.3"
        },
        "station_status": {
            "last_updated": 1789275700,
            "ttl": 60,
            "version": "2.3"
        }
    },
    "type": "FeatureCollection"
}