{
    "features": [
        {
            "geometry": {
                "coordinates": [
                    18.669543,
                    45.568469
                ],
                "type": "Point"
            },
            "properties": {
                "capacity": 7,
                "is_installed": true,
                "is_renting": true,
                "is_returning": true,
                "is_virtual_station": false,
                "last_reported": 1789281437,
                "name": "ZOO vrt",
                "num_bikes_available": 4,
                "num_docks_available": 3,
                "region_id": "734",
                "rental_uris": {
                    "android": "https://app.nextbike.net/station?id=56557313",
                    "ios": "https://app.nextbike.net/station?id=56557313",
                    "web": "https://nxtb.it/p/56557313"
                },
                "short_name": "31024",
                "station_id": "56557313",
                "vehicle_types_available": [
                    {
                        "count": 2,
                        "vehicle_type_id": "143"
                    },
                    {
                        "count": 2,
                        "vehicle_type_id": "150"
                    }
                ]
            },
            "type": "Feature"
        },
        {
            "geometry": {
                "coordinates": [
                    18.63341,
                    45.564655
                ],
                "type": "Point"
            },
            "properties": {
                "capacity": 7,
                "is_installed": true,
                "is_renting": true,
                "is_returning": true,
                "is_virtual_station": false,
                "last_reported": 1789281437,
                "name": "BIOS - poduzetni\u010dki inkubator",
                "num_bikes_available": 5,
                "num_docks_available": 2,
                "region_id": "734",
                "rental_uris": {
                    "android": "https://app.nextbike.net/station?id=56602854",
                    "ios": "https://app.nextbike.net/station?id=56602854",
                    "web": "https://nxtb.it/p/56602854"
                },
                "short_name": "31023",
                "station_id": "56602854",
                "vehicle_types_available": [
                    {
                        "count": 2,
                        "vehicle_type_id": "143"
                    },
                    {
                        "count": 3,
                        "vehicle_type_id": "150"
                    }
                ]
            },
            "type": "Feature"
        },
        {
            "geometry": {
                "coordinates": [
                    18.692657,
                    45.565415
                ],
                "type": "Point"
            },
            "properties": {
                "capacity": 7,
                "is_installed": true,
                "is_renting": true,
                "is_returning": true,
                "is_virtual_station": false,
                "last_reported": 1789281437,
                "name": "Copacabana",
                "num_bikes_available": 0,
                "num_docks_available": 7,
                "region_id": "734",
                "rental_uris": {
                    "android": "https://app.nextbike.net/station?id=56603409",
                    "ios": "https://app.nextbike.net/station?id=56603409",
                    "web": "https://nxtb.it/p/56603409"
                },
                "short_name": "31022",
                "station_id": "56603409",
                "vehicle_types_available": []
            },
            "type": "Feature"
        },
        {
            "geometry": {
                "coordinates": [
                    18.698711,
                    45.559122
                ],
                "type": "Point"
            },
            "properties": {
                "capacity": 7,
                "is_installed": true,
                "is_renting": true,
                "is_returning": true,
                "is_virtual_station": false,
                "last_reported": 1789281437,
                "name": "Centar za posjetitelje",
                "num_bikes_available": 2,
                "num_docks_available": 4,
                "region_id": "734",
                "rental_uris": {
                    "android": "https://app.nextbike.net/station?id=56603732",
                    "ios": "https://app.nextbike.net/station?id=56603732",
                    "web": "https://nxtb.it/p/56603732"
                },
                "short_name": "31021",
                "station_id": "56603732",
                "vehicle_types_available": [
                    {
                        "count": 2,
                        "vehicle_type_id": "150"
                    }
                ]
            },
            "type": "Feature"
        },
        {
            "geometry": {
                "coordinates": [
                    18.708981,
                    45.554849
                ],
                "type": "Point"
            },
            "properties": {
                "capacity": 7,
                "is_installed": true,
                "is_renting": true,
                "is_returning": true,
                "is_virtual_station": false,
                "last_reported": 1789281437,
                "name": "Sveu\u010dili\u0161ni kampus",
                "num_bikes_available": 2,
                "num_docks_available": 5,
                "region_id": "734",
                "rental_uris": {
                    "android": "https://app.nextbike.net/station?id=56603915",
                    "ios": "https://app.nextbike.net/station?id=56603915",
                    "web": "https://nxtb.it/p/56603915"
                },
                "short_name": "31020",
                "station_id": "56603915",
                "vehicle_types_available": [
                    {
                        "count": 2,
                        "vehicle_type_id": "150"
                    }
                ]
            },
            "type": "Feature"
        },
        {
            "geometry": {
                "coordinates": [
                    18.698969,
                    45.551588
                ],
                "type": "Point"
            },
            "properties": {
                "capacity": 7,
                "is_installed": true,
                "is_renting": true,
                "is_returning": true,
                "is_virtual_station": false,
                "last_reported": 1789281437,
                "name": "Sjenjak",
                "num_bikes_available": 5,
                "num_docks_available": 2,
                "region_id": "734",
                "rental_uris": {
                    "android": "https://app.nextbike.net/station?id=56604248",
                    "ios": "https://app.nextbike.net/station?id=56604248",
                    "web": "https://nxtb.it/p/56604248"
                },
                "short_name": "31019",
                "station_id": "56604248",
                "vehicle_types_available": [
                    {
                        "count": 5,
                        "vehicle_type_id": "150"
                    }
                ]
            },
            "type": "Feature"
        },
        {
            "geometry": {
                "coordinates": [
                    18.685162,
                    45.557493
                ],
                "type": "Point"
            },
            "properties": {
                "capacity": 7,
                "is_installed": true,
                "is_renting": true,
                "is_returning": true,
                "is_virtual_station": false,
                "last_reported": 1789281437,
                "name": "Gajev trg",
                "num_bikes_available": 2,
                "num_docks_available": 5,
                "region_id": "734",
                "rental_uris": {
                    "android": "https://app.nextbike.net/station?id=56604502",
                    "ios": "https://app.nextbike.net/station?id=56604502",
                    "web": "https://nxtb.it/p/56604502"
                },
                "short_name": "31009",
                "station_id": "56604502",
                "vehicle_types_available": [
                    {
                        "count": 1,
                        "vehicle_type_id": "143"
                    },
                    {
                        "count": 1,
                        "vehicle_type_id": "150"
                    }
                ]
            },
            "type": "Feature"
        },
        {
            "geometry": {
                "coordinates": [
                    18.696263,
                    45.555626
                ],
                "type": "Point"
            },
            "properties": {
                "capacity": 9,
                "is_installed": true,
                "is_renting": true,
                "is_returning": true,
                "is_virtual_station": false,
                "last_reported": 1789281437,
                "name": "Vijenac I. Me\u0161trovi\u0107a",
                "num_bikes_available": 5,
                "num_docks_available": 4,
                "region_id": "734",
                "rental_uris": {
                    "android": "https://app.nextbike.net/station?id=56605002",
                    "ios": "https://app.nextbike.net/station?id=56605002",
                    "web": "https://nxtb.it/p/56605002"
                },
                "short_name": "31018",
                "station_id": "56605002",
                "vehicle_types_available": [
                    {
                        "count": 1,
                        "vehicle_type_id": "143"
                    },
                    {
                        "count": 4,
                        "vehicle_type_id": "150"
                    }
                ]
            },
            "type": "Feature"
        },
        {
            "geometry": {
                "coordinates": [
                    18.709508,
                    45.54363
                ],
                "type": "Point"
            },
            "properties": {
                "capacity": 7,
                "is_installed": true,
                "is_renting": true,
                "is_returning": true,
                "is_virtual_station": false,
                "last_reported": 1789281437,
                "name": "Jug 2 - sportska dvorana",
                "num_bikes_available": 4,
                "num_docks_available": 3,
                "region_id": "734",
                "rental_uris": {
                    "android": "https://app.nextbike.net/station?id=56605123",
                    "ios": "https://app.nextbike.net/station?id=56605123",
                    "web": "https://nxtb.it/p/56605123"
                },
                "short_name": "31017",
                "station_id": "56605123",
                "vehicle_types_available": [
                    {
                        "count": 4,
                        "vehicle_type_id": "150"
                    }
                ]
            },
            "type": "Feature"
        },
        {
            "geometry": {
                "coordinates": [
                    18.725401,
                    45.545277
                ],
                "type": "Point"
            },
            "properties": {
                "capacity": 8,
                "is_installed": true,
                "is_renting": true,
                "is_returning": true,
                "is_virtual_station": false,
                "last_reported": 1789281437,
                "name": "Ka\u0161telanska - Uma\u0161ka - kri\u017eanje",
                "num_bikes_available": 6,
                "num_docks_available": 1,
                "region_id": "734",
                "rental_uris": {
                    "android": "https://app.nextbike.net/station?id=56605390",
                    "ios": "https://app.nextbike.net/station?id=56605390",
                    "web": "https://nxtb.it/p/56605390"
                },
                "short_name": "31016",
                "station_id": "56605390",
                "vehicle_types_available": [
                    {
                        "count": 2,
                        "vehicle_type_id": "143"
                    },
                    {
                        "count": 4,
                        "vehicle_type_id": "150"
                    }
                ]
            },
            "type": "Feature"
        },
        {
            "geometry": {
                "coordinates": [
                    18.719618,
                    45.554665
                ],
                "type": "Point"
            },
            "properties": {
                "capacity": 7,
                "is_installed": true,
                "is_renting": true,
                "is_returning": true,
                "is_virtual_station": false,
                "last_reported": 1789281437,
                "name": "Prolaz kod Snje\u017ene Gospe ",
                "num_bikes_available": 5,
                "num_docks_available": 2,
                "region_id": "734",
                "rental_uris": {
                    "android": "https://app.nextbike.net/station?id=56605600",
                    "ios": "https://app.nextbike.net/station?id=56605600",
                    "web": "https://nxtb.it/p/56605600"
                },
                "short_name": "31014",
                "station_id": "56605600",
                "vehicle_types_available": [
                    {
                        "count": 2,
                        "vehicle_type_id": "143"
                    },
                    {
                        "count": 3,
                        "vehicle_type_id": "150"
                    }
                ]
            },
            "type": "Feature"
        },
        {
            "geometry": {
                "coordinates": [
                    18.683593,
                    45.553224
                ],
                "type": "Point"
            },
            "properties": {
                "capacity": 7,
                "is_installed": true,
                "is_renting": true,
                "is_returning": true,
                "is_virtual_station": false,
                "last_reported": 1789281437,
                "name": "\u017deljezni\u010dki kolodvor",
                "num_bikes_available": 3,
                "num_docks_available": 4,
                "region_id": "734",
                "rental_uris": {
                    "android": "https://app.nextbike.net/station?id=56605771",
                    "ios": "https://app.nextbike.net/station?id=56605771",
                    "web": "https://nxtb.it/p/56605771"
                },
                "short_name": "31015",
                "station_id": "56605771",
                "vehicle_types_available": [
                    {
                        "count": 3,
                        "vehicle_type_id": "150"
                    }
                ]
            },
            "type": "Feature"
        },
        {
            "geometry": {
                "coordinates": [
                    18.691283,
                    45.549374
                ],
                "type": "Point"
            },
            "properties": {
                "capacity": 7,
                "is_installed": true,
                "is_renting": true,
                "is_returning": true,
                "is_virtual_station": false,
                "last_reported": 1789281437,
                "name": "Gacka ulica",
                "num_bikes_available": 3,
                "num_docks_available": 4,
                "region_id": "734",
                "rental_uris": {
                    "android": "https://app.nextbike.net/station?id=56606028",
                    "ios": "https://app.nextbike.net/station?id=56606028",
                    "web": "https://nxtb.it/p/56606028"
                },
                "short_name": "31013",
                "station_id": "56606028",
                "vehicle_types_available": [
                    {
                        "count": 2,
                        "vehicle_type_id": "143"
                    },
                    {
                        "count": 1,
                        "vehicle_type_id": "150"
                    }
                ]
            },
            "type": "Feature"
        },
        {
            "geometry": {
                "coordinates": [
                    18.730779,
                    45.552533
                ],
                "type": "Point"
            },
            "properties": {
                "capacity": 10,
                "is_installed": true,
                "is_renting": true,
                "is_returning": true,
                "is_virtual_station": false,
                "last_reported": 1789281437,
                "name": "Zeleno polje - okreti\u0161te tramvaja",
                "num_bikes_available": 5,
                "num_docks_available": 5,
                "region_id": "734",
                "rental_uris": {
                    "android": "https://app.nextbike.net/station?id=56606255",
                    "ios": "https://app.nextbike.net/station?id=56606255",
                    "web": "https://nxtb.it/p/56606255"
                },
                "short_name": "31012",
                "station_id": "56606255",
                "vehicle_types_available": [
                    {
                        "count": 1,
                        "vehicle_type_id": "143"
                    },
                    {
                        "count": 4,
                        "vehicle_type_id": "150"
                    }
                ]
            },
            "type": "Feature"
        },
        {
            "geometry": {
                "coordinates": [
                    18.719629,
                    45.558916
                ],
                "type": "Point"
            },
            "properties": {
                "capacity": 7,
                "is_installed": true,
                "is_renting": true,
                "is_returning": true,
                "is_virtual_station": false,
                "last_reported": 1789281437,
                "name": "O\u0160 Jagode Truhelke",
                "num_bikes_available": 2,
                "num_docks_available": 5,
                "region_id": "734",
                "rental_uris": {
                    "android": "https://app.nextbike.net/station?id=56606354",
                    "ios": "https://app.nextbike.net/station?id=56606354",
                    "web": "https://nxtb.it/p/56606354"
                },
                "short_name": "31011",
                "station_id": "56606354",
                "vehicle_types_available": [
                    {
                        "count": 1,
                        "vehicle_type_id": "143"
                    },
                    {
                        "count": 1,
                        "vehicle_type_id": "150"
                    }
                ]
            },
            "type": "Feature"
        },
        {
            "geometry": {
                "coordinates": [
                    18.653156,
                    45.556735
                ],
                "type": "Point"
            },
            "properties": {
                "capacity": 8,
                "is_installed": true,
                "is_renting": true,
                "is_returning": true,
                "is_virtual_station": false,
                "last_reported": 1789281437,
                "name": "Vijenac Petrove gore",
                "num_bikes_available": 5,
                "num_docks_available": 3,
                "region_id": "734",
                "rental_uris": {
                    "android": "https://app.nextbike.net/station?id=56606503",
                    "ios": "https://app.nextbike.net/station?id=56606503",
                    "web": "https://nxtb.it/p/56606503"
                },
                "short_name": "31010",
                "station_id": "56606503",
                "vehicle_types_available": [
                    {
                        "count": 2,
                        "vehicle_type_id": "143"
                    },
                    {
                        "count": 3,
                        "vehicle_type_id": "150"
                    }
                ]
            },
            "type": "Feature"
        },
        {
            "geometry": {
                "coordinates": [
                    18.718846,
                    45.543593
                ],
                "type": "Point"
            },
            "properties": {
                "capacity": 7,
                "is_installed": true,
                "is_renting": true,
                "is_returning": true,
                "is_virtual_station": false,
                "last_reported": 1789281437,
                "name": "Jug 2 - centar",
                "num_bikes_available": 5,
                "num_docks_available": 2,
                "region_id": "734",
                "rental_uris": {
                    "android": "https://app.nextbike.net/station?id=56606879",
                    "ios": "https://app.nextbike.net/station?id=56606879",
                    "web": "https://nxtb.it/p/56606879"
                },
                "short_name": "31008",
                "station_id": "56606879",
                "vehicle_types_available": [
                    {
                        "count": 1,
                        "vehicle_type_id": "143"
                    },
                    {
                        "count": 4,
                        "vehicle_type_id": "150"
                    }
                ]
            },
            "type": "Feature"
        },
        {
            "geometry": {
                "coordinates": [
                    18.616781,
                    45.56694
                ],
                "type": "Point"
            },
            "properties": {
                "capacity": 7,
                "is_installed": true,
                "is_renting": true,
                "is_returning": true,
                "is_virtual_station": false,
                "last_reported": 1789281437,
                "name": "Vi\u0161njevac - okreti\u0161te tramvaja",
                "num_bikes_available": 2,
                "num_docks_available": 5,
                "region_id": "734",
                "rental_uris": {
                    "android": "https://app.nextbike.net/station?id=56607147",
                    "ios": "https://app.nextbike.net/station?id=56607147",
                    "web": "https://nxtb.it/p/56607147"
                },
                "short_name": "31007",
                "station_id": "56607147",
                "vehicle_types_available": [
                    {
                        "count": 2,
                        "vehicle_type_id": "150"
                    }
                ]
            },
            "type": "Feature"
        },
        {
            "geometry": {
                "coordinates": [
                    18.639728,
                    45.555608
                ],
                "type": "Point"
            },
            "properties": {
                "capacity": 7,
                "is_installed": true,
                "is_renting": true,
                "is_returning": true,
                "is_virtual_station": false,
                "last_reported": 1789281437,
                "name": "Portanova",
                "num_bikes_available": 2,
                "num_docks_available": 5,
                "region_id": "734",
                "rental_uris": {
                    "android": "https://app.nextbike.net/station?id=56607257",
                    "ios": "https://app.nextbike.net/station?id=56607257",
                    "web": "https://nxtb.it/p/56607257"
                },
                "short_name": "31006",
                "station_id": "56607257",
                "vehicle_types_available": [
                    {
                        "count": 2,
                        "vehicle_type_id": "150"
                    }
                ]
            },
            "type": "Feature"
        },
        {
            "geometry": {
                "coordinates": [
                    18.654028,
                    45.563365
                ],
                "type": "Point"
            },
            "properties": {
                "capacity": 7,
                "is_installed": true,
                "is_renting": true,
                "is_returning": true,
                "is_virtual_station": false,
                "last_reported": 1789281437,
                "name": "Tr\u017enica Retfala",
                "num_bikes_available": 4,
                "num_docks_available": 3,
                "region_id": "734",
                "rental_uris": {
                    "android": "https://app.nextbike.net/station?id=56607406",
                    "ios": "https://app.nextbike.net/station?id=56607406",
                    "web": "https://nxtb.it/p/56607406"
                },
                "short_name": "31005",
                "station_id": "56607406",
                "vehicle_types_available": [
                    {
                        "count": 1,
                        "vehicle_type_id": "143"
                    },
                    {
                        "count": 3,
                        "vehicle_type_id": "150"
                    }
                ]
            },
            "type": "Feature"
        },
        {
            "geometry": {
                "coordinates": [
                    18.676449,
                    45.560507
                ],
                "type": "Point"
            },
            "properties": {
                "capacity": 10,
                "is_installed": true,
                "is_renting": true,
                "is_returning": true,
                "is_virtual_station": false,
                "last_reported": 1789281437,
                "name": "\u017dupanijska 3 (kod Konkatedrale)",
                "num_bikes_available": 3,
                "num_docks_available": 7,
                "region_id": "734",
                "rental_uris": {
                    "android": "https://app.nextbike.net/station?id=56607728",
                    "ios": "https://app.nextbike.net/station?id=56607728",
                    "web": "https://nxtb.it/p/56607728"
                },
                "short_name": "31000",
                "station_id": "56607728",
                "vehicle_types_available": [
                    {
                        "count": 3,
                        "vehicle_type_id": "150"
                    }
                ]
            },
            "type": "Feature"
        },
        {
            "geometry": {
                "coordinates": [
                    18.677996,
                    45.545649
                ],
                "type": "Point"
            },
            "properties": {
                "capacity": 8,
                "is_installed": true,
                "is_renting": true,
                "is_returning": true,
                "is_virtual_station": false,
                "last_reported": 1789281437,
                "name": "Bosutsko naselje kod kru\u017enog toka",
                "num_bikes_available": 4,
                "num_docks_available": 4,
                "region_id": "734",
                "rental_uris": {
                    "android": "https://app.nextbike.net/station?id=56634416",
                    "ios": "https://app.nextbike.net/station?id=56634416",
                    "web": "https://nxtb.it/p/56634416"
                },
                "short_name": "31004",
                "station_id": "56634416",
                "vehicle_types_available": [
                    {
                        "count": 2,
                        "vehicle_type_id": "150"
                    },
                    {
                        "count": 2,
                        "vehicle_type_id": "143"
                    }
                ]
            },
            "type": "Feature"
        },
        {
            "geometry": {
                "coordinates": [
                    18.587701,
                    45.577042
                ],
                "type": "Point"
            },
            "properties": {
                "capacity": 8,
                "is_installed": true,
                "is_renting": true,
                "is_returning": true,
                "is_virtual_station": false,
                "last_reported": 1789281437,
                "name": "Hrvatski dom Josipovac",
                "num_bikes_available": 0,
                "num_docks_available": 8,
                "region_id": "734",
                "rental_uris": {
                    "android": "https://app.nextbike.net/station?id=56635178",
                    "ios": "https://app.nextbike.net/station?id=56635178",
                    "web": "https://nxtb.it/p/56635178"
                },
                "short_name": "31003",
                "station_id": "56635178",
                "vehicle_types_available": []
            },
            "type": "Feature"
        },
        {
            "geometry": {
                "coordinates": [
                    18.728414,
                    45.519264
                ],
                "type": "Point"
            },
            "properties": {
                "capacity": 5,
                "is_installed": true,
                "is_renting": true,
                "is_returning": true,
                "is_virtual_station": false,
                "last_reported": 1789281437,
                "name": "Tenja - Osje\u010dka ulica",
                "num_bikes_available": 3,
                "num_docks_available": 2,
                "region_id": "734",
                "rental_uris": {
                    "android": "https://app.nextbike.net/station?id=56635460",
                    "ios": "https://app.nextbike.net/station?id=56635460",
                    "web": "https://nxtb.it/p/56635460"
                },
                "short_name": "31002",
                "station_id": "56635460",
                "vehicle_types_available": [
                    {
                        "count": 3,
                        "vehicle_type_id": "150"
                    }
                ]
            },
            "type": "Feature"
        },
        {
            "geometry": {
                "coordinates": [
                    18.745272,
                    45.501605
                ],
                "type": "Point"
            },
            "properties": {
                "capacity": 7,
                "is_installed": true,
                "is_renting": true,
                "is_returning": true,
                "is_virtual_station": false,
                "last_reported": 1789281437,
                "name": "Tenja - centar",
                "num_bikes_available": 3,
                "num_docks_available": 4,
                "region_id": "734",
                "rental_uris": {
                    "android": "https://app.nextbike.net/station?id=56635675",
                    "ios": "https://app.nextbike.net/station?id=56635675",
                    "web": "https://nxtb.it/p/56635675"
                },
                "short_name": "31001",
                "station_id": "56635675",
                "vehicle_types_available": [
                    {
                        "count": 2,
                        "vehicle_type_id": "143"
                    },
                    {
                        "count": 1,
                        "vehicle_type_id": "150"
                    }
                ]
            },
            "type": "Feature"
        },
        {
            "geometry": {
                "coordinates": [
                    18.679873,
                    45.553101
                ],
                "type": "Point"
            },
            "properties": {
                "capacity": 8,
                "is_installed": true,
                "is_renting": true,
                "is_returning": true,
                "is_virtual_station": true,
                "last_reported": 1789281437,
                "name": "Autobusni kolodvor Osijek",
                "num_bikes_available": 4,
                "num_docks_available": 4,
                "region_id": "734",
                "rental_uris": {
                    "android": "https://app.nextbike.net/station?id=99968669",
                    "ios": "https://app.nextbike.net/station?id=99968669",
                    "web": "https://nxtb.it/p/99968669"
                },
                "short_name": "31026",
                "station_area": {
                    "coordinates": [
                        [
                            [
                                [
                                    18.679873,
                                    45.553326
                                ],
                                [
                                    18.680151,
                                    45.553213
                                ],
                                [
                                    18.680151,
                                    45.552989
                                ],
                                [
                                    18.679873,
                                    45.552876
                                ],
                                [
                                    18.679595,
                                    45.552989
                                ],
                                [
                                    18.679595,
                                    45.553213
                                ],
                                [
                                    18.679873,
                                    45.553326
                                ]
                            ]
                        ]
                    ],
                    "type": "MultiPolygon"
                },
                "station_id": "99968669",
                "vehicle_types_available": [
                    {
                        "count": 4,
                        "vehicle_type_id": "150"
                    }
                ]
            },
            "type": "Feature"
        },
        {
            "geometry": {
                "coordinates": [
                    18.629127,
                    45.533127
                ],
                "type": "Point"
            },
            "properties": {
                "is_installed": true,
                "is_renting": true,
                "is_returning": true,
                "is_virtual_station": true,
                "last_reported": 1789281437,
                "name": "Mjesni odbor Cvjetno",
                "num_bikes_available": 0,
                "num_docks_available": 0,
                "region_id": "734",
                "rental_uris": {
                    "android": "https://app.nextbike.net/station?id=99968860",
                    "ios": "https://app.nextbike.net/station?id=99968860",
                    "web": "https://nxtb.it/p/99968860"
                },
                "short_name": "31027",
                "station_area": {
                    "coordinates": [
                        [
                            [
                                [
                                    18.629127,
                                    45.533352
                                ],
                                [
                                    18.629405,
                                    45.533239
                                ],
                                [
                                    18.629405,
                                    45.533015
                                ],
                                [
                                    18.629127,
                                    45.532902
                                ],
                                [
                                    18.628849,
                                    45.533015
                                ],
                                [
                                    18.628849,
                                    45.533239
                                ],
                                [
                                    18.629127,
                                    45.533352
                                ]
                            ]
                        ]
                    ],
                    "type": "MultiPolygon"
                },
                "station_id": "99968860",
                "vehicle_types_available": []
            },
            "type": "Feature"
        }
    ],
    "gbfs": {
        "station_information": {
            "last_updated": 1789281437,
            "ttl": 60,
            "version": "2.3"
        },
        "station_status": {
            "last_updated": 1789281437,
            "ttl": 60,
            "version": "2.3"
        }
    },
    "type": "FeatureCollection"
}