{
    "features": [
        {
            "geometry": {
                "coordinates": [
                    -5.555184,
                    42.58149
                ],
                "type": "Point"
            },
            "properties": {
                "capacity": 10,
                "is_installed": true,
                "is_renting": true,
                "is_returning": true,
                "is_virtual_station": false,
                "last_reported": 1789242569,
                "name": "PUENTE CASTRO- AV. SAN FROIL\u00c1N. INFORMACI\u00d3N PEREGRINOS",
                "num_bikes_available": 18,
                "num_docks_available": 0,
                "region_id": "701",
                "rental_uris": {
                    "android": "https://app.nextbike.net/station?id=106719649",
                    "ios": "https://app.nextbike.net/station?id=106719649",
                    "web": "https://nxtb.it/p/106719649"
                },
                "short_name": "37025",
                "station_id": "106719649",
                "vehicle_types_available": [
                    {
                        "count": 8,
                        "vehicle_type_id": "150"
                    },
                    {
                        "count": 10,
                        "vehicle_type_id": "412"
                    }
                ]
            },
            "type": "Feature"
        },
        {
            "geometry": {
                "coordinates": [
                    -5.587916,
                    42.57297
                ],
                "type": "Point"
            },
            "properties": {
                "capacity": 4,
                "is_installed": true,
                "is_renting": true,
                "is_returning": true,
                "is_virtual_station": false,
                "last_reported": 1789242569,
                "name": "ARMUNIA - PLAZA DE ESPA\u00d1A",
                "num_bikes_available": 7,
                "num_docks_available": 0,
                "region_id": "701",
                "rental_uris": {
                    "android": "https://app.nextbike.net/station?id=106719804",
                    "ios": "https://app.nextbike.net/station?id=106719804",
                    "web": "https://nxtb.it/p/106719804"
                },
                "short_name": "37026",
                "station_id": "106719804",
                "vehicle_types_available": [
                    {
                        "count": 6,
                        "vehicle_type_id": "412"
                    },
                    {
                        "count": 1,
                        "vehicle_type_id": "150"
                    }
                ]
            },
            "type": "Feature"
        },
        {
            "geometry": {
                "coordinates": [
                    -5.564984,
                    42.584309
                ],
                "type": "Point"
            },
            "properties": {
                "capacity": 10,
                "is_installed": true,
                "is_renting": true,
                "is_returning": true,
                "is_virtual_station": false,
                "last_reported": 1789242569,
                "name": "INCIBE- AV. JOS\u00c9 AGUADO",
                "num_bikes_available": 2,
                "num_docks_available": 8,
                "region_id": "701",
                "rental_uris": {
                    "android": "https://app.nextbike.net/station?id=136716725",
                    "ios": "https://app.nextbike.net/station?id=136716725",
                    "web": "https://nxtb.it/p/136716725"
                },
                "short_name": "37027",
                "station_id": "136716725",
                "vehicle_types_available": [
                    {
                        "count": 1,
                        "vehicle_type_id": "412"
                    },
                    {
                        "count": 1,
                        "vehicle_type_id": "150"
                    }
                ]
            },
            "type": "Feature"
        },
        {
            "geometry": {
                "coordinates": [
                    -5.565082,
                    42.596274
                ],
                "type": "Point"
            },
            "properties": {
                "capacity": 6,
                "is_installed": true,
                "is_renting": true,
                "is_returning": true,
                "is_virtual_station": false,
                "last_reported": 1789242569,
                "name": "PLAZA SANTO TIRSO",
                "num_bikes_available": 6,
                "num_docks_available": 0,
                "region_id": "701",
                "rental_uris": {
                    "android": "https://app.nextbike.net/station?id=429863407",
                    "ios": "https://app.nextbike.net/station?id=429863407",
                    "web": "https://nxtb.it/p/429863407"
                },
                "short_name": "37028",
                "station_id": "429863407",
                "vehicle_types_available": [
                    {
                        "count": 6,
                        "vehicle_type_id": "412"
                    }
                ]
            },
            "type": "Feature"
        },
        {
            "geometry": {
                "coordinates": [
                    -5.56717,
                    42.61554
                ],
                "type": "Point"
            },
            "properties": {
                "capacity": 4,
                "is_installed": true,
                "is_renting": true,
                "is_returning": true,
                "is_virtual_station": false,
                "last_reported": 1789242569,
                "name": "APEADERO DE FEVE - LA ASUNCI\u00d3N - PARQUE DE LA CEPEDA",
                "num_bikes_available": 2,
                "num_docks_available": 2,
                "region_id": "701",
                "rental_uris": {
                    "android": "https://app.nextbike.net/station?id=429864153",
                    "ios": "https://app.nextbike.net/station?id=429864153",
                    "web": "https://nxtb.it/p/429864153"
                },
                "short_name": "37029",
                "station_id": "429864153",
                "vehicle_types_available": [
                    {
                        "count": 1,
                        "vehicle_type_id": "412"
                    },
                    {
                        "count": 1,
                        "vehicle_type_id": "150"
                    }
                ]
            },
            "type": "Feature"
        },
        {
            "geometry": {
                "coordinates": [
                    -5.60005,
                    42.63409
                ],
                "type": "Point"
            },
            "properties": {
                "capacity": 4,
                "is_installed": true,
                "is_renting": true,
                "is_returning": true,
                "is_virtual_station": false,
                "last_reported": 1789242569,
                "name": "JUSTINO AZC\u00c1RATE- OL\u00cdMPICO DE LE\u00d3N",
                "num_bikes_available": 4,
                "num_docks_available": 0,
                "region_id": "701",
                "rental_uris": {
                    "android": "https://app.nextbike.net/station?id=429864993",
                    "ios": "https://app.nextbike.net/station?id=429864993",
                    "web": "https://nxtb.it/p/429864993"
                },
                "short_name": "37030",
                "station_id": "429864993",
                "vehicle_types_available": [
                    {
                        "count": 1,
                        "vehicle_type_id": "150"
                    },
                    {
                        "count": 3,
                        "vehicle_type_id": "412"
                    }
                ]
            },
            "type": "Feature"
        },
        {
            "geometry": {
                "coordinates": [
                    -5.55342,
                    42.60232
                ],
                "type": "Point"
            },
            "properties": {
                "capacity": 6,
                "is_installed": true,
                "is_renting": true,
                "is_returning": true,
                "is_virtual_station": false,
                "last_reported": 1789242569,
                "name": "ZONA COMERCIAL REINO DE LE\u00d3N",
                "num_bikes_available": 5,
                "num_docks_available": 0,
                "region_id": "701",
                "rental_uris": {
                    "android": "https://app.nextbike.net/station?id=429867913",
                    "ios": "https://app.nextbike.net/station?id=429867913",
                    "web": "https://nxtb.it/p/429867913"
                },
                "short_name": "37031",
                "station_id": "429867913",
                "vehicle_types_available": [
                    {
                        "count": 5,
                        "vehicle_type_id": "412"
                    }
                ]
            },
            "type": "Feature"
        },
        {
            "geometry": {
                "coordinates": [
                    -5.58864,
                    42.61319
                ],
                "type": "Point"
            },
            "properties": {
                "capacity": 4,
                "is_installed": true,
                "is_renting": true,
                "is_returning": true,
                "is_virtual_station": false,
                "last_reported": 1789242569,
                "name": "AV. REYES LEONESES, 50 - EJ\u00c9RCITO DEL AIRE",
                "num_bikes_available": 11,
                "num_docks_available": 0,
                "region_id": "701",
                "rental_uris": {
                    "android": "https://app.nextbike.net/station?id=429869135",
                    "ios": "https://app.nextbike.net/station?id=429869135",
                    "web": "https://nxtb.it/p/429869135"
                },
                "short_name": "37032",
                "station_id": "429869135",
                "vehicle_types_available": [
                    {
                        "count": 1,
                        "vehicle_type_id": "150"
                    },
                    {
                        "count": 9,
                        "vehicle_type_id": "412"
                    },
                    {
                        "count": 1,
                        "vehicle_type_id": "411"
                    }
                ]
            },
            "type": "Feature"
        },
        {
            "geometry": {
                "coordinates": [
                    -5.565,
                    42.5814
                ],
                "type": "Point"
            },
            "properties": {
                "capacity": 6,
                "is_installed": true,
                "is_renting": true,
                "is_returning": true,
                "is_virtual_station": false,
                "last_reported": 1789242569,
                "name": "PARQUE DE LA PLAZA DE LA UNI\u00d3N EUROPEA",
                "num_bikes_available": 14,
                "num_docks_available": 0,
                "region_id": "701",
                "rental_uris": {
                    "android": "https://app.nextbike.net/station?id=429869728",
                    "ios": "https://app.nextbike.net/station?id=429869728",
                    "web": "https://nxtb.it/p/429869728"
                },
                "short_name": "37033",
                "station_id": "429869728",
                "vehicle_types_available": [
                    {
                        "count": 4,
                        "vehicle_type_id": "412"
                    },
                    {
                        "count": 10,
                        "vehicle_type_id": "150"
                    }
                ]
            },
            "type": "Feature"
        },
        {
            "geometry": {
                "coordinates": [
                    -5.57653,
                    42.58853
                ],
                "type": "Point"
            },
            "properties": {
                "capacity": 6,
                "is_installed": true,
                "is_renting": true,
                "is_returning": true,
                "is_virtual_station": false,
                "last_reported": 1789242569,
                "name": "ZONA DEPORTIVA PALACIO DEPORTES, PISCINAS S\u00c1ENZ DE MIERA",
                "num_bikes_available": 7,
                "num_docks_available": 0,
                "region_id": "701",
                "rental_uris": {
                    "android": "https://app.nextbike.net/station?id=429870238",
                    "ios": "https://app.nextbike.net/station?id=429870238",
                    "web": "https://nxtb.it/p/429870238"
                },
                "short_name": "37034",
                "station_id": "429870238",
                "vehicle_types_available": [
                    {
                        "count": 6,
                        "vehicle_type_id": "412"
                    },
                    {
                        "count": 1,
                        "vehicle_type_id": "150"
                    }
                ]
            },
            "type": "Feature"
        },
        {
            "geometry": {
                "coordinates": [
                    -5.55837,
                    42.6028
                ],
                "type": "Point"
            },
            "properties": {
                "capacity": 4,
                "is_installed": true,
                "is_renting": true,
                "is_returning": true,
                "is_virtual_station": false,
                "last_reported": 1789242569,
                "name": "C/ JOS\u00c9 MAR\u00cdA SU\u00c1REZ GONZ\u00c1LEZ - C/ VILLAESCUSA",
                "num_bikes_available": 5,
                "num_docks_available": 0,
                "region_id": "701",
                "rental_uris": {
                    "android": "https://app.nextbike.net/station?id=429870910",
                    "ios": "https://app.nextbike.net/station?id=429870910",
                    "web": "https://nxtb.it/p/429870910"
                },
                "short_name": "37035",
                "station_id": "429870910",
                "vehicle_types_available": [
                    {
                        "count": 1,
                        "vehicle_type_id": "150"
                    },
                    {
                        "count": 4,
                        "vehicle_type_id": "412"
                    }
                ]
            },
            "type": "Feature"
        },
        {
            "geometry": {
                "coordinates": [
                    -5.5928,
                    42.58845
                ],
                "type": "Point"
            },
            "properties": {
                "capacity": 4,
                "is_installed": true,
                "is_renting": true,
                "is_returning": true,
                "is_virtual_station": false,
                "last_reported": 1789242569,
                "name": "C/ 25 DE NOVIEMBRE - URBANIZACI\u00d3N LOS JUNCALES",
                "num_bikes_available": 2,
                "num_docks_available": 2,
                "region_id": "701",
                "rental_uris": {
                    "android": "https://app.nextbike.net/station?id=429871615",
                    "ios": "https://app.nextbike.net/station?id=429871615",
                    "web": "https://nxtb.it/p/429871615"
                },
                "short_name": "37036",
                "station_id": "429871615",
                "vehicle_types_available": [
                    {
                        "count": 2,
                        "vehicle_type_id": "412"
                    }
                ]
            },
            "type": "Feature"
        },
        {
            "geometry": {
                "coordinates": [
                    -5.572612,
                    42.605233
                ],
                "type": "Point"
            },
            "properties": {
                "capacity": 6,
                "is_installed": true,
                "is_renting": true,
                "is_returning": true,
                "is_virtual_station": false,
                "last_reported": 1789242569,
                "name": "19 DE OCTUBRE \u2013 PARQUE DE PIZARRO",
                "num_bikes_available": 3,
                "num_docks_available": 3,
                "region_id": "701",
                "rental_uris": {
                    "android": "https://app.nextbike.net/station?id=445015747",
                    "ios": "https://app.nextbike.net/station?id=445015747",
                    "web": "https://nxtb.it/p/445015747"
                },
                "short_name": "37037",
                "station_id": "445015747",
                "vehicle_types_available": [
                    {
                        "count": 1,
                        "vehicle_type_id": "412"
                    },
                    {
                        "count": 2,
                        "vehicle_type_id": "150"
                    }
                ]
            },
            "type": "Feature"
        },
        {
            "geometry": {
                "coordinates": [
                    -5.549292,
                    42.577199
                ],
                "type": "Point"
            },
            "properties": {
                "capacity": 2,
                "is_installed": true,
                "is_renting": true,
                "is_returning": true,
                "is_virtual_station": false,
                "last_reported": 1789242569,
                "name": "PUENTE CASTRO \u2013 JARD\u00cdN DE LA PROTECCI\u00d3N CIVIL",
                "num_bikes_available": 2,
                "num_docks_available": 0,
                "region_id": "701",
                "rental_uris": {
                    "android": "https://app.nextbike.net/station?id=445016019",
                    "ios": "https://app.nextbike.net/station?id=445016019",
                    "web": "https://nxtb.it/p/445016019"
                },
                "short_name": "37038",
                "station_id": "445016019",
                "vehicle_types_available": [
                    {
                        "count": 1,
                        "vehicle_type_id": "150"
                    },
                    {
                        "count": 1,
                        "vehicle_type_id": "412"
                    }
                ]
            },
            "type": "Feature"
        },
        {
            "geometry": {
                "coordinates": [
                    -5.571776,
                    42.580505
                ],
                "type": "Point"
            },
            "properties": {
                "capacity": 2,
                "is_installed": true,
                "is_renting": true,
                "is_returning": true,
                "is_virtual_station": false,
                "last_reported": 1789242569,
                "name": "INGENIERO S\u00c1ENZ DE MIERA \u2013 POL\u00cdGONO VILECHA OESTE",
                "num_bikes_available": 1,
                "num_docks_available": 1,
                "region_id": "701",
                "rental_uris": {
                    "android": "https://app.nextbike.net/station?id=445016264",
                    "ios": "https://app.nextbike.net/station?id=445016264",
                    "web": "https://nxtb.it/p/445016264"
                },
                "short_name": "37039",
                "station_id": "445016264",
                "vehicle_types_available": [
                    {
                        "count": 1,
                        "vehicle_type_id": "412"
                    }
                ]
            },
            "type": "Feature"
        },
        {
            "geometry": {
                "coordinates": [
                    -5.588576,
                    42.605721
                ],
                "type": "Point"
            },
            "properties": {
                "capacity": 4,
                "is_installed": true,
                "is_renting": true,
                "is_returning": true,
                "is_virtual_station": false,
                "last_reported": 1789242569,
                "name": "PARQUE R\u00cdO SILVAN - PASEO DE SALAMANCA",
                "num_bikes_available": 10,
                "num_docks_available": 0,
                "region_id": "701",
                "rental_uris": {
                    "android": "https://app.nextbike.net/station?id=456662138",
                    "ios": "https://app.nextbike.net/station?id=456662138",
                    "web": "https://nxtb.it/p/456662138"
                },
                "short_name": "37040",
                "station_id": "456662138",
                "vehicle_types_available": [
                    {
                        "count": 9,
                        "vehicle_type_id": "412"
                    },
                    {
                        "count": 1,
                        "vehicle_type_id": "150"
                    }
                ]
            },
            "type": "Feature"
        },
        {
            "geometry": {
                "coordinates": [
                    -5.573682,
                    42.597505
                ],
                "type": "Point"
            },
            "properties": {
                "capacity": 10,
                "is_installed": true,
                "is_renting": true,
                "is_returning": true,
                "is_virtual_station": false,
                "last_reported": 1789242569,
                "name": "01 AYUNTAMIENTO DE LE\u00d3N- AV. ORDO\u00d1O II",
                "num_bikes_available": 14,
                "num_docks_available": 0,
                "region_id": "701",
                "rental_uris": {
                    "android": "https://app.nextbike.net/station?id=48868808",
                    "ios": "https://app.nextbike.net/station?id=48868808",
                    "web": "https://nxtb.it/p/48868808"
                },
                "short_name": "37000",
                "station_id": "48868808",
                "vehicle_types_available": [
                    {
                        "count": 12,
                        "vehicle_type_id": "412"
                    },
                    {
                        "count": 1,
                        "vehicle_type_id": "150"
                    },
                    {
                        "count": 1,
                        "vehicle_type_id": "411"
                    }
                ]
            },
            "type": "Feature"
        },
        {
            "geometry": {
                "coordinates": [
                    -5.574056,
                    42.593117
                ],
                "type": "Point"
            },
            "properties": {
                "capacity": 10,
                "is_installed": true,
                "is_renting": true,
                "is_returning": true,
                "is_virtual_station": false,
                "last_reported": 1789242569,
                "name": "02 ALB\u00c9ITAR (UNIVERSIDAD DE LE\u00d3N) - C/ COVADONGA",
                "num_bikes_available": 7,
                "num_docks_available": 3,
                "region_id": "701",
                "rental_uris": {
                    "android": "https://app.nextbike.net/station?id=48868984",
                    "ios": "https://app.nextbike.net/station?id=48868984",
                    "web": "https://nxtb.it/p/48868984"
                },
                "short_name": "37001",
                "station_id": "48868984",
                "vehicle_types_available": [
                    {
                        "count": 7,
                        "vehicle_type_id": "412"
                    }
                ]
            },
            "type": "Feature"
        },
        {
            "geometry": {
                "coordinates": [
                    -5.586232,
                    42.600348
                ],
                "type": "Point"
            },
            "properties": {
                "capacity": 10,
                "is_installed": true,
                "is_renting": true,
                "is_returning": true,
                "is_virtual_station": false,
                "last_reported": 1789242569,
                "name": "03 CENTRO C\u00cdVICO EL CRUCERO- AV. QUEVEDO",
                "num_bikes_available": 5,
                "num_docks_available": 5,
                "region_id": "701",
                "rental_uris": {
                    "android": "https://app.nextbike.net/station?id=48869062",
                    "ios": "https://app.nextbike.net/station?id=48869062",
                    "web": "https://nxtb.it/p/48869062"
                },
                "short_name": "37002",
                "station_id": "48869062",
                "vehicle_types_available": [
                    {
                        "count": 5,
                        "vehicle_type_id": "412"
                    }
                ]
            },
            "type": "Feature"
        },
        {
            "geometry": {
                "coordinates": [
                    -5.594866,
                    42.611495
                ],
                "type": "Point"
            },
            "properties": {
                "capacity": 10,
                "is_installed": true,
                "is_renting": true,
                "is_returning": true,
                "is_virtual_station": false,
                "last_reported": 1789242569,
                "name": "04 POL\u00cdGONO 58- AV. PA\u00cdS LEON\u00c9S",
                "num_bikes_available": 14,
                "num_docks_available": 0,
                "region_id": "701",
                "rental_uris": {
                    "android": "https://app.nextbike.net/station?id=48869215",
                    "ios": "https://app.nextbike.net/station?id=48869215",
                    "web": "https://nxtb.it/p/48869215"
                },
                "short_name": "37003",
                "station_id": "48869215",
                "vehicle_types_available": [
                    {
                        "count": 5,
                        "vehicle_type_id": "150"
                    },
                    {
                        "count": 9,
                        "vehicle_type_id": "412"
                    }
                ]
            },
            "type": "Feature"
        },
        {
            "geometry": {
                "coordinates": [
                    -5.5709,
                    42.592622
                ],
                "type": "Point"
            },
            "properties": {
                "capacity": 10,
                "is_installed": true,
                "is_renting": true,
                "is_returning": true,
                "is_virtual_station": false,
                "last_reported": 1789242569,
                "name": "05 C/ CORREDERA \u2013 C/ PADRE JAVIER DE VALLADOLID",
                "num_bikes_available": 6,
                "num_docks_available": 4,
                "region_id": "701",
                "rental_uris": {
                    "android": "https://app.nextbike.net/station?id=48869280",
                    "ios": "https://app.nextbike.net/station?id=48869280",
                    "web": "https://nxtb.it/p/48869280"
                },
                "short_name": "37004",
                "station_id": "48869280",
                "vehicle_types_available": [
                    {
                        "count": 5,
                        "vehicle_type_id": "412"
                    },
                    {
                        "count": 1,
                        "vehicle_type_id": "150"
                    }
                ]
            },
            "type": "Feature"
        },
        {
            "geometry": {
                "coordinates": [
                    -5.575547,
                    42.602762
                ],
                "type": "Point"
            },
            "properties": {
                "capacity": 10,
                "is_installed": true,
                "is_renting": true,
                "is_returning": true,
                "is_virtual_station": false,
                "last_reported": 1789242569,
                "name": "06 ESPACIO VIAS \u2013 AV. PADRE ISLA",
                "num_bikes_available": 8,
                "num_docks_available": 2,
                "region_id": "701",
                "rental_uris": {
                    "android": "https://app.nextbike.net/station?id=48869337",
                    "ios": "https://app.nextbike.net/station?id=48869337",
                    "web": "https://nxtb.it/p/48869337"
                },
                "short_name": "37005",
                "station_id": "48869337",
                "vehicle_types_available": [
                    {
                        "count": 3,
                        "vehicle_type_id": "150"
                    },
                    {
                        "count": 5,
                        "vehicle_type_id": "412"
                    }
                ]
            },
            "type": "Feature"
        },
        {
            "geometry": {
                "coordinates": [
                    -5.578627,
                    42.593121
                ],
                "type": "Point"
            },
            "properties": {
                "capacity": 8,
                "is_installed": true,
                "is_renting": true,
                "is_returning": true,
                "is_virtual_station": false,
                "last_reported": 1789242569,
                "name": "07 ESTACI\u00d3N DE AUTOBUSES DE LE\u00d3N- AV. INGENIERO S\u00c1ENZ DE MIERA",
                "num_bikes_available": 10,
                "num_docks_available": 0,
                "region_id": "701",
                "rental_uris": {
                    "android": "https://app.nextbike.net/station?id=48869395",
                    "ios": "https://app.nextbike.net/station?id=48869395",
                    "web": "https://nxtb.it/p/48869395"
                },
                "short_name": "37006",
                "station_id": "48869395",
                "vehicle_types_available": [
                    {
                        "count": 7,
                        "vehicle_type_id": "412"
                    },
                    {
                        "count": 2,
                        "vehicle_type_id": "150"
                    },
                    {
                        "count": 1,
                        "vehicle_type_id": "411"
                    }
                ]
            },
            "type": "Feature"
        },
        {
            "geometry": {
                "coordinates": [
                    -5.571049,
                    42.609441
                ],
                "type": "Point"
            },
            "properties": {
                "capacity": 10,
                "is_installed": true,
                "is_renting": true,
                "is_returning": true,
                "is_virtual_station": false,
                "last_reported": 1789242569,
                "name": "08 PLAZA JUAN DE AUSTRIA",
                "num_bikes_available": 0,
                "num_docks_available": 9,
                "region_id": "701",
                "rental_uris": {
                    "android": "https://app.nextbike.net/station?id=48869497",
                    "ios": "https://app.nextbike.net/station?id=48869497",
                    "web": "https://nxtb.it/p/48869497"
                },
                "short_name": "37007",
                "station_id": "48869497",
                "vehicle_types_available": []
            },
            "type": "Feature"
        },
        {
            "geometry": {
                "coordinates": [
                    -5.582267,
                    42.603113
                ],
                "type": "Point"
            },
            "properties": {
                "capacity": 10,
                "is_installed": true,
                "is_renting": true,
                "is_returning": true,
                "is_virtual_station": false,
                "last_reported": 1789242569,
                "name": "09 SUBDEL. PROV. DE LA JUNTA DE CASTILLA Y LE\u00d3N- AV. PEREGRINOS",
                "num_bikes_available": 0,
                "num_docks_available": 9,
                "region_id": "701",
                "rental_uris": {
                    "android": "https://app.nextbike.net/station?id=48875051",
                    "ios": "https://app.nextbike.net/station?id=48875051",
                    "web": "https://nxtb.it/p/48875051"
                },
                "short_name": "37008",
                "station_id": "48875051",
                "vehicle_types_available": []
            },
            "type": "Feature"
        },
        {
            "geometry": {
                "coordinates": [
                    -5.570887,
                    42.601588
                ],
                "type": "Point"
            },
            "properties": {
                "capacity": 10,
                "is_installed": true,
                "is_renting": true,
                "is_returning": true,
                "is_virtual_station": false,
                "last_reported": 1789242569,
                "name": "10 PLAZA DE SANTO MARTINO",
                "num_bikes_available": 2,
                "num_docks_available": 7,
                "region_id": "701",
                "rental_uris": {
                    "android": "https://app.nextbike.net/station?id=48875113",
                    "ios": "https://app.nextbike.net/station?id=48875113",
                    "web": "https://nxtb.it/p/48875113"
                },
                "short_name": "37009",
                "station_id": "48875113",
                "vehicle_types_available": [
                    {
                        "count": 1,
                        "vehicle_type_id": "412"
                    },
                    {
                        "count": 1,
                        "vehicle_type_id": "150"
                    }
                ]
            },
            "type": "Feature"
        },
        {
            "geometry": {
                "coordinates": [
                    -5.582982,
                    42.605799
                ],
                "type": "Point"
            },
            "properties": {
                "capacity": 10,
                "is_installed": true,
                "is_renting": true,
                "is_returning": true,
                "is_virtual_station": false,
                "last_reported": 1789242569,
                "name": "11 EREN-AV. REYES LEONESES",
                "num_bikes_available": 0,
                "num_docks_available": 10,
                "region_id": "701",
                "rental_uris": {
                    "android": "https://app.nextbike.net/station?id=48875191",
                    "ios": "https://app.nextbike.net/station?id=48875191",
                    "web": "https://nxtb.it/p/48875191"
                },
                "short_name": "37010",
                "station_id": "48875191",
                "vehicle_types_available": []
            },
            "type": "Feature"
        },
        {
            "geometry": {
                "coordinates": [
                    -5.578402,
                    42.595981
                ],
                "type": "Point"
            },
            "properties": {
                "capacity": 10,
                "is_installed": true,
                "is_renting": true,
                "is_returning": true,
                "is_virtual_station": false,
                "last_reported": 1789242569,
                "name": "12 PASEO DE PAPALAGUINDA \u2013 PLAZA DE GUZM\u00c1N",
                "num_bikes_available": 13,
                "num_docks_available": 0,
                "region_id": "701",
                "rental_uris": {
                    "android": "https://app.nextbike.net/station?id=48875244",
                    "ios": "https://app.nextbike.net/station?id=48875244",
                    "web": "https://nxtb.it/p/48875244"
                },
                "short_name": "37011",
                "station_id": "48875244",
                "vehicle_types_available": [
                    {
                        "count": 3,
                        "vehicle_type_id": "150"
                    },
                    {
                        "count": 8,
                        "vehicle_type_id": "412"
                    },
                    {
                        "count": 2,
                        "vehicle_type_id": "411"
                    }
                ]
            },
            "type": "Feature"
        },
        {
            "geometry": {
                "coordinates": [
                    -5.569734,
                    42.589155
                ],
                "type": "Point"
            },
            "properties": {
                "capacity": 8,
                "is_installed": true,
                "is_renting": true,
                "is_returning": true,
                "is_virtual_station": false,
                "last_reported": 1789242569,
                "name": "13 ESC. OF. DE IDIOMAS (EOI)- C/ SANTOS OLIVERA \u2013 PARQUE DE LA CHANTRIA",
                "num_bikes_available": 13,
                "num_docks_available": 0,
                "region_id": "701",
                "rental_uris": {
                    "android": "https://app.nextbike.net/station?id=48875326",
                    "ios": "https://app.nextbike.net/station?id=48875326",
                    "web": "https://nxtb.it/p/48875326"
                },
                "short_name": "37012",
                "station_id": "48875326",
                "vehicle_types_available": [
                    {
                        "count": 11,
                        "vehicle_type_id": "412"
                    },
                    {
                        "count": 2,
                        "vehicle_type_id": "150"
                    }
                ]
            },
            "type": "Feature"
        },
        {
            "geometry": {
                "coordinates": [
                    -5.570671,
                    42.597232
                ],
                "type": "Point"
            },
            "properties": {
                "capacity": 13,
                "is_installed": true,
                "is_renting": true,
                "is_returning": true,
                "is_virtual_station": false,
                "last_reported": 1789242569,
                "name": "14 CONSISTORIO DE SAN MARCELO- PLAZA DE SAN MARCELO",
                "num_bikes_available": 8,
                "num_docks_available": 5,
                "region_id": "701",
                "rental_uris": {
                    "android": "https://app.nextbike.net/station?id=48875631",
                    "ios": "https://app.nextbike.net/station?id=48875631",
                    "web": "https://nxtb.it/p/48875631"
                },
                "short_name": "37013",
                "station_id": "48875631",
                "vehicle_types_available": [
                    {
                        "count": 2,
                        "vehicle_type_id": "412"
                    },
                    {
                        "count": 6,
                        "vehicle_type_id": "411"
                    }
                ]
            },
            "type": "Feature"
        },
        {
            "geometry": {
                "coordinates": [
                    -5.560659,
                    42.592061
                ],
                "type": "Point"
            },
            "properties": {
                "capacity": 10,
                "is_installed": true,
                "is_renting": true,
                "is_returning": true,
                "is_virtual_station": false,
                "last_reported": 1789242569,
                "name": "15 POL\u00cdGONO X- AV. BORDADORES",
                "num_bikes_available": 14,
                "num_docks_available": 0,
                "region_id": "701",
                "rental_uris": {
                    "android": "https://app.nextbike.net/station?id=48875686",
                    "ios": "https://app.nextbike.net/station?id=48875686",
                    "web": "https://nxtb.it/p/48875686"
                },
                "short_name": "37014",
                "station_id": "48875686",
                "vehicle_types_available": [
                    {
                        "count": 4,
                        "vehicle_type_id": "412"
                    },
                    {
                        "count": 2,
                        "vehicle_type_id": "150"
                    },
                    {
                        "count": 9,
                        "vehicle_type_id": "411"
                    }
                ]
            },
            "type": "Feature"
        },
        {
            "geometry": {
                "coordinates": [
                    -5.581795,
                    42.5957
                ],
                "type": "Point"
            },
            "properties": {
                "capacity": 12,
                "is_installed": true,
                "is_renting": true,
                "is_returning": true,
                "is_virtual_station": false,
                "last_reported": 1789242569,
                "name": "16 ESTACI\u00d3N DE ADIF- C/ ASTORGA",
                "num_bikes_available": 12,
                "num_docks_available": 0,
                "region_id": "701",
                "rental_uris": {
                    "android": "https://app.nextbike.net/station?id=48875766",
                    "ios": "https://app.nextbike.net/station?id=48875766",
                    "web": "https://nxtb.it/p/48875766"
                },
                "short_name": "37015",
                "station_id": "48875766",
                "vehicle_types_available": [
                    {
                        "count": 11,
                        "vehicle_type_id": "412"
                    },
                    {
                        "count": 1,
                        "vehicle_type_id": "150"
                    }
                ]
            },
            "type": "Feature"
        },
        {
            "geometry": {
                "coordinates": [
                    -5.56668,
                    42.60794
                ],
                "type": "Point"
            },
            "properties": {
                "capacity": 10,
                "is_installed": true,
                "is_renting": true,
                "is_returning": true,
                "is_virtual_station": false,
                "last_reported": 1789242569,
                "name": "17 PARQUE DE SANTA MAR\u00cdA JOSEFA - BALDOMERO LOZANO",
                "num_bikes_available": 2,
                "num_docks_available": 7,
                "region_id": "701",
                "rental_uris": {
                    "android": "https://app.nextbike.net/station?id=48875917",
                    "ios": "https://app.nextbike.net/station?id=48875917",
                    "web": "https://nxtb.it/p/48875917"
                },
                "short_name": "37016",
                "station_id": "48875917",
                "vehicle_types_available": [
                    {
                        "count": 2,
                        "vehicle_type_id": "412"
                    }
                ]
            },
            "type": "Feature"
        },
        {
            "geometry": {
                "coordinates": [
                    -5.565551,
                    42.600678
                ],
                "type": "Point"
            },
            "properties": {
                "capacity": 14,
                "is_installed": true,
                "is_renting": true,
                "is_returning": true,
                "is_virtual_station": false,
                "last_reported": 1789242569,
                "name": "18 P\u00c1RKING DE SAN PEDRO",
                "num_bikes_available": 9,
                "num_docks_available": 4,
                "region_id": "701",
                "rental_uris": {
                    "android": "https://app.nextbike.net/station?id=48875982",
                    "ios": "https://app.nextbike.net/station?id=48875982",
                    "web": "https://nxtb.it/p/48875982"
                },
                "short_name": "37017",
                "station_id": "48875982",
                "vehicle_types_available": [
                    {
                        "count": 2,
                        "vehicle_type_id": "412"
                    },
                    {
                        "count": 2,
                        "vehicle_type_id": "150"
                    },
                    {
                        "count": 5,
                        "vehicle_type_id": "411"
                    }
                ]
            },
            "type": "Feature"
        },
        {
            "geometry": {
                "coordinates": [
                    -5.563197,
                    42.612785
                ],
                "type": "Point"
            },
            "properties": {
                "capacity": 10,
                "is_installed": true,
                "is_renting": true,
                "is_returning": true,
                "is_virtual_station": false,
                "last_reported": 1789242569,
                "name": "19 C/ JOAQU\u00cdN GONZ\u00c1LEZ VEC\u00cdN \u2013 AV. JESU\u00cdTAS",
                "num_bikes_available": 2,
                "num_docks_available": 8,
                "region_id": "701",
                "rental_uris": {
                    "android": "https://app.nextbike.net/station?id=48876114",
                    "ios": "https://app.nextbike.net/station?id=48876114",
                    "web": "https://nxtb.it/p/48876114"
                },
                "short_name": "37018",
                "station_id": "48876114",
                "vehicle_types_available": [
                    {
                        "count": 2,
                        "vehicle_type_id": "150"
                    }
                ]
            },
            "type": "Feature"
        },
        {
            "geometry": {
                "coordinates": [
                    -5.559881,
                    42.611455
                ],
                "type": "Point"
            },
            "properties": {
                "capacity": 10,
                "is_installed": true,
                "is_renting": true,
                "is_returning": true,
                "is_virtual_station": false,
                "last_reported": 1789242569,
                "name": "20 CAMPUS DE VEGAZANA (UNIVERSIDAD DE LE\u00d3N)- BIBLIOTECA SAN ISIDORO",
                "num_bikes_available": 0,
                "num_docks_available": 10,
                "region_id": "701",
                "rental_uris": {
                    "android": "https://app.nextbike.net/station?id=48876172",
                    "ios": "https://app.nextbike.net/station?id=48876172",
                    "web": "https://nxtb.it/p/48876172"
                },
                "short_name": "37019",
                "station_id": "48876172",
                "vehicle_types_available": []
            },
            "type": "Feature"
        },
        {
            "geometry": {
                "coordinates": [
                    -5.579816,
                    42.562726
                ],
                "type": "Point"
            },
            "properties": {
                "capacity": 2,
                "is_installed": true,
                "is_renting": true,
                "is_returning": true,
                "is_virtual_station": false,
                "last_reported": 1789242569,
                "name": "21 TROBAJO DEL CERECEDO- C/ EL CA\u00d1O \u2013 C/ LA ERA",
                "num_bikes_available": 7,
                "num_docks_available": 0,
                "region_id": "701",
                "rental_uris": {
                    "android": "https://app.nextbike.net/station?id=48876233",
                    "ios": "https://app.nextbike.net/station?id=48876233",
                    "web": "https://nxtb.it/p/48876233"
                },
                "short_name": "37020",
                "station_id": "48876233",
                "vehicle_types_available": [
                    {
                        "count": 5,
                        "vehicle_type_id": "412"
                    },
                    {
                        "count": 2,
                        "vehicle_type_id": "150"
                    }
                ]
            },
            "type": "Feature"
        },
        {
            "geometry": {
                "coordinates": [
                    -5.603177,
                    42.581353
                ],
                "type": "Point"
            },
            "properties": {
                "capacity": 2,
                "is_installed": true,
                "is_renting": true,
                "is_returning": true,
                "is_virtual_station": false,
                "last_reported": 1789242569,
                "name": "22 OTERUELO DE LA VALDONCINA- C/ EL MIRADOR",
                "num_bikes_available": 2,
                "num_docks_available": 0,
                "region_id": "701",
                "rental_uris": {
                    "android": "https://app.nextbike.net/station?id=48876288",
                    "ios": "https://app.nextbike.net/station?id=48876288",
                    "web": "https://nxtb.it/p/48876288"
                },
                "short_name": "37021",
                "station_id": "48876288",
                "vehicle_types_available": [
                    {
                        "count": 1,
                        "vehicle_type_id": "150"
                    },
                    {
                        "count": 1,
                        "vehicle_type_id": "412"
                    }
                ]
            },
            "type": "Feature"
        },
        {
            "geometry": {
                "coordinates": [
                    -5.562337,
                    42.604369
                ],
                "type": "Point"
            },
            "properties": {
                "capacity": 10,
                "is_installed": true,
                "is_renting": true,
                "is_returning": true,
                "is_virtual_station": false,
                "last_reported": 1789242569,
                "name": "23 POL\u00cdGONO LA TORRE- C/ EL SABINAR \u2013 C/ EL HAYEDO",
                "num_bikes_available": 3,
                "num_docks_available": 7,
                "region_id": "701",
                "rental_uris": {
                    "android": "https://app.nextbike.net/station?id=48876331",
                    "ios": "https://app.nextbike.net/station?id=48876331",
                    "web": "https://nxtb.it/p/48876331"
                },
                "short_name": "37022",
                "station_id": "48876331",
                "vehicle_types_available": [
                    {
                        "count": 3,
                        "vehicle_type_id": "412"
                    }
                ]
            },
            "type": "Feature"
        },
        {
            "geometry": {
                "coordinates": [
                    -5.565307,
                    42.587823
                ],
                "type": "Point"
            },
            "properties": {
                "capacity": 10,
                "is_installed": true,
                "is_renting": true,
                "is_returning": true,
                "is_virtual_station": false,
                "last_reported": 1789242569,
                "name": "24 AV. JOS\u00c9 AGUADO",
                "num_bikes_available": 11,
                "num_docks_available": 0,
                "region_id": "701",
                "rental_uris": {
                    "android": "https://app.nextbike.net/station?id=48876424",
                    "ios": "https://app.nextbike.net/station?id=48876424",
                    "web": "https://nxtb.it/p/48876424"
                },
                "short_name": "37023",
                "station_id": "48876424",
                "vehicle_types_available": [
                    {
                        "count": 6,
                        "vehicle_type_id": "412"
                    },
                    {
                        "count": 5,
                        "vehicle_type_id": "150"
                    }
                ]
            },
            "type": "Feature"
        },
        {
            "geometry": {
                "coordinates": [
                    -5.571068,
                    42.586227
                ],
                "type": "Point"
            },
            "properties": {
                "capacity": 10,
                "is_installed": true,
                "is_renting": true,
                "is_returning": true,
                "is_virtual_station": false,
                "last_reported": 1789242569,
                "name": "25 HISP\u00c1NICO- P\u00ba DEL PARQUE",
                "num_bikes_available": 13,
                "num_docks_available": 0,
                "region_id": "701",
                "rental_uris": {
                    "android": "https://app.nextbike.net/station?id=48876465",
                    "ios": "https://app.nextbike.net/station?id=48876465",
                    "web": "https://nxtb.it/p/48876465"
                },
                "short_name": "37024",
                "station_id": "48876465",
                "vehicle_types_available": [
                    {
                        "count": 10,
                        "vehicle_type_id": "412"
                    },
                    {
                        "count": 3,
                        "vehicle_type_id": "150"
                    }
                ]
            },
            "type": "Feature"
        },
        {
            "geometry": {
                "coordinates": [
                    -5.576083,
                    42.608126
                ],
                "type": "Point"
            },
            "properties": {
                "capacity": 14,
                "is_installed": true,
                "is_renting": true,
                "is_returning": true,
                "is_virtual_station": false,
                "last_reported": 1789242569,
                "name": "AV. ASTURIAS - PARKING INTERMODAL",
                "num_bikes_available": 9,
                "num_docks_available": 5,
                "region_id": "701",
                "rental_uris": {
                    "android": "https://app.nextbike.net/station?id=497530693",
                    "ios": "https://app.nextbike.net/station?id=497530693",
                    "web": "https://nxtb.it/p/497530693"
                },
                "short_name": "37041",
                "station_id": "497530693",
                "vehicle_types_available": [
                    {
                        "count": 9,
                        "vehicle_type_id": "411"
                    }
                ]
            },
            "type": "Feature"
        },
        {
            "geometry": {
                "coordinates": [
                    -5.585898,
                    42.608764
                ],
                "type": "Point"
            },
            "properties": {
                "capacity": 14,
                "is_installed": true,
                "is_renting": true,
                "is_returning": true,
                "is_virtual_station": false,
                "last_reported": 1789242569,
                "name": "SANTOS OVEJERO - ERAS DE RENUEVA - CEBT",
                "num_bikes_available": 26,
                "num_docks_available": 0,
                "region_id": "701",
                "rental_uris": {
                    "android": "https://app.nextbike.net/station?id=498191481",
                    "ios": "https://app.nextbike.net/station?id=498191481",
                    "web": "https://nxtb.it/p/498191481"
                },
                "short_name": "37042",
                "station_id": "498191481",
                "vehicle_types_available": [
                    {
                        "count": 8,
                        "vehicle_type_id": "412"
                    },
                    {
                        "count": 5,
                        "vehicle_type_id": "150"
                    },
                    {
                        "count": 13,
                        "vehicle_type_id": "411"
                    }
                ]
            },
            "type": "Feature"
        },
        {
            "geometry": {
                "coordinates": [
                    -5.572426,
                    42.6188
                ],
                "type": "Point"
            },
            "properties": {
                "capacity": 10,
                "is_installed": true,
                "is_renting": true,
                "is_returning": true,
                "is_virtual_station": false,
                "last_reported": 1789242569,
                "name": "COMPLEJO HOSPITALARIO",
                "num_bikes_available": 8,
                "num_docks_available": 2,
                "region_id": "701",
                "rental_uris": {
                    "android": "https://app.nextbike.net/station?id=503680944",
                    "ios": "https://app.nextbike.net/station?id=503680944",
                    "web": "https://nxtb.it/p/503680944"
                },
                "short_name": "37043",
                "station_id": "503680944",
                "vehicle_types_available": [
                    {
                        "count": 1,
                        "vehicle_type_id": "150"
                    },
                    {
                        "count": 7,
                        "vehicle_type_id": "411"
                    }
                ]
            },
            "type": "Feature"
        },
        {
            "geometry": {
                "coordinates": [
                    -5.58428,
                    42.586035
                ],
                "type": "Point"
            },
            "properties": {
                "capacity": 4,
                "is_installed": true,
                "is_renting": true,
                "is_returning": true,
                "is_virtual_station": false,
                "last_reported": 1789242569,
                "name": "AV. DE ANTIBIOTICOS - GLORIETA DE MICHAISA",
                "num_bikes_available": 8,
                "num_docks_available": 0,
                "region_id": "701",
                "rental_uris": {
                    "android": "https://app.nextbike.net/station?id=515447810",
                    "ios": "https://app.nextbike.net/station?id=515447810",
                    "web": "https://nxtb.it/p/515447810"
                },
                "short_name": "37044",
                "station_id": "515447810",
                "vehicle_types_available": [
                    {
                        "count": 7,
                        "vehicle_type_id": "412"
                    },
                    {
                        "count": 1,
                        "vehicle_type_id": "150"
                    }
                ]
            },
            "type": "Feature"
        },
        {
            "geometry": {
                "coordinates": [
                    -5.559143,
                    42.585993
                ],
                "type": "Point"
            },
            "properties": {
                "capacity": 4,
                "is_installed": true,
                "is_renting": true,
                "is_returning": true,
                "is_virtual_station": false,
                "last_reported": 1789242569,
                "name": "ALCALDE MIGUEL CASTA\u00d1O, 97 - ENTORNO ZONA COMERCIAL",
                "num_bikes_available": 14,
                "num_docks_available": 0,
                "region_id": "701",
                "rental_uris": {
                    "android": "https://app.nextbike.net/station?id=515448018",
                    "ios": "https://app.nextbike.net/station?id=515448018",
                    "web": "https://nxtb.it/p/515448018"
                },
                "short_name": "37045",
                "station_id": "515448018",
                "vehicle_types_available": [
                    {
                        "count": 10,
                        "vehicle_type_id": "412"
                    },
                    {
                        "count": 4,
                        "vehicle_type_id": "150"
                    }
                ]
            },
            "type": "Feature"
        },
        {
            "geometry": {
                "coordinates": [
                    -5.564128,
                    42.591734
                ],
                "type": "Point"
            },
            "properties": {
                "capacity": 6,
                "is_installed": true,
                "is_renting": true,
                "is_returning": true,
                "is_virtual_station": false,
                "last_reported": 1789242569,
                "name": "REINO DE LEON - ROLLO DE SANTA ANA",
                "num_bikes_available": 4,
                "num_docks_available": 2,
                "region_id": "701",
                "rental_uris": {
                    "android": "https://app.nextbike.net/station?id=515448450",
                    "ios": "https://app.nextbike.net/station?id=515448450",
                    "web": "https://nxtb.it/p/515448450"
                },
                "short_name": "37046",
                "station_id": "515448450",
                "vehicle_types_available": [
                    {
                        "count": 2,
                        "vehicle_type_id": "412"
                    },
                    {
                        "count": 2,
                        "vehicle_type_id": "150"
                    }
                ]
            },
            "type": "Feature"
        },
        {
            "geometry": {
                "coordinates": [
                    -5.56148,
                    42.596818
                ],
                "type": "Point"
            },
            "properties": {
                "capacity": 4,
                "is_installed": true,
                "is_renting": true,
                "is_returning": true,
                "is_virtual_station": false,
                "last_reported": 1789242569,
                "name": "BATALLA DE CLAVIJO - VICTOR DE LOS RIOS",
                "num_bikes_available": 9,
                "num_docks_available": 0,
                "region_id": "701",
                "rental_uris": {
                    "android": "https://app.nextbike.net/station?id=515448724",
                    "ios": "https://app.nextbike.net/station?id=515448724",
                    "web": "https://nxtb.it/p/515448724"
                },
                "short_name": "37047",
                "station_id": "515448724",
                "vehicle_types_available": [
                    {
                        "count": 8,
                        "vehicle_type_id": "412"
                    },
                    {
                        "count": 1,
                        "vehicle_type_id": "150"
                    }
                ]
            },
            "type": "Feature"
        },
        {
            "geometry": {
                "coordinates": [
                    -5.588038,
                    42.596504
                ],
                "type": "Point"
            },
            "properties": {
                "capacity": 4,
                "is_installed": true,
                "is_renting": true,
                "is_returning": true,
                "is_virtual_station": false,
                "last_reported": 1789242569,
                "name": "DEMETRIO MONTESERIN - PLAZA DEL HUEVO",
                "num_bikes_available": 1,
                "num_docks_available": 3,
                "region_id": "701",
                "rental_uris": {
                    "android": "https://app.nextbike.net/station?id=515448886",
                    "ios": "https://app.nextbike.net/station?id=515448886",
                    "web": "https://nxtb.it/p/515448886"
                },
                "short_name": "37048",
                "station_id": "515448886",
                "vehicle_types_available": [
                    {
                        "count": 1,
                        "vehicle_type_id": "150"
                    }
                ]
            },
            "type": "Feature"
        },
        {
            "geometry": {
                "coordinates": [
                    -5.575383,
                    42.599571
                ],
                "type": "Point"
            },
            "properties": {
                "capacity": 4,
                "is_installed": true,
                "is_renting": true,
                "is_returning": true,
                "is_virtual_station": false,
                "last_reported": 1789242569,
                "name": "PLAZA DE LA INMACULADA",
                "num_bikes_available": 7,
                "num_docks_available": 0,
                "region_id": "701",
                "rental_uris": {
                    "android": "https://app.nextbike.net/station?id=515448986",
                    "ios": "https://app.nextbike.net/station?id=515448986",
                    "web": "https://nxtb.it/p/515448986"
                },
                "short_name": "37049",
                "station_id": "515448986",
                "vehicle_types_available": [
                    {
                        "count": 6,
                        "vehicle_type_id": "412"
                    },
                    {
                        "count": 1,
                        "vehicle_type_id": "150"
                    }
                ]
            },
            "type": "Feature"
        },
        {
            "geometry": {
                "coordinates": [
                    -5.596868,
                    42.579154
                ],
                "type": "Point"
            },
            "properties": {
                "capacity": 8,
                "is_installed": true,
                "is_renting": true,
                "is_returning": true,
                "is_virtual_station": false,
                "last_reported": 1789242569,
                "name": "PARQUE TECNOLOGICO DE LEON",
                "num_bikes_available": 7,
                "num_docks_available": 1,
                "region_id": "701",
                "rental_uris": {
                    "android": "https://app.nextbike.net/station?id=515622979",
                    "ios": "https://app.nextbike.net/station?id=515622979",
                    "web": "https://nxtb.it/p/515622979"
                },
                "short_name": "37050",
                "station_id": "515622979",
                "vehicle_types_available": [
                    {
                        "count": 1,
                        "vehicle_type_id": "150"
                    },
                    {
                        "count": 1,
                        "vehicle_type_id": "412"
                    },
                    {
                        "count": 5,
                        "vehicle_type_id": "411"
                    }
                ]
            },
            "type": "Feature"
        }
    ],
    "gbfs": {
        "station_information": {
            "last_updated": 1789242569,
            "ttl": 60,
            "version": "2.3"
        },
        "station_status": {
            "last_updated": 1789242569,
            "ttl": 60,
            "version": "2.3"
        }
    },
    "type": "FeatureCollection"
}