{
    "features": [
        {
            "geometry": {
                "coordinates": [
                    18.578447,
                    49.9452
                ],
                "type": "Point"
            },
            "properties": {
                "capacity": 5,
                "is_installed": true,
                "is_renting": true,
                "is_returning": true,
                "is_virtual_station": false,
                "last_reported": 1789331826,
                "name": "HALA SPORTOWA al. Jana Paw\u0142a II ",
                "num_bikes_available": 7,
                "num_docks_available": 0,
                "region_id": "509",
                "rental_uris": {
                    "android": "https://app.nextbike.net/station?id=175003070",
                    "ios": "https://app.nextbike.net/station?id=175003070",
                    "web": "https://nxtb.it/p/175003070"
                },
                "short_name": "60700",
                "station_id": "175003070",
                "vehicle_types_available": [
                    {
                        "count": 5,
                        "vehicle_type_id": "71"
                    },
                    {
                        "count": 2,
                        "vehicle_type_id": "255"
                    }
                ]
            },
            "type": "Feature"
        },
        {
            "geometry": {
                "coordinates": [
                    18.593716,
                    49.949561
                ],
                "type": "Point"
            },
            "properties": {
                "capacity": 7,
                "is_installed": true,
                "is_renting": true,
                "is_returning": true,
                "is_virtual_station": false,
                "last_reported": 1789331826,
                "name": "OSIEDLE GWARK\u00d3W al. Pi\u0142sudskiego ",
                "num_bikes_available": 2,
                "num_docks_available": 5,
                "region_id": "509",
                "rental_uris": {
                    "android": "https://app.nextbike.net/station?id=175003322",
                    "ios": "https://app.nextbike.net/station?id=175003322",
                    "web": "https://nxtb.it/p/175003322"
                },
                "short_name": "60701",
                "station_id": "175003322",
                "vehicle_types_available": [
                    {
                        "count": 2,
                        "vehicle_type_id": "71"
                    }
                ]
            },
            "type": "Feature"
        },
        {
            "geometry": {
                "coordinates": [
                    18.60054,
                    49.95054
                ],
                "type": "Point"
            },
            "properties": {
                "capacity": 7,
                "is_installed": true,
                "is_renting": true,
                "is_returning": true,
                "is_virtual_station": false,
                "last_reported": 1789331826,
                "name": "OSIEDLE PIONIER\u00d3W al. Pi\u0142sudskiego ",
                "num_bikes_available": 1,
                "num_docks_available": 6,
                "region_id": "509",
                "rental_uris": {
                    "android": "https://app.nextbike.net/station?id=175003743",
                    "ios": "https://app.nextbike.net/station?id=175003743",
                    "web": "https://nxtb.it/p/175003743"
                },
                "short_name": "60702",
                "station_id": "175003743",
                "vehicle_types_available": [
                    {
                        "count": 1,
                        "vehicle_type_id": "71"
                    }
                ]
            },
            "type": "Feature"
        },
        {
            "geometry": {
                "coordinates": [
                    18.609164,
                    49.952538
                ],
                "type": "Point"
            },
            "properties": {
                "capacity": 7,
                "is_installed": true,
                "is_renting": true,
                "is_returning": true,
                "is_virtual_station": false,
                "last_reported": 1789331826,
                "name": "URZ\u0104D MIASTA al. Pi\u0142sudskiego ",
                "num_bikes_available": 1,
                "num_docks_available": 6,
                "region_id": "509",
                "rental_uris": {
                    "android": "https://app.nextbike.net/station?id=175018365",
                    "ios": "https://app.nextbike.net/station?id=175018365",
                    "web": "https://nxtb.it/p/175018365"
                },
                "short_name": "60703",
                "station_id": "175018365",
                "vehicle_types_available": [
                    {
                        "count": 1,
                        "vehicle_type_id": "71"
                    }
                ]
            },
            "type": "Feature"
        },
        {
            "geometry": {
                "coordinates": [
                    18.574431,
                    49.951049
                ],
                "type": "Point"
            },
            "properties": {
                "capacity": 4,
                "is_installed": true,
                "is_renting": true,
                "is_returning": true,
                "is_virtual_station": false,
                "last_reported": 1789331826,
                "name": "PRZYSTANEK ul. Zdrojowa ",
                "num_bikes_available": 0,
                "num_docks_available": 4,
                "region_id": "509",
                "rental_uris": {
                    "android": "https://app.nextbike.net/station?id=175427404",
                    "ios": "https://app.nextbike.net/station?id=175427404",
                    "web": "https://nxtb.it/p/175427404"
                },
                "short_name": "60704",
                "station_id": "175427404",
                "vehicle_types_available": []
            },
            "type": "Feature"
        },
        {
            "geometry": {
                "coordinates": [
                    18.570308,
                    49.94905
                ],
                "type": "Point"
            },
            "properties": {
                "capacity": 5,
                "is_installed": true,
                "is_renting": true,
                "is_returning": true,
                "is_virtual_station": false,
                "last_reported": 1789331826,
                "name": "PARK ZDROJOWY ul. Witczaka ",
                "num_bikes_available": 1,
                "num_docks_available": 4,
                "region_id": "509",
                "rental_uris": {
                    "android": "https://app.nextbike.net/station?id=175427616",
                    "ios": "https://app.nextbike.net/station?id=175427616",
                    "web": "https://nxtb.it/p/175427616"
                },
                "short_name": "60705",
                "station_id": "175427616",
                "vehicle_types_available": [
                    {
                        "count": 1,
                        "vehicle_type_id": "71"
                    }
                ]
            },
            "type": "Feature"
        },
        {
            "geometry": {
                "coordinates": [
                    18.606363,
                    49.95291
                ],
                "type": "Point"
            },
            "properties": {
                "capacity": 5,
                "is_installed": true,
                "is_renting": true,
                "is_returning": true,
                "is_virtual_station": false,
                "last_reported": 1789331826,
                "name": "AL. PI\u0141SUDSKIEGO - AL. KATOWICKA",
                "num_bikes_available": 1,
                "num_docks_available": 4,
                "region_id": "509",
                "rental_uris": {
                    "android": "https://app.nextbike.net/station?id=175428358",
                    "ios": "https://app.nextbike.net/station?id=175428358",
                    "web": "https://nxtb.it/p/175428358"
                },
                "short_name": "60706",
                "station_id": "175428358",
                "vehicle_types_available": [
                    {
                        "count": 1,
                        "vehicle_type_id": "71"
                    }
                ]
            },
            "type": "Feature"
        },
        {
            "geometry": {
                "coordinates": [
                    18.57285,
                    49.94485
                ],
                "type": "Point"
            },
            "properties": {
                "capacity": 4,
                "is_installed": true,
                "is_renting": true,
                "is_returning": true,
                "is_virtual_station": false,
                "last_reported": 1789331826,
                "name": "DWORZEC AUTOBUSOWY ul. Broniewskiego ",
                "num_bikes_available": 11,
                "num_docks_available": 0,
                "region_id": "509",
                "rental_uris": {
                    "android": "https://app.nextbike.net/station?id=175428593",
                    "ios": "https://app.nextbike.net/station?id=175428593",
                    "web": "https://nxtb.it/p/175428593"
                },
                "short_name": "60707",
                "station_id": "175428593",
                "vehicle_types_available": [
                    {
                        "count": 9,
                        "vehicle_type_id": "71"
                    },
                    {
                        "count": 2,
                        "vehicle_type_id": "255"
                    }
                ]
            },
            "type": "Feature"
        },
        {
            "geometry": {
                "coordinates": [
                    18.576778,
                    49.942816
                ],
                "type": "Point"
            },
            "properties": {
                "capacity": 4,
                "is_installed": true,
                "is_renting": true,
                "is_returning": true,
                "is_virtual_station": false,
                "last_reported": 1789331826,
                "name": "ROD S\u0141ONECZNIK ul. Jagie\u0142\u0142y ",
                "num_bikes_available": 1,
                "num_docks_available": 3,
                "region_id": "509",
                "rental_uris": {
                    "android": "https://app.nextbike.net/station?id=175429881",
                    "ios": "https://app.nextbike.net/station?id=175429881",
                    "web": "https://nxtb.it/p/175429881"
                },
                "short_name": "60708",
                "station_id": "175429881",
                "vehicle_types_available": [
                    {
                        "count": 1,
                        "vehicle_type_id": "71"
                    }
                ]
            },
            "type": "Feature"
        },
        {
            "geometry": {
                "coordinates": [
                    18.582017,
                    49.942964
                ],
                "type": "Point"
            },
            "properties": {
                "capacity": 5,
                "is_installed": true,
                "is_renting": true,
                "is_returning": true,
                "is_virtual_station": false,
                "last_reported": 1789331826,
                "name": "PRZYSTANEK ul. Kusoci\u0144skiego ",
                "num_bikes_available": 7,
                "num_docks_available": 0,
                "region_id": "509",
                "rental_uris": {
                    "android": "https://app.nextbike.net/station?id=175430037",
                    "ios": "https://app.nextbike.net/station?id=175430037",
                    "web": "https://nxtb.it/p/175430037"
                },
                "short_name": "60709",
                "station_id": "175430037",
                "vehicle_types_available": [
                    {
                        "count": 6,
                        "vehicle_type_id": "71"
                    },
                    {
                        "count": 1,
                        "vehicle_type_id": "255"
                    }
                ]
            },
            "type": "Feature"
        },
        {
            "geometry": {
                "coordinates": [
                    18.591269,
                    49.943511
                ],
                "type": "Point"
            },
            "properties": {
                "capacity": 5,
                "is_installed": true,
                "is_renting": true,
                "is_returning": true,
                "is_virtual_station": false,
                "last_reported": 1789331826,
                "name": "PRZYSTANEK ul. Cieszy\u0144ska ",
                "num_bikes_available": 4,
                "num_docks_available": 1,
                "region_id": "509",
                "rental_uris": {
                    "android": "https://app.nextbike.net/station?id=175430190",
                    "ios": "https://app.nextbike.net/station?id=175430190",
                    "web": "https://nxtb.it/p/175430190"
                },
                "short_name": "60710",
                "station_id": "175430190",
                "vehicle_types_available": [
                    {
                        "count": 4,
                        "vehicle_type_id": "71"
                    }
                ]
            },
            "type": "Feature"
        },
        {
            "geometry": {
                "coordinates": [
                    18.595441,
                    49.945585
                ],
                "type": "Point"
            },
            "properties": {
                "capacity": 5,
                "is_installed": true,
                "is_renting": true,
                "is_returning": true,
                "is_virtual_station": false,
                "last_reported": 1789331826,
                "name": "SZKO\u0141A ul. Wielkopolska ",
                "num_bikes_available": 3,
                "num_docks_available": 2,
                "region_id": "509",
                "rental_uris": {
                    "android": "https://app.nextbike.net/station?id=175430331",
                    "ios": "https://app.nextbike.net/station?id=175430331",
                    "web": "https://nxtb.it/p/175430331"
                },
                "short_name": "60711",
                "station_id": "175430331",
                "vehicle_types_available": [
                    {
                        "count": 2,
                        "vehicle_type_id": "71"
                    },
                    {
                        "count": 1,
                        "vehicle_type_id": "255"
                    }
                ]
            },
            "type": "Feature"
        },
        {
            "geometry": {
                "coordinates": [
                    18.595109,
                    49.939704
                ],
                "type": "Point"
            },
            "properties": {
                "capacity": 7,
                "is_installed": true,
                "is_renting": true,
                "is_returning": true,
                "is_virtual_station": false,
                "last_reported": 1789331826,
                "name": "RONDO ul. Podhala\u0144ska ",
                "num_bikes_available": 2,
                "num_docks_available": 5,
                "region_id": "509",
                "rental_uris": {
                    "android": "https://app.nextbike.net/station?id=175431676",
                    "ios": "https://app.nextbike.net/station?id=175431676",
                    "web": "https://nxtb.it/p/175431676"
                },
                "short_name": "60712",
                "station_id": "175431676",
                "vehicle_types_available": [
                    {
                        "count": 2,
                        "vehicle_type_id": "71"
                    }
                ]
            },
            "type": "Feature"
        },
        {
            "geometry": {
                "coordinates": [
                    18.608972,
                    49.94525
                ],
                "type": "Point"
            },
            "properties": {
                "capacity": 7,
                "is_installed": true,
                "is_renting": true,
                "is_returning": true,
                "is_virtual_station": false,
                "last_reported": 1789331826,
                "name": "DWORZEC AUTOBUSOWY ul. Podhala\u0144ska ",
                "num_bikes_available": 16,
                "num_docks_available": 0,
                "region_id": "509",
                "rental_uris": {
                    "android": "https://app.nextbike.net/station?id=175431857",
                    "ios": "https://app.nextbike.net/station?id=175431857",
                    "web": "https://nxtb.it/p/175431857"
                },
                "short_name": "60713",
                "station_id": "175431857",
                "vehicle_types_available": [
                    {
                        "count": 15,
                        "vehicle_type_id": "71"
                    },
                    {
                        "count": 1,
                        "vehicle_type_id": "255"
                    }
                ]
            },
            "type": "Feature"
        },
        {
            "geometry": {
                "coordinates": [
                    18.600746,
                    49.947208
                ],
                "type": "Point"
            },
            "properties": {
                "capacity": 5,
                "is_installed": true,
                "is_renting": true,
                "is_returning": true,
                "is_virtual_station": false,
                "last_reported": 1789331826,
                "name": "OSIEDLE PIONIER\u00d3W ul. \u0141owicka ",
                "num_bikes_available": 1,
                "num_docks_available": 4,
                "region_id": "509",
                "rental_uris": {
                    "android": "https://app.nextbike.net/station?id=175432422",
                    "ios": "https://app.nextbike.net/station?id=175432422",
                    "web": "https://nxtb.it/p/175432422"
                },
                "short_name": "60714",
                "station_id": "175432422",
                "vehicle_types_available": [
                    {
                        "count": 1,
                        "vehicle_type_id": "71"
                    }
                ]
            },
            "type": "Feature"
        },
        {
            "geometry": {
                "coordinates": [
                    18.603019,
                    49.944196
                ],
                "type": "Point"
            },
            "properties": {
                "capacity": 4,
                "is_installed": true,
                "is_renting": true,
                "is_returning": true,
                "is_virtual_station": false,
                "last_reported": 1789331826,
                "name": "OSIEDLE PIONIER\u00d3W  deptak ",
                "num_bikes_available": 6,
                "num_docks_available": 0,
                "region_id": "509",
                "rental_uris": {
                    "android": "https://app.nextbike.net/station?id=175432942",
                    "ios": "https://app.nextbike.net/station?id=175432942",
                    "web": "https://nxtb.it/p/175432942"
                },
                "short_name": "60715",
                "station_id": "175432942",
                "vehicle_types_available": [
                    {
                        "count": 6,
                        "vehicle_type_id": "71"
                    }
                ]
            },
            "type": "Feature"
        },
        {
            "geometry": {
                "coordinates": [
                    18.594715,
                    49.954351
                ],
                "type": "Point"
            },
            "properties": {
                "capacity": 7,
                "is_installed": true,
                "is_renting": true,
                "is_returning": true,
                "is_virtual_station": false,
                "last_reported": 1789331826,
                "name": "SZKO\u0141A ul. Pozna\u0144ska",
                "num_bikes_available": 13,
                "num_docks_available": 0,
                "region_id": "509",
                "rental_uris": {
                    "android": "https://app.nextbike.net/station?id=175433116",
                    "ios": "https://app.nextbike.net/station?id=175433116",
                    "web": "https://nxtb.it/p/175433116"
                },
                "short_name": "60716",
                "station_id": "175433116",
                "vehicle_types_available": [
                    {
                        "count": 12,
                        "vehicle_type_id": "71"
                    },
                    {
                        "count": 1,
                        "vehicle_type_id": "255"
                    }
                ]
            },
            "type": "Feature"
        },
        {
            "geometry": {
                "coordinates": [
                    18.609479,
                    49.948479
                ],
                "type": "Point"
            },
            "properties": {
                "capacity": 4,
                "is_installed": true,
                "is_renting": true,
                "is_returning": true,
                "is_virtual_station": false,
                "last_reported": 1789331826,
                "name": "OSIEDLE ARKI BO\u017bKA ul. Zielona ",
                "num_bikes_available": 5,
                "num_docks_available": 0,
                "region_id": "509",
                "rental_uris": {
                    "android": "https://app.nextbike.net/station?id=175433288",
                    "ios": "https://app.nextbike.net/station?id=175433288",
                    "web": "https://nxtb.it/p/175433288"
                },
                "short_name": "60717",
                "station_id": "175433288",
                "vehicle_types_available": [
                    {
                        "count": 5,
                        "vehicle_type_id": "71"
                    }
                ]
            },
            "type": "Feature"
        },
        {
            "geometry": {
                "coordinates": [
                    18.615309,
                    49.949718
                ],
                "type": "Point"
            },
            "properties": {
                "capacity": 5,
                "is_installed": true,
                "is_renting": true,
                "is_returning": true,
                "is_virtual_station": false,
                "last_reported": 1789331826,
                "name": "OSIEDLE BARBARY ul. Turystyczna",
                "num_bikes_available": 7,
                "num_docks_available": 0,
                "region_id": "509",
                "rental_uris": {
                    "android": "https://app.nextbike.net/station?id=175433452",
                    "ios": "https://app.nextbike.net/station?id=175433452",
                    "web": "https://nxtb.it/p/175433452"
                },
                "short_name": "60718",
                "station_id": "175433452",
                "vehicle_types_available": [
                    {
                        "count": 7,
                        "vehicle_type_id": "71"
                    }
                ]
            },
            "type": "Feature"
        },
        {
            "geometry": {
                "coordinates": [
                    18.618816,
                    49.948769
                ],
                "type": "Point"
            },
            "properties": {
                "capacity": 4,
                "is_installed": true,
                "is_renting": true,
                "is_returning": true,
                "is_virtual_station": false,
                "last_reported": 1789331826,
                "name": "OSIEDLE BARBARY ul. Szkolna",
                "num_bikes_available": 3,
                "num_docks_available": 1,
                "region_id": "509",
                "rental_uris": {
                    "android": "https://app.nextbike.net/station?id=175433582",
                    "ios": "https://app.nextbike.net/station?id=175433582",
                    "web": "https://nxtb.it/p/175433582"
                },
                "short_name": "60719",
                "station_id": "175433582",
                "vehicle_types_available": [
                    {
                        "count": 3,
                        "vehicle_type_id": "71"
                    }
                ]
            },
            "type": "Feature"
        },
        {
            "geometry": {
                "coordinates": [
                    18.571317,
                    49.963181
                ],
                "type": "Point"
            },
            "properties": {
                "capacity": 4,
                "is_installed": true,
                "is_renting": true,
                "is_returning": true,
                "is_virtual_station": false,
                "last_reported": 1789331826,
                "name": "OSIEDLE PRZYJA\u0179\u0143  ul. Wyspia\u0144skiego",
                "num_bikes_available": 3,
                "num_docks_available": 1,
                "region_id": "509",
                "rental_uris": {
                    "android": "https://app.nextbike.net/station?id=175433765",
                    "ios": "https://app.nextbike.net/station?id=175433765",
                    "web": "https://nxtb.it/p/175433765"
                },
                "short_name": "60720",
                "station_id": "175433765",
                "vehicle_types_available": [
                    {
                        "count": 3,
                        "vehicle_type_id": "71"
                    }
                ]
            },
            "type": "Feature"
        },
        {
            "geometry": {
                "coordinates": [
                    18.57695,
                    49.955143
                ],
                "type": "Point"
            },
            "properties": {
                "capacity": 5,
                "is_installed": true,
                "is_renting": true,
                "is_returning": true,
                "is_virtual_station": false,
                "last_reported": 1789331826,
                "name": "RONDO ul. Pszczy\u0144ska ",
                "num_bikes_available": 6,
                "num_docks_available": 0,
                "region_id": "509",
                "rental_uris": {
                    "android": "https://app.nextbike.net/station?id=175433901",
                    "ios": "https://app.nextbike.net/station?id=175433901",
                    "web": "https://nxtb.it/p/175433901"
                },
                "short_name": "60721",
                "station_id": "175433901",
                "vehicle_types_available": [
                    {
                        "count": 1,
                        "vehicle_type_id": "71"
                    },
                    {
                        "count": 5,
                        "vehicle_type_id": "255"
                    }
                ]
            },
            "type": "Feature"
        },
        {
            "geometry": {
                "coordinates": [
                    18.597805,
                    49.959187
                ],
                "type": "Point"
            },
            "properties": {
                "capacity": 4,
                "is_installed": true,
                "is_renting": true,
                "is_returning": true,
                "is_virtual_station": false,
                "last_reported": 1789331826,
                "name": "G\u00d3RNE KO\u015aCI\u00d3\u0141",
                "num_bikes_available": 9,
                "num_docks_available": 0,
                "region_id": "509",
                "rental_uris": {
                    "android": "https://app.nextbike.net/station?id=175434045",
                    "ios": "https://app.nextbike.net/station?id=175434045",
                    "web": "https://nxtb.it/p/175434045"
                },
                "short_name": "60722",
                "station_id": "175434045",
                "vehicle_types_available": [
                    {
                        "count": 9,
                        "vehicle_type_id": "71"
                    }
                ]
            },
            "type": "Feature"
        },
        {
            "geometry": {
                "coordinates": [
                    18.558274,
                    49.941861
                ],
                "type": "Point"
            },
            "properties": {
                "capacity": 4,
                "is_installed": true,
                "is_renting": true,
                "is_returning": true,
                "is_virtual_station": false,
                "last_reported": 1789331826,
                "name": "PRZYSTANEK ul. Armii Krajowej",
                "num_bikes_available": 10,
                "num_docks_available": 0,
                "region_id": "509",
                "rental_uris": {
                    "android": "https://app.nextbike.net/station?id=175438657",
                    "ios": "https://app.nextbike.net/station?id=175438657",
                    "web": "https://nxtb.it/p/175438657"
                },
                "short_name": "60724",
                "station_id": "175438657",
                "vehicle_types_available": [
                    {
                        "count": 10,
                        "vehicle_type_id": "71"
                    }
                ]
            },
            "type": "Feature"
        },
        {
            "geometry": {
                "coordinates": [
                    18.56738,
                    49.957857
                ],
                "type": "Point"
            },
            "properties": {
                "capacity": 4,
                "is_installed": true,
                "is_renting": true,
                "is_returning": true,
                "is_virtual_station": false,
                "last_reported": 1789331826,
                "name": "OSIEDLE BOGOCZOWIEC  orlik",
                "num_bikes_available": 8,
                "num_docks_available": 0,
                "region_id": "509",
                "rental_uris": {
                    "android": "https://app.nextbike.net/station?id=175438764",
                    "ios": "https://app.nextbike.net/station?id=175438764",
                    "web": "https://nxtb.it/p/175438764"
                },
                "short_name": "60725",
                "station_id": "175438764",
                "vehicle_types_available": [
                    {
                        "count": 8,
                        "vehicle_type_id": "71"
                    }
                ]
            },
            "type": "Feature"
        },
        {
            "geometry": {
                "coordinates": [
                    18.585284,
                    49.93784
                ],
                "type": "Point"
            },
            "properties": {
                "capacity": 4,
                "is_installed": true,
                "is_renting": true,
                "is_returning": true,
                "is_virtual_station": false,
                "last_reported": 1789331826,
                "name": "PRZYSTANEK ul. Jagie\u0142\u0142y (WPK)",
                "num_bikes_available": 3,
                "num_docks_available": 1,
                "region_id": "509",
                "rental_uris": {
                    "android": "https://app.nextbike.net/station?id=175438873",
                    "ios": "https://app.nextbike.net/station?id=175438873",
                    "web": "https://nxtb.it/p/175438873"
                },
                "short_name": "60726",
                "station_id": "175438873",
                "vehicle_types_available": [
                    {
                        "count": 3,
                        "vehicle_type_id": "71"
                    }
                ]
            },
            "type": "Feature"
        },
        {
            "geometry": {
                "coordinates": [
                    18.616,
                    49.97
                ],
                "type": "Point"
            },
            "properties": {
                "capacity": 2,
                "is_installed": true,
                "is_renting": true,
                "is_returning": true,
                "is_virtual_station": false,
                "last_reported": 1789331826,
                "name": "DUBIELEC ul. Rybnicka",
                "num_bikes_available": 2,
                "num_docks_available": 0,
                "region_id": "509",
                "rental_uris": {
                    "android": "https://app.nextbike.net/station?id=381801865",
                    "ios": "https://app.nextbike.net/station?id=381801865",
                    "web": "https://nxtb.it/p/381801865"
                },
                "short_name": "60728",
                "station_id": "381801865",
                "vehicle_types_available": [
                    {
                        "count": 2,
                        "vehicle_type_id": "71"
                    }
                ]
            },
            "type": "Feature"
        },
        {
            "geometry": {
                "coordinates": [
                    18.62,
                    49.966
                ],
                "type": "Point"
            },
            "properties": {
                "capacity": 2,
                "is_installed": true,
                "is_renting": true,
                "is_returning": true,
                "is_virtual_station": false,
                "last_reported": 1789331826,
                "name": "ZOFI\u00d3WKA ul. RYBNICKA",
                "num_bikes_available": 1,
                "num_docks_available": 1,
                "region_id": "509",
                "rental_uris": {
                    "android": "https://app.nextbike.net/station?id=381803691",
                    "ios": "https://app.nextbike.net/station?id=381803691",
                    "web": "https://nxtb.it/p/381803691"
                },
                "short_name": "60729",
                "station_id": "381803691",
                "vehicle_types_available": [
                    {
                        "count": 1,
                        "vehicle_type_id": "71"
                    }
                ]
            },
            "type": "Feature"
        },
        {
            "geometry": {
                "coordinates": [
                    18.543083,
                    49.941472
                ],
                "type": "Point"
            },
            "properties": {
                "capacity": 3,
                "is_installed": true,
                "is_renting": true,
                "is_returning": true,
                "is_virtual_station": false,
                "last_reported": 1789331826,
                "name": "OSIEDLE Z\u0142ote \u0141any  ",
                "num_bikes_available": 6,
                "num_docks_available": 0,
                "region_id": "509",
                "rental_uris": {
                    "android": "https://app.nextbike.net/station?id=611361248",
                    "ios": "https://app.nextbike.net/station?id=611361248",
                    "web": "https://nxtb.it/p/611361248"
                },
                "short_name": "60731",
                "station_id": "611361248",
                "vehicle_types_available": [
                    {
                        "count": 6,
                        "vehicle_type_id": "71"
                    }
                ]
            },
            "type": "Feature"
        },
        {
            "geometry": {
                "coordinates": [
                    18.543944,
                    49.938778
                ],
                "type": "Point"
            },
            "properties": {
                "is_installed": true,
                "is_renting": true,
                "is_returning": true,
                "is_virtual_station": false,
                "last_reported": 1789331826,
                "name": "Moszczenica \u2013 poczta",
                "num_bikes_available": 5,
                "num_docks_available": 0,
                "region_id": "509",
                "rental_uris": {
                    "android": "https://app.nextbike.net/station?id=611361570",
                    "ios": "https://app.nextbike.net/station?id=611361570",
                    "web": "https://nxtb.it/p/611361570"
                },
                "short_name": "60732",
                "station_id": "611361570",
                "vehicle_types_available": [
                    {
                        "count": 4,
                        "vehicle_type_id": "71"
                    },
                    {
                        "count": 1,
                        "vehicle_type_id": "255"
                    }
                ]
            },
            "type": "Feature"
        }
    ],
    "gbfs": {
        "station_information": {
            "last_updated": 1789331826,
            "ttl": 60,
            "version": "2.3"
        },
        "station_status": {
            "last_updated": 1789331826,
            "ttl": 60,
            "version": "2.3"
        }
    },
    "type": "FeatureCollection"
}