{
    "features": [
        {
            "geometry": {
                "coordinates": [
                    14.517082,
                    50.26231
                ],
                "type": "Point"
            },
            "properties": {
                "capacity": 4,
                "is_installed": true,
                "is_renting": true,
                "is_returning": true,
                "is_virtual_station": false,
                "last_reported": 1789329691,
                "name": "Vlakov\u00e9 n\u00e1dra\u017e\u00ed",
                "num_bikes_available": 5,
                "num_docks_available": 0,
                "region_id": "1258",
                "rental_uris": {
                    "android": "https://app.nextbike.net/station?id=601939888",
                    "ios": "https://app.nextbike.net/station?id=601939888",
                    "web": "https://nxtb.it/p/601939888"
                },
                "short_name": "48257",
                "station_id": "601939888",
                "vehicle_types_available": [
                    {
                        "count": 5,
                        "vehicle_type_id": "184"
                    }
                ]
            },
            "type": "Feature"
        },
        {
            "geometry": {
                "coordinates": [
                    14.516238,
                    50.258831
                ],
                "type": "Point"
            },
            "properties": {
                "capacity": 4,
                "is_installed": true,
                "is_renting": true,
                "is_returning": true,
                "is_virtual_station": false,
                "last_reported": 1789329691,
                "name": "M\u011bstsk\u00fd \u00fa\u0159ad",
                "num_bikes_available": 2,
                "num_docks_available": 2,
                "region_id": "1258",
                "rental_uris": {
                    "android": "https://app.nextbike.net/station?id=601939956",
                    "ios": "https://app.nextbike.net/station?id=601939956",
                    "web": "https://nxtb.it/p/601939956"
                },
                "short_name": "48258",
                "station_id": "601939956",
                "vehicle_types_available": [
                    {
                        "count": 2,
                        "vehicle_type_id": "184"
                    }
                ]
            },
            "type": "Feature"
        },
        {
            "geometry": {
                "coordinates": [
                    14.518208,
                    50.258617
                ],
                "type": "Point"
            },
            "properties": {
                "capacity": 4,
                "is_installed": true,
                "is_renting": true,
                "is_returning": true,
                "is_virtual_station": false,
                "last_reported": 1789329691,
                "name": "Plaveck\u00fd baz\u00e9n",
                "num_bikes_available": 0,
                "num_docks_available": 4,
                "region_id": "1258",
                "rental_uris": {
                    "android": "https://app.nextbike.net/station?id=601939997",
                    "ios": "https://app.nextbike.net/station?id=601939997",
                    "web": "https://nxtb.it/p/601939997"
                },
                "short_name": "48259",
                "station_id": "601939997",
                "vehicle_types_available": []
            },
            "type": "Feature"
        },
        {
            "geometry": {
                "coordinates": [
                    14.519,
                    50.259941
                ],
                "type": "Point"
            },
            "properties": {
                "capacity": 4,
                "is_installed": true,
                "is_renting": true,
                "is_returning": true,
                "is_virtual_station": false,
                "last_reported": 1789329691,
                "name": "Masarykova",
                "num_bikes_available": 0,
                "num_docks_available": 4,
                "region_id": "1258",
                "rental_uris": {
                    "android": "https://app.nextbike.net/station?id=601940068",
                    "ios": "https://app.nextbike.net/station?id=601940068",
                    "web": "https://nxtb.it/p/601940068"
                },
                "short_name": "48260",
                "station_id": "601940068",
                "vehicle_types_available": []
            },
            "type": "Feature"
        },
        {
            "geometry": {
                "coordinates": [
                    14.525081,
                    50.261345
                ],
                "type": "Point"
            },
            "properties": {
                "is_installed": true,
                "is_renting": true,
                "is_returning": true,
                "is_virtual_station": false,
                "last_reported": 1789329691,
                "name": "Kostomlatsk\u00e9ho sady, zast\u00e1vka",
                "num_bikes_available": 0,
                "num_docks_available": 0,
                "region_id": "1258",
                "rental_uris": {
                    "android": "https://app.nextbike.net/station?id=601940134",
                    "ios": "https://app.nextbike.net/station?id=601940134",
                    "web": "https://nxtb.it/p/601940134"
                },
                "short_name": "48261",
                "station_id": "601940134",
                "vehicle_types_available": []
            },
            "type": "Feature"
        },
        {
            "geometry": {
                "coordinates": [
                    14.531943,
                    50.260078
                ],
                "type": "Point"
            },
            "properties": {
                "is_installed": true,
                "is_renting": true,
                "is_returning": true,
                "is_virtual_station": false,
                "last_reported": 1789329691,
                "name": "Ml\u00e9kojedy, samoobsluha",
                "num_bikes_available": 10,
                "num_docks_available": 0,
                "region_id": "1258",
                "rental_uris": {
                    "android": "https://app.nextbike.net/station?id=601940277",
                    "ios": "https://app.nextbike.net/station?id=601940277",
                    "web": "https://nxtb.it/p/601940277"
                },
                "short_name": "48262",
                "station_id": "601940277",
                "vehicle_types_available": [
                    {
                        "count": 10,
                        "vehicle_type_id": "184"
                    }
                ]
            },
            "type": "Feature"
        },
        {
            "geometry": {
                "coordinates": [
                    14.532981,
                    50.252441
                ],
                "type": "Point"
            },
            "properties": {
                "is_installed": true,
                "is_renting": true,
                "is_returning": true,
                "is_virtual_station": false,
                "last_reported": 1789329691,
                "name": "Palack\u00e9ho, za zvonic\u00ed",
                "num_bikes_available": 2,
                "num_docks_available": 0,
                "region_id": "1258",
                "rental_uris": {
                    "android": "https://app.nextbike.net/station?id=601940328",
                    "ios": "https://app.nextbike.net/station?id=601940328",
                    "web": "https://nxtb.it/p/601940328"
                },
                "short_name": "48263",
                "station_id": "601940328",
                "vehicle_types_available": [
                    {
                        "count": 2,
                        "vehicle_type_id": "184"
                    }
                ]
            },
            "type": "Feature"
        },
        {
            "geometry": {
                "coordinates": [
                    14.520442,
                    50.255531
                ],
                "type": "Point"
            },
            "properties": {
                "is_installed": true,
                "is_renting": true,
                "is_returning": true,
                "is_virtual_station": false,
                "last_reported": 1789329691,
                "name": "M\u011bstsk\u00fd \u00fa\u0159ad, Kojetick\u00e1",
                "num_bikes_available": 0,
                "num_docks_available": 0,
                "region_id": "1258",
                "rental_uris": {
                    "android": "https://app.nextbike.net/station?id=601940374",
                    "ios": "https://app.nextbike.net/station?id=601940374",
                    "web": "https://nxtb.it/p/601940374"
                },
                "short_name": "48264",
                "station_id": "601940374",
                "vehicle_types_available": []
            },
            "type": "Feature"
        },
        {
            "geometry": {
                "coordinates": [
                    14.517801,
                    50.253963
                ],
                "type": "Point"
            },
            "properties": {
                "is_installed": true,
                "is_renting": true,
                "is_returning": true,
                "is_virtual_station": false,
                "last_reported": 1789329691,
                "name": "\u0160koln\u00ed, Z\u0160",
                "num_bikes_available": 0,
                "num_docks_available": 0,
                "region_id": "1258",
                "rental_uris": {
                    "android": "https://app.nextbike.net/station?id=601940408",
                    "ios": "https://app.nextbike.net/station?id=601940408",
                    "web": "https://nxtb.it/p/601940408"
                },
                "short_name": "48265",
                "station_id": "601940408",
                "vehicle_types_available": []
            },
            "type": "Feature"
        },
        {
            "geometry": {
                "coordinates": [
                    14.520228,
                    50.252811
                ],
                "type": "Point"
            },
            "properties": {
                "is_installed": true,
                "is_renting": true,
                "is_returning": true,
                "is_virtual_station": false,
                "last_reported": 1789329691,
                "name": "Poliklinika",
                "num_bikes_available": 2,
                "num_docks_available": 0,
                "region_id": "1258",
                "rental_uris": {
                    "android": "https://app.nextbike.net/station?id=601940460",
                    "ios": "https://app.nextbike.net/station?id=601940460",
                    "web": "https://nxtb.it/p/601940460"
                },
                "short_name": "48266",
                "station_id": "601940460",
                "vehicle_types_available": [
                    {
                        "count": 2,
                        "vehicle_type_id": "184"
                    }
                ]
            },
            "type": "Feature"
        },
        {
            "geometry": {
                "coordinates": [
                    14.516746,
                    50.250969
                ],
                "type": "Point"
            },
            "properties": {
                "is_installed": true,
                "is_renting": true,
                "is_returning": true,
                "is_virtual_station": false,
                "last_reported": 1789329691,
                "name": "Na V\u00fdslun\u00ed",
                "num_bikes_available": 6,
                "num_docks_available": 0,
                "region_id": "1258",
                "rental_uris": {
                    "android": "https://app.nextbike.net/station?id=601940506",
                    "ios": "https://app.nextbike.net/station?id=601940506",
                    "web": "https://nxtb.it/p/601940506"
                },
                "short_name": "48267",
                "station_id": "601940506",
                "vehicle_types_available": [
                    {
                        "count": 6,
                        "vehicle_type_id": "184"
                    }
                ]
            },
            "type": "Feature"
        },
        {
            "geometry": {
                "coordinates": [
                    14.511179,
                    50.254395
                ],
                "type": "Point"
            },
            "properties": {
                "is_installed": true,
                "is_renting": true,
                "is_returning": true,
                "is_virtual_station": false,
                "last_reported": 1789329691,
                "name": "28. \u0159\u00edjna, Z\u0160",
                "num_bikes_available": 5,
                "num_docks_available": 0,
                "region_id": "1258",
                "rental_uris": {
                    "android": "https://app.nextbike.net/station?id=601940628",
                    "ios": "https://app.nextbike.net/station?id=601940628",
                    "web": "https://nxtb.it/p/601940628"
                },
                "short_name": "48268",
                "station_id": "601940628",
                "vehicle_types_available": [
                    {
                        "count": 1,
                        "vehicle_type_id": "254"
                    },
                    {
                        "count": 4,
                        "vehicle_type_id": "184"
                    }
                ]
            },
            "type": "Feature"
        },
        {
            "geometry": {
                "coordinates": [
                    14.512342,
                    50.25687
                ],
                "type": "Point"
            },
            "properties": {
                "is_installed": true,
                "is_renting": true,
                "is_returning": true,
                "is_virtual_station": false,
                "last_reported": 1789329691,
                "name": "Marten",
                "num_bikes_available": 0,
                "num_docks_available": 0,
                "region_id": "1258",
                "rental_uris": {
                    "android": "https://app.nextbike.net/station?id=601940691",
                    "ios": "https://app.nextbike.net/station?id=601940691",
                    "web": "https://nxtb.it/p/601940691"
                },
                "short_name": "48269",
                "station_id": "601940691",
                "vehicle_types_available": []
            },
            "type": "Feature"
        },
        {
            "geometry": {
                "coordinates": [
                    14.509606,
                    50.257355
                ],
                "type": "Point"
            },
            "properties": {
                "is_installed": true,
                "is_renting": true,
                "is_returning": true,
                "is_virtual_station": false,
                "last_reported": 1789329691,
                "name": "L\u00e9k\u00e1rna",
                "num_bikes_available": 1,
                "num_docks_available": 0,
                "region_id": "1258",
                "rental_uris": {
                    "android": "https://app.nextbike.net/station?id=601940749",
                    "ios": "https://app.nextbike.net/station?id=601940749",
                    "web": "https://nxtb.it/p/601940749"
                },
                "short_name": "48270",
                "station_id": "601940749",
                "vehicle_types_available": [
                    {
                        "count": 1,
                        "vehicle_type_id": "184"
                    }
                ]
            },
            "type": "Feature"
        },
        {
            "geometry": {
                "coordinates": [
                    14.507634,
                    50.257698
                ],
                "type": "Point"
            },
            "properties": {
                "is_installed": true,
                "is_renting": true,
                "is_returning": true,
                "is_virtual_station": false,
                "last_reported": 1789329691,
                "name": "Neratovice, s\u00eddli\u0161t\u011b (vlak. zast\u00e1vka)",
                "num_bikes_available": 0,
                "num_docks_available": 0,
                "region_id": "1258",
                "rental_uris": {
                    "android": "https://app.nextbike.net/station?id=601940817",
                    "ios": "https://app.nextbike.net/station?id=601940817",
                    "web": "https://nxtb.it/p/601940817"
                },
                "short_name": "48271",
                "station_id": "601940817",
                "vehicle_types_available": []
            },
            "type": "Feature"
        },
        {
            "geometry": {
                "coordinates": [
                    14.529286,
                    50.251534
                ],
                "type": "Point"
            },
            "properties": {
                "is_installed": true,
                "is_renting": true,
                "is_returning": true,
                "is_virtual_station": false,
                "last_reported": 1789329691,
                "name": "H\u0159bitov",
                "num_bikes_available": 13,
                "num_docks_available": 0,
                "region_id": "1258",
                "rental_uris": {
                    "android": "https://app.nextbike.net/station?id=601940866",
                    "ios": "https://app.nextbike.net/station?id=601940866",
                    "web": "https://nxtb.it/p/601940866"
                },
                "short_name": "48273",
                "station_id": "601940866",
                "vehicle_types_available": [
                    {
                        "count": 13,
                        "vehicle_type_id": "184"
                    }
                ]
            },
            "type": "Feature"
        },
        {
            "geometry": {
                "coordinates": [
                    14.495631,
                    50.254818
                ],
                "type": "Point"
            },
            "properties": {
                "is_installed": true,
                "is_renting": true,
                "is_returning": true,
                "is_virtual_station": false,
                "last_reported": 1789329691,
                "name": "By\u0161kovice, P+R",
                "num_bikes_available": 1,
                "num_docks_available": 0,
                "region_id": "1258",
                "rental_uris": {
                    "android": "https://app.nextbike.net/station?id=601940988",
                    "ios": "https://app.nextbike.net/station?id=601940988",
                    "web": "https://nxtb.it/p/601940988"
                },
                "short_name": "48272",
                "station_id": "601940988",
                "vehicle_types_available": [
                    {
                        "count": 1,
                        "vehicle_type_id": "184"
                    }
                ]
            },
            "type": "Feature"
        }
    ],
    "gbfs": {
        "station_information": {
            "last_updated": 1789329691,
            "ttl": 60,
            "version": "2.3"
        },
        "station_status": {
            "last_updated": 1789329691,
            "ttl": 60,
            "version": "2.3"
        }
    },
    "type": "FeatureCollection"
}