{
    "features": [
        {
            "geometry": {
                "coordinates": [
                    14.62439,
                    49.66694
                ],
                "type": "Point"
            },
            "properties": {
                "capacity": 3,
                "is_installed": true,
                "is_renting": true,
                "is_returning": true,
                "is_virtual_station": false,
                "last_reported": 1789321757,
                "name": "Olbramovice,\u00a0\u017eel.st.",
                "num_bikes_available": 0,
                "num_docks_available": 3,
                "region_id": "1034",
                "rental_uris": {
                    "android": "https://app.nextbike.net/station?id=381095811",
                    "ios": "https://app.nextbike.net/station?id=381095811",
                    "web": "https://nxtb.it/p/381095811"
                },
                "short_name": "47127",
                "station_id": "381095811",
                "vehicle_types_available": []
            },
            "type": "Feature"
        },
        {
            "geometry": {
                "coordinates": [
                    14.63866,
                    49.67306
                ],
                "type": "Point"
            },
            "properties": {
                "capacity": 3,
                "is_installed": true,
                "is_renting": true,
                "is_returning": true,
                "is_virtual_station": false,
                "last_reported": 1789321757,
                "name": "Olbramovice, U Svat\u00fdch",
                "num_bikes_available": 9,
                "num_docks_available": 0,
                "region_id": "1034",
                "rental_uris": {
                    "android": "https://app.nextbike.net/station?id=381096071",
                    "ios": "https://app.nextbike.net/station?id=381096071",
                    "web": "https://nxtb.it/p/381096071"
                },
                "short_name": "47128",
                "station_id": "381096071",
                "vehicle_types_available": [
                    {
                        "count": 9,
                        "vehicle_type_id": "333"
                    }
                ]
            },
            "type": "Feature"
        },
        {
            "geometry": {
                "coordinates": [
                    14.63094,
                    49.671235
                ],
                "type": "Point"
            },
            "properties": {
                "capacity": 3,
                "is_installed": true,
                "is_renting": true,
                "is_returning": true,
                "is_virtual_station": false,
                "last_reported": 1789321757,
                "name": "Olbramovice, Parcely",
                "num_bikes_available": 2,
                "num_docks_available": 1,
                "region_id": "1034",
                "rental_uris": {
                    "android": "https://app.nextbike.net/station?id=381096406",
                    "ios": "https://app.nextbike.net/station?id=381096406",
                    "web": "https://nxtb.it/p/381096406"
                },
                "short_name": "47129",
                "station_id": "381096406",
                "vehicle_types_available": [
                    {
                        "count": 2,
                        "vehicle_type_id": "333"
                    }
                ]
            },
            "type": "Feature"
        },
        {
            "geometry": {
                "coordinates": [
                    14.6359,
                    49.67508
                ],
                "type": "Point"
            },
            "properties": {
                "capacity": 3,
                "is_installed": true,
                "is_renting": true,
                "is_returning": true,
                "is_virtual_station": false,
                "last_reported": 1789321757,
                "name": "Olbramovice, fotbalov\u00fd stadion",
                "num_bikes_available": 0,
                "num_docks_available": 3,
                "region_id": "1034",
                "rental_uris": {
                    "android": "https://app.nextbike.net/station?id=381096609",
                    "ios": "https://app.nextbike.net/station?id=381096609",
                    "web": "https://nxtb.it/p/381096609"
                },
                "short_name": "47130",
                "station_id": "381096609",
                "vehicle_types_available": []
            },
            "type": "Feature"
        },
        {
            "geometry": {
                "coordinates": [
                    14.620143,
                    49.637779
                ],
                "type": "Point"
            },
            "properties": {
                "capacity": 3,
                "is_installed": true,
                "is_renting": true,
                "is_returning": true,
                "is_virtual_station": false,
                "last_reported": 1789321757,
                "name": "Votice,\u00a0\u017eel.st.",
                "num_bikes_available": 4,
                "num_docks_available": 0,
                "region_id": "1034",
                "rental_uris": {
                    "android": "https://app.nextbike.net/station?id=381097083",
                    "ios": "https://app.nextbike.net/station?id=381097083",
                    "web": "https://nxtb.it/p/381097083"
                },
                "short_name": "47131",
                "station_id": "381097083",
                "vehicle_types_available": [
                    {
                        "count": 2,
                        "vehicle_type_id": "333"
                    },
                    {
                        "count": 2,
                        "vehicle_type_id": "254"
                    }
                ]
            },
            "type": "Feature"
        },
        {
            "geometry": {
                "coordinates": [
                    14.63805,
                    49.63778
                ],
                "type": "Point"
            },
            "properties": {
                "capacity": 3,
                "is_installed": true,
                "is_renting": true,
                "is_returning": true,
                "is_virtual_station": false,
                "last_reported": 1789321757,
                "name": "Votice, Husova",
                "num_bikes_available": 1,
                "num_docks_available": 2,
                "region_id": "1034",
                "rental_uris": {
                    "android": "https://app.nextbike.net/station?id=381099625",
                    "ios": "https://app.nextbike.net/station?id=381099625",
                    "web": "https://nxtb.it/p/381099625"
                },
                "short_name": "47132",
                "station_id": "381099625",
                "vehicle_types_available": [
                    {
                        "count": 1,
                        "vehicle_type_id": "333"
                    }
                ]
            },
            "type": "Feature"
        },
        {
            "geometry": {
                "coordinates": [
                    14.64199,
                    49.63932
                ],
                "type": "Point"
            },
            "properties": {
                "capacity": 3,
                "is_installed": true,
                "is_renting": true,
                "is_returning": true,
                "is_virtual_station": false,
                "last_reported": 1789321757,
                "name": "Votice, Komensk\u00e9ho n\u00e1m\u011bst\u00ed",
                "num_bikes_available": 3,
                "num_docks_available": 0,
                "region_id": "1034",
                "rental_uris": {
                    "android": "https://app.nextbike.net/station?id=381099868",
                    "ios": "https://app.nextbike.net/station?id=381099868",
                    "web": "https://nxtb.it/p/381099868"
                },
                "short_name": "47133",
                "station_id": "381099868",
                "vehicle_types_available": [
                    {
                        "count": 1,
                        "vehicle_type_id": "333"
                    },
                    {
                        "count": 2,
                        "vehicle_type_id": "254"
                    }
                ]
            },
            "type": "Feature"
        },
        {
            "geometry": {
                "coordinates": [
                    14.64923,
                    49.63764
                ],
                "type": "Point"
            },
            "properties": {
                "capacity": 3,
                "is_installed": true,
                "is_renting": true,
                "is_returning": true,
                "is_virtual_station": false,
                "last_reported": 1789321757,
                "name": "Votice, T\u00e1borsk\u00e1",
                "num_bikes_available": 0,
                "num_docks_available": 3,
                "region_id": "1034",
                "rental_uris": {
                    "android": "https://app.nextbike.net/station?id=381100308",
                    "ios": "https://app.nextbike.net/station?id=381100308",
                    "web": "https://nxtb.it/p/381100308"
                },
                "short_name": "47134",
                "station_id": "381100308",
                "vehicle_types_available": []
            },
            "type": "Feature"
        },
        {
            "geometry": {
                "coordinates": [
                    14.63682,
                    49.63946
                ],
                "type": "Point"
            },
            "properties": {
                "capacity": 3,
                "is_installed": true,
                "is_renting": true,
                "is_returning": true,
                "is_virtual_station": false,
                "last_reported": 1789321757,
                "name": "Votice, Dr. E. Bene\u0161e",
                "num_bikes_available": 2,
                "num_docks_available": 1,
                "region_id": "1034",
                "rental_uris": {
                    "android": "https://app.nextbike.net/station?id=381100544",
                    "ios": "https://app.nextbike.net/station?id=381100544",
                    "web": "https://nxtb.it/p/381100544"
                },
                "short_name": "47135",
                "station_id": "381100544",
                "vehicle_types_available": [
                    {
                        "count": 2,
                        "vehicle_type_id": "333"
                    }
                ]
            },
            "type": "Feature"
        },
        {
            "geometry": {
                "coordinates": [
                    14.64593,
                    49.64038
                ],
                "type": "Point"
            },
            "properties": {
                "capacity": 3,
                "is_installed": true,
                "is_renting": true,
                "is_returning": true,
                "is_virtual_station": false,
                "last_reported": 1789321757,
                "name": "Votice, Sportovn\u00ed are\u00e1l\u00a0",
                "num_bikes_available": 7,
                "num_docks_available": 0,
                "region_id": "1034",
                "rental_uris": {
                    "android": "https://app.nextbike.net/station?id=381100812",
                    "ios": "https://app.nextbike.net/station?id=381100812",
                    "web": "https://nxtb.it/p/381100812"
                },
                "short_name": "47136",
                "station_id": "381100812",
                "vehicle_types_available": [
                    {
                        "count": 7,
                        "vehicle_type_id": "333"
                    }
                ]
            },
            "type": "Feature"
        },
        {
            "geometry": {
                "coordinates": [
                    14.6408,
                    49.64174
                ],
                "type": "Point"
            },
            "properties": {
                "capacity": 3,
                "is_installed": true,
                "is_renting": true,
                "is_returning": true,
                "is_virtual_station": false,
                "last_reported": 1789321757,
                "name": "Votice, Blanick\u00e1",
                "num_bikes_available": 2,
                "num_docks_available": 1,
                "region_id": "1034",
                "rental_uris": {
                    "android": "https://app.nextbike.net/station?id=381101065",
                    "ios": "https://app.nextbike.net/station?id=381101065",
                    "web": "https://nxtb.it/p/381101065"
                },
                "short_name": "47137",
                "station_id": "381101065",
                "vehicle_types_available": [
                    {
                        "count": 2,
                        "vehicle_type_id": "333"
                    }
                ]
            },
            "type": "Feature"
        },
        {
            "geometry": {
                "coordinates": [
                    14.63591,
                    49.64628
                ],
                "type": "Point"
            },
            "properties": {
                "capacity": 3,
                "is_installed": true,
                "is_renting": true,
                "is_returning": true,
                "is_virtual_station": false,
                "last_reported": 1789321757,
                "name": "Votice, Nov\u00e1",
                "num_bikes_available": 2,
                "num_docks_available": 1,
                "region_id": "1034",
                "rental_uris": {
                    "android": "https://app.nextbike.net/station?id=381101404",
                    "ios": "https://app.nextbike.net/station?id=381101404",
                    "web": "https://nxtb.it/p/381101404"
                },
                "short_name": "47138",
                "station_id": "381101404",
                "vehicle_types_available": [
                    {
                        "count": 2,
                        "vehicle_type_id": "333"
                    }
                ]
            },
            "type": "Feature"
        },
        {
            "geometry": {
                "coordinates": [
                    14.63073,
                    49.63835
                ],
                "type": "Point"
            },
            "properties": {
                "capacity": 3,
                "is_installed": true,
                "is_renting": true,
                "is_returning": true,
                "is_virtual_station": false,
                "last_reported": 1789321757,
                "name": "Votice, P\u0159\u00edrodn\u00ed koupali\u0161t\u011b Pila\u0159",
                "num_bikes_available": 4,
                "num_docks_available": 0,
                "region_id": "1034",
                "rental_uris": {
                    "android": "https://app.nextbike.net/station?id=381101627",
                    "ios": "https://app.nextbike.net/station?id=381101627",
                    "web": "https://nxtb.it/p/381101627"
                },
                "short_name": "47139",
                "station_id": "381101627",
                "vehicle_types_available": [
                    {
                        "count": 4,
                        "vehicle_type_id": "333"
                    }
                ]
            },
            "type": "Feature"
        },
        {
            "geometry": {
                "coordinates": [
                    14.63421,
                    49.64412
                ],
                "type": "Point"
            },
            "properties": {
                "capacity": 3,
                "is_installed": true,
                "is_renting": true,
                "is_returning": true,
                "is_virtual_station": false,
                "last_reported": 1789321757,
                "name": "Votice, V\u011btrn\u00e1",
                "num_bikes_available": 0,
                "num_docks_available": 3,
                "region_id": "1034",
                "rental_uris": {
                    "android": "https://app.nextbike.net/station?id=381101902",
                    "ios": "https://app.nextbike.net/station?id=381101902",
                    "web": "https://nxtb.it/p/381101902"
                },
                "short_name": "47140",
                "station_id": "381101902",
                "vehicle_types_available": []
            },
            "type": "Feature"
        },
        {
            "geometry": {
                "coordinates": [
                    14.64574,
                    49.63508
                ],
                "type": "Point"
            },
            "properties": {
                "capacity": 3,
                "is_installed": true,
                "is_renting": true,
                "is_returning": true,
                "is_virtual_station": false,
                "last_reported": 1789321757,
                "name": "Votice, U Vodojemu",
                "num_bikes_available": 2,
                "num_docks_available": 1,
                "region_id": "1034",
                "rental_uris": {
                    "android": "https://app.nextbike.net/station?id=381102323",
                    "ios": "https://app.nextbike.net/station?id=381102323",
                    "web": "https://nxtb.it/p/381102323"
                },
                "short_name": "47141",
                "station_id": "381102323",
                "vehicle_types_available": [
                    {
                        "count": 2,
                        "vehicle_type_id": "333"
                    }
                ]
            },
            "type": "Feature"
        },
        {
            "geometry": {
                "coordinates": [
                    14.6276,
                    49.66255
                ],
                "type": "Point"
            },
            "properties": {
                "capacity": 3,
                "is_installed": true,
                "is_renting": true,
                "is_returning": true,
                "is_virtual_station": false,
                "last_reported": 1789321757,
                "name": "Olbramovice, Veselka",
                "num_bikes_available": 3,
                "num_docks_available": 0,
                "region_id": "1034",
                "rental_uris": {
                    "android": "https://app.nextbike.net/station?id=516980866",
                    "ios": "https://app.nextbike.net/station?id=516980866",
                    "web": "https://nxtb.it/p/516980866"
                },
                "short_name": "47257",
                "station_id": "516980866",
                "vehicle_types_available": [
                    {
                        "count": 3,
                        "vehicle_type_id": "333"
                    }
                ]
            },
            "type": "Feature"
        },
        {
            "geometry": {
                "coordinates": [
                    14.62942,
                    49.64781
                ],
                "type": "Point"
            },
            "properties": {
                "capacity": 3,
                "is_installed": true,
                "is_renting": true,
                "is_returning": true,
                "is_virtual_station": false,
                "last_reported": 1789321757,
                "name": "Votice, Srbice",
                "num_bikes_available": 3,
                "num_docks_available": 0,
                "region_id": "1034",
                "rental_uris": {
                    "android": "https://app.nextbike.net/station?id=516981056",
                    "ios": "https://app.nextbike.net/station?id=516981056",
                    "web": "https://nxtb.it/p/516981056"
                },
                "short_name": "47258",
                "station_id": "516981056",
                "vehicle_types_available": [
                    {
                        "count": 3,
                        "vehicle_type_id": "333"
                    }
                ]
            },
            "type": "Feature"
        },
        {
            "geometry": {
                "coordinates": [
                    14.65255,
                    49.63043
                ],
                "type": "Point"
            },
            "properties": {
                "capacity": 3,
                "is_installed": true,
                "is_renting": true,
                "is_returning": true,
                "is_virtual_station": false,
                "last_reported": 1789321757,
                "name": "Votice, Amerika",
                "num_bikes_available": 1,
                "num_docks_available": 2,
                "region_id": "1034",
                "rental_uris": {
                    "android": "https://app.nextbike.net/station?id=516981186",
                    "ios": "https://app.nextbike.net/station?id=516981186",
                    "web": "https://nxtb.it/p/516981186"
                },
                "short_name": "47259",
                "station_id": "516981186",
                "vehicle_types_available": [
                    {
                        "count": 1,
                        "vehicle_type_id": "333"
                    }
                ]
            },
            "type": "Feature"
        },
        {
            "geometry": {
                "coordinates": [
                    14.61145,
                    49.63943
                ],
                "type": "Point"
            },
            "properties": {
                "is_installed": true,
                "is_renting": true,
                "is_returning": true,
                "is_virtual_station": false,
                "last_reported": 1789321757,
                "name": "Votice, Beztahov",
                "num_bikes_available": 3,
                "num_docks_available": 0,
                "region_id": "1034",
                "rental_uris": {
                    "android": "https://app.nextbike.net/station?id=600805459",
                    "ios": "https://app.nextbike.net/station?id=600805459",
                    "web": "https://nxtb.it/p/600805459"
                },
                "short_name": "47144",
                "station_id": "600805459",
                "vehicle_types_available": [
                    {
                        "count": 2,
                        "vehicle_type_id": "333"
                    },
                    {
                        "count": 1,
                        "vehicle_type_id": "254"
                    }
                ]
            },
            "type": "Feature"
        },
        {
            "geometry": {
                "coordinates": [
                    14.64011,
                    49.63693
                ],
                "type": "Point"
            },
            "properties": {
                "is_installed": true,
                "is_renting": true,
                "is_returning": true,
                "is_virtual_station": false,
                "last_reported": 1789321757,
                "name": "Votice, Kl\u00e1\u0161ter sv. Franti\u0161ka",
                "num_bikes_available": 2,
                "num_docks_available": 0,
                "region_id": "1034",
                "rental_uris": {
                    "android": "https://app.nextbike.net/station?id=600805775",
                    "ios": "https://app.nextbike.net/station?id=600805775",
                    "web": "https://nxtb.it/p/600805775"
                },
                "short_name": "47146",
                "station_id": "600805775",
                "vehicle_types_available": [
                    {
                        "count": 2,
                        "vehicle_type_id": "333"
                    }
                ]
            },
            "type": "Feature"
        }
    ],
    "gbfs": {
        "station_information": {
            "last_updated": 1789321757,
            "ttl": 60,
            "version": "2.3"
        },
        "station_status": {
            "last_updated": 1789321757,
            "ttl": 60,
            "version": "2.3"
        }
    },
    "type": "FeatureCollection"
}