{
    "features": [
        {
            "geometry": {
                "coordinates": [
                    15.624812,
                    50.598691
                ],
                "type": "Point"
            },
            "properties": {
                "capacity": 10,
                "is_installed": true,
                "is_renting": true,
                "is_returning": true,
                "is_virtual_station": false,
                "last_reported": 1789133836,
                "name": "Po\u0161tovn\u00ed (+30 minut na odjezd)",
                "num_bikes_available": 5,
                "num_docks_available": 5,
                "region_id": "769",
                "rental_uris": {
                    "android": "https://app.nextbike.net/station?id=164636172",
                    "ios": "https://app.nextbike.net/station?id=164636172",
                    "web": "https://nxtb.it/p/164636172"
                },
                "short_name": "48514",
                "station_id": "164636172",
                "vehicle_types_available": [
                    {
                        "count": 1,
                        "vehicle_type_id": "184"
                    },
                    {
                        "count": 4,
                        "vehicle_type_id": "258"
                    }
                ]
            },
            "type": "Feature"
        },
        {
            "geometry": {
                "coordinates": [
                    15.608264,
                    50.618573
                ],
                "type": "Point"
            },
            "properties": {
                "capacity": 10,
                "is_installed": true,
                "is_renting": true,
                "is_returning": true,
                "is_virtual_station": false,
                "last_reported": 1789133836,
                "name": "Pra\u017esk\u00e1",
                "num_bikes_available": 0,
                "num_docks_available": 10,
                "region_id": "769",
                "rental_uris": {
                    "android": "https://app.nextbike.net/station?id=164636764",
                    "ios": "https://app.nextbike.net/station?id=164636764",
                    "web": "https://nxtb.it/p/164636764"
                },
                "short_name": "48515",
                "station_id": "164636764",
                "vehicle_types_available": []
            },
            "type": "Feature"
        },
        {
            "geometry": {
                "coordinates": [
                    15.603049,
                    50.619766
                ],
                "type": "Point"
            },
            "properties": {
                "capacity": 10,
                "is_installed": true,
                "is_renting": true,
                "is_returning": true,
                "is_virtual_station": false,
                "last_reported": 1789133836,
                "name": "Aquacentrum",
                "num_bikes_available": 6,
                "num_docks_available": 4,
                "region_id": "769",
                "rental_uris": {
                    "android": "https://app.nextbike.net/station?id=164636975",
                    "ios": "https://app.nextbike.net/station?id=164636975",
                    "web": "https://nxtb.it/p/164636975"
                },
                "short_name": "48516",
                "station_id": "164636975",
                "vehicle_types_available": [
                    {
                        "count": 1,
                        "vehicle_type_id": "184"
                    },
                    {
                        "count": 5,
                        "vehicle_type_id": "258"
                    }
                ]
            },
            "type": "Feature"
        },
        {
            "geometry": {
                "coordinates": [
                    15.659638,
                    50.632712
                ],
                "type": "Point"
            },
            "properties": {
                "capacity": 6,
                "is_installed": true,
                "is_renting": true,
                "is_returning": true,
                "is_virtual_station": false,
                "last_reported": 1789133836,
                "name": "Horn\u00ed L\u00e1nov (+15 minut na p\u0159\u00edjezd/odjezd)",
                "num_bikes_available": 2,
                "num_docks_available": 4,
                "region_id": "1083",
                "rental_uris": {
                    "android": "https://app.nextbike.net/station?id=398814600",
                    "ios": "https://app.nextbike.net/station?id=398814600",
                    "web": "https://nxtb.it/p/398814600"
                },
                "short_name": "46971",
                "station_id": "398814600",
                "vehicle_types_available": [
                    {
                        "count": 2,
                        "vehicle_type_id": "258"
                    }
                ]
            },
            "type": "Feature"
        },
        {
            "geometry": {
                "coordinates": [
                    15.656179,
                    50.620461
                ],
                "type": "Point"
            },
            "properties": {
                "capacity": 8,
                "is_installed": true,
                "is_renting": true,
                "is_returning": true,
                "is_virtual_station": false,
                "last_reported": 1789133836,
                "name": "Prost\u0159edn\u00ed L\u00e1nov (+15 minut na p\u0159\u00edjezd/odjezd)",
                "num_bikes_available": 3,
                "num_docks_available": 5,
                "region_id": "1083",
                "rental_uris": {
                    "android": "https://app.nextbike.net/station?id=398815431",
                    "ios": "https://app.nextbike.net/station?id=398815431",
                    "web": "https://nxtb.it/p/398815431"
                },
                "short_name": "46972",
                "station_id": "398815431",
                "vehicle_types_available": [
                    {
                        "count": 3,
                        "vehicle_type_id": "258"
                    }
                ]
            },
            "type": "Feature"
        },
        {
            "geometry": {
                "coordinates": [
                    15.60693,
                    50.64044
                ],
                "type": "Point"
            },
            "properties": {
                "capacity": 4,
                "is_installed": true,
                "is_renting": true,
                "is_returning": true,
                "is_virtual_station": false,
                "last_reported": 1789133836,
                "name": "Bucharova",
                "num_bikes_available": 4,
                "num_docks_available": 0,
                "region_id": "769",
                "rental_uris": {
                    "android": "https://app.nextbike.net/station?id=402685435",
                    "ios": "https://app.nextbike.net/station?id=402685435",
                    "web": "https://nxtb.it/p/402685435"
                },
                "short_name": "46973",
                "station_id": "402685435",
                "vehicle_types_available": [
                    {
                        "count": 4,
                        "vehicle_type_id": "258"
                    }
                ]
            },
            "type": "Feature"
        },
        {
            "geometry": {
                "coordinates": [
                    15.60455,
                    50.617128
                ],
                "type": "Point"
            },
            "properties": {
                "capacity": 10,
                "is_installed": true,
                "is_renting": true,
                "is_returning": true,
                "is_virtual_station": false,
                "last_reported": 1789133836,
                "name": "U Ka\u010d\u00e1ku",
                "num_bikes_available": 1,
                "num_docks_available": 9,
                "region_id": "769",
                "rental_uris": {
                    "android": "https://app.nextbike.net/station?id=521516166",
                    "ios": "https://app.nextbike.net/station?id=521516166",
                    "web": "https://nxtb.it/p/521516166"
                },
                "short_name": "48428",
                "station_id": "521516166",
                "vehicle_types_available": [
                    {
                        "count": 1,
                        "vehicle_type_id": "258"
                    }
                ]
            },
            "type": "Feature"
        },
        {
            "geometry": {
                "coordinates": [
                    15.624226,
                    50.621036
                ],
                "type": "Point"
            },
            "properties": {
                "capacity": 10,
                "is_installed": true,
                "is_renting": true,
                "is_returning": true,
                "is_virtual_station": false,
                "last_reported": 1789133836,
                "name": "Kaufland, Vrchlab\u00ed",
                "num_bikes_available": 1,
                "num_docks_available": 9,
                "region_id": "769",
                "rental_uris": {
                    "android": "https://app.nextbike.net/station?id=521516470",
                    "ios": "https://app.nextbike.net/station?id=521516470",
                    "web": "https://nxtb.it/p/521516470"
                },
                "short_name": "48429",
                "station_id": "521516470",
                "vehicle_types_available": [
                    {
                        "count": 1,
                        "vehicle_type_id": "258"
                    }
                ]
            },
            "type": "Feature"
        },
        {
            "geometry": {
                "coordinates": [
                    15.660076,
                    50.647339
                ],
                "type": "Point"
            },
            "properties": {
                "capacity": 4,
                "is_installed": true,
                "is_renting": true,
                "is_returning": true,
                "is_virtual_station": false,
                "last_reported": 1789133836,
                "name": "Doln\u00ed Dv\u016fr - odb. H\u00e1dek (+15 minut na p\u0159\u00edjezd/odjezd)",
                "num_bikes_available": 2,
                "num_docks_available": 2,
                "region_id": "769",
                "rental_uris": {
                    "android": "https://app.nextbike.net/station?id=522536181",
                    "ios": "https://app.nextbike.net/station?id=522536181",
                    "web": "https://nxtb.it/p/522536181"
                },
                "short_name": "46982",
                "station_id": "522536181",
                "vehicle_types_available": [
                    {
                        "count": 2,
                        "vehicle_type_id": "258"
                    }
                ]
            },
            "type": "Feature"
        },
        {
            "geometry": {
                "coordinates": [
                    15.659161,
                    50.660858
                ],
                "type": "Point"
            },
            "properties": {
                "capacity": 4,
                "is_installed": true,
                "is_renting": true,
                "is_returning": true,
                "is_virtual_station": false,
                "last_reported": 1789133836,
                "name": "Doln\u00ed Dv\u016fr - Chata U Jirky (+15 minut na p\u0159\u00edjezd/odjezd)",
                "num_bikes_available": 3,
                "num_docks_available": 1,
                "region_id": "769",
                "rental_uris": {
                    "android": "https://app.nextbike.net/station?id=522536409",
                    "ios": "https://app.nextbike.net/station?id=522536409",
                    "web": "https://nxtb.it/p/522536409"
                },
                "short_name": "46980",
                "station_id": "522536409",
                "vehicle_types_available": [
                    {
                        "count": 3,
                        "vehicle_type_id": "258"
                    }
                ]
            },
            "type": "Feature"
        },
        {
            "geometry": {
                "coordinates": [
                    15.65815,
                    50.64055
                ],
                "type": "Point"
            },
            "properties": {
                "capacity": 8,
                "is_installed": true,
                "is_renting": true,
                "is_returning": true,
                "is_virtual_station": false,
                "last_reported": 1789133836,
                "name": "Horn\u00ed L\u00e1nov, \u0161kolka (+15 min na p\u0159\u00edjezd/odjezd)",
                "num_bikes_available": 1,
                "num_docks_available": 7,
                "region_id": "1083",
                "rental_uris": {
                    "android": "https://app.nextbike.net/station?id=526052393",
                    "ios": "https://app.nextbike.net/station?id=526052393",
                    "web": "https://nxtb.it/p/526052393"
                },
                "short_name": "46981",
                "station_id": "526052393",
                "vehicle_types_available": [
                    {
                        "count": 1,
                        "vehicle_type_id": "258"
                    }
                ]
            },
            "type": "Feature"
        },
        {
            "geometry": {
                "coordinates": [
                    15.655621,
                    50.652268
                ],
                "type": "Point"
            },
            "properties": {
                "capacity": 4,
                "is_installed": true,
                "is_renting": true,
                "is_returning": true,
                "is_virtual_station": false,
                "last_reported": 1789133836,
                "name": "Doln\u00ed Dv\u016fr - n\u00e1m\u011bst\u00ed (+15 minut na p\u0159\u00edjezd/odjezd)",
                "num_bikes_available": 2,
                "num_docks_available": 2,
                "region_id": "769",
                "rental_uris": {
                    "android": "https://app.nextbike.net/station?id=606578363",
                    "ios": "https://app.nextbike.net/station?id=606578363",
                    "web": "https://nxtb.it/p/606578363"
                },
                "short_name": "46979",
                "station_id": "606578363",
                "vehicle_types_available": [
                    {
                        "count": 2,
                        "vehicle_type_id": "258"
                    }
                ]
            },
            "type": "Feature"
        },
        {
            "geometry": {
                "coordinates": [
                    15.664488,
                    50.619809
                ],
                "type": "Point"
            },
            "properties": {
                "capacity": 6,
                "is_installed": true,
                "is_renting": true,
                "is_returning": true,
                "is_virtual_station": false,
                "last_reported": 1789133836,
                "name": "Prost\u0159edn\u00ed L\u00e1nov, pumptrack (+15 minut na p\u0159\u00edjezd/odjezd)",
                "num_bikes_available": 2,
                "num_docks_available": 4,
                "region_id": "1083",
                "rental_uris": {
                    "android": "https://app.nextbike.net/station?id=606611335",
                    "ios": "https://app.nextbike.net/station?id=606611335",
                    "web": "https://nxtb.it/p/606611335"
                },
                "short_name": "48417",
                "station_id": "606611335",
                "vehicle_types_available": [
                    {
                        "count": 2,
                        "vehicle_type_id": "258"
                    }
                ]
            },
            "type": "Feature"
        },
        {
            "geometry": {
                "coordinates": [
                    15.621625,
                    50.614127
                ],
                "type": "Point"
            },
            "properties": {
                "capacity": 10,
                "is_installed": true,
                "is_renting": true,
                "is_returning": true,
                "is_virtual_station": false,
                "last_reported": 1789133836,
                "name": "\u0160koda Auto",
                "num_bikes_available": 2,
                "num_docks_available": 8,
                "region_id": "769",
                "rental_uris": {
                    "android": "https://app.nextbike.net/station?id=74852630",
                    "ios": "https://app.nextbike.net/station?id=74852630",
                    "web": "https://nxtb.it/p/74852630"
                },
                "short_name": "48500",
                "station_id": "74852630",
                "vehicle_types_available": [
                    {
                        "count": 2,
                        "vehicle_type_id": "258"
                    }
                ]
            },
            "type": "Feature"
        },
        {
            "geometry": {
                "coordinates": [
                    15.6222,
                    50.61875
                ],
                "type": "Point"
            },
            "properties": {
                "capacity": 10,
                "is_installed": true,
                "is_renting": true,
                "is_returning": true,
                "is_virtual_station": false,
                "last_reported": 1789133836,
                "name": "Vlakov\u00e9 n\u00e1dra\u017e\u00ed",
                "num_bikes_available": 0,
                "num_docks_available": 10,
                "region_id": "769",
                "rental_uris": {
                    "android": "https://app.nextbike.net/station?id=74852736",
                    "ios": "https://app.nextbike.net/station?id=74852736",
                    "web": "https://nxtb.it/p/74852736"
                },
                "short_name": "48501",
                "station_id": "74852736",
                "vehicle_types_available": []
            },
            "type": "Feature"
        },
        {
            "geometry": {
                "coordinates": [
                    15.61981,
                    50.62044
                ],
                "type": "Point"
            },
            "properties": {
                "capacity": 10,
                "is_installed": true,
                "is_renting": true,
                "is_returning": true,
                "is_virtual_station": false,
                "last_reported": 1789133836,
                "name": "Autobusov\u00e9 n\u00e1dra\u017e\u00ed",
                "num_bikes_available": 3,
                "num_docks_available": 7,
                "region_id": "769",
                "rental_uris": {
                    "android": "https://app.nextbike.net/station?id=74852829",
                    "ios": "https://app.nextbike.net/station?id=74852829",
                    "web": "https://nxtb.it/p/74852829"
                },
                "short_name": "48502",
                "station_id": "74852829",
                "vehicle_types_available": [
                    {
                        "count": 3,
                        "vehicle_type_id": "258"
                    }
                ]
            },
            "type": "Feature"
        },
        {
            "geometry": {
                "coordinates": [
                    15.61476,
                    50.61647
                ],
                "type": "Point"
            },
            "properties": {
                "capacity": 10,
                "is_installed": true,
                "is_renting": true,
                "is_returning": true,
                "is_virtual_station": false,
                "last_reported": 1789133836,
                "name": "Nerudova - Li\u0161\u010d\u00ed kopec",
                "num_bikes_available": 3,
                "num_docks_available": 7,
                "region_id": "769",
                "rental_uris": {
                    "android": "https://app.nextbike.net/station?id=74852962",
                    "ios": "https://app.nextbike.net/station?id=74852962",
                    "web": "https://nxtb.it/p/74852962"
                },
                "short_name": "48503",
                "station_id": "74852962",
                "vehicle_types_available": [
                    {
                        "count": 3,
                        "vehicle_type_id": "258"
                    }
                ]
            },
            "type": "Feature"
        },
        {
            "geometry": {
                "coordinates": [
                    15.61197,
                    50.62286
                ],
                "type": "Point"
            },
            "properties": {
                "capacity": 10,
                "is_installed": true,
                "is_renting": true,
                "is_returning": true,
                "is_virtual_station": false,
                "last_reported": 1789133836,
                "name": "Bus par\u010d\u00edk u Havla",
                "num_bikes_available": 0,
                "num_docks_available": 10,
                "region_id": "769",
                "rental_uris": {
                    "android": "https://app.nextbike.net/station?id=74853050",
                    "ios": "https://app.nextbike.net/station?id=74853050",
                    "web": "https://nxtb.it/p/74853050"
                },
                "short_name": "48504",
                "station_id": "74853050",
                "vehicle_types_available": []
            },
            "type": "Feature"
        },
        {
            "geometry": {
                "coordinates": [
                    15.61257,
                    50.6278
                ],
                "type": "Point"
            },
            "properties": {
                "capacity": 10,
                "is_installed": true,
                "is_renting": true,
                "is_returning": true,
                "is_virtual_station": false,
                "last_reported": 1789133836,
                "name": "N\u00e1plavka",
                "num_bikes_available": 1,
                "num_docks_available": 9,
                "region_id": "769",
                "rental_uris": {
                    "android": "https://app.nextbike.net/station?id=74853152",
                    "ios": "https://app.nextbike.net/station?id=74853152",
                    "web": "https://nxtb.it/p/74853152"
                },
                "short_name": "48505",
                "station_id": "74853152",
                "vehicle_types_available": [
                    {
                        "count": 1,
                        "vehicle_type_id": "258"
                    }
                ]
            },
            "type": "Feature"
        },
        {
            "geometry": {
                "coordinates": [
                    15.60965,
                    50.62786
                ],
                "type": "Point"
            },
            "properties": {
                "capacity": 10,
                "is_installed": true,
                "is_renting": true,
                "is_returning": true,
                "is_virtual_station": false,
                "last_reported": 1789133836,
                "name": "N\u00e1m\u011bst\u00ed Tom\u00e1\u0161e Garrigua Masaryka (+15 minut na p\u0159\u00edjezd)",
                "num_bikes_available": 0,
                "num_docks_available": 10,
                "region_id": "769",
                "rental_uris": {
                    "android": "https://app.nextbike.net/station?id=74853285",
                    "ios": "https://app.nextbike.net/station?id=74853285",
                    "web": "https://nxtb.it/p/74853285"
                },
                "short_name": "48506",
                "station_id": "74853285",
                "vehicle_types_available": []
            },
            "type": "Feature"
        },
        {
            "geometry": {
                "coordinates": [
                    15.60824,
                    50.62936
                ],
                "type": "Point"
            },
            "properties": {
                "capacity": 10,
                "is_installed": true,
                "is_renting": true,
                "is_returning": true,
                "is_virtual_station": false,
                "last_reported": 1789133836,
                "name": "N\u00e1m\u011bst\u00ed M\u00edru",
                "num_bikes_available": 0,
                "num_docks_available": 10,
                "region_id": "769",
                "rental_uris": {
                    "android": "https://app.nextbike.net/station?id=74853362",
                    "ios": "https://app.nextbike.net/station?id=74853362",
                    "web": "https://nxtb.it/p/74853362"
                },
                "short_name": "48507",
                "station_id": "74853362",
                "vehicle_types_available": []
            },
            "type": "Feature"
        },
        {
            "geometry": {
                "coordinates": [
                    15.61043,
                    50.63135
                ],
                "type": "Point"
            },
            "properties": {
                "capacity": 10,
                "is_installed": true,
                "is_renting": true,
                "is_returning": true,
                "is_virtual_station": false,
                "last_reported": 1789133836,
                "name": "Kulturn\u00ed centrum",
                "num_bikes_available": 1,
                "num_docks_available": 9,
                "region_id": "769",
                "rental_uris": {
                    "android": "https://app.nextbike.net/station?id=74853493",
                    "ios": "https://app.nextbike.net/station?id=74853493",
                    "web": "https://nxtb.it/p/74853493"
                },
                "short_name": "48508",
                "station_id": "74853493",
                "vehicle_types_available": [
                    {
                        "count": 1,
                        "vehicle_type_id": "258"
                    }
                ]
            },
            "type": "Feature"
        },
        {
            "geometry": {
                "coordinates": [
                    15.61524,
                    50.61873
                ],
                "type": "Point"
            },
            "properties": {
                "capacity": 10,
                "is_installed": true,
                "is_renting": true,
                "is_returning": true,
                "is_virtual_station": false,
                "last_reported": 1789133836,
                "name": "Tyr\u0161ova - U Komety",
                "num_bikes_available": 8,
                "num_docks_available": 2,
                "region_id": "769",
                "rental_uris": {
                    "android": "https://app.nextbike.net/station?id=74853667",
                    "ios": "https://app.nextbike.net/station?id=74853667",
                    "web": "https://nxtb.it/p/74853667"
                },
                "short_name": "48509",
                "station_id": "74853667",
                "vehicle_types_available": [
                    {
                        "count": 2,
                        "vehicle_type_id": "184"
                    },
                    {
                        "count": 6,
                        "vehicle_type_id": "258"
                    }
                ]
            },
            "type": "Feature"
        },
        {
            "geometry": {
                "coordinates": [
                    15.6084,
                    50.64519
                ],
                "type": "Point"
            },
            "properties": {
                "capacity": 10,
                "is_installed": true,
                "is_renting": true,
                "is_returning": true,
                "is_virtual_station": false,
                "last_reported": 1789133836,
                "name": "Ho\u0159ej\u0161\u00ed",
                "num_bikes_available": 5,
                "num_docks_available": 5,
                "region_id": "769",
                "rental_uris": {
                    "android": "https://app.nextbike.net/station?id=74853754",
                    "ios": "https://app.nextbike.net/station?id=74853754",
                    "web": "https://nxtb.it/p/74853754"
                },
                "short_name": "48510",
                "station_id": "74853754",
                "vehicle_types_available": [
                    {
                        "count": 5,
                        "vehicle_type_id": "258"
                    }
                ]
            },
            "type": "Feature"
        },
        {
            "geometry": {
                "coordinates": [
                    15.622786,
                    50.603642
                ],
                "type": "Point"
            },
            "properties": {
                "capacity": 10,
                "is_installed": true,
                "is_renting": true,
                "is_returning": true,
                "is_virtual_station": false,
                "last_reported": 1789133836,
                "name": "Harta (+30 minut na odjezd)",
                "num_bikes_available": 3,
                "num_docks_available": 7,
                "region_id": "769",
                "rental_uris": {
                    "android": "https://app.nextbike.net/station?id=82105513",
                    "ios": "https://app.nextbike.net/station?id=82105513",
                    "web": "https://nxtb.it/p/82105513"
                },
                "short_name": "48511",
                "station_id": "82105513",
                "vehicle_types_available": [
                    {
                        "count": 1,
                        "vehicle_type_id": "184"
                    },
                    {
                        "count": 2,
                        "vehicle_type_id": "258"
                    }
                ]
            },
            "type": "Feature"
        }
    ],
    "gbfs": {
        "station_information": {
            "last_updated": 1789133836,
            "ttl": 60,
            "version": "2.3"
        },
        "station_status": {
            "last_updated": 1789133836,
            "ttl": 60,
            "version": "2.3"
        }
    },
    "type": "FeatureCollection"
}