{
    "features": [
        {
            "geometry": {
                "coordinates": [
                    -0.61822,
                    45.7488
                ],
                "type": "Point"
            },
            "properties": {
                "capacity": 10,
                "is_charging_station": true,
                "is_installed": true,
                "is_renting": true,
                "is_returning": true,
                "is_valet_station": false,
                "is_virtual_station": false,
                "last_reported": 1789335484,
                "name": "Gare SNCF Saintes",
                "num_bikes_available": 0,
                "num_docks_available": 10,
                "rental_uris": {
                    "android": "%!(EXTRA string=ciaq8kgk59geca2m86qg)",
                    "ios": "%!(EXTRA string=ciaq8kgk59geca2m86qg)"
                },
                "station_id": "ciaq8kgk59geca2m86qg",
                "vehicle_type_capacity": {
                    "1": 10
                },
                "vehicle_types_available": [
                    {
                        "count": 0,
                        "vehicle_type_id": "1"
                    }
                ]
            },
            "type": "Feature"
        },
        {
            "geometry": {
                "coordinates": [
                    -0.630484,
                    45.744973
                ],
                "type": "Point"
            },
            "properties": {
                "capacity": 10,
                "is_charging_station": false,
                "is_installed": true,
                "is_renting": true,
                "is_returning": true,
                "is_valet_station": false,
                "is_virtual_station": false,
                "last_reported": 1789335484,
                "name": "Saintes Saint Pierre",
                "num_bikes_available": 0,
                "num_docks_available": 9,
                "rental_uris": {
                    "android": "%!(EXTRA string=cnkth4b3t7rm29d8trg0)",
                    "ios": "%!(EXTRA string=cnkth4b3t7rm29d8trg0)"
                },
                "station_id": "cnkth4b3t7rm29d8trg0",
                "vehicle_type_capacity": {
                    "1": 10
                },
                "vehicle_types_available": [
                    {
                        "count": 0,
                        "vehicle_type_id": "1"
                    }
                ]
            },
            "type": "Feature"
        },
        {
            "geometry": {
                "coordinates": [
                    -0.625634,
                    45.743461
                ],
                "type": "Point"
            },
            "properties": {
                "capacity": 13,
                "is_charging_station": false,
                "is_installed": true,
                "is_renting": true,
                "is_returning": true,
                "is_valet_station": false,
                "is_virtual_station": false,
                "last_reported": 1789335484,
                "name": "Saintes Auberge de Jeunesse ",
                "num_bikes_available": 0,
                "num_docks_available": 11,
                "rental_uris": {
                    "android": "%!(EXTRA string=cpt825thulempedcdurg)",
                    "ios": "%!(EXTRA string=cpt825thulempedcdurg)"
                },
                "station_id": "cpt825thulempedcdurg",
                "vehicle_type_capacity": {
                    "1": 13
                },
                "vehicle_types_available": [
                    {
                        "count": 0,
                        "vehicle_type_id": "1"
                    }
                ]
            },
            "type": "Feature"
        },
        {
            "geometry": {
                "coordinates": [
                    -0.6232,
                    45.7466
                ],
                "type": "Point"
            },
            "properties": {
                "capacity": 13,
                "is_charging_station": false,
                "is_installed": true,
                "is_renting": true,
                "is_returning": true,
                "is_valet_station": false,
                "is_virtual_station": false,
                "last_reported": 1789335484,
                "name": "Saintes Perat",
                "num_bikes_available": 0,
                "num_docks_available": 11,
                "rental_uris": {
                    "android": "%!(EXTRA string=cpt86peqljcl46l2jiqg)",
                    "ios": "%!(EXTRA string=cpt86peqljcl46l2jiqg)"
                },
                "station_id": "cpt86peqljcl46l2jiqg",
                "vehicle_type_capacity": {
                    "1": 13
                },
                "vehicle_types_available": [
                    {
                        "count": 0,
                        "vehicle_type_id": "1"
                    }
                ]
            },
            "type": "Feature"
        },
        {
            "geometry": {
                "coordinates": [
                    -0.6427,
                    45.7385
                ],
                "type": "Point"
            },
            "properties": {
                "capacity": 13,
                "is_charging_station": false,
                "is_installed": true,
                "is_renting": true,
                "is_returning": true,
                "is_valet_station": false,
                "is_virtual_station": false,
                "last_reported": 1789335484,
                "name": "Saintes Lyc\u00e9e Bellevue",
                "num_bikes_available": 2,
                "num_docks_available": 4,
                "rental_uris": {
                    "android": "%!(EXTRA string=cpt8kethulempedcfqdg)",
                    "ios": "%!(EXTRA string=cpt8kethulempedcfqdg)"
                },
                "station_id": "cpt8kethulempedcfqdg",
                "vehicle_type_capacity": {
                    "1": 12
                },
                "vehicle_types_available": [
                    {
                        "count": 2,
                        "vehicle_type_id": "1"
                    }
                ]
            },
            "type": "Feature"
        },
        {
            "geometry": {
                "coordinates": [
                    -0.6434,
                    45.733
                ],
                "type": "Point"
            },
            "properties": {
                "capacity": 13,
                "is_charging_station": false,
                "is_installed": true,
                "is_renting": false,
                "is_returning": false,
                "is_valet_station": false,
                "is_virtual_station": true,
                "last_reported": 1789335484,
                "name": "Saintes Bellevue",
                "num_bikes_available": 0,
                "num_docks_available": 0,
                "rental_uris": {
                    "android": "%!(EXTRA string=cpt8mpeqljcl46l2lao0)",
                    "ios": "%!(EXTRA string=cpt8mpeqljcl46l2lao0)"
                },
                "station_id": "cpt8mpeqljcl46l2lao0",
                "vehicle_type_capacity": {
                    "1": 0
                },
                "vehicle_types_available": [
                    {
                        "count": 0,
                        "vehicle_type_id": "1"
                    }
                ]
            },
            "type": "Feature"
        },
        {
            "geometry": {
                "coordinates": [
                    -0.656735,
                    45.746364
                ],
                "type": "Point"
            },
            "properties": {
                "capacity": 13,
                "is_charging_station": false,
                "is_installed": true,
                "is_renting": true,
                "is_returning": true,
                "is_valet_station": false,
                "is_virtual_station": false,
                "last_reported": 1789335484,
                "name": "Saintes H\u00f4pital ",
                "num_bikes_available": 6,
                "num_docks_available": 4,
                "rental_uris": {
                    "android": "%!(EXTRA string=cpt8u9dhulempedcgsog)",
                    "ios": "%!(EXTRA string=cpt8u9dhulempedcgsog)"
                },
                "station_id": "cpt8u9dhulempedcgsog",
                "vehicle_type_capacity": {
                    "1": 8
                },
                "vehicle_types_available": [
                    {
                        "count": 6,
                        "vehicle_type_id": "1"
                    }
                ]
            },
            "type": "Feature"
        },
        {
            "geometry": {
                "coordinates": [
                    -0.6145,
                    45.7365
                ],
                "type": "Point"
            },
            "properties": {
                "capacity": 13,
                "is_charging_station": false,
                "is_installed": true,
                "is_renting": true,
                "is_returning": true,
                "is_valet_station": false,
                "is_virtual_station": false,
                "last_reported": 1789335484,
                "name": "Saintes Lyc\u00e9e Palissy",
                "num_bikes_available": 0,
                "num_docks_available": 13,
                "rental_uris": {
                    "android": "%!(EXTRA string=cpt9p9eqljcl46l2peo0)",
                    "ios": "%!(EXTRA string=cpt9p9eqljcl46l2peo0)"
                },
                "station_id": "cpt9p9eqljcl46l2peo0",
                "vehicle_type_capacity": {
                    "1": 13
                },
                "vehicle_types_available": [
                    {
                        "count": 0,
                        "vehicle_type_id": "1"
                    }
                ]
            },
            "type": "Feature"
        },
        {
            "geometry": {
                "coordinates": [
                    -0.638352,
                    45.745868
                ],
                "type": "Point"
            },
            "properties": {
                "capacity": 13,
                "is_charging_station": false,
                "is_installed": true,
                "is_renting": true,
                "is_returning": true,
                "is_valet_station": false,
                "is_virtual_station": false,
                "last_reported": 1789335484,
                "name": "Saintes Gare Routi\u00e8re ",
                "num_bikes_available": 0,
                "num_docks_available": 8,
                "rental_uris": {
                    "android": "%!(EXTRA string=cq2iqf8kafqphbb4gbig)",
                    "ios": "%!(EXTRA string=cq2iqf8kafqphbb4gbig)"
                },
                "station_id": "cq2iqf8kafqphbb4gbig",
                "vehicle_type_capacity": {
                    "1": 13
                },
                "vehicle_types_available": [
                    {
                        "count": 0,
                        "vehicle_type_id": "1"
                    }
                ]
            },
            "type": "Feature"
        },
        {
            "geometry": {
                "coordinates": [
                    -0.66236,
                    45.7207
                ],
                "type": "Point"
            },
            "properties": {
                "capacity": 10,
                "is_charging_station": true,
                "is_installed": true,
                "is_renting": true,
                "is_returning": true,
                "is_valet_station": false,
                "is_virtual_station": false,
                "last_reported": 1789335484,
                "name": "Saintes - Chadignac",
                "num_bikes_available": 1,
                "num_docks_available": 9,
                "rental_uris": {
                    "android": "%!(EXTRA string=st_d3obmgltgf7s739ns750)",
                    "ios": "%!(EXTRA string=st_d3obmgltgf7s739ns750)"
                },
                "station_id": "st_d3obmgltgf7s739ns750",
                "vehicle_type_capacity": {
                    "1": 10
                },
                "vehicle_types_available": [
                    {
                        "count": 1,
                        "vehicle_type_id": "1"
                    }
                ]
            },
            "type": "Feature"
        }
    ],
    "gbfs": {
        "station_information": {
            "last_updated": 1789335449,
            "ttl": 60,
            "version": "2.2"
        },
        "station_status": {
            "last_updated": 1789335484,
            "ttl": 60,
            "version": "2.2"
        }
    },
    "type": "FeatureCollection"
}