{
    "features": [
        {
            "geometry": {
                "coordinates": [
                    17.734646,
                    49.547897
                ],
                "type": "Point"
            },
            "properties": {
                "is_installed": true,
                "is_renting": true,
                "is_returning": true,
                "is_virtual_station": false,
                "last_reported": 1789139568,
                "name": "Masarykovo n\u00e1m\u011bst\u00ed",
                "num_bikes_available": 1,
                "num_docks_available": 0,
                "region_id": "1309",
                "rental_uris": {
                    "android": "https://app.nextbike.net/station?id=607621643",
                    "ios": "https://app.nextbike.net/station?id=607621643",
                    "web": "https://nxtb.it/p/607621643"
                },
                "short_name": "495601",
                "station_id": "607621643",
                "vehicle_types_available": [
                    {
                        "count": 1,
                        "vehicle_type_id": "184"
                    }
                ]
            },
            "type": "Feature"
        },
        {
            "geometry": {
                "coordinates": [
                    17.743027,
                    49.56522
                ],
                "type": "Point"
            },
            "properties": {
                "is_installed": true,
                "is_renting": true,
                "is_returning": true,
                "is_virtual_station": false,
                "last_reported": 1789139568,
                "name": "Vlakov\u00e9 n\u00e1dra\u017e\u00ed",
                "num_bikes_available": 0,
                "num_docks_available": 0,
                "region_id": "1309",
                "rental_uris": {
                    "android": "https://app.nextbike.net/station?id=607621709",
                    "ios": "https://app.nextbike.net/station?id=607621709",
                    "web": "https://nxtb.it/p/607621709"
                },
                "short_name": "495603",
                "station_id": "607621709",
                "vehicle_types_available": []
            },
            "type": "Feature"
        },
        {
            "geometry": {
                "coordinates": [
                    17.740627,
                    49.562931
                ],
                "type": "Point"
            },
            "properties": {
                "is_installed": true,
                "is_renting": true,
                "is_returning": true,
                "is_virtual_station": false,
                "last_reported": 1789139568,
                "name": "Autobusov\u00e9 n\u00e1dra\u017e\u00ed",
                "num_bikes_available": 8,
                "num_docks_available": 0,
                "region_id": "1309",
                "rental_uris": {
                    "android": "https://app.nextbike.net/station?id=607621760",
                    "ios": "https://app.nextbike.net/station?id=607621760",
                    "web": "https://nxtb.it/p/607621760"
                },
                "short_name": "495604",
                "station_id": "607621760",
                "vehicle_types_available": [
                    {
                        "count": 8,
                        "vehicle_type_id": "184"
                    }
                ]
            },
            "type": "Feature"
        },
        {
            "geometry": {
                "coordinates": [
                    17.74153,
                    49.54577
                ],
                "type": "Point"
            },
            "properties": {
                "is_installed": true,
                "is_renting": true,
                "is_returning": true,
                "is_virtual_station": false,
                "last_reported": 1789139568,
                "name": "Hranice, m\u011bsto",
                "num_bikes_available": 5,
                "num_docks_available": 0,
                "region_id": "1309",
                "rental_uris": {
                    "android": "https://app.nextbike.net/station?id=607621798",
                    "ios": "https://app.nextbike.net/station?id=607621798",
                    "web": "https://nxtb.it/p/607621798"
                },
                "short_name": "495605",
                "station_id": "607621798",
                "vehicle_types_available": [
                    {
                        "count": 5,
                        "vehicle_type_id": "184"
                    }
                ]
            },
            "type": "Feature"
        },
        {
            "geometry": {
                "coordinates": [
                    17.745537,
                    49.55574
                ],
                "type": "Point"
            },
            "properties": {
                "is_installed": true,
                "is_renting": true,
                "is_returning": true,
                "is_virtual_station": false,
                "last_reported": 1789139568,
                "name": "Nemocnice",
                "num_bikes_available": 3,
                "num_docks_available": 0,
                "region_id": "1309",
                "rental_uris": {
                    "android": "https://app.nextbike.net/station?id=607621824",
                    "ios": "https://app.nextbike.net/station?id=607621824",
                    "web": "https://nxtb.it/p/607621824"
                },
                "short_name": "495606",
                "station_id": "607621824",
                "vehicle_types_available": [
                    {
                        "count": 3,
                        "vehicle_type_id": "184"
                    }
                ]
            },
            "type": "Feature"
        },
        {
            "geometry": {
                "coordinates": [
                    17.72526,
                    49.54501
                ],
                "type": "Point"
            },
            "properties": {
                "is_installed": true,
                "is_renting": true,
                "is_returning": true,
                "is_virtual_station": false,
                "last_reported": 1789139568,
                "name": "Sportovn\u00ed are\u00e1l",
                "num_bikes_available": 2,
                "num_docks_available": 0,
                "region_id": "1309",
                "rental_uris": {
                    "android": "https://app.nextbike.net/station?id=607621858",
                    "ios": "https://app.nextbike.net/station?id=607621858",
                    "web": "https://nxtb.it/p/607621858"
                },
                "short_name": "495607",
                "station_id": "607621858",
                "vehicle_types_available": [
                    {
                        "count": 2,
                        "vehicle_type_id": "184"
                    }
                ]
            },
            "type": "Feature"
        },
        {
            "geometry": {
                "coordinates": [
                    17.7386,
                    49.553051
                ],
                "type": "Point"
            },
            "properties": {
                "is_installed": true,
                "is_renting": true,
                "is_returning": true,
                "is_virtual_station": false,
                "last_reported": 1789139568,
                "name": "Zborovsk\u00e1",
                "num_bikes_available": 5,
                "num_docks_available": 0,
                "region_id": "1309",
                "rental_uris": {
                    "android": "https://app.nextbike.net/station?id=607622001",
                    "ios": "https://app.nextbike.net/station?id=607622001",
                    "web": "https://nxtb.it/p/607622001"
                },
                "short_name": "495608",
                "station_id": "607622001",
                "vehicle_types_available": [
                    {
                        "count": 5,
                        "vehicle_type_id": "184"
                    }
                ]
            },
            "type": "Feature"
        },
        {
            "geometry": {
                "coordinates": [
                    17.735165,
                    49.551903
                ],
                "type": "Point"
            },
            "properties": {
                "is_installed": true,
                "is_renting": true,
                "is_returning": true,
                "is_virtual_station": false,
                "last_reported": 1789139568,
                "name": "T\u0159. 1. m\u00e1je",
                "num_bikes_available": 3,
                "num_docks_available": 0,
                "region_id": "1309",
                "rental_uris": {
                    "android": "https://app.nextbike.net/station?id=607622399",
                    "ios": "https://app.nextbike.net/station?id=607622399",
                    "web": "https://nxtb.it/p/607622399"
                },
                "short_name": "495609",
                "station_id": "607622399",
                "vehicle_types_available": [
                    {
                        "count": 3,
                        "vehicle_type_id": "184"
                    }
                ]
            },
            "type": "Feature"
        },
        {
            "geometry": {
                "coordinates": [
                    17.733984,
                    49.546341
                ],
                "type": "Point"
            },
            "properties": {
                "is_installed": true,
                "is_renting": true,
                "is_returning": true,
                "is_virtual_station": false,
                "last_reported": 1789139568,
                "name": "\u0160koln\u00ed n\u00e1m\u011bst\u00ed",
                "num_bikes_available": 3,
                "num_docks_available": 0,
                "region_id": "1309",
                "rental_uris": {
                    "android": "https://app.nextbike.net/station?id=607622436",
                    "ios": "https://app.nextbike.net/station?id=607622436",
                    "web": "https://nxtb.it/p/607622436"
                },
                "short_name": "495610",
                "station_id": "607622436",
                "vehicle_types_available": [
                    {
                        "count": 3,
                        "vehicle_type_id": "184"
                    }
                ]
            },
            "type": "Feature"
        },
        {
            "geometry": {
                "coordinates": [
                    17.72821,
                    49.553871
                ],
                "type": "Point"
            },
            "properties": {
                "is_installed": true,
                "is_renting": true,
                "is_returning": true,
                "is_virtual_station": false,
                "last_reported": 1789139568,
                "name": "Struhlovsko",
                "num_bikes_available": 0,
                "num_docks_available": 0,
                "region_id": "1309",
                "rental_uris": {
                    "android": "https://app.nextbike.net/station?id=607622473",
                    "ios": "https://app.nextbike.net/station?id=607622473",
                    "web": "https://nxtb.it/p/607622473"
                },
                "short_name": "495611",
                "station_id": "607622473",
                "vehicle_types_available": []
            },
            "type": "Feature"
        },
        {
            "geometry": {
                "coordinates": [
                    17.742477,
                    49.555668
                ],
                "type": "Point"
            },
            "properties": {
                "is_installed": true,
                "is_renting": true,
                "is_returning": true,
                "is_virtual_station": false,
                "last_reported": 1789139568,
                "name": "Hrom\u016fvka",
                "num_bikes_available": 2,
                "num_docks_available": 0,
                "region_id": "1309",
                "rental_uris": {
                    "android": "https://app.nextbike.net/station?id=607622503",
                    "ios": "https://app.nextbike.net/station?id=607622503",
                    "web": "https://nxtb.it/p/607622503"
                },
                "short_name": "495612",
                "station_id": "607622503",
                "vehicle_types_available": [
                    {
                        "count": 2,
                        "vehicle_type_id": "184"
                    }
                ]
            },
            "type": "Feature"
        },
        {
            "geometry": {
                "coordinates": [
                    17.729933,
                    49.551422
                ],
                "type": "Point"
            },
            "properties": {
                "is_installed": true,
                "is_renting": true,
                "is_returning": true,
                "is_virtual_station": false,
                "last_reported": 1789139568,
                "name": "Studentsk\u00e1, Billa",
                "num_bikes_available": 2,
                "num_docks_available": 0,
                "region_id": "1309",
                "rental_uris": {
                    "android": "https://app.nextbike.net/station?id=607622548",
                    "ios": "https://app.nextbike.net/station?id=607622548",
                    "web": "https://nxtb.it/p/607622548"
                },
                "short_name": "495613",
                "station_id": "607622548",
                "vehicle_types_available": [
                    {
                        "count": 2,
                        "vehicle_type_id": "184"
                    }
                ]
            },
            "type": "Feature"
        },
        {
            "geometry": {
                "coordinates": [
                    17.7313,
                    49.544407
                ],
                "type": "Point"
            },
            "properties": {
                "is_installed": true,
                "is_renting": true,
                "is_returning": true,
                "is_virtual_station": false,
                "last_reported": 1789139568,
                "name": "Sady \u010cs. legi\u00ed",
                "num_bikes_available": 1,
                "num_docks_available": 0,
                "region_id": "1309",
                "rental_uris": {
                    "android": "https://app.nextbike.net/station?id=607622588",
                    "ios": "https://app.nextbike.net/station?id=607622588",
                    "web": "https://nxtb.it/p/607622588"
                },
                "short_name": "495614",
                "station_id": "607622588",
                "vehicle_types_available": [
                    {
                        "count": 1,
                        "vehicle_type_id": "184"
                    }
                ]
            },
            "type": "Feature"
        },
        {
            "geometry": {
                "coordinates": [
                    17.733078,
                    49.554485
                ],
                "type": "Point"
            },
            "properties": {
                "is_installed": true,
                "is_renting": true,
                "is_returning": true,
                "is_virtual_station": false,
                "last_reported": 1789139568,
                "name": "Na Hr\u00e1zi",
                "num_bikes_available": 0,
                "num_docks_available": 0,
                "region_id": "1309",
                "rental_uris": {
                    "android": "https://app.nextbike.net/station?id=607622627",
                    "ios": "https://app.nextbike.net/station?id=607622627",
                    "web": "https://nxtb.it/p/607622627"
                },
                "short_name": "495615",
                "station_id": "607622627",
                "vehicle_types_available": []
            },
            "type": "Feature"
        },
        {
            "geometry": {
                "coordinates": [
                    17.740265,
                    49.557667
                ],
                "type": "Point"
            },
            "properties": {
                "is_installed": true,
                "is_renting": true,
                "is_returning": true,
                "is_virtual_station": false,
                "last_reported": 1789139568,
                "name": "Kaufland",
                "num_bikes_available": 2,
                "num_docks_available": 0,
                "region_id": "1309",
                "rental_uris": {
                    "android": "https://app.nextbike.net/station?id=607622671",
                    "ios": "https://app.nextbike.net/station?id=607622671",
                    "web": "https://nxtb.it/p/607622671"
                },
                "short_name": "495616",
                "station_id": "607622671",
                "vehicle_types_available": [
                    {
                        "count": 2,
                        "vehicle_type_id": "184"
                    }
                ]
            },
            "type": "Feature"
        },
        {
            "geometry": {
                "coordinates": [
                    17.749105,
                    49.55716
                ],
                "type": "Point"
            },
            "properties": {
                "is_installed": true,
                "is_renting": true,
                "is_returning": true,
                "is_virtual_station": false,
                "last_reported": 1789139568,
                "name": "Albert Hypermarket",
                "num_bikes_available": 2,
                "num_docks_available": 0,
                "region_id": "1309",
                "rental_uris": {
                    "android": "https://app.nextbike.net/station?id=607622705",
                    "ios": "https://app.nextbike.net/station?id=607622705",
                    "web": "https://nxtb.it/p/607622705"
                },
                "short_name": "495617",
                "station_id": "607622705",
                "vehicle_types_available": [
                    {
                        "count": 2,
                        "vehicle_type_id": "184"
                    }
                ]
            },
            "type": "Feature"
        },
        {
            "geometry": {
                "coordinates": [
                    17.734394,
                    49.558083
                ],
                "type": "Point"
            },
            "properties": {
                "is_installed": true,
                "is_renting": true,
                "is_returning": true,
                "is_virtual_station": false,
                "last_reported": 1789139568,
                "name": "Hru\u0161ka, 1. m\u00e1je",
                "num_bikes_available": 4,
                "num_docks_available": 0,
                "region_id": "1309",
                "rental_uris": {
                    "android": "https://app.nextbike.net/station?id=607622750",
                    "ios": "https://app.nextbike.net/station?id=607622750",
                    "web": "https://nxtb.it/p/607622750"
                },
                "short_name": "495618",
                "station_id": "607622750",
                "vehicle_types_available": [
                    {
                        "count": 4,
                        "vehicle_type_id": "184"
                    }
                ]
            },
            "type": "Feature"
        },
        {
            "geometry": {
                "coordinates": [
                    17.733871,
                    49.544887
                ],
                "type": "Point"
            },
            "properties": {
                "is_installed": true,
                "is_renting": true,
                "is_returning": true,
                "is_virtual_station": false,
                "last_reported": 1789139568,
                "name": "Krop\u00e1\u010dova",
                "num_bikes_available": 2,
                "num_docks_available": 0,
                "region_id": "1309",
                "rental_uris": {
                    "android": "https://app.nextbike.net/station?id=607622770",
                    "ios": "https://app.nextbike.net/station?id=607622770",
                    "web": "https://nxtb.it/p/607622770"
                },
                "short_name": "495619",
                "station_id": "607622770",
                "vehicle_types_available": [
                    {
                        "count": 2,
                        "vehicle_type_id": "184"
                    }
                ]
            },
            "type": "Feature"
        },
        {
            "geometry": {
                "coordinates": [
                    17.740582,
                    49.539722
                ],
                "type": "Point"
            },
            "properties": {
                "is_installed": true,
                "is_renting": true,
                "is_returning": true,
                "is_virtual_station": false,
                "last_reported": 1789139568,
                "name": "Sportovn\u00ed hala NAPARIA",
                "num_bikes_available": 2,
                "num_docks_available": 0,
                "region_id": "1309",
                "rental_uris": {
                    "android": "https://app.nextbike.net/station?id=607622810",
                    "ios": "https://app.nextbike.net/station?id=607622810",
                    "web": "https://nxtb.it/p/607622810"
                },
                "short_name": "495620",
                "station_id": "607622810",
                "vehicle_types_available": [
                    {
                        "count": 2,
                        "vehicle_type_id": "184"
                    }
                ]
            },
            "type": "Feature"
        },
        {
            "geometry": {
                "coordinates": [
                    17.719439,
                    49.569748
                ],
                "type": "Point"
            },
            "properties": {
                "is_installed": true,
                "is_renting": true,
                "is_returning": true,
                "is_virtual_station": false,
                "last_reported": 1789139568,
                "name": "Velk\u00e1 (+15 min na p\u0159\u00edjezd/odjezd)",
                "num_bikes_available": 2,
                "num_docks_available": 0,
                "region_id": "1309",
                "rental_uris": {
                    "android": "https://app.nextbike.net/station?id=607622842",
                    "ios": "https://app.nextbike.net/station?id=607622842",
                    "web": "https://nxtb.it/p/607622842"
                },
                "short_name": "495621",
                "station_id": "607622842",
                "vehicle_types_available": [
                    {
                        "count": 2,
                        "vehicle_type_id": "184"
                    }
                ]
            },
            "type": "Feature"
        },
        {
            "geometry": {
                "coordinates": [
                    17.689518,
                    49.534111
                ],
                "type": "Point"
            },
            "properties": {
                "is_installed": true,
                "is_renting": true,
                "is_returning": true,
                "is_virtual_station": false,
                "last_reported": 1789139568,
                "name": "Ryb\u00e1\u0159e (+15 min na p\u0159\u00edjezd/odjezd)",
                "num_bikes_available": 2,
                "num_docks_available": 0,
                "region_id": "1309",
                "rental_uris": {
                    "android": "https://app.nextbike.net/station?id=607623129",
                    "ios": "https://app.nextbike.net/station?id=607623129",
                    "web": "https://nxtb.it/p/607623129"
                },
                "short_name": "495622",
                "station_id": "607623129",
                "vehicle_types_available": [
                    {
                        "count": 2,
                        "vehicle_type_id": "184"
                    }
                ]
            },
            "type": "Feature"
        },
        {
            "geometry": {
                "coordinates": [
                    17.683439,
                    49.552486
                ],
                "type": "Point"
            },
            "properties": {
                "is_installed": true,
                "is_renting": true,
                "is_returning": true,
                "is_virtual_station": false,
                "last_reported": 1789139568,
                "name": "Drahotu\u0161e, n\u00e1dra\u017e\u00ed (+15 min na p\u0159\u00edjezd/odjezd)",
                "num_bikes_available": 2,
                "num_docks_available": 0,
                "region_id": "1309",
                "rental_uris": {
                    "android": "https://app.nextbike.net/station?id=607623215",
                    "ios": "https://app.nextbike.net/station?id=607623215",
                    "web": "https://nxtb.it/p/607623215"
                },
                "short_name": "495623",
                "station_id": "607623215",
                "vehicle_types_available": [
                    {
                        "count": 2,
                        "vehicle_type_id": "184"
                    }
                ]
            },
            "type": "Feature"
        },
        {
            "geometry": {
                "coordinates": [
                    17.694244,
                    49.549351
                ],
                "type": "Point"
            },
            "properties": {
                "is_installed": true,
                "is_renting": true,
                "is_returning": true,
                "is_virtual_station": false,
                "last_reported": 1789139568,
                "name": "Drahotu\u0161e, n\u00e1m\u011bst\u00ed (+15 min na p\u0159\u00edjezd/odjezd)",
                "num_bikes_available": 2,
                "num_docks_available": 0,
                "region_id": "1309",
                "rental_uris": {
                    "android": "https://app.nextbike.net/station?id=607623250",
                    "ios": "https://app.nextbike.net/station?id=607623250",
                    "web": "https://nxtb.it/p/607623250"
                },
                "short_name": "495624",
                "station_id": "607623250",
                "vehicle_types_available": [
                    {
                        "count": 2,
                        "vehicle_type_id": "184"
                    }
                ]
            },
            "type": "Feature"
        },
        {
            "geometry": {
                "coordinates": [
                    17.74734,
                    49.533554
                ],
                "type": "Point"
            },
            "properties": {
                "is_installed": true,
                "is_renting": true,
                "is_returning": true,
                "is_virtual_station": false,
                "last_reported": 1789139568,
                "name": "L\u00e1zn\u011b Teplice nad Be\u010dvou",
                "num_bikes_available": 2,
                "num_docks_available": 0,
                "region_id": "1309",
                "rental_uris": {
                    "android": "https://app.nextbike.net/station?id=607623295",
                    "ios": "https://app.nextbike.net/station?id=607623295",
                    "web": "https://nxtb.it/p/607623295"
                },
                "short_name": "495625",
                "station_id": "607623295",
                "vehicle_types_available": [
                    {
                        "count": 2,
                        "vehicle_type_id": "184"
                    }
                ]
            },
            "type": "Feature"
        },
        {
            "geometry": {
                "coordinates": [
                    17.750484,
                    49.548298
                ],
                "type": "Point"
            },
            "properties": {
                "is_installed": true,
                "is_renting": true,
                "is_returning": true,
                "is_virtual_station": false,
                "last_reported": 1789139568,
                "name": "Domov senior\u016f",
                "num_bikes_available": 2,
                "num_docks_available": 0,
                "region_id": "1309",
                "rental_uris": {
                    "android": "https://app.nextbike.net/station?id=624030222",
                    "ios": "https://app.nextbike.net/station?id=624030222",
                    "web": "https://nxtb.it/p/624030222"
                },
                "short_name": "495626",
                "station_id": "624030222",
                "vehicle_types_available": [
                    {
                        "count": 2,
                        "vehicle_type_id": "184"
                    }
                ]
            },
            "type": "Feature"
        },
        {
            "geometry": {
                "coordinates": [
                    17.749372,
                    49.560009
                ],
                "type": "Point"
            },
            "properties": {
                "is_installed": true,
                "is_renting": true,
                "is_returning": true,
                "is_virtual_station": false,
                "last_reported": 1789139568,
                "name": "S\u0160 Zdravotnick\u00e1",
                "num_bikes_available": 1,
                "num_docks_available": 0,
                "region_id": "1309",
                "rental_uris": {
                    "android": "https://app.nextbike.net/station?id=624030545",
                    "ios": "https://app.nextbike.net/station?id=624030545",
                    "web": "https://nxtb.it/p/624030545"
                },
                "short_name": "495627",
                "station_id": "624030545",
                "vehicle_types_available": [
                    {
                        "count": 1,
                        "vehicle_type_id": "184"
                    }
                ]
            },
            "type": "Feature"
        },
        {
            "geometry": {
                "coordinates": [
                    17.72216,
                    49.539318
                ],
                "type": "Point"
            },
            "properties": {
                "capacity": 4,
                "is_installed": true,
                "is_renting": true,
                "is_returning": true,
                "is_virtual_station": true,
                "last_reported": 1789139568,
                "name": "Bikefest",
                "num_bikes_available": 0,
                "num_docks_available": 4,
                "region_id": "1309",
                "rental_uris": {
                    "android": "https://app.nextbike.net/station?id=645247868",
                    "ios": "https://app.nextbike.net/station?id=645247868",
                    "web": "https://nxtb.it/p/645247868"
                },
                "short_name": "495852",
                "station_area": {
                    "coordinates": [
                        [
                            [
                                [
                                    17.72216,
                                    49.539543
                                ],
                                [
                                    17.72246,
                                    49.53943
                                ],
                                [
                                    17.72246,
                                    49.539206
                                ],
                                [
                                    17.72216,
                                    49.539093
                                ],
                                [
                                    17.72186,
                                    49.539206
                                ],
                                [
                                    17.72186,
                                    49.53943
                                ],
                                [
                                    17.72216,
                                    49.539543
                                ]
                            ]
                        ]
                    ],
                    "type": "MultiPolygon"
                },
                "station_id": "645247868",
                "vehicle_types_available": []
            },
            "type": "Feature"
        }
    ],
    "gbfs": {
        "station_information": {
            "last_updated": 1789139568,
            "ttl": 60,
            "version": "2.3"
        },
        "station_status": {
            "last_updated": 1789139568,
            "ttl": 60,
            "version": "2.3"
        }
    },
    "type": "FeatureCollection"
}