{
    "features": [
        {
            "geometry": {
                "coordinates": [
                    11.379588,
                    47.261349
                ],
                "type": "Point"
            },
            "properties": {
                "capacity": 13,
                "is_installed": true,
                "is_renting": true,
                "is_returning": true,
                "is_virtual_station": false,
                "last_reported": 1789302303,
                "name": "Arthur-Haidl-Promenade",
                "num_bikes_available": 4,
                "num_docks_available": 9,
                "region_id": "199",
                "rental_uris": {
                    "android": "https://app.nextbike.net/station?id=1001065",
                    "ios": "https://app.nextbike.net/station?id=1001065",
                    "web": "https://nxtb.it/p/1001065"
                },
                "short_name": "36229",
                "station_id": "1001065",
                "vehicle_types_available": [
                    {
                        "count": 4,
                        "vehicle_type_id": "439"
                    }
                ]
            },
            "type": "Feature"
        },
        {
            "geometry": {
                "coordinates": [
                    11.382582,
                    47.265849
                ],
                "type": "Point"
            },
            "properties": {
                "capacity": 13,
                "is_installed": true,
                "is_renting": true,
                "is_returning": true,
                "is_virtual_station": false,
                "last_reported": 1789302303,
                "name": "F\u00fcrstenweg",
                "num_bikes_available": 11,
                "num_docks_available": 2,
                "region_id": "199",
                "rental_uris": {
                    "android": "https://app.nextbike.net/station?id=1001071",
                    "ios": "https://app.nextbike.net/station?id=1001071",
                    "web": "https://nxtb.it/p/1001071"
                },
                "short_name": "36230",
                "station_id": "1001071",
                "vehicle_types_available": [
                    {
                        "count": 10,
                        "vehicle_type_id": "439"
                    },
                    {
                        "count": 1,
                        "vehicle_type_id": "298"
                    }
                ]
            },
            "type": "Feature"
        },
        {
            "geometry": {
                "coordinates": [
                    11.387577,
                    47.267898
                ],
                "type": "Point"
            },
            "properties": {
                "capacity": 11,
                "is_installed": true,
                "is_renting": true,
                "is_returning": true,
                "is_virtual_station": false,
                "last_reported": 1789302303,
                "name": "Mariahilfpark",
                "num_bikes_available": 7,
                "num_docks_available": 4,
                "region_id": "199",
                "rental_uris": {
                    "android": "https://app.nextbike.net/station?id=1001074",
                    "ios": "https://app.nextbike.net/station?id=1001074",
                    "web": "https://nxtb.it/p/1001074"
                },
                "short_name": "36231",
                "station_id": "1001074",
                "vehicle_types_available": [
                    {
                        "count": 7,
                        "vehicle_type_id": "439"
                    }
                ]
            },
            "type": "Feature"
        },
        {
            "geometry": {
                "coordinates": [
                    11.391644,
                    47.270665
                ],
                "type": "Point"
            },
            "properties": {
                "capacity": 11,
                "is_installed": true,
                "is_renting": true,
                "is_returning": true,
                "is_virtual_station": false,
                "last_reported": 1789302303,
                "name": "Waltherpark",
                "num_bikes_available": 2,
                "num_docks_available": 9,
                "region_id": "199",
                "rental_uris": {
                    "android": "https://app.nextbike.net/station?id=1001080",
                    "ios": "https://app.nextbike.net/station?id=1001080",
                    "web": "https://nxtb.it/p/1001080"
                },
                "short_name": "36232",
                "station_id": "1001080",
                "vehicle_types_available": [
                    {
                        "count": 1,
                        "vehicle_type_id": "439"
                    },
                    {
                        "count": 1,
                        "vehicle_type_id": "298"
                    }
                ]
            },
            "type": "Feature"
        },
        {
            "geometry": {
                "coordinates": [
                    11.413566,
                    47.265296
                ],
                "type": "Point"
            },
            "properties": {
                "capacity": 12,
                "is_installed": true,
                "is_renting": true,
                "is_returning": true,
                "is_virtual_station": false,
                "last_reported": 1789302303,
                "name": "Langstra\u00dfe",
                "num_bikes_available": 8,
                "num_docks_available": 4,
                "region_id": "199",
                "rental_uris": {
                    "android": "https://app.nextbike.net/station?id=1001087",
                    "ios": "https://app.nextbike.net/station?id=1001087",
                    "web": "https://nxtb.it/p/1001087"
                },
                "short_name": "36233",
                "station_id": "1001087",
                "vehicle_types_available": [
                    {
                        "count": 8,
                        "vehicle_type_id": "439"
                    }
                ]
            },
            "type": "Feature"
        },
        {
            "geometry": {
                "coordinates": [
                    11.406169,
                    47.272503
                ],
                "type": "Point"
            },
            "properties": {
                "capacity": 13,
                "is_installed": true,
                "is_renting": true,
                "is_returning": true,
                "is_virtual_station": false,
                "last_reported": 1789302303,
                "name": "Messe Bahnhof",
                "num_bikes_available": 15,
                "num_docks_available": 0,
                "region_id": "199",
                "rental_uris": {
                    "android": "https://app.nextbike.net/station?id=143448611",
                    "ios": "https://app.nextbike.net/station?id=143448611",
                    "web": "https://nxtb.it/p/143448611"
                },
                "short_name": "36244",
                "station_id": "143448611",
                "vehicle_types_available": [
                    {
                        "count": 15,
                        "vehicle_type_id": "439"
                    }
                ]
            },
            "type": "Feature"
        },
        {
            "geometry": {
                "coordinates": [
                    11.41561,
                    47.26578
                ],
                "type": "Point"
            },
            "properties": {
                "capacity": 13,
                "is_installed": true,
                "is_renting": true,
                "is_returning": true,
                "is_virtual_station": false,
                "last_reported": 1789302303,
                "name": "Schutzengelkirche",
                "num_bikes_available": 9,
                "num_docks_available": 4,
                "region_id": "199",
                "rental_uris": {
                    "android": "https://app.nextbike.net/station?id=143972148",
                    "ios": "https://app.nextbike.net/station?id=143972148",
                    "web": "https://nxtb.it/p/143972148"
                },
                "short_name": "36245",
                "station_id": "143972148",
                "vehicle_types_available": [
                    {
                        "count": 9,
                        "vehicle_type_id": "439"
                    }
                ]
            },
            "type": "Feature"
        },
        {
            "geometry": {
                "coordinates": [
                    11.422804,
                    47.271174
                ],
                "type": "Point"
            },
            "properties": {
                "capacity": 13,
                "is_installed": true,
                "is_renting": true,
                "is_returning": true,
                "is_virtual_station": false,
                "last_reported": 1789302303,
                "name": "Hegnerstra\u00dfe",
                "num_bikes_available": 21,
                "num_docks_available": 0,
                "region_id": "199",
                "rental_uris": {
                    "android": "https://app.nextbike.net/station?id=143972277",
                    "ios": "https://app.nextbike.net/station?id=143972277",
                    "web": "https://nxtb.it/p/143972277"
                },
                "short_name": "36246",
                "station_id": "143972277",
                "vehicle_types_available": [
                    {
                        "count": 21,
                        "vehicle_type_id": "439"
                    }
                ]
            },
            "type": "Feature"
        },
        {
            "geometry": {
                "coordinates": [
                    11.387715,
                    47.261739
                ],
                "type": "Point"
            },
            "properties": {
                "capacity": 19,
                "is_installed": true,
                "is_renting": true,
                "is_returning": true,
                "is_virtual_station": false,
                "last_reported": 1789302303,
                "name": "Maximilianstra\u00dfe",
                "num_bikes_available": 4,
                "num_docks_available": 15,
                "region_id": "199",
                "rental_uris": {
                    "android": "https://app.nextbike.net/station?id=164559565",
                    "ios": "https://app.nextbike.net/station?id=164559565",
                    "web": "https://nxtb.it/p/164559565"
                },
                "short_name": "36247",
                "station_id": "164559565",
                "vehicle_types_available": [
                    {
                        "count": 4,
                        "vehicle_type_id": "439"
                    }
                ]
            },
            "type": "Feature"
        },
        {
            "geometry": {
                "coordinates": [
                    11.384497,
                    47.261772
                ],
                "type": "Point"
            },
            "properties": {
                "capacity": 12,
                "is_installed": true,
                "is_renting": true,
                "is_returning": true,
                "is_virtual_station": false,
                "last_reported": 1789302303,
                "name": "Innerkoflerstra\u00dfe",
                "num_bikes_available": 1,
                "num_docks_available": 11,
                "region_id": "199",
                "rental_uris": {
                    "android": "https://app.nextbike.net/station?id=164559907",
                    "ios": "https://app.nextbike.net/station?id=164559907",
                    "web": "https://nxtb.it/p/164559907"
                },
                "short_name": "36248",
                "station_id": "164559907",
                "vehicle_types_available": [
                    {
                        "count": 1,
                        "vehicle_type_id": "439"
                    }
                ]
            },
            "type": "Feature"
        },
        {
            "geometry": {
                "coordinates": [
                    11.435286,
                    47.265525
                ],
                "type": "Point"
            },
            "properties": {
                "capacity": 13,
                "is_installed": true,
                "is_renting": true,
                "is_returning": true,
                "is_virtual_station": false,
                "last_reported": 1789302303,
                "name": "TWI Technologiezentrum",
                "num_bikes_available": 10,
                "num_docks_available": 3,
                "region_id": "199",
                "rental_uris": {
                    "android": "https://app.nextbike.net/station?id=1839703",
                    "ios": "https://app.nextbike.net/station?id=1839703",
                    "web": "https://nxtb.it/p/1839703"
                },
                "short_name": "36234",
                "station_id": "1839703",
                "vehicle_types_available": [
                    {
                        "count": 10,
                        "vehicle_type_id": "439"
                    }
                ]
            },
            "type": "Feature"
        },
        {
            "geometry": {
                "coordinates": [
                    11.392157,
                    47.26254
                ],
                "type": "Point"
            },
            "properties": {
                "capacity": 10,
                "is_installed": true,
                "is_renting": true,
                "is_returning": true,
                "is_virtual_station": false,
                "last_reported": 1789302303,
                "name": "Landesgericht",
                "num_bikes_available": 2,
                "num_docks_available": 8,
                "region_id": "199",
                "rental_uris": {
                    "android": "https://app.nextbike.net/station?id=203967",
                    "ios": "https://app.nextbike.net/station?id=203967",
                    "web": "https://nxtb.it/p/203967"
                },
                "short_name": "36201",
                "station_id": "203967",
                "vehicle_types_available": [
                    {
                        "count": 2,
                        "vehicle_type_id": "439"
                    }
                ]
            },
            "type": "Feature"
        },
        {
            "geometry": {
                "coordinates": [
                    11.397125,
                    47.265285
                ],
                "type": "Point"
            },
            "properties": {
                "capacity": 13,
                "is_installed": true,
                "is_renting": true,
                "is_returning": true,
                "is_virtual_station": false,
                "last_reported": 1789302303,
                "name": "Bozner Platz",
                "num_bikes_available": 3,
                "num_docks_available": 10,
                "region_id": "199",
                "rental_uris": {
                    "android": "https://app.nextbike.net/station?id=203968",
                    "ios": "https://app.nextbike.net/station?id=203968",
                    "web": "https://nxtb.it/p/203968"
                },
                "short_name": "36202",
                "station_id": "203968",
                "vehicle_types_available": [
                    {
                        "count": 3,
                        "vehicle_type_id": "439"
                    }
                ]
            },
            "type": "Feature"
        },
        {
            "geometry": {
                "coordinates": [
                    11.395462,
                    47.268754
                ],
                "type": "Point"
            },
            "properties": {
                "capacity": 15,
                "is_installed": true,
                "is_renting": true,
                "is_returning": true,
                "is_virtual_station": false,
                "last_reported": 1789302303,
                "name": "Congress / Hofburg",
                "num_bikes_available": 10,
                "num_docks_available": 5,
                "region_id": "199",
                "rental_uris": {
                    "android": "https://app.nextbike.net/station?id=203969",
                    "ios": "https://app.nextbike.net/station?id=203969",
                    "web": "https://nxtb.it/p/203969"
                },
                "short_name": "36203",
                "station_id": "203969",
                "vehicle_types_available": [
                    {
                        "count": 10,
                        "vehicle_type_id": "439"
                    }
                ]
            },
            "type": "Feature"
        },
        {
            "geometry": {
                "coordinates": [
                    11.412842,
                    47.262631
                ],
                "type": "Point"
            },
            "properties": {
                "capacity": 11,
                "is_installed": true,
                "is_renting": true,
                "is_returning": true,
                "is_virtual_station": false,
                "last_reported": 1789302303,
                "name": "Dr. Glatz-Stra\u00dfe",
                "num_bikes_available": 8,
                "num_docks_available": 3,
                "region_id": "199",
                "rental_uris": {
                    "android": "https://app.nextbike.net/station?id=203970",
                    "ios": "https://app.nextbike.net/station?id=203970",
                    "web": "https://nxtb.it/p/203970"
                },
                "short_name": "36204",
                "station_id": "203970",
                "vehicle_types_available": [
                    {
                        "count": 8,
                        "vehicle_type_id": "439"
                    }
                ]
            },
            "type": "Feature"
        },
        {
            "geometry": {
                "coordinates": [
                    11.399882,
                    47.263381
                ],
                "type": "Point"
            },
            "properties": {
                "capacity": 58,
                "is_installed": true,
                "is_renting": true,
                "is_returning": true,
                "is_virtual_station": false,
                "last_reported": 1789302303,
                "name": "Hauptbahnhof",
                "num_bikes_available": 18,
                "num_docks_available": 40,
                "region_id": "199",
                "rental_uris": {
                    "android": "https://app.nextbike.net/station?id=203971",
                    "ios": "https://app.nextbike.net/station?id=203971",
                    "web": "https://nxtb.it/p/203971"
                },
                "short_name": "36205",
                "station_id": "203971",
                "vehicle_types_available": [
                    {
                        "count": 18,
                        "vehicle_type_id": "439"
                    }
                ]
            },
            "type": "Feature"
        },
        {
            "geometry": {
                "coordinates": [
                    11.374937,
                    47.264589
                ],
                "type": "Point"
            },
            "properties": {
                "capacity": 11,
                "is_installed": true,
                "is_renting": true,
                "is_returning": true,
                "is_virtual_station": false,
                "last_reported": 1789302303,
                "name": "EKZ West",
                "num_bikes_available": 21,
                "num_docks_available": 0,
                "region_id": "199",
                "rental_uris": {
                    "android": "https://app.nextbike.net/station?id=203973",
                    "ios": "https://app.nextbike.net/station?id=203973",
                    "web": "https://nxtb.it/p/203973"
                },
                "short_name": "36206",
                "station_id": "203973",
                "vehicle_types_available": [
                    {
                        "count": 21,
                        "vehicle_type_id": "439"
                    }
                ]
            },
            "type": "Feature"
        },
        {
            "geometry": {
                "coordinates": [
                    11.388209,
                    47.263745
                ],
                "type": "Point"
            },
            "properties": {
                "capacity": 11,
                "is_installed": true,
                "is_renting": true,
                "is_returning": true,
                "is_virtual_station": false,
                "last_reported": 1789302303,
                "name": "Anichstra\u00dfe / Klinik",
                "num_bikes_available": 2,
                "num_docks_available": 9,
                "region_id": "199",
                "rental_uris": {
                    "android": "https://app.nextbike.net/station?id=203974",
                    "ios": "https://app.nextbike.net/station?id=203974",
                    "web": "https://nxtb.it/p/203974"
                },
                "short_name": "36207",
                "station_id": "203974",
                "vehicle_types_available": [
                    {
                        "count": 2,
                        "vehicle_type_id": "439"
                    }
                ]
            },
            "type": "Feature"
        },
        {
            "geometry": {
                "coordinates": [
                    11.394763,
                    47.264916
                ],
                "type": "Point"
            },
            "properties": {
                "capacity": 13,
                "is_installed": true,
                "is_renting": true,
                "is_returning": true,
                "is_virtual_station": false,
                "last_reported": 1789302303,
                "name": "Maria-Theresien-Stra\u00dfe",
                "num_bikes_available": 9,
                "num_docks_available": 4,
                "region_id": "199",
                "rental_uris": {
                    "android": "https://app.nextbike.net/station?id=203976",
                    "ios": "https://app.nextbike.net/station?id=203976",
                    "web": "https://nxtb.it/p/203976"
                },
                "short_name": "36209",
                "station_id": "203976",
                "vehicle_types_available": [
                    {
                        "count": 9,
                        "vehicle_type_id": "439"
                    }
                ]
            },
            "type": "Feature"
        },
        {
            "geometry": {
                "coordinates": [
                    11.40648,
                    47.261218
                ],
                "type": "Point"
            },
            "properties": {
                "capacity": 12,
                "is_installed": true,
                "is_renting": true,
                "is_returning": true,
                "is_virtual_station": false,
                "last_reported": 1789302303,
                "name": "Freibad Tivoli",
                "num_bikes_available": 5,
                "num_docks_available": 7,
                "region_id": "199",
                "rental_uris": {
                    "android": "https://app.nextbike.net/station?id=203977",
                    "ios": "https://app.nextbike.net/station?id=203977",
                    "web": "https://nxtb.it/p/203977"
                },
                "short_name": "36212",
                "station_id": "203977",
                "vehicle_types_available": [
                    {
                        "count": 5,
                        "vehicle_type_id": "439"
                    }
                ]
            },
            "type": "Feature"
        },
        {
            "geometry": {
                "coordinates": [
                    11.403916,
                    47.278834
                ],
                "type": "Point"
            },
            "properties": {
                "capacity": 11,
                "is_installed": true,
                "is_renting": true,
                "is_returning": true,
                "is_virtual_station": false,
                "last_reported": 1789302303,
                "name": "M\u00fchlauer Br\u00fccke",
                "num_bikes_available": 15,
                "num_docks_available": 0,
                "region_id": "199",
                "rental_uris": {
                    "android": "https://app.nextbike.net/station?id=203978",
                    "ios": "https://app.nextbike.net/station?id=203978",
                    "web": "https://nxtb.it/p/203978"
                },
                "short_name": "36211",
                "station_id": "203978",
                "vehicle_types_available": [
                    {
                        "count": 15,
                        "vehicle_type_id": "439"
                    }
                ]
            },
            "type": "Feature"
        },
        {
            "geometry": {
                "coordinates": [
                    11.406609,
                    47.264537
                ],
                "type": "Point"
            },
            "properties": {
                "capacity": 12,
                "is_installed": true,
                "is_renting": true,
                "is_returning": true,
                "is_virtual_station": false,
                "last_reported": 1789302303,
                "name": "Leipziger Platz",
                "num_bikes_available": 6,
                "num_docks_available": 6,
                "region_id": "199",
                "rental_uris": {
                    "android": "https://app.nextbike.net/station?id=203979",
                    "ios": "https://app.nextbike.net/station?id=203979",
                    "web": "https://nxtb.it/p/203979"
                },
                "short_name": "36210",
                "station_id": "203979",
                "vehicle_types_available": [
                    {
                        "count": 6,
                        "vehicle_type_id": "439"
                    }
                ]
            },
            "type": "Feature"
        },
        {
            "geometry": {
                "coordinates": [
                    11.403015,
                    47.266097
                ],
                "type": "Point"
            },
            "properties": {
                "capacity": 14,
                "is_installed": true,
                "is_renting": true,
                "is_returning": true,
                "is_virtual_station": false,
                "last_reported": 1789302303,
                "name": "Sillpark",
                "num_bikes_available": 8,
                "num_docks_available": 6,
                "region_id": "199",
                "rental_uris": {
                    "android": "https://app.nextbike.net/station?id=203981",
                    "ios": "https://app.nextbike.net/station?id=203981",
                    "web": "https://nxtb.it/p/203981"
                },
                "short_name": "36214",
                "station_id": "203981",
                "vehicle_types_available": [
                    {
                        "count": 7,
                        "vehicle_type_id": "439"
                    },
                    {
                        "count": 1,
                        "vehicle_type_id": "298"
                    }
                ]
            },
            "type": "Feature"
        },
        {
            "geometry": {
                "coordinates": [
                    11.39169,
                    47.255885
                ],
                "type": "Point"
            },
            "properties": {
                "capacity": 18,
                "is_installed": true,
                "is_renting": true,
                "is_returning": true,
                "is_virtual_station": false,
                "last_reported": 1789302303,
                "name": "Westbahnhof",
                "num_bikes_available": 12,
                "num_docks_available": 6,
                "region_id": "199",
                "rental_uris": {
                    "android": "https://app.nextbike.net/station?id=203982",
                    "ios": "https://app.nextbike.net/station?id=203982",
                    "web": "https://nxtb.it/p/203982"
                },
                "short_name": "36215",
                "station_id": "203982",
                "vehicle_types_available": [
                    {
                        "count": 12,
                        "vehicle_type_id": "439"
                    }
                ]
            },
            "type": "Feature"
        },
        {
            "geometry": {
                "coordinates": [
                    11.429842,
                    47.273034
                ],
                "type": "Point"
            },
            "properties": {
                "capacity": 11,
                "is_installed": true,
                "is_renting": true,
                "is_returning": true,
                "is_virtual_station": false,
                "last_reported": 1789302303,
                "name": "Rossaugasse",
                "num_bikes_available": 12,
                "num_docks_available": 0,
                "region_id": "199",
                "rental_uris": {
                    "android": "https://app.nextbike.net/station?id=203983",
                    "ios": "https://app.nextbike.net/station?id=203983",
                    "web": "https://nxtb.it/p/203983"
                },
                "short_name": "36216",
                "station_id": "203983",
                "vehicle_types_available": [
                    {
                        "count": 12,
                        "vehicle_type_id": "439"
                    }
                ]
            },
            "type": "Feature"
        },
        {
            "geometry": {
                "coordinates": [
                    11.393339,
                    47.25945
                ],
                "type": "Point"
            },
            "properties": {
                "capacity": 11,
                "is_installed": true,
                "is_renting": true,
                "is_returning": true,
                "is_virtual_station": false,
                "last_reported": 1789302303,
                "name": "AMS-Gesch\u00e4ftsstelle",
                "num_bikes_available": 2,
                "num_docks_available": 9,
                "region_id": "199",
                "rental_uris": {
                    "android": "https://app.nextbike.net/station?id=203984",
                    "ios": "https://app.nextbike.net/station?id=203984",
                    "web": "https://nxtb.it/p/203984"
                },
                "short_name": "36217",
                "station_id": "203984",
                "vehicle_types_available": [
                    {
                        "count": 2,
                        "vehicle_type_id": "439"
                    }
                ]
            },
            "type": "Feature"
        },
        {
            "geometry": {
                "coordinates": [
                    11.383338,
                    47.262857
                ],
                "type": "Point"
            },
            "properties": {
                "capacity": 21,
                "is_installed": true,
                "is_renting": true,
                "is_returning": true,
                "is_virtual_station": false,
                "last_reported": 1789302303,
                "name": "Uni-Boulevard",
                "num_bikes_available": 1,
                "num_docks_available": 20,
                "region_id": "199",
                "rental_uris": {
                    "android": "https://app.nextbike.net/station?id=203985",
                    "ios": "https://app.nextbike.net/station?id=203985",
                    "web": "https://nxtb.it/p/203985"
                },
                "short_name": "36218",
                "station_id": "203985",
                "vehicle_types_available": [
                    {
                        "count": 1,
                        "vehicle_type_id": "439"
                    }
                ]
            },
            "type": "Feature"
        },
        {
            "geometry": {
                "coordinates": [
                    11.414586,
                    47.276885
                ],
                "type": "Point"
            },
            "properties": {
                "capacity": 14,
                "is_installed": true,
                "is_renting": true,
                "is_returning": true,
                "is_virtual_station": false,
                "last_reported": 1789302303,
                "name": "Kletterzentrum / Sillside",
                "num_bikes_available": 12,
                "num_docks_available": 2,
                "region_id": "199",
                "rental_uris": {
                    "android": "https://app.nextbike.net/station?id=203986",
                    "ios": "https://app.nextbike.net/station?id=203986",
                    "web": "https://nxtb.it/p/203986"
                },
                "short_name": "36219",
                "station_id": "203986",
                "vehicle_types_available": [
                    {
                        "count": 12,
                        "vehicle_type_id": "439"
                    }
                ]
            },
            "type": "Feature"
        },
        {
            "geometry": {
                "coordinates": [
                    11.387271,
                    47.260307
                ],
                "type": "Point"
            },
            "properties": {
                "capacity": 30,
                "is_installed": true,
                "is_renting": true,
                "is_returning": true,
                "is_virtual_station": false,
                "last_reported": 1789302303,
                "name": "Sch\u00f6pfstra\u00dfe / Klinik",
                "num_bikes_available": 10,
                "num_docks_available": 20,
                "region_id": "199",
                "rental_uris": {
                    "android": "https://app.nextbike.net/station?id=203987",
                    "ios": "https://app.nextbike.net/station?id=203987",
                    "web": "https://nxtb.it/p/203987"
                },
                "short_name": "36220",
                "station_id": "203987",
                "vehicle_types_available": [
                    {
                        "count": 10,
                        "vehicle_type_id": "439"
                    }
                ]
            },
            "type": "Feature"
        },
        {
            "geometry": {
                "coordinates": [
                    11.37483,
                    47.263097
                ],
                "type": "Point"
            },
            "properties": {
                "capacity": 15,
                "is_installed": true,
                "is_renting": true,
                "is_returning": true,
                "is_virtual_station": false,
                "last_reported": 1789302303,
                "name": "MED-EL",
                "num_bikes_available": 16,
                "num_docks_available": 0,
                "region_id": "199",
                "rental_uris": {
                    "android": "https://app.nextbike.net/station?id=203988",
                    "ios": "https://app.nextbike.net/station?id=203988",
                    "web": "https://nxtb.it/p/203988"
                },
                "short_name": "36221",
                "station_id": "203988",
                "vehicle_types_available": [
                    {
                        "count": 16,
                        "vehicle_type_id": "439"
                    }
                ]
            },
            "type": "Feature"
        },
        {
            "geometry": {
                "coordinates": [
                    11.381187,
                    47.260796
                ],
                "type": "Point"
            },
            "properties": {
                "capacity": 24,
                "is_installed": true,
                "is_renting": true,
                "is_returning": true,
                "is_virtual_station": false,
                "last_reported": 1789302303,
                "name": "Chemieinstitut",
                "num_bikes_available": 1,
                "num_docks_available": 23,
                "region_id": "199",
                "rental_uris": {
                    "android": "https://app.nextbike.net/station?id=22879647",
                    "ios": "https://app.nextbike.net/station?id=22879647",
                    "web": "https://nxtb.it/p/22879647"
                },
                "short_name": "36243",
                "station_id": "22879647",
                "vehicle_types_available": [
                    {
                        "count": 1,
                        "vehicle_type_id": "439"
                    }
                ]
            },
            "type": "Feature"
        },
        {
            "geometry": {
                "coordinates": [
                    11.39757,
                    47.253926
                ],
                "type": "Point"
            },
            "properties": {
                "capacity": 19,
                "is_installed": true,
                "is_renting": true,
                "is_returning": true,
                "is_virtual_station": false,
                "last_reported": 1789302303,
                "name": "Stubaitalbahnhof",
                "num_bikes_available": 7,
                "num_docks_available": 12,
                "region_id": "199",
                "rental_uris": {
                    "android": "https://app.nextbike.net/station?id=229278",
                    "ios": "https://app.nextbike.net/station?id=229278",
                    "web": "https://nxtb.it/p/229278"
                },
                "short_name": "36213",
                "station_id": "229278",
                "vehicle_types_available": [
                    {
                        "count": 7,
                        "vehicle_type_id": "439"
                    }
                ]
            },
            "type": "Feature"
        },
        {
            "geometry": {
                "coordinates": [
                    11.386207,
                    47.263788
                ],
                "type": "Point"
            },
            "properties": {
                "capacity": 15,
                "is_installed": true,
                "is_renting": true,
                "is_returning": true,
                "is_virtual_station": false,
                "last_reported": 1789302303,
                "name": "Universit\u00e4t",
                "num_bikes_available": 3,
                "num_docks_available": 12,
                "region_id": "199",
                "rental_uris": {
                    "android": "https://app.nextbike.net/station?id=286191",
                    "ios": "https://app.nextbike.net/station?id=286191",
                    "web": "https://nxtb.it/p/286191"
                },
                "short_name": "36222",
                "station_id": "286191",
                "vehicle_types_available": [
                    {
                        "count": 3,
                        "vehicle_type_id": "439"
                    }
                ]
            },
            "type": "Feature"
        },
        {
            "geometry": {
                "coordinates": [
                    11.399135,
                    47.269249
                ],
                "type": "Point"
            },
            "properties": {
                "capacity": 31,
                "is_installed": true,
                "is_renting": true,
                "is_returning": true,
                "is_virtual_station": false,
                "last_reported": 1789302303,
                "name": "SOWI/MCI",
                "num_bikes_available": 18,
                "num_docks_available": 13,
                "region_id": "199",
                "rental_uris": {
                    "android": "https://app.nextbike.net/station?id=286192",
                    "ios": "https://app.nextbike.net/station?id=286192",
                    "web": "https://nxtb.it/p/286192"
                },
                "short_name": "36223",
                "station_id": "286192",
                "vehicle_types_available": [
                    {
                        "count": 18,
                        "vehicle_type_id": "439"
                    }
                ]
            },
            "type": "Feature"
        },
        {
            "geometry": {
                "coordinates": [
                    11.417708,
                    47.276405
                ],
                "type": "Point"
            },
            "properties": {
                "capacity": 16,
                "is_installed": true,
                "is_renting": true,
                "is_returning": true,
                "is_virtual_station": false,
                "last_reported": 1789302303,
                "name": "General-Eccher-Stra\u00dfe",
                "num_bikes_available": 25,
                "num_docks_available": 0,
                "region_id": "199",
                "rental_uris": {
                    "android": "https://app.nextbike.net/station?id=286193",
                    "ios": "https://app.nextbike.net/station?id=286193",
                    "web": "https://nxtb.it/p/286193"
                },
                "short_name": "36224",
                "station_id": "286193",
                "vehicle_types_available": [
                    {
                        "count": 25,
                        "vehicle_type_id": "439"
                    }
                ]
            },
            "type": "Feature"
        },
        {
            "geometry": {
                "coordinates": [
                    11.373858,
                    47.256696
                ],
                "type": "Point"
            },
            "properties": {
                "capacity": 13,
                "is_installed": true,
                "is_renting": true,
                "is_returning": true,
                "is_virtual_station": false,
                "last_reported": 1789302303,
                "name": "Dr. Stumpf-Stra\u00dfe",
                "num_bikes_available": 9,
                "num_docks_available": 3,
                "region_id": "199",
                "rental_uris": {
                    "android": "https://app.nextbike.net/station?id=3385845",
                    "ios": "https://app.nextbike.net/station?id=3385845",
                    "web": "https://nxtb.it/p/3385845"
                },
                "short_name": "36235",
                "station_id": "3385845",
                "vehicle_types_available": [
                    {
                        "count": 9,
                        "vehicle_type_id": "439"
                    }
                ]
            },
            "type": "Feature"
        },
        {
            "geometry": {
                "coordinates": [
                    11.405576,
                    47.275797
                ],
                "type": "Point"
            },
            "properties": {
                "capacity": 10,
                "is_installed": true,
                "is_renting": true,
                "is_returning": true,
                "is_virtual_station": false,
                "last_reported": 1789302303,
                "name": "Claudiaplatz",
                "num_bikes_available": 14,
                "num_docks_available": 0,
                "region_id": "199",
                "rental_uris": {
                    "android": "https://app.nextbike.net/station?id=3385868",
                    "ios": "https://app.nextbike.net/station?id=3385868",
                    "web": "https://nxtb.it/p/3385868"
                },
                "short_name": "36237",
                "station_id": "3385868",
                "vehicle_types_available": [
                    {
                        "count": 14,
                        "vehicle_type_id": "439"
                    }
                ]
            },
            "type": "Feature"
        },
        {
            "geometry": {
                "coordinates": [
                    11.410552,
                    47.25847
                ],
                "type": "Point"
            },
            "properties": {
                "capacity": 21,
                "is_installed": true,
                "is_renting": true,
                "is_returning": true,
                "is_virtual_station": false,
                "last_reported": 1789302303,
                "name": "Olympiaworld",
                "num_bikes_available": 36,
                "num_docks_available": 0,
                "region_id": "199",
                "rental_uris": {
                    "android": "https://app.nextbike.net/station?id=343100748",
                    "ios": "https://app.nextbike.net/station?id=343100748",
                    "web": "https://nxtb.it/p/343100748"
                },
                "short_name": "36249",
                "station_id": "343100748",
                "vehicle_types_available": [
                    {
                        "count": 36,
                        "vehicle_type_id": "439"
                    }
                ]
            },
            "type": "Feature"
        },
        {
            "geometry": {
                "coordinates": [
                    11.370233,
                    47.257967
                ],
                "type": "Point"
            },
            "properties": {
                "capacity": 25,
                "is_installed": true,
                "is_renting": true,
                "is_returning": true,
                "is_virtual_station": false,
                "last_reported": 1789302303,
                "name": "Mitterweg",
                "num_bikes_available": 10,
                "num_docks_available": 15,
                "region_id": "199",
                "rental_uris": {
                    "android": "https://app.nextbike.net/station?id=3495985",
                    "ios": "https://app.nextbike.net/station?id=3495985",
                    "web": "https://nxtb.it/p/3495985"
                },
                "short_name": "36236",
                "station_id": "3495985",
                "vehicle_types_available": [
                    {
                        "count": 10,
                        "vehicle_type_id": "439"
                    }
                ]
            },
            "type": "Feature"
        },
        {
            "geometry": {
                "coordinates": [
                    11.344585,
                    47.265157
                ],
                "type": "Point"
            },
            "properties": {
                "capacity": 23,
                "is_installed": true,
                "is_renting": true,
                "is_returning": true,
                "is_virtual_station": false,
                "last_reported": 1789302303,
                "name": "Technik",
                "num_bikes_available": 17,
                "num_docks_available": 6,
                "region_id": "199",
                "rental_uris": {
                    "android": "https://app.nextbike.net/station?id=351546",
                    "ios": "https://app.nextbike.net/station?id=351546",
                    "web": "https://nxtb.it/p/351546"
                },
                "short_name": "36225",
                "station_id": "351546",
                "vehicle_types_available": [
                    {
                        "count": 17,
                        "vehicle_type_id": "439"
                    }
                ]
            },
            "type": "Feature"
        },
        {
            "geometry": {
                "coordinates": [
                    11.355443,
                    47.257308
                ],
                "type": "Point"
            },
            "properties": {
                "capacity": 19,
                "is_installed": true,
                "is_renting": true,
                "is_returning": true,
                "is_virtual_station": false,
                "last_reported": 1789302303,
                "name": "UNI-Sportst\u00e4tten",
                "num_bikes_available": 12,
                "num_docks_available": 7,
                "region_id": "199",
                "rental_uris": {
                    "android": "https://app.nextbike.net/station?id=355752",
                    "ios": "https://app.nextbike.net/station?id=355752",
                    "web": "https://nxtb.it/p/355752"
                },
                "short_name": "36226",
                "station_id": "355752",
                "vehicle_types_available": [
                    {
                        "count": 12,
                        "vehicle_type_id": "439"
                    }
                ]
            },
            "type": "Feature"
        },
        {
            "geometry": {
                "coordinates": [
                    11.392082,
                    47.266228
                ],
                "type": "Point"
            },
            "properties": {
                "capacity": 9,
                "is_installed": true,
                "is_renting": true,
                "is_returning": true,
                "is_virtual_station": false,
                "last_reported": 1789302303,
                "name": "Adolf-Pichler-Platz",
                "num_bikes_available": 6,
                "num_docks_available": 3,
                "region_id": "199",
                "rental_uris": {
                    "android": "https://app.nextbike.net/station?id=355754",
                    "ios": "https://app.nextbike.net/station?id=355754",
                    "web": "https://nxtb.it/p/355754"
                },
                "short_name": "36227",
                "station_id": "355754",
                "vehicle_types_available": [
                    {
                        "count": 6,
                        "vehicle_type_id": "439"
                    }
                ]
            },
            "type": "Feature"
        },
        {
            "geometry": {
                "coordinates": [
                    11.351484,
                    47.257002
                ],
                "type": "Point"
            },
            "properties": {
                "capacity": 18,
                "is_installed": true,
                "is_renting": true,
                "is_returning": true,
                "is_virtual_station": false,
                "last_reported": 1789302303,
                "name": "Flughafen",
                "num_bikes_available": 6,
                "num_docks_available": 12,
                "region_id": "199",
                "rental_uris": {
                    "android": "https://app.nextbike.net/station?id=438786187",
                    "ios": "https://app.nextbike.net/station?id=438786187",
                    "web": "https://nxtb.it/p/438786187"
                },
                "short_name": "36251",
                "station_id": "438786187",
                "vehicle_types_available": [
                    {
                        "count": 6,
                        "vehicle_type_id": "439"
                    }
                ]
            },
            "type": "Feature"
        },
        {
            "geometry": {
                "coordinates": [
                    11.380087,
                    47.259056
                ],
                "type": "Point"
            },
            "properties": {
                "capacity": 17,
                "is_installed": true,
                "is_renting": true,
                "is_returning": true,
                "is_virtual_station": false,
                "last_reported": 1789302303,
                "name": "Freiburger Br\u00fccke",
                "num_bikes_available": 0,
                "num_docks_available": 17,
                "region_id": "199",
                "rental_uris": {
                    "android": "https://app.nextbike.net/station?id=438786710",
                    "ios": "https://app.nextbike.net/station?id=438786710",
                    "web": "https://nxtb.it/p/438786710"
                },
                "short_name": "36250",
                "station_id": "438786710",
                "vehicle_types_available": []
            },
            "type": "Feature"
        },
        {
            "geometry": {
                "coordinates": [
                    11.406367,
                    47.270483
                ],
                "type": "Point"
            },
            "properties": {
                "capacity": 13,
                "is_installed": true,
                "is_renting": true,
                "is_returning": true,
                "is_virtual_station": false,
                "last_reported": 1789302303,
                "name": "Zeughaus",
                "num_bikes_available": 2,
                "num_docks_available": 11,
                "region_id": "199",
                "rental_uris": {
                    "android": "https://app.nextbike.net/station?id=499628454",
                    "ios": "https://app.nextbike.net/station?id=499628454",
                    "web": "https://nxtb.it/p/499628454"
                },
                "short_name": "36252",
                "station_id": "499628454",
                "vehicle_types_available": [
                    {
                        "count": 2,
                        "vehicle_type_id": "439"
                    }
                ]
            },
            "type": "Feature"
        },
        {
            "geometry": {
                "coordinates": [
                    11.457034,
                    47.277544
                ],
                "type": "Point"
            },
            "properties": {
                "capacity": 12,
                "is_installed": true,
                "is_renting": true,
                "is_returning": true,
                "is_virtual_station": false,
                "last_reported": 1789302303,
                "name": "Rum Bahnhof",
                "num_bikes_available": 10,
                "num_docks_available": 2,
                "region_id": "199",
                "rental_uris": {
                    "android": "https://app.nextbike.net/station?id=556300752",
                    "ios": "https://app.nextbike.net/station?id=556300752",
                    "web": "https://nxtb.it/p/556300752"
                },
                "short_name": "36253",
                "station_id": "556300752",
                "vehicle_types_available": [
                    {
                        "count": 10,
                        "vehicle_type_id": "439"
                    }
                ]
            },
            "type": "Feature"
        },
        {
            "geometry": {
                "coordinates": [
                    11.428512,
                    47.268553
                ],
                "type": "Point"
            },
            "properties": {
                "capacity": 17,
                "is_installed": true,
                "is_renting": true,
                "is_returning": true,
                "is_virtual_station": false,
                "last_reported": 1789302303,
                "name": "Valiergasse",
                "num_bikes_available": 1,
                "num_docks_available": 16,
                "region_id": "199",
                "rental_uris": {
                    "android": "https://app.nextbike.net/station?id=556301247",
                    "ios": "https://app.nextbike.net/station?id=556301247",
                    "web": "https://nxtb.it/p/556301247"
                },
                "short_name": "36254",
                "station_id": "556301247",
                "vehicle_types_available": [
                    {
                        "count": 1,
                        "vehicle_type_id": "439"
                    }
                ]
            },
            "type": "Feature"
        },
        {
            "geometry": {
                "coordinates": [
                    11.443178,
                    47.265838
                ],
                "type": "Point"
            },
            "properties": {
                "capacity": 20,
                "is_installed": true,
                "is_renting": true,
                "is_returning": true,
                "is_virtual_station": false,
                "last_reported": 1789302303,
                "name": "Grabenweg",
                "num_bikes_available": 17,
                "num_docks_available": 3,
                "region_id": "199",
                "rental_uris": {
                    "android": "https://app.nextbike.net/station?id=556301943",
                    "ios": "https://app.nextbike.net/station?id=556301943",
                    "web": "https://nxtb.it/p/556301943"
                },
                "short_name": "36255",
                "station_id": "556301943",
                "vehicle_types_available": [
                    {
                        "count": 17,
                        "vehicle_type_id": "439"
                    }
                ]
            },
            "type": "Feature"
        },
        {
            "geometry": {
                "coordinates": [
                    11.391138,
                    47.267371
                ],
                "type": "Point"
            },
            "properties": {
                "capacity": 11,
                "is_installed": true,
                "is_renting": true,
                "is_returning": true,
                "is_virtual_station": false,
                "last_reported": 1789302303,
                "name": "Marktplatz",
                "num_bikes_available": 13,
                "num_docks_available": 0,
                "region_id": "199",
                "rental_uris": {
                    "android": "https://app.nextbike.net/station?id=7060467",
                    "ios": "https://app.nextbike.net/station?id=7060467",
                    "web": "https://nxtb.it/p/7060467"
                },
                "short_name": "36238",
                "station_id": "7060467",
                "vehicle_types_available": [
                    {
                        "count": 13,
                        "vehicle_type_id": "439"
                    }
                ]
            },
            "type": "Feature"
        },
        {
            "geometry": {
                "coordinates": [
                    11.396685,
                    47.258765
                ],
                "type": "Point"
            },
            "properties": {
                "capacity": 15,
                "is_installed": true,
                "is_renting": true,
                "is_returning": true,
                "is_virtual_station": false,
                "last_reported": 1789302303,
                "name": "Kaisersch\u00fctzenplatz",
                "num_bikes_available": 0,
                "num_docks_available": 15,
                "region_id": "199",
                "rental_uris": {
                    "android": "https://app.nextbike.net/station?id=7060477",
                    "ios": "https://app.nextbike.net/station?id=7060477",
                    "web": "https://nxtb.it/p/7060477"
                },
                "short_name": "36239",
                "station_id": "7060477",
                "vehicle_types_available": []
            },
            "type": "Feature"
        },
        {
            "geometry": {
                "coordinates": [
                    11.446069,
                    47.267753
                ],
                "type": "Point"
            },
            "properties": {
                "capacity": 12,
                "is_installed": true,
                "is_renting": true,
                "is_returning": true,
                "is_virtual_station": false,
                "last_reported": 1789302303,
                "name": "Baggersee",
                "num_bikes_available": 12,
                "num_docks_available": 0,
                "region_id": "199",
                "rental_uris": {
                    "android": "https://app.nextbike.net/station?id=7060487",
                    "ios": "https://app.nextbike.net/station?id=7060487",
                    "web": "https://nxtb.it/p/7060487"
                },
                "short_name": "36240",
                "station_id": "7060487",
                "vehicle_types_available": [
                    {
                        "count": 12,
                        "vehicle_type_id": "439"
                    }
                ]
            },
            "type": "Feature"
        },
        {
            "geometry": {
                "coordinates": [
                    11.362696,
                    47.264109
                ],
                "type": "Point"
            },
            "properties": {
                "capacity": 14,
                "is_installed": true,
                "is_renting": true,
                "is_returning": true,
                "is_virtual_station": false,
                "last_reported": 1789302303,
                "name": "V\u00f6gelebichl",
                "num_bikes_available": 15,
                "num_docks_available": 0,
                "region_id": "199",
                "rental_uris": {
                    "android": "https://app.nextbike.net/station?id=7060498",
                    "ios": "https://app.nextbike.net/station?id=7060498",
                    "web": "https://nxtb.it/p/7060498"
                },
                "short_name": "36241",
                "station_id": "7060498",
                "vehicle_types_available": [
                    {
                        "count": 15,
                        "vehicle_type_id": "439"
                    }
                ]
            },
            "type": "Feature"
        },
        {
            "geometry": {
                "coordinates": [
                    11.425567,
                    47.258688
                ],
                "type": "Point"
            },
            "properties": {
                "capacity": 12,
                "is_installed": true,
                "is_renting": true,
                "is_returning": true,
                "is_virtual_station": false,
                "last_reported": 1789302303,
                "name": "Philippine-Welser-Stra\u00dfe",
                "num_bikes_available": 12,
                "num_docks_available": 0,
                "region_id": "199",
                "rental_uris": {
                    "android": "https://app.nextbike.net/station?id=732701",
                    "ios": "https://app.nextbike.net/station?id=732701",
                    "web": "https://nxtb.it/p/732701"
                },
                "short_name": "36228",
                "station_id": "732701",
                "vehicle_types_available": [
                    {
                        "count": 12,
                        "vehicle_type_id": "439"
                    }
                ]
            },
            "type": "Feature"
        },
        {
            "geometry": {
                "coordinates": [
                    11.397193,
                    47.27449
                ],
                "type": "Point"
            },
            "properties": {
                "capacity": 11,
                "is_installed": true,
                "is_renting": true,
                "is_returning": true,
                "is_virtual_station": false,
                "last_reported": 1789302303,
                "name": "Austria Trend Hotel",
                "num_bikes_available": 5,
                "num_docks_available": 6,
                "region_id": "199",
                "rental_uris": {
                    "android": "https://app.nextbike.net/station?id=883225",
                    "ios": "https://app.nextbike.net/station?id=883225",
                    "web": "https://nxtb.it/p/883225"
                },
                "short_name": "36208",
                "station_id": "883225",
                "vehicle_types_available": [
                    {
                        "count": 5,
                        "vehicle_type_id": "439"
                    }
                ]
            },
            "type": "Feature"
        },
        {
            "geometry": {
                "coordinates": [
                    11.396309,
                    47.262635
                ],
                "type": "Point"
            },
            "properties": {
                "capacity": 15,
                "is_installed": true,
                "is_renting": true,
                "is_returning": true,
                "is_virtual_station": false,
                "last_reported": 1789302303,
                "name": "Triumphpforte/ Casino",
                "num_bikes_available": 0,
                "num_docks_available": 15,
                "region_id": "199",
                "rental_uris": {
                    "android": "https://app.nextbike.net/station?id=9589888",
                    "ios": "https://app.nextbike.net/station?id=9589888",
                    "web": "https://nxtb.it/p/9589888"
                },
                "short_name": "36242",
                "station_id": "9589888",
                "vehicle_types_available": []
            },
            "type": "Feature"
        }
    ],
    "gbfs": {
        "station_information": {
            "last_updated": 1789302303,
            "ttl": 60,
            "version": "2.3"
        },
        "station_status": {
            "last_updated": 1789302303,
            "ttl": 60,
            "version": "2.3"
        }
    },
    "type": "FeatureCollection"
}