{
    "features": [
        {
            "geometry": {
                "coordinates": [
                    2.083067,
                    49.030665
                ],
                "type": "Point"
            },
            "properties": {
                "address": "AVENUE DU SUD - 95000 CERGY",
                "available_bike_stands": 20,
                "available_bikes": 0,
                "banking": false,
                "bike_stands": 20,
                "bonus": false,
                "contract_name": "cergy-pontoise",
                "name": "50023 - CER23 - LES TOULEUSES",
                "status": "CLOSED"
            },
            "type": "Feature"
        },
        {
            "geometry": {
                "coordinates": [
                    2.057324,
                    49.050988
                ],
                "type": "Point"
            },
            "properties": {
                "address": "ROUTE D14, DEVANT LE COMPLEXE SPORTIF ARENICE",
                "available_bike_stands": 18,
                "available_bikes": 0,
                "banking": false,
                "bike_stands": 20,
                "bonus": false,
                "contract_name": "cergy-pontoise",
                "name": "50025 - CER25 - ARENICE",
                "status": "CLOSED"
            },
            "type": "Feature"
        },
        {
            "geometry": {
                "coordinates": [
                    2.078945,
                    49.014534
                ],
                "type": "Point"
            },
            "properties": {
                "address": "CHEMIN DE CERGY DEVANT LA GARE - 95010 NEUVILLE",
                "available_bike_stands": 19,
                "available_bikes": 0,
                "banking": false,
                "bike_stands": 19,
                "bonus": false,
                "contract_name": "cergy-pontoise",
                "name": "50101 - P\u00d4LE GARE (CB)",
                "status": "CLOSED"
            },
            "type": "Feature"
        },
        {
            "geometry": {
                "coordinates": [
                    2.08780221085683,
                    49.032140952207
                ],
                "type": "Point"
            },
            "properties": {
                "address": "BD DE L'OISE ANGLE RUE DE LA PALETTE",
                "available_bike_stands": 20,
                "available_bikes": 0,
                "banking": false,
                "bike_stands": 20,
                "bonus": false,
                "contract_name": "cergy-pontoise",
                "name": "53004 - PON04 - LA PALETTE",
                "status": "CLOSED"
            },
            "type": "Feature"
        },
        {
            "geometry": {
                "coordinates": [
                    2.09102625541638,
                    49.0180572637007
                ],
                "type": "Point"
            },
            "properties": {
                "address": "RUE DES BELLES H\u00c2TES ANGLE BOULEVARD DES AVIATEURS ALLI\u00c9S 95600 - ERAGNY",
                "available_bike_stands": 16,
                "available_bikes": 0,
                "banking": false,
                "bike_stands": 20,
                "bonus": false,
                "contract_name": "cergy-pontoise",
                "name": "56103 - ERA03 - GARE D'ERAGNY (CB)",
                "status": "CLOSED"
            },
            "type": "Feature"
        },
        {
            "geometry": {
                "coordinates": [
                    2.09941681180915,
                    49.017696834806
                ],
                "type": "Point"
            },
            "properties": {
                "address": "PLACE DE LA CHALLE ANGLE RUE DE LA CHALLE ORANGE 95600 - ERAGNY",
                "available_bike_stands": 22,
                "available_bikes": 0,
                "banking": false,
                "bike_stands": 23,
                "bonus": false,
                "contract_name": "cergy-pontoise",
                "name": "56104 - ERA04 - LA CHALLE (CB)",
                "status": "CLOSED"
            },
            "type": "Feature"
        },
        {
            "geometry": {
                "coordinates": [
                    2.101656,
                    49.03223
                ],
                "type": "Point"
            },
            "properties": {
                "address": "RUE DU BAS NOYER DEVANT CENTRE COMMERCIAL ART DE VIVRE - ERAGNY",
                "available_bike_stands": 18,
                "available_bikes": 0,
                "banking": false,
                "bike_stands": 18,
                "bonus": false,
                "contract_name": "cergy-pontoise",
                "name": "56105 - ERA05- BAS NOYER (CB)",
                "status": "CLOSED"
            },
            "type": "Feature"
        },
        {
            "geometry": {
                "coordinates": [
                    2.09846304107412,
                    49.0112158195145
                ],
                "type": "Point"
            },
            "properties": {
                "address": "Rue de l'Ambassadeur angle rue des Anglais - 95610 ERAGNY",
                "available_bike_stands": 17,
                "available_bikes": 1,
                "banking": false,
                "bike_stands": 12,
                "bonus": false,
                "contract_name": "cergy-pontoise",
                "name": "56106 - ERA06 - CENTRE TECHNIQUE MUNICIPAL",
                "status": "CLOSED"
            },
            "type": "Feature"
        },
        {
            "geometry": {
                "coordinates": [
                    2.00250713459357,
                    49.0452230206183
                ],
                "type": "Point"
            },
            "properties": {
                "address": "Boulevard des chasseurs angle boulevard Sainte Apolline - 95400 COURDIMANCHE",
                "available_bike_stands": 14,
                "available_bikes": 0,
                "banking": false,
                "bike_stands": 15,
                "bonus": false,
                "contract_name": "cergy-pontoise",
                "name": "56401 - COU01 - LA LOUVIERE (CB)",
                "status": "CLOSED"
            },
            "type": "Feature"
        }
    ],
    "type": "FeatureCollection"
}