{
    "features": [
        {
            "geometry": {
                "coordinates": [
                    2.034589,
                    49.049277
                ],
                "type": "Point"
            },
            "properties": {
                "capacity": 20,
                "is_installed": true,
                "is_renting": true,
                "is_returning": true,
                "is_virtual_station": false,
                "last_reported": 1789272040,
                "name": "Gare Cergy Axe Majeur Horloge",
                "num_bikes_available": 3,
                "num_docks_available": 16,
                "region_id": "1163",
                "rental_uris": {
                    "android": "https://app.nextbike.net/station?id=538291138",
                    "ios": "https://app.nextbike.net/station?id=538291138",
                    "web": "https://nxtb.it/p/538291138"
                },
                "short_name": "62408",
                "station_id": "538291138",
                "vehicle_types_available": [
                    {
                        "count": 3,
                        "vehicle_type_id": "204"
                    }
                ]
            },
            "type": "Feature"
        },
        {
            "geometry": {
                "coordinates": [
                    2.068996,
                    49.043275
                ],
                "type": "Point"
            },
            "properties": {
                "capacity": 13,
                "is_installed": true,
                "is_renting": true,
                "is_returning": true,
                "is_virtual_station": false,
                "last_reported": 1789272040,
                "name": "Place des Linandes",
                "num_bikes_available": 1,
                "num_docks_available": 10,
                "region_id": "1163",
                "rental_uris": {
                    "android": "https://app.nextbike.net/station?id=538294013",
                    "ios": "https://app.nextbike.net/station?id=538294013",
                    "web": "https://nxtb.it/p/538294013"
                },
                "short_name": "62413",
                "station_id": "538294013",
                "vehicle_types_available": [
                    {
                        "count": 1,
                        "vehicle_type_id": "204"
                    }
                ]
            },
            "type": "Feature"
        },
        {
            "geometry": {
                "coordinates": [
                    2.076362,
                    49.038861
                ],
                "type": "Point"
            },
            "properties": {
                "capacity": 20,
                "is_installed": true,
                "is_renting": true,
                "is_returning": true,
                "is_virtual_station": false,
                "last_reported": 1789272040,
                "name": "Universit\u00e9 Les Ch\u00eanes",
                "num_bikes_available": 7,
                "num_docks_available": 12,
                "region_id": "1163",
                "rental_uris": {
                    "android": "https://app.nextbike.net/station?id=538295343",
                    "ios": "https://app.nextbike.net/station?id=538295343",
                    "web": "https://nxtb.it/p/538295343"
                },
                "short_name": "62414",
                "station_id": "538295343",
                "vehicle_types_available": [
                    {
                        "count": 4,
                        "vehicle_type_id": "196"
                    },
                    {
                        "count": 3,
                        "vehicle_type_id": "204"
                    }
                ]
            },
            "type": "Feature"
        },
        {
            "geometry": {
                "coordinates": [
                    2.061958,
                    49.03558
                ],
                "type": "Point"
            },
            "properties": {
                "capacity": 14,
                "is_installed": true,
                "is_renting": true,
                "is_returning": true,
                "is_virtual_station": false,
                "last_reported": 1789272040,
                "name": "Cergy Village Centre",
                "num_bikes_available": 6,
                "num_docks_available": 8,
                "region_id": "1163",
                "rental_uris": {
                    "android": "https://app.nextbike.net/station?id=538296108",
                    "ios": "https://app.nextbike.net/station?id=538296108",
                    "web": "https://nxtb.it/p/538296108"
                },
                "short_name": "62415",
                "station_id": "538296108",
                "vehicle_types_available": [
                    {
                        "count": 3,
                        "vehicle_type_id": "196"
                    },
                    {
                        "count": 3,
                        "vehicle_type_id": "204"
                    }
                ]
            },
            "type": "Feature"
        },
        {
            "geometry": {
                "coordinates": [
                    2.061418,
                    49.031269
                ],
                "type": "Point"
            },
            "properties": {
                "capacity": 15,
                "is_installed": true,
                "is_renting": true,
                "is_returning": true,
                "is_virtual_station": false,
                "last_reported": 1789272040,
                "name": "Port Cergy",
                "num_bikes_available": 2,
                "num_docks_available": 13,
                "region_id": "1163",
                "rental_uris": {
                    "android": "https://app.nextbike.net/station?id=538296760",
                    "ios": "https://app.nextbike.net/station?id=538296760",
                    "web": "https://nxtb.it/p/538296760"
                },
                "short_name": "62416",
                "station_id": "538296760",
                "vehicle_types_available": [
                    {
                        "count": 2,
                        "vehicle_type_id": "196"
                    }
                ]
            },
            "type": "Feature"
        },
        {
            "geometry": {
                "coordinates": [
                    2.067624,
                    49.034614
                ],
                "type": "Point"
            },
            "properties": {
                "capacity": 14,
                "is_installed": true,
                "is_renting": true,
                "is_returning": true,
                "is_virtual_station": false,
                "last_reported": 1789272040,
                "name": "Rue des Lilas",
                "num_bikes_available": 4,
                "num_docks_available": 9,
                "region_id": "1163",
                "rental_uris": {
                    "android": "https://app.nextbike.net/station?id=538297712",
                    "ios": "https://app.nextbike.net/station?id=538297712",
                    "web": "https://nxtb.it/p/538297712"
                },
                "short_name": "62417",
                "station_id": "538297712",
                "vehicle_types_available": [
                    {
                        "count": 3,
                        "vehicle_type_id": "196"
                    },
                    {
                        "count": 1,
                        "vehicle_type_id": "204"
                    }
                ]
            },
            "type": "Feature"
        },
        {
            "geometry": {
                "coordinates": [
                    2.074354,
                    49.032127
                ],
                "type": "Point"
            },
            "properties": {
                "capacity": 18,
                "is_installed": true,
                "is_renting": true,
                "is_returning": true,
                "is_virtual_station": false,
                "last_reported": 1789272040,
                "name": "Conseil D\u00e9partemental",
                "num_bikes_available": 1,
                "num_docks_available": 15,
                "region_id": "1163",
                "rental_uris": {
                    "android": "https://app.nextbike.net/station?id=538299532",
                    "ios": "https://app.nextbike.net/station?id=538299532",
                    "web": "https://nxtb.it/p/538299532"
                },
                "short_name": "62418",
                "station_id": "538299532",
                "vehicle_types_available": [
                    {
                        "count": 1,
                        "vehicle_type_id": "196"
                    }
                ]
            },
            "type": "Feature"
        },
        {
            "geometry": {
                "coordinates": [
                    2.079618,
                    49.036336
                ],
                "type": "Point"
            },
            "properties": {
                "capacity": 20,
                "is_installed": true,
                "is_renting": true,
                "is_returning": true,
                "is_virtual_station": false,
                "last_reported": 1789272040,
                "name": "Dalle pi\u00e9tonne Grand Centre",
                "num_bikes_available": 3,
                "num_docks_available": 16,
                "region_id": "1163",
                "rental_uris": {
                    "android": "https://app.nextbike.net/station?id=538300023",
                    "ios": "https://app.nextbike.net/station?id=538300023",
                    "web": "https://nxtb.it/p/538300023"
                },
                "short_name": "62419",
                "station_id": "538300023",
                "vehicle_types_available": [
                    {
                        "count": 2,
                        "vehicle_type_id": "196"
                    },
                    {
                        "count": 1,
                        "vehicle_type_id": "204"
                    }
                ]
            },
            "type": "Feature"
        },
        {
            "geometry": {
                "coordinates": [
                    2.080491,
                    49.036416
                ],
                "type": "Point"
            },
            "properties": {
                "capacity": 20,
                "is_installed": true,
                "is_renting": true,
                "is_returning": true,
                "is_virtual_station": false,
                "last_reported": 1789272040,
                "name": "Gare Cergy Grand Centre",
                "num_bikes_available": 6,
                "num_docks_available": 12,
                "region_id": "1163",
                "rental_uris": {
                    "android": "https://app.nextbike.net/station?id=538304777",
                    "ios": "https://app.nextbike.net/station?id=538304777",
                    "web": "https://nxtb.it/p/538304777"
                },
                "short_name": "62420",
                "station_id": "538304777",
                "vehicle_types_available": [
                    {
                        "count": 4,
                        "vehicle_type_id": "196"
                    },
                    {
                        "count": 2,
                        "vehicle_type_id": "204"
                    }
                ]
            },
            "type": "Feature"
        },
        {
            "geometry": {
                "coordinates": [
                    2.070494,
                    49.037987
                ],
                "type": "Point"
            },
            "properties": {
                "capacity": 18,
                "is_installed": true,
                "is_renting": true,
                "is_returning": true,
                "is_virtual_station": false,
                "last_reported": 1789272040,
                "name": "Croix-Petit",
                "num_bikes_available": 2,
                "num_docks_available": 14,
                "region_id": "1163",
                "rental_uris": {
                    "android": "https://app.nextbike.net/station?id=538305588",
                    "ios": "https://app.nextbike.net/station?id=538305588",
                    "web": "https://nxtb.it/p/538305588"
                },
                "short_name": "62422",
                "station_id": "538305588",
                "vehicle_types_available": [
                    {
                        "count": 2,
                        "vehicle_type_id": "196"
                    }
                ]
            },
            "type": "Feature"
        },
        {
            "geometry": {
                "coordinates": [
                    2.098766,
                    49.051776
                ],
                "type": "Point"
            },
            "properties": {
                "capacity": 14,
                "is_installed": true,
                "is_renting": true,
                "is_returning": true,
                "is_virtual_station": false,
                "last_reported": 1789272040,
                "name": "Tribunal",
                "num_bikes_available": 1,
                "num_docks_available": 12,
                "region_id": "1162",
                "rental_uris": {
                    "android": "https://app.nextbike.net/station?id=538306450",
                    "ios": "https://app.nextbike.net/station?id=538306450",
                    "web": "https://nxtb.it/p/538306450"
                },
                "short_name": "62449",
                "station_id": "538306450",
                "vehicle_types_available": [
                    {
                        "count": 1,
                        "vehicle_type_id": "196"
                    }
                ]
            },
            "type": "Feature"
        },
        {
            "geometry": {
                "coordinates": [
                    2.093907,
                    49.063937
                ],
                "type": "Point"
            },
            "properties": {
                "capacity": 18,
                "is_installed": true,
                "is_renting": true,
                "is_returning": true,
                "is_virtual_station": false,
                "last_reported": 1789272040,
                "name": "H\u00f4pital",
                "num_bikes_available": 0,
                "num_docks_available": 18,
                "region_id": "1162",
                "rental_uris": {
                    "android": "https://app.nextbike.net/station?id=538307128",
                    "ios": "https://app.nextbike.net/station?id=538307128",
                    "web": "https://nxtb.it/p/538307128"
                },
                "short_name": "62450",
                "station_id": "538307128",
                "vehicle_types_available": []
            },
            "type": "Feature"
        },
        {
            "geometry": {
                "coordinates": [
                    2.011518,
                    49.048408
                ],
                "type": "Point"
            },
            "properties": {
                "capacity": 20,
                "is_installed": true,
                "is_renting": true,
                "is_returning": true,
                "is_virtual_station": false,
                "last_reported": 1789272040,
                "name": "Gare Les Hauts de Cergy",
                "num_bikes_available": 1,
                "num_docks_available": 19,
                "region_id": "1163",
                "rental_uris": {
                    "android": "https://app.nextbike.net/station?id=538308479",
                    "ios": "https://app.nextbike.net/station?id=538308479",
                    "web": "https://nxtb.it/p/538308479"
                },
                "short_name": "62401",
                "station_id": "538308479",
                "vehicle_types_available": [
                    {
                        "count": 1,
                        "vehicle_type_id": "204"
                    }
                ]
            },
            "type": "Feature"
        },
        {
            "geometry": {
                "coordinates": [
                    2.090981,
                    49.017927
                ],
                "type": "Point"
            },
            "properties": {
                "capacity": 20,
                "is_installed": true,
                "is_renting": true,
                "is_returning": true,
                "is_virtual_station": false,
                "last_reported": 1789272040,
                "name": "Gare d'Eragny",
                "num_bikes_available": 0,
                "num_docks_available": 20,
                "region_id": "1157",
                "rental_uris": {
                    "android": "https://app.nextbike.net/station?id=538310586",
                    "ios": "https://app.nextbike.net/station?id=538310586",
                    "web": "https://nxtb.it/p/538310586"
                },
                "short_name": "62431",
                "station_id": "538310586",
                "vehicle_types_available": []
            },
            "type": "Feature"
        },
        {
            "geometry": {
                "coordinates": [
                    2.078947,
                    49.014546
                ],
                "type": "Point"
            },
            "properties": {
                "capacity": 20,
                "is_installed": true,
                "is_renting": true,
                "is_returning": true,
                "is_virtual_station": false,
                "last_reported": 1789272040,
                "name": "Gare de Neuville Universit\u00e9",
                "num_bikes_available": 0,
                "num_docks_available": 20,
                "region_id": "1156",
                "rental_uris": {
                    "android": "https://app.nextbike.net/station?id=538311260",
                    "ios": "https://app.nextbike.net/station?id=538311260",
                    "web": "https://nxtb.it/p/538311260"
                },
                "short_name": "62440",
                "station_id": "538311260",
                "vehicle_types_available": []
            },
            "type": "Feature"
        },
        {
            "geometry": {
                "coordinates": [
                    2.090616,
                    49.044397
                ],
                "type": "Point"
            },
            "properties": {
                "capacity": 18,
                "is_installed": true,
                "is_renting": true,
                "is_returning": true,
                "is_virtual_station": false,
                "last_reported": 1789272040,
                "name": "Place de la Lib\u00e9ration",
                "num_bikes_available": 1,
                "num_docks_available": 17,
                "region_id": "1162",
                "rental_uris": {
                    "android": "https://app.nextbike.net/station?id=538312139",
                    "ios": "https://app.nextbike.net/station?id=538312139",
                    "web": "https://nxtb.it/p/538312139"
                },
                "short_name": "62446",
                "station_id": "538312139",
                "vehicle_types_available": [
                    {
                        "count": 1,
                        "vehicle_type_id": "204"
                    }
                ]
            },
            "type": "Feature"
        },
        {
            "geometry": {
                "coordinates": [
                    2.085438,
                    49.043671
                ],
                "type": "Point"
            },
            "properties": {
                "capacity": 15,
                "is_installed": true,
                "is_renting": true,
                "is_returning": true,
                "is_virtual_station": false,
                "last_reported": 1789272040,
                "name": "Universit\u00e9 Saint-Martin",
                "num_bikes_available": 3,
                "num_docks_available": 12,
                "region_id": "1162",
                "rental_uris": {
                    "android": "https://app.nextbike.net/station?id=538313103",
                    "ios": "https://app.nextbike.net/station?id=538313103",
                    "web": "https://nxtb.it/p/538313103"
                },
                "short_name": "62447",
                "station_id": "538313103",
                "vehicle_types_available": [
                    {
                        "count": 3,
                        "vehicle_type_id": "196"
                    }
                ]
            },
            "type": "Feature"
        },
        {
            "geometry": {
                "coordinates": [
                    2.085854,
                    49.033147
                ],
                "type": "Point"
            },
            "properties": {
                "capacity": 20,
                "is_installed": true,
                "is_renting": true,
                "is_returning": true,
                "is_virtual_station": false,
                "last_reported": 1789272040,
                "name": "La Palette",
                "num_bikes_available": 6,
                "num_docks_available": 14,
                "region_id": "1162",
                "rental_uris": {
                    "android": "https://app.nextbike.net/station?id=538313635",
                    "ios": "https://app.nextbike.net/station?id=538313635",
                    "web": "https://nxtb.it/p/538313635"
                },
                "short_name": "62448",
                "station_id": "538313635",
                "vehicle_types_available": [
                    {
                        "count": 1,
                        "vehicle_type_id": "196"
                    },
                    {
                        "count": 5,
                        "vehicle_type_id": "204"
                    }
                ]
            },
            "type": "Feature"
        },
        {
            "geometry": {
                "coordinates": [
                    2.050383,
                    49.026439
                ],
                "type": "Point"
            },
            "properties": {
                "capacity": 25,
                "is_installed": true,
                "is_renting": true,
                "is_returning": true,
                "is_virtual_station": false,
                "last_reported": 1789272040,
                "name": "Ile-de-Loisirs",
                "num_bikes_available": 7,
                "num_docks_available": 16,
                "region_id": "1156",
                "rental_uris": {
                    "android": "https://app.nextbike.net/station?id=538314122",
                    "ios": "https://app.nextbike.net/station?id=538314122",
                    "web": "https://nxtb.it/p/538314122"
                },
                "short_name": "62441",
                "station_id": "538314122",
                "vehicle_types_available": [
                    {
                        "count": 4,
                        "vehicle_type_id": "196"
                    },
                    {
                        "count": 3,
                        "vehicle_type_id": "204"
                    }
                ]
            },
            "type": "Feature"
        },
        {
            "geometry": {
                "coordinates": [
                    2.057729,
                    49.062826
                ],
                "type": "Point"
            },
            "properties": {
                "capacity": 15,
                "is_installed": true,
                "is_renting": true,
                "is_returning": true,
                "is_virtual_station": false,
                "last_reported": 1789272040,
                "name": "Gare d'Osny",
                "num_bikes_available": 3,
                "num_docks_available": 10,
                "region_id": "1160",
                "rental_uris": {
                    "android": "https://app.nextbike.net/station?id=538314485",
                    "ios": "https://app.nextbike.net/station?id=538314485",
                    "web": "https://nxtb.it/p/538314485"
                },
                "short_name": "62443",
                "station_id": "538314485",
                "vehicle_types_available": [
                    {
                        "count": 1,
                        "vehicle_type_id": "196"
                    },
                    {
                        "count": 2,
                        "vehicle_type_id": "204"
                    }
                ]
            },
            "type": "Feature"
        },
        {
            "geometry": {
                "coordinates": [
                    2.127801,
                    49.03375
                ],
                "type": "Point"
            },
            "properties": {
                "capacity": 20,
                "is_installed": true,
                "is_renting": true,
                "is_returning": true,
                "is_virtual_station": false,
                "last_reported": 1789272040,
                "name": "Gare de Liesse",
                "num_bikes_available": 3,
                "num_docks_available": 16,
                "region_id": "1158",
                "rental_uris": {
                    "android": "https://app.nextbike.net/station?id=538315264",
                    "ios": "https://app.nextbike.net/station?id=538315264",
                    "web": "https://nxtb.it/p/538315264"
                },
                "short_name": "62455",
                "station_id": "538315264",
                "vehicle_types_available": [
                    {
                        "count": 1,
                        "vehicle_type_id": "196"
                    },
                    {
                        "count": 2,
                        "vehicle_type_id": "204"
                    }
                ]
            },
            "type": "Feature"
        },
        {
            "geometry": {
                "coordinates": [
                    2.053045,
                    49.011967
                ],
                "type": "Point"
            },
            "properties": {
                "capacity": 10,
                "is_installed": true,
                "is_renting": true,
                "is_returning": true,
                "is_virtual_station": false,
                "last_reported": 1789272040,
                "name": "Croix Saint-Jacques",
                "num_bikes_available": 14,
                "num_docks_available": 0,
                "region_id": "1161",
                "rental_uris": {
                    "android": "https://app.nextbike.net/station?id=538315750",
                    "ios": "https://app.nextbike.net/station?id=538315750",
                    "web": "https://nxtb.it/p/538315750"
                },
                "short_name": "62437",
                "station_id": "538315750",
                "vehicle_types_available": [
                    {
                        "count": 9,
                        "vehicle_type_id": "196"
                    },
                    {
                        "count": 5,
                        "vehicle_type_id": "204"
                    }
                ]
            },
            "type": "Feature"
        },
        {
            "geometry": {
                "coordinates": [
                    2.019554,
                    49.042333
                ],
                "type": "Point"
            },
            "properties": {
                "capacity": 20,
                "is_installed": true,
                "is_renting": true,
                "is_returning": true,
                "is_virtual_station": false,
                "last_reported": 1789272040,
                "name": "Les Essarts",
                "num_bikes_available": 1,
                "num_docks_available": 18,
                "region_id": "1163",
                "rental_uris": {
                    "android": "https://app.nextbike.net/station?id=538316157",
                    "ios": "https://app.nextbike.net/station?id=538316157",
                    "web": "https://nxtb.it/p/538316157"
                },
                "short_name": "62403",
                "station_id": "538316157",
                "vehicle_types_available": [
                    {
                        "count": 1,
                        "vehicle_type_id": "204"
                    }
                ]
            },
            "type": "Feature"
        },
        {
            "geometry": {
                "coordinates": [
                    2.045104,
                    49.046589
                ],
                "type": "Point"
            },
            "properties": {
                "capacity": 16,
                "is_installed": true,
                "is_renting": true,
                "is_returning": true,
                "is_virtual_station": false,
                "last_reported": 1789272040,
                "name": "Place du Haut de Gency",
                "num_bikes_available": 0,
                "num_docks_available": 15,
                "region_id": "1163",
                "rental_uris": {
                    "android": "https://app.nextbike.net/station?id=538316774",
                    "ios": "https://app.nextbike.net/station?id=538316774",
                    "web": "https://nxtb.it/p/538316774"
                },
                "short_name": "62410",
                "station_id": "538316774",
                "vehicle_types_available": []
            },
            "type": "Feature"
        },
        {
            "geometry": {
                "coordinates": [
                    2.060277,
                    49.043109
                ],
                "type": "Point"
            },
            "properties": {
                "capacity": 20,
                "is_installed": true,
                "is_renting": true,
                "is_returning": true,
                "is_virtual_station": false,
                "last_reported": 1789272040,
                "name": "Avenue du Nord",
                "num_bikes_available": 5,
                "num_docks_available": 14,
                "region_id": "1163",
                "rental_uris": {
                    "android": "https://app.nextbike.net/station?id=538317059",
                    "ios": "https://app.nextbike.net/station?id=538317059",
                    "web": "https://nxtb.it/p/538317059"
                },
                "short_name": "62412",
                "station_id": "538317059",
                "vehicle_types_available": [
                    {
                        "count": 1,
                        "vehicle_type_id": "196"
                    },
                    {
                        "count": 4,
                        "vehicle_type_id": "204"
                    }
                ]
            },
            "type": "Feature"
        },
        {
            "geometry": {
                "coordinates": [
                    2.083579,
                    49.030779
                ],
                "type": "Point"
            },
            "properties": {
                "capacity": 16,
                "is_installed": true,
                "is_renting": true,
                "is_returning": true,
                "is_virtual_station": false,
                "last_reported": 1789272040,
                "name": "Les Touleuses",
                "num_bikes_available": 8,
                "num_docks_available": 6,
                "region_id": "1163",
                "rental_uris": {
                    "android": "https://app.nextbike.net/station?id=538503466",
                    "ios": "https://app.nextbike.net/station?id=538503466",
                    "web": "https://nxtb.it/p/538503466"
                },
                "short_name": "62421",
                "station_id": "538503466",
                "vehicle_types_available": [
                    {
                        "count": 4,
                        "vehicle_type_id": "196"
                    },
                    {
                        "count": 4,
                        "vehicle_type_id": "204"
                    }
                ]
            },
            "type": "Feature"
        },
        {
            "geometry": {
                "coordinates": [
                    2.021742,
                    49.030008
                ],
                "type": "Point"
            },
            "properties": {
                "capacity": 12,
                "is_installed": true,
                "is_renting": true,
                "is_returning": true,
                "is_virtual_station": false,
                "last_reported": 1789272040,
                "name": "Mairie Croix-Lieu",
                "num_bikes_available": 4,
                "num_docks_available": 7,
                "region_id": "1154",
                "rental_uris": {
                    "android": "https://app.nextbike.net/station?id=538503732",
                    "ios": "https://app.nextbike.net/station?id=538503732",
                    "web": "https://nxtb.it/p/538503732"
                },
                "short_name": "62458",
                "station_id": "538503732",
                "vehicle_types_available": [
                    {
                        "count": 2,
                        "vehicle_type_id": "196"
                    },
                    {
                        "count": 2,
                        "vehicle_type_id": "204"
                    }
                ]
            },
            "type": "Feature"
        },
        {
            "geometry": {
                "coordinates": [
                    2.022351,
                    49.023832
                ],
                "type": "Point"
            },
            "properties": {
                "capacity": 10,
                "is_installed": true,
                "is_renting": true,
                "is_returning": true,
                "is_virtual_station": false,
                "last_reported": 1789272040,
                "name": "Mend\u00e8s France",
                "num_bikes_available": 8,
                "num_docks_available": 2,
                "region_id": "1154",
                "rental_uris": {
                    "android": "https://app.nextbike.net/station?id=538505104",
                    "ios": "https://app.nextbike.net/station?id=538505104",
                    "web": "https://nxtb.it/p/538505104"
                },
                "short_name": "62459",
                "station_id": "538505104",
                "vehicle_types_available": [
                    {
                        "count": 2,
                        "vehicle_type_id": "196"
                    },
                    {
                        "count": 6,
                        "vehicle_type_id": "204"
                    }
                ]
            },
            "type": "Feature"
        },
        {
            "geometry": {
                "coordinates": [
                    2.01366,
                    49.046868
                ],
                "type": "Point"
            },
            "properties": {
                "capacity": 15,
                "is_installed": true,
                "is_renting": true,
                "is_returning": true,
                "is_virtual_station": false,
                "last_reported": 1789272040,
                "name": "Avenue du Hazay",
                "num_bikes_available": 1,
                "num_docks_available": 14,
                "region_id": "1163",
                "rental_uris": {
                    "android": "https://app.nextbike.net/station?id=538505938",
                    "ios": "https://app.nextbike.net/station?id=538505938",
                    "web": "https://nxtb.it/p/538505938"
                },
                "short_name": "62402",
                "station_id": "538505938",
                "vehicle_types_available": [
                    {
                        "count": 1,
                        "vehicle_type_id": "196"
                    }
                ]
            },
            "type": "Feature"
        },
        {
            "geometry": {
                "coordinates": [
                    2.110541,
                    49.023025
                ],
                "type": "Point"
            },
            "properties": {
                "capacity": 10,
                "is_installed": true,
                "is_renting": true,
                "is_returning": true,
                "is_virtual_station": false,
                "last_reported": 1789272040,
                "name": "Charles De Gaulle",
                "num_bikes_available": 1,
                "num_docks_available": 8,
                "region_id": "1157",
                "rental_uris": {
                    "android": "https://app.nextbike.net/station?id=538507418",
                    "ios": "https://app.nextbike.net/station?id=538507418",
                    "web": "https://nxtb.it/p/538507418"
                },
                "short_name": "62430",
                "station_id": "538507418",
                "vehicle_types_available": [
                    {
                        "count": 1,
                        "vehicle_type_id": "204"
                    }
                ]
            },
            "type": "Feature"
        },
        {
            "geometry": {
                "coordinates": [
                    2.099712,
                    49.017516
                ],
                "type": "Point"
            },
            "properties": {
                "capacity": 18,
                "is_installed": true,
                "is_renting": true,
                "is_returning": true,
                "is_virtual_station": false,
                "last_reported": 1789272040,
                "name": "La Challe",
                "num_bikes_available": 5,
                "num_docks_available": 11,
                "region_id": "1157",
                "rental_uris": {
                    "android": "https://app.nextbike.net/station?id=538510189",
                    "ios": "https://app.nextbike.net/station?id=538510189",
                    "web": "https://nxtb.it/p/538510189"
                },
                "short_name": "62432",
                "station_id": "538510189",
                "vehicle_types_available": [
                    {
                        "count": 2,
                        "vehicle_type_id": "196"
                    },
                    {
                        "count": 3,
                        "vehicle_type_id": "204"
                    }
                ]
            },
            "type": "Feature"
        },
        {
            "geometry": {
                "coordinates": [
                    1.982002,
                    49.02593
                ],
                "type": "Point"
            },
            "properties": {
                "capacity": 7,
                "is_installed": true,
                "is_renting": true,
                "is_returning": true,
                "is_virtual_station": false,
                "last_reported": 1789272040,
                "name": "Rue de la Mar\u00e8che",
                "num_bikes_available": 3,
                "num_docks_available": 2,
                "region_id": "1159",
                "rental_uris": {
                    "android": "https://app.nextbike.net/station?id=538510823",
                    "ios": "https://app.nextbike.net/station?id=538510823",
                    "web": "https://nxtb.it/p/538510823"
                },
                "short_name": "62439",
                "station_id": "538510823",
                "vehicle_types_available": [
                    {
                        "count": 3,
                        "vehicle_type_id": "204"
                    }
                ]
            },
            "type": "Feature"
        },
        {
            "geometry": {
                "coordinates": [
                    2.075023,
                    49.074429
                ],
                "type": "Point"
            },
            "properties": {
                "capacity": 6,
                "is_installed": true,
                "is_renting": true,
                "is_returning": true,
                "is_virtual_station": false,
                "last_reported": 1789272040,
                "name": "Sainte-Marie",
                "num_bikes_available": 1,
                "num_docks_available": 4,
                "region_id": "1160",
                "rental_uris": {
                    "android": "https://app.nextbike.net/station?id=538511148",
                    "ios": "https://app.nextbike.net/station?id=538511148",
                    "web": "https://nxtb.it/p/538511148"
                },
                "short_name": "62442",
                "station_id": "538511148",
                "vehicle_types_available": [
                    {
                        "count": 1,
                        "vehicle_type_id": "204"
                    }
                ]
            },
            "type": "Feature"
        },
        {
            "geometry": {
                "coordinates": [
                    2.106907,
                    49.045365
                ],
                "type": "Point"
            },
            "properties": {
                "capacity": 20,
                "is_installed": true,
                "is_renting": true,
                "is_returning": true,
                "is_virtual_station": false,
                "last_reported": 1789272040,
                "name": "Mairie / Gare Saint-Ouen-L'Aum\u00f4ne Centre",
                "num_bikes_available": 11,
                "num_docks_available": 8,
                "region_id": "1158",
                "rental_uris": {
                    "android": "https://app.nextbike.net/station?id=538512955",
                    "ios": "https://app.nextbike.net/station?id=538512955",
                    "web": "https://nxtb.it/p/538512955"
                },
                "short_name": "62454",
                "station_id": "538512955",
                "vehicle_types_available": [
                    {
                        "count": 9,
                        "vehicle_type_id": "196"
                    },
                    {
                        "count": 2,
                        "vehicle_type_id": "204"
                    }
                ]
            },
            "type": "Feature"
        },
        {
            "geometry": {
                "coordinates": [
                    2.036569,
                    49.044091
                ],
                "type": "Point"
            },
            "properties": {
                "capacity": 16,
                "is_installed": true,
                "is_renting": true,
                "is_returning": true,
                "is_virtual_station": false,
                "last_reported": 1789272040,
                "name": "Axe Majeur",
                "num_bikes_available": 0,
                "num_docks_available": 13,
                "region_id": "1163",
                "rental_uris": {
                    "android": "https://app.nextbike.net/station?id=538513301",
                    "ios": "https://app.nextbike.net/station?id=538513301",
                    "web": "https://nxtb.it/p/538513301"
                },
                "short_name": "62407",
                "station_id": "538513301",
                "vehicle_types_available": []
            },
            "type": "Feature"
        },
        {
            "geometry": {
                "coordinates": [
                    2.041857,
                    49.010438
                ],
                "type": "Point"
            },
            "properties": {
                "capacity": 11,
                "is_installed": true,
                "is_renting": true,
                "is_returning": true,
                "is_virtual_station": false,
                "last_reported": 1789272040,
                "name": "Place du Bien-\u00eatre",
                "num_bikes_available": 7,
                "num_docks_available": 4,
                "region_id": "1161",
                "rental_uris": {
                    "android": "https://app.nextbike.net/station?id=538514305",
                    "ios": "https://app.nextbike.net/station?id=538514305",
                    "web": "https://nxtb.it/p/538514305"
                },
                "short_name": "62436",
                "station_id": "538514305",
                "vehicle_types_available": [
                    {
                        "count": 5,
                        "vehicle_type_id": "196"
                    },
                    {
                        "count": 2,
                        "vehicle_type_id": "204"
                    }
                ]
            },
            "type": "Feature"
        },
        {
            "geometry": {
                "coordinates": [
                    2.102584,
                    49.047686
                ],
                "type": "Point"
            },
            "properties": {
                "capacity": 13,
                "is_installed": true,
                "is_renting": true,
                "is_returning": true,
                "is_virtual_station": false,
                "last_reported": 1789272040,
                "name": "Place Carnot",
                "num_bikes_available": 0,
                "num_docks_available": 12,
                "region_id": "1158",
                "rental_uris": {
                    "android": "https://app.nextbike.net/station?id=538514907",
                    "ios": "https://app.nextbike.net/station?id=538514907",
                    "web": "https://nxtb.it/p/538514907"
                },
                "short_name": "62453",
                "station_id": "538514907",
                "vehicle_types_available": []
            },
            "type": "Feature"
        },
        {
            "geometry": {
                "coordinates": [
                    2.019695,
                    49.033241
                ],
                "type": "Point"
            },
            "properties": {
                "capacity": 10,
                "is_installed": true,
                "is_renting": true,
                "is_returning": true,
                "is_virtual_station": false,
                "last_reported": 1789272040,
                "name": "Place du Rendez-vous",
                "num_bikes_available": 3,
                "num_docks_available": 7,
                "region_id": "1154",
                "rental_uris": {
                    "android": "https://app.nextbike.net/station?id=538515415",
                    "ios": "https://app.nextbike.net/station?id=538515415",
                    "web": "https://nxtb.it/p/538515415"
                },
                "short_name": "62457",
                "station_id": "538515415",
                "vehicle_types_available": [
                    {
                        "count": 2,
                        "vehicle_type_id": "196"
                    },
                    {
                        "count": 1,
                        "vehicle_type_id": "204"
                    }
                ]
            },
            "type": "Feature"
        },
        {
            "geometry": {
                "coordinates": [
                    2.036035,
                    49.051616
                ],
                "type": "Point"
            },
            "properties": {
                "capacity": 14,
                "is_installed": true,
                "is_renting": true,
                "is_returning": true,
                "is_virtual_station": false,
                "last_reported": 1789272040,
                "name": "Place de l'H\u00f4tel de Ville",
                "num_bikes_available": 0,
                "num_docks_available": 14,
                "region_id": "1163",
                "rental_uris": {
                    "android": "https://app.nextbike.net/station?id=538515849",
                    "ios": "https://app.nextbike.net/station?id=538515849",
                    "web": "https://nxtb.it/p/538515849"
                },
                "short_name": "62409",
                "station_id": "538515849",
                "vehicle_types_available": []
            },
            "type": "Feature"
        },
        {
            "geometry": {
                "coordinates": [
                    2.00308,
                    49.045472
                ],
                "type": "Point"
            },
            "properties": {
                "capacity": 11,
                "is_installed": true,
                "is_renting": true,
                "is_returning": true,
                "is_virtual_station": false,
                "last_reported": 1789272040,
                "name": "La Louvi\u00e8re",
                "num_bikes_available": 3,
                "num_docks_available": 8,
                "region_id": "1155",
                "rental_uris": {
                    "android": "https://app.nextbike.net/station?id=538516101",
                    "ios": "https://app.nextbike.net/station?id=538516101",
                    "web": "https://nxtb.it/p/538516101"
                },
                "short_name": "62427",
                "station_id": "538516101",
                "vehicle_types_available": [
                    {
                        "count": 1,
                        "vehicle_type_id": "196"
                    },
                    {
                        "count": 2,
                        "vehicle_type_id": "204"
                    }
                ]
            },
            "type": "Feature"
        },
        {
            "geometry": {
                "coordinates": [
                    2.101753,
                    49.032301
                ],
                "type": "Point"
            },
            "properties": {
                "capacity": 16,
                "is_installed": true,
                "is_renting": true,
                "is_returning": true,
                "is_virtual_station": false,
                "last_reported": 1789272040,
                "name": "Art de Vivre",
                "num_bikes_available": 8,
                "num_docks_available": 8,
                "region_id": "1157",
                "rental_uris": {
                    "android": "https://app.nextbike.net/station?id=538516569",
                    "ios": "https://app.nextbike.net/station?id=538516569",
                    "web": "https://nxtb.it/p/538516569"
                },
                "short_name": "62433",
                "station_id": "538516569",
                "vehicle_types_available": [
                    {
                        "count": 8,
                        "vehicle_type_id": "196"
                    }
                ]
            },
            "type": "Feature"
        },
        {
            "geometry": {
                "coordinates": [
                    2.017985,
                    49.052808
                ],
                "type": "Point"
            },
            "properties": {
                "capacity": 12,
                "is_installed": true,
                "is_renting": true,
                "is_returning": true,
                "is_virtual_station": false,
                "last_reported": 1789272040,
                "name": "Le Bon Temps",
                "num_bikes_available": 0,
                "num_docks_available": 12,
                "region_id": "1163",
                "rental_uris": {
                    "android": "https://app.nextbike.net/station?id=538516881",
                    "ios": "https://app.nextbike.net/station?id=538516881",
                    "web": "https://nxtb.it/p/538516881"
                },
                "short_name": "62404",
                "station_id": "538516881",
                "vehicle_types_available": []
            },
            "type": "Feature"
        },
        {
            "geometry": {
                "coordinates": [
                    2.026942,
                    49.048944
                ],
                "type": "Point"
            },
            "properties": {
                "capacity": 13,
                "is_installed": true,
                "is_renting": true,
                "is_returning": true,
                "is_virtual_station": false,
                "last_reported": 1789272040,
                "name": "Le Chat Perch\u00e9",
                "num_bikes_available": 1,
                "num_docks_available": 11,
                "region_id": "1163",
                "rental_uris": {
                    "android": "https://app.nextbike.net/station?id=538517154",
                    "ios": "https://app.nextbike.net/station?id=538517154",
                    "web": "https://nxtb.it/p/538517154"
                },
                "short_name": "62405",
                "station_id": "538517154",
                "vehicle_types_available": [
                    {
                        "count": 1,
                        "vehicle_type_id": "196"
                    }
                ]
            },
            "type": "Feature"
        },
        {
            "geometry": {
                "coordinates": [
                    2.029623,
                    49.043026
                ],
                "type": "Point"
            },
            "properties": {
                "capacity": 10,
                "is_installed": true,
                "is_renting": true,
                "is_returning": true,
                "is_virtual_station": false,
                "last_reported": 1789272040,
                "name": "Parc Saint-Christophe",
                "num_bikes_available": 3,
                "num_docks_available": 7,
                "region_id": "1163",
                "rental_uris": {
                    "android": "https://app.nextbike.net/station?id=538517540",
                    "ios": "https://app.nextbike.net/station?id=538517540",
                    "web": "https://nxtb.it/p/538517540"
                },
                "short_name": "62406",
                "station_id": "538517540",
                "vehicle_types_available": [
                    {
                        "count": 1,
                        "vehicle_type_id": "196"
                    },
                    {
                        "count": 2,
                        "vehicle_type_id": "204"
                    }
                ]
            },
            "type": "Feature"
        },
        {
            "geometry": {
                "coordinates": [
                    2.054882,
                    49.051233
                ],
                "type": "Point"
            },
            "properties": {
                "capacity": 15,
                "is_installed": true,
                "is_renting": true,
                "is_returning": true,
                "is_virtual_station": false,
                "last_reported": 1789272040,
                "name": "Aren'Ice",
                "num_bikes_available": 5,
                "num_docks_available": 10,
                "region_id": "1163",
                "rental_uris": {
                    "android": "https://app.nextbike.net/station?id=538517834",
                    "ios": "https://app.nextbike.net/station?id=538517834",
                    "web": "https://nxtb.it/p/538517834"
                },
                "short_name": "62423",
                "station_id": "538517834",
                "vehicle_types_available": [
                    {
                        "count": 5,
                        "vehicle_type_id": "204"
                    }
                ]
            },
            "type": "Feature"
        },
        {
            "geometry": {
                "coordinates": [
                    2.069491,
                    49.051086
                ],
                "type": "Point"
            },
            "properties": {
                "capacity": 11,
                "is_installed": true,
                "is_renting": true,
                "is_returning": true,
                "is_virtual_station": false,
                "last_reported": 1789272040,
                "name": "Beaux soleils",
                "num_bikes_available": 3,
                "num_docks_available": 8,
                "region_id": "1160",
                "rental_uris": {
                    "android": "https://app.nextbike.net/station?id=538518266",
                    "ios": "https://app.nextbike.net/station?id=538518266",
                    "web": "https://nxtb.it/p/538518266"
                },
                "short_name": "62424",
                "station_id": "538518266",
                "vehicle_types_available": [
                    {
                        "count": 1,
                        "vehicle_type_id": "196"
                    },
                    {
                        "count": 2,
                        "vehicle_type_id": "204"
                    }
                ]
            },
            "type": "Feature"
        },
        {
            "geometry": {
                "coordinates": [
                    2.089538,
                    49.058751
                ],
                "type": "Point"
            },
            "properties": {
                "capacity": 15,
                "is_installed": true,
                "is_renting": true,
                "is_returning": true,
                "is_virtual_station": false,
                "last_reported": 1789272040,
                "name": "Louvrais",
                "num_bikes_available": 2,
                "num_docks_available": 13,
                "region_id": "1162",
                "rental_uris": {
                    "android": "https://app.nextbike.net/station?id=538520633",
                    "ios": "https://app.nextbike.net/station?id=538520633",
                    "web": "https://nxtb.it/p/538520633"
                },
                "short_name": "62451",
                "station_id": "538520633",
                "vehicle_types_available": [
                    {
                        "count": 2,
                        "vehicle_type_id": "204"
                    }
                ]
            },
            "type": "Feature"
        },
        {
            "geometry": {
                "coordinates": [
                    2.095191,
                    49.047383
                ],
                "type": "Point"
            },
            "properties": {
                "capacity": 20,
                "is_installed": true,
                "is_renting": true,
                "is_returning": true,
                "is_virtual_station": false,
                "last_reported": 1789272040,
                "name": "Gare de Pontoise",
                "num_bikes_available": 3,
                "num_docks_available": 13,
                "region_id": "1162",
                "rental_uris": {
                    "android": "https://app.nextbike.net/station?id=563254368",
                    "ios": "https://app.nextbike.net/station?id=563254368",
                    "web": "https://nxtb.it/p/563254368"
                },
                "short_name": "62460",
                "station_id": "563254368",
                "vehicle_types_available": [
                    {
                        "count": 2,
                        "vehicle_type_id": "196"
                    },
                    {
                        "count": 1,
                        "vehicle_type_id": "204"
                    }
                ]
            },
            "type": "Feature"
        }
    ],
    "gbfs": {
        "station_information": {
            "last_updated": 1789272040,
            "ttl": 60,
            "version": "2.3"
        },
        "station_status": {
            "last_updated": 1789272040,
            "ttl": 60,
            "version": "2.3"
        }
    },
    "type": "FeatureCollection"
}