{
    "features": [
        {
            "geometry": {
                "coordinates": [
                    9.172758,
                    47.662945
                ],
                "type": "Point"
            },
            "properties": {
                "is_installed": true,
                "is_renting": true,
                "is_returning": true,
                "is_virtual_station": false,
                "last_reported": 1789283634,
                "name": "B\u00fcrgerb\u00fcro (k PLUS Station)",
                "num_bikes_available": 3,
                "num_docks_available": 0,
                "region_id": "1042",
                "rental_uris": {
                    "android": "https://konrad.nextbike.app/station?id=379036779",
                    "ios": "https://konrad.nextbike.app/station?id=379036779",
                    "web": "https://nxtb.it/p/379036779"
                },
                "short_name": "98000",
                "station_id": "379036779",
                "vehicle_types_available": [
                    {
                        "count": 3,
                        "vehicle_type_id": "299"
                    }
                ]
            },
            "type": "Feature"
        },
        {
            "geometry": {
                "coordinates": [
                    9.173094,
                    47.661659
                ],
                "type": "Point"
            },
            "properties": {
                "is_installed": true,
                "is_renting": true,
                "is_returning": true,
                "is_virtual_station": false,
                "last_reported": 1789283634,
                "name": "Stephansplatz (k PLUS Station)",
                "num_bikes_available": 0,
                "num_docks_available": 0,
                "region_id": "1042",
                "rental_uris": {
                    "android": "https://konrad.nextbike.app/station?id=379038003",
                    "ios": "https://konrad.nextbike.app/station?id=379038003",
                    "web": "https://nxtb.it/p/379038003"
                },
                "short_name": "98001",
                "station_id": "379038003",
                "vehicle_types_available": []
            },
            "type": "Feature"
        },
        {
            "geometry": {
                "coordinates": [
                    9.16857,
                    47.658591
                ],
                "type": "Point"
            },
            "properties": {
                "is_installed": true,
                "is_renting": true,
                "is_returning": true,
                "is_virtual_station": false,
                "last_reported": 1789283634,
                "name": "D\u00f6bele (k PLUS Station)",
                "num_bikes_available": 1,
                "num_docks_available": 0,
                "region_id": "1042",
                "rental_uris": {
                    "android": "https://konrad.nextbike.app/station?id=379040636",
                    "ios": "https://konrad.nextbike.app/station?id=379040636",
                    "web": "https://nxtb.it/p/379040636"
                },
                "short_name": "98003",
                "station_id": "379040636",
                "vehicle_types_available": [
                    {
                        "count": 1,
                        "vehicle_type_id": "299"
                    }
                ]
            },
            "type": "Feature"
        },
        {
            "geometry": {
                "coordinates": [
                    9.164737,
                    47.667538
                ],
                "type": "Point"
            },
            "properties": {
                "is_installed": true,
                "is_renting": true,
                "is_returning": true,
                "is_virtual_station": false,
                "last_reported": 1789283634,
                "name": "Europahaus (k PLUS Station)",
                "num_bikes_available": 0,
                "num_docks_available": 0,
                "region_id": "1042",
                "rental_uris": {
                    "android": "https://konrad.nextbike.app/station?id=379041181",
                    "ios": "https://konrad.nextbike.app/station?id=379041181",
                    "web": "https://nxtb.it/p/379041181"
                },
                "short_name": "98004",
                "station_id": "379041181",
                "vehicle_types_available": []
            },
            "type": "Feature"
        },
        {
            "geometry": {
                "coordinates": [
                    9.164775,
                    47.665577
                ],
                "type": "Point"
            },
            "properties": {
                "is_installed": true,
                "is_renting": true,
                "is_returning": true,
                "is_virtual_station": false,
                "last_reported": 1789283634,
                "name": "FRISTO Getr\u00e4nkemarkt (k PLUS Station)",
                "num_bikes_available": 4,
                "num_docks_available": 0,
                "region_id": "1042",
                "rental_uris": {
                    "android": "https://konrad.nextbike.app/station?id=379042844",
                    "ios": "https://konrad.nextbike.app/station?id=379042844",
                    "web": "https://nxtb.it/p/379042844"
                },
                "short_name": "98005",
                "station_id": "379042844",
                "vehicle_types_available": [
                    {
                        "count": 4,
                        "vehicle_type_id": "299"
                    }
                ]
            },
            "type": "Feature"
        },
        {
            "geometry": {
                "coordinates": [
                    9.16633,
                    47.66133
                ],
                "type": "Point"
            },
            "properties": {
                "is_installed": true,
                "is_renting": true,
                "is_returning": true,
                "is_virtual_station": false,
                "last_reported": 1789283634,
                "name": "Schulthai\u00dfstra\u00dfe (k PLUS Station)",
                "num_bikes_available": 3,
                "num_docks_available": 0,
                "region_id": "1042",
                "rental_uris": {
                    "android": "https://konrad.nextbike.app/station?id=379045337",
                    "ios": "https://konrad.nextbike.app/station?id=379045337",
                    "web": "https://nxtb.it/p/379045337"
                },
                "short_name": "98006",
                "station_id": "379045337",
                "vehicle_types_available": [
                    {
                        "count": 2,
                        "vehicle_type_id": "299"
                    },
                    {
                        "count": 1,
                        "vehicle_type_id": "305"
                    }
                ]
            },
            "type": "Feature"
        },
        {
            "geometry": {
                "coordinates": [
                    9.170928,
                    47.665453
                ],
                "type": "Point"
            },
            "properties": {
                "is_installed": true,
                "is_renting": true,
                "is_returning": true,
                "is_virtual_station": false,
                "last_reported": 1789283634,
                "name": "Ellenrieder Gymnasium (k PLUS Station)",
                "num_bikes_available": 1,
                "num_docks_available": 0,
                "region_id": "1042",
                "rental_uris": {
                    "android": "https://konrad.nextbike.app/station?id=379045731",
                    "ios": "https://konrad.nextbike.app/station?id=379045731",
                    "web": "https://nxtb.it/p/379045731"
                },
                "short_name": "98007",
                "station_id": "379045731",
                "vehicle_types_available": [
                    {
                        "count": 1,
                        "vehicle_type_id": "299"
                    }
                ]
            },
            "type": "Feature"
        },
        {
            "geometry": {
                "coordinates": [
                    9.178303,
                    47.670124
                ],
                "type": "Point"
            },
            "properties": {
                "is_installed": true,
                "is_renting": true,
                "is_returning": true,
                "is_virtual_station": false,
                "last_reported": 1789283634,
                "name": "Treffpunkt Petershausen (k PLUS Station)",
                "num_bikes_available": 4,
                "num_docks_available": 0,
                "region_id": "1042",
                "rental_uris": {
                    "android": "https://konrad.nextbike.app/station?id=379046298",
                    "ios": "https://konrad.nextbike.app/station?id=379046298",
                    "web": "https://nxtb.it/p/379046298"
                },
                "short_name": "98008",
                "station_id": "379046298",
                "vehicle_types_available": [
                    {
                        "count": 4,
                        "vehicle_type_id": "299"
                    }
                ]
            },
            "type": "Feature"
        },
        {
            "geometry": {
                "coordinates": [
                    9.170569,
                    47.672987
                ],
                "type": "Point"
            },
            "properties": {
                "is_installed": true,
                "is_renting": true,
                "is_returning": true,
                "is_virtual_station": false,
                "last_reported": 1789283634,
                "name": "Gottmannplatz (k PLUS Station)",
                "num_bikes_available": 1,
                "num_docks_available": 0,
                "region_id": "1042",
                "rental_uris": {
                    "android": "https://konrad.nextbike.app/station?id=379046637",
                    "ios": "https://konrad.nextbike.app/station?id=379046637",
                    "web": "https://nxtb.it/p/379046637"
                },
                "short_name": "98009",
                "station_id": "379046637",
                "vehicle_types_available": [
                    {
                        "count": 1,
                        "vehicle_type_id": "301"
                    }
                ]
            },
            "type": "Feature"
        },
        {
            "geometry": {
                "coordinates": [
                    9.175997,
                    47.672242
                ],
                "type": "Point"
            },
            "properties": {
                "is_installed": true,
                "is_renting": true,
                "is_returning": true,
                "is_virtual_station": false,
                "last_reported": 1789283634,
                "name": "Eck Emmich/Gebhard (k PLUS Station)",
                "num_bikes_available": 1,
                "num_docks_available": 0,
                "region_id": "1042",
                "rental_uris": {
                    "android": "https://konrad.nextbike.app/station?id=379047059",
                    "ios": "https://konrad.nextbike.app/station?id=379047059",
                    "web": "https://nxtb.it/p/379047059"
                },
                "short_name": "98010",
                "station_id": "379047059",
                "vehicle_types_available": [
                    {
                        "count": 1,
                        "vehicle_type_id": "299"
                    }
                ]
            },
            "type": "Feature"
        },
        {
            "geometry": {
                "coordinates": [
                    9.173144,
                    47.674621
                ],
                "type": "Point"
            },
            "properties": {
                "is_installed": true,
                "is_renting": true,
                "is_returning": true,
                "is_virtual_station": false,
                "last_reported": 1789283634,
                "name": "Bahnhof Petershausen (k PLUS Station)",
                "num_bikes_available": 7,
                "num_docks_available": 0,
                "region_id": "1042",
                "rental_uris": {
                    "android": "https://konrad.nextbike.app/station?id=379048095",
                    "ios": "https://konrad.nextbike.app/station?id=379048095",
                    "web": "https://nxtb.it/p/379048095"
                },
                "short_name": "98011",
                "station_id": "379048095",
                "vehicle_types_available": [
                    {
                        "count": 7,
                        "vehicle_type_id": "299"
                    }
                ]
            },
            "type": "Feature"
        },
        {
            "geometry": {
                "coordinates": [
                    9.177387,
                    47.654916
                ],
                "type": "Point"
            },
            "properties": {
                "is_installed": true,
                "is_renting": true,
                "is_returning": true,
                "is_virtual_station": false,
                "last_reported": 1789283634,
                "name": "Grenze Klein Venedig (k PLUS Station)",
                "num_bikes_available": 0,
                "num_docks_available": 0,
                "region_id": "1042",
                "rental_uris": {
                    "android": "https://konrad.nextbike.app/station?id=379048606",
                    "ios": "https://konrad.nextbike.app/station?id=379048606",
                    "web": "https://nxtb.it/p/379048606"
                },
                "short_name": "98012",
                "station_id": "379048606",
                "vehicle_types_available": []
            },
            "type": "Feature"
        },
        {
            "geometry": {
                "coordinates": [
                    9.169307,
                    47.666984
                ],
                "type": "Point"
            },
            "properties": {
                "is_installed": true,
                "is_renting": true,
                "is_returning": true,
                "is_virtual_station": false,
                "last_reported": 1789283634,
                "name": "HTWG (k PLUS Station) ",
                "num_bikes_available": 1,
                "num_docks_available": 0,
                "region_id": "1042",
                "rental_uris": {
                    "android": "https://konrad.nextbike.app/station?id=379052940",
                    "ios": "https://konrad.nextbike.app/station?id=379052940",
                    "web": "https://nxtb.it/p/379052940"
                },
                "short_name": "98013",
                "station_id": "379052940",
                "vehicle_types_available": [
                    {
                        "count": 1,
                        "vehicle_type_id": "305"
                    }
                ]
            },
            "type": "Feature"
        },
        {
            "geometry": {
                "coordinates": [
                    9.183904,
                    47.672932
                ],
                "type": "Point"
            },
            "properties": {
                "is_installed": true,
                "is_renting": true,
                "is_returning": true,
                "is_virtual_station": false,
                "last_reported": 1789283634,
                "name": "Z\u00e4hringerplatz (k PLUS Station)",
                "num_bikes_available": 6,
                "num_docks_available": 0,
                "region_id": "1042",
                "rental_uris": {
                    "android": "https://konrad.nextbike.app/station?id=379053539",
                    "ios": "https://konrad.nextbike.app/station?id=379053539",
                    "web": "https://nxtb.it/p/379053539"
                },
                "short_name": "98014",
                "station_id": "379053539",
                "vehicle_types_available": [
                    {
                        "count": 6,
                        "vehicle_type_id": "299"
                    }
                ]
            },
            "type": "Feature"
        },
        {
            "geometry": {
                "coordinates": [
                    9.163685,
                    47.672397
                ],
                "type": "Point"
            },
            "properties": {
                "is_installed": true,
                "is_renting": true,
                "is_returning": true,
                "is_virtual_station": false,
                "last_reported": 1789283634,
                "name": "Mobilpunkt Europabr\u00fccke (k PLUS Station)",
                "num_bikes_available": 10,
                "num_docks_available": 0,
                "region_id": "1042",
                "rental_uris": {
                    "android": "https://konrad.nextbike.app/station?id=379063298",
                    "ios": "https://konrad.nextbike.app/station?id=379063298",
                    "web": "https://nxtb.it/p/379063298"
                },
                "short_name": "98015",
                "station_id": "379063298",
                "vehicle_types_available": [
                    {
                        "count": 6,
                        "vehicle_type_id": "299"
                    },
                    {
                        "count": 1,
                        "vehicle_type_id": "305"
                    },
                    {
                        "count": 3,
                        "vehicle_type_id": "300"
                    }
                ]
            },
            "type": "Feature"
        },
        {
            "geometry": {
                "coordinates": [
                    9.162535,
                    47.677409
                ],
                "type": "Point"
            },
            "properties": {
                "is_installed": true,
                "is_renting": true,
                "is_returning": true,
                "is_virtual_station": false,
                "last_reported": 1789283634,
                "name": "Bahnhof F\u00fcrstenberg (k RAD Station)",
                "num_bikes_available": 12,
                "num_docks_available": 0,
                "region_id": "1042",
                "rental_uris": {
                    "android": "https://konrad.nextbike.app/station?id=379064425",
                    "ios": "https://konrad.nextbike.app/station?id=379064425",
                    "web": "https://nxtb.it/p/379064425"
                },
                "short_name": "98016",
                "station_id": "379064425",
                "vehicle_types_available": [
                    {
                        "count": 12,
                        "vehicle_type_id": "299"
                    }
                ]
            },
            "type": "Feature"
        },
        {
            "geometry": {
                "coordinates": [
                    9.15755,
                    47.683286
                ],
                "type": "Point"
            },
            "properties": {
                "is_installed": true,
                "is_renting": true,
                "is_returning": true,
                "is_virtual_station": false,
                "last_reported": 1789283634,
                "name": "F\u00fcrstenberg (k PLUS Station)",
                "num_bikes_available": 10,
                "num_docks_available": 0,
                "region_id": "1042",
                "rental_uris": {
                    "android": "https://konrad.nextbike.app/station?id=379065424",
                    "ios": "https://konrad.nextbike.app/station?id=379065424",
                    "web": "https://nxtb.it/p/379065424"
                },
                "short_name": "98017",
                "station_id": "379065424",
                "vehicle_types_available": [
                    {
                        "count": 7,
                        "vehicle_type_id": "299"
                    },
                    {
                        "count": 3,
                        "vehicle_type_id": "305"
                    }
                ]
            },
            "type": "Feature"
        },
        {
            "geometry": {
                "coordinates": [
                    9.214634,
                    47.66685
                ],
                "type": "Point"
            },
            "properties": {
                "is_installed": true,
                "is_renting": true,
                "is_returning": true,
                "is_virtual_station": false,
                "last_reported": 1789283634,
                "name": "H\u00f6rnle (k PLUS Station)",
                "num_bikes_available": 12,
                "num_docks_available": 0,
                "region_id": "1042",
                "rental_uris": {
                    "android": "https://konrad.nextbike.app/station?id=379066104",
                    "ios": "https://konrad.nextbike.app/station?id=379066104",
                    "web": "https://nxtb.it/p/379066104"
                },
                "short_name": "98018",
                "station_id": "379066104",
                "vehicle_types_available": [
                    {
                        "count": 11,
                        "vehicle_type_id": "299"
                    },
                    {
                        "count": 1,
                        "vehicle_type_id": "301"
                    }
                ]
            },
            "type": "Feature"
        },
        {
            "geometry": {
                "coordinates": [
                    9.202416,
                    47.682382
                ],
                "type": "Point"
            },
            "properties": {
                "is_installed": true,
                "is_renting": true,
                "is_returning": true,
                "is_virtual_station": false,
                "last_reported": 1789283634,
                "name": "Allmannsdorf (k PLUS Station)",
                "num_bikes_available": 4,
                "num_docks_available": 0,
                "region_id": "1042",
                "rental_uris": {
                    "android": "https://konrad.nextbike.app/station?id=379066402",
                    "ios": "https://konrad.nextbike.app/station?id=379066402",
                    "web": "https://nxtb.it/p/379066402"
                },
                "short_name": "98019",
                "station_id": "379066402",
                "vehicle_types_available": [
                    {
                        "count": 1,
                        "vehicle_type_id": "301"
                    },
                    {
                        "count": 3,
                        "vehicle_type_id": "305"
                    }
                ]
            },
            "type": "Feature"
        },
        {
            "geometry": {
                "coordinates": [
                    9.209828,
                    47.682303
                ],
                "type": "Point"
            },
            "properties": {
                "is_installed": true,
                "is_renting": true,
                "is_returning": true,
                "is_virtual_station": false,
                "last_reported": 1789283634,
                "name": "F\u00e4hrehafen Staad (k PLUS Station)",
                "num_bikes_available": 0,
                "num_docks_available": 0,
                "region_id": "1042",
                "rental_uris": {
                    "android": "https://konrad.nextbike.app/station?id=379067417",
                    "ios": "https://konrad.nextbike.app/station?id=379067417",
                    "web": "https://nxtb.it/p/379067417"
                },
                "short_name": "98020",
                "station_id": "379067417",
                "vehicle_types_available": []
            },
            "type": "Feature"
        },
        {
            "geometry": {
                "coordinates": [
                    9.189388,
                    47.689233
                ],
                "type": "Point"
            },
            "properties": {
                "is_installed": true,
                "is_renting": true,
                "is_returning": true,
                "is_virtual_station": false,
                "last_reported": 1789283634,
                "name": "Universit\u00e4t (k RAD Station)",
                "num_bikes_available": 2,
                "num_docks_available": 0,
                "region_id": "1042",
                "rental_uris": {
                    "android": "https://konrad.nextbike.app/station?id=379068130",
                    "ios": "https://konrad.nextbike.app/station?id=379068130",
                    "web": "https://nxtb.it/p/379068130"
                },
                "short_name": "98021",
                "station_id": "379068130",
                "vehicle_types_available": [
                    {
                        "count": 2,
                        "vehicle_type_id": "299"
                    }
                ]
            },
            "type": "Feature"
        },
        {
            "geometry": {
                "coordinates": [
                    9.184607,
                    47.701112
                ],
                "type": "Point"
            },
            "properties": {
                "is_installed": true,
                "is_renting": true,
                "is_returning": true,
                "is_virtual_station": false,
                "last_reported": 1789283634,
                "name": "Mainau (k RAD Station)",
                "num_bikes_available": 7,
                "num_docks_available": 0,
                "region_id": "1042",
                "rental_uris": {
                    "android": "https://konrad.nextbike.app/station?id=379068506",
                    "ios": "https://konrad.nextbike.app/station?id=379068506",
                    "web": "https://nxtb.it/p/379068506"
                },
                "short_name": "98022",
                "station_id": "379068506",
                "vehicle_types_available": [
                    {
                        "count": 6,
                        "vehicle_type_id": "299"
                    },
                    {
                        "count": 1,
                        "vehicle_type_id": "305"
                    }
                ]
            },
            "type": "Feature"
        },
        {
            "geometry": {
                "coordinates": [
                    9.147238,
                    47.68303
                ],
                "type": "Point"
            },
            "properties": {
                "is_installed": true,
                "is_renting": true,
                "is_returning": true,
                "is_virtual_station": false,
                "last_reported": 1789283634,
                "name": "Bahnhof Wollmatingen (k PLUS Station)",
                "num_bikes_available": 16,
                "num_docks_available": 0,
                "region_id": "1042",
                "rental_uris": {
                    "android": "https://konrad.nextbike.app/station?id=379069288",
                    "ios": "https://konrad.nextbike.app/station?id=379069288",
                    "web": "https://nxtb.it/p/379069288"
                },
                "short_name": "98023",
                "station_id": "379069288",
                "vehicle_types_available": [
                    {
                        "count": 15,
                        "vehicle_type_id": "299"
                    },
                    {
                        "count": 1,
                        "vehicle_type_id": "305"
                    }
                ]
            },
            "type": "Feature"
        },
        {
            "geometry": {
                "coordinates": [
                    9.192305,
                    47.668853
                ],
                "type": "Point"
            },
            "properties": {
                "is_installed": true,
                "is_renting": true,
                "is_returning": true,
                "is_virtual_station": false,
                "last_reported": 1789283634,
                "name": "Hebelstra\u00dfe (k PLUS Station)",
                "num_bikes_available": 3,
                "num_docks_available": 0,
                "region_id": "1042",
                "rental_uris": {
                    "android": "https://konrad.nextbike.app/station?id=379070034",
                    "ios": "https://konrad.nextbike.app/station?id=379070034",
                    "web": "https://nxtb.it/p/379070034"
                },
                "short_name": "98024",
                "station_id": "379070034",
                "vehicle_types_available": [
                    {
                        "count": 2,
                        "vehicle_type_id": "299"
                    },
                    {
                        "count": 1,
                        "vehicle_type_id": "305"
                    }
                ]
            },
            "type": "Feature"
        },
        {
            "geometry": {
                "coordinates": [
                    9.198956,
                    47.675215
                ],
                "type": "Point"
            },
            "properties": {
                "is_installed": true,
                "is_renting": true,
                "is_returning": true,
                "is_virtual_station": false,
                "last_reported": 1789283634,
                "name": "Maria-Hilf-Platz (k PLUS Station)",
                "num_bikes_available": 3,
                "num_docks_available": 0,
                "region_id": "1042",
                "rental_uris": {
                    "android": "https://konrad.nextbike.app/station?id=379070351",
                    "ios": "https://konrad.nextbike.app/station?id=379070351",
                    "web": "https://nxtb.it/p/379070351"
                },
                "short_name": "98025",
                "station_id": "379070351",
                "vehicle_types_available": [
                    {
                        "count": 2,
                        "vehicle_type_id": "299"
                    },
                    {
                        "count": 1,
                        "vehicle_type_id": "300"
                    }
                ]
            },
            "type": "Feature"
        },
        {
            "geometry": {
                "coordinates": [
                    9.186545,
                    47.680063
                ],
                "type": "Point"
            },
            "properties": {
                "is_installed": true,
                "is_renting": true,
                "is_returning": true,
                "is_virtual_station": false,
                "last_reported": 1789283634,
                "name": "Eck Sonnenb\u00fchl/Rauh (k PLUS Station)",
                "num_bikes_available": 1,
                "num_docks_available": 0,
                "region_id": "1042",
                "rental_uris": {
                    "android": "https://konrad.nextbike.app/station?id=379070984",
                    "ios": "https://konrad.nextbike.app/station?id=379070984",
                    "web": "https://nxtb.it/p/379070984"
                },
                "short_name": "98026",
                "station_id": "379070984",
                "vehicle_types_available": [
                    {
                        "count": 1,
                        "vehicle_type_id": "299"
                    }
                ]
            },
            "type": "Feature"
        },
        {
            "geometry": {
                "coordinates": [
                    9.184876,
                    47.678588
                ],
                "type": "Point"
            },
            "properties": {
                "is_installed": true,
                "is_renting": true,
                "is_returning": true,
                "is_virtual_station": false,
                "last_reported": 1789283634,
                "name": "Eck Friedrich/K\u00f6nigsbau (k PLUS Station)",
                "num_bikes_available": 2,
                "num_docks_available": 0,
                "region_id": "1042",
                "rental_uris": {
                    "android": "https://konrad.nextbike.app/station?id=379071495",
                    "ios": "https://konrad.nextbike.app/station?id=379071495",
                    "web": "https://nxtb.it/p/379071495"
                },
                "short_name": "98027",
                "station_id": "379071495",
                "vehicle_types_available": [
                    {
                        "count": 2,
                        "vehicle_type_id": "305"
                    }
                ]
            },
            "type": "Feature"
        },
        {
            "geometry": {
                "coordinates": [
                    9.16138,
                    47.679987
                ],
                "type": "Point"
            },
            "properties": {
                "is_installed": true,
                "is_renting": true,
                "is_returning": true,
                "is_virtual_station": false,
                "last_reported": 1789283634,
                "name": "Cherisy (k PLUS Station)",
                "num_bikes_available": 11,
                "num_docks_available": 0,
                "region_id": "1042",
                "rental_uris": {
                    "android": "https://konrad.nextbike.app/station?id=379072075",
                    "ios": "https://konrad.nextbike.app/station?id=379072075",
                    "web": "https://nxtb.it/p/379072075"
                },
                "short_name": "98028",
                "station_id": "379072075",
                "vehicle_types_available": [
                    {
                        "count": 7,
                        "vehicle_type_id": "299"
                    },
                    {
                        "count": 2,
                        "vehicle_type_id": "305"
                    },
                    {
                        "count": 2,
                        "vehicle_type_id": "300"
                    }
                ]
            },
            "type": "Feature"
        },
        {
            "geometry": {
                "coordinates": [
                    9.146105,
                    47.691397
                ],
                "type": "Point"
            },
            "properties": {
                "is_installed": true,
                "is_renting": true,
                "is_returning": true,
                "is_virtual_station": false,
                "last_reported": 1789283634,
                "name": "Wollmatingen (k PLUS Station)",
                "num_bikes_available": 5,
                "num_docks_available": 0,
                "region_id": "1042",
                "rental_uris": {
                    "android": "https://konrad.nextbike.app/station?id=379072436",
                    "ios": "https://konrad.nextbike.app/station?id=379072436",
                    "web": "https://nxtb.it/p/379072436"
                },
                "short_name": "98029",
                "station_id": "379072436",
                "vehicle_types_available": [
                    {
                        "count": 4,
                        "vehicle_type_id": "299"
                    },
                    {
                        "count": 1,
                        "vehicle_type_id": "300"
                    }
                ]
            },
            "type": "Feature"
        },
        {
            "geometry": {
                "coordinates": [
                    9.159606,
                    47.68798
                ],
                "type": "Point"
            },
            "properties": {
                "is_installed": true,
                "is_renting": true,
                "is_returning": true,
                "is_virtual_station": false,
                "last_reported": 1789283634,
                "name": "Schwaketenbad (k PLUS Station)",
                "num_bikes_available": 3,
                "num_docks_available": 0,
                "region_id": "1042",
                "rental_uris": {
                    "android": "https://konrad.nextbike.app/station?id=379073019",
                    "ios": "https://konrad.nextbike.app/station?id=379073019",
                    "web": "https://nxtb.it/p/379073019"
                },
                "short_name": "98030",
                "station_id": "379073019",
                "vehicle_types_available": [
                    {
                        "count": 1,
                        "vehicle_type_id": "299"
                    },
                    {
                        "count": 1,
                        "vehicle_type_id": "305"
                    },
                    {
                        "count": 1,
                        "vehicle_type_id": "300"
                    }
                ]
            },
            "type": "Feature"
        },
        {
            "geometry": {
                "coordinates": [
                    9.193176,
                    47.692833
                ],
                "type": "Point"
            },
            "properties": {
                "is_installed": true,
                "is_renting": true,
                "is_returning": true,
                "is_virtual_station": false,
                "last_reported": 1789283634,
                "name": "Egg (k PLUS Station)",
                "num_bikes_available": 1,
                "num_docks_available": 0,
                "region_id": "1042",
                "rental_uris": {
                    "android": "https://konrad.nextbike.app/station?id=379073455",
                    "ios": "https://konrad.nextbike.app/station?id=379073455",
                    "web": "https://nxtb.it/p/379073455"
                },
                "short_name": "98031",
                "station_id": "379073455",
                "vehicle_types_available": [
                    {
                        "count": 1,
                        "vehicle_type_id": "305"
                    }
                ]
            },
            "type": "Feature"
        },
        {
            "geometry": {
                "coordinates": [
                    9.174027,
                    47.714343
                ],
                "type": "Point"
            },
            "properties": {
                "is_installed": true,
                "is_renting": true,
                "is_returning": true,
                "is_virtual_station": false,
                "last_reported": 1789283634,
                "name": "Litzelstetten (k HEIMAT Station)",
                "num_bikes_available": 0,
                "num_docks_available": 0,
                "region_id": "1042",
                "rental_uris": {
                    "android": "https://konrad.nextbike.app/station?id=379073892",
                    "ios": "https://konrad.nextbike.app/station?id=379073892",
                    "web": "https://nxtb.it/p/379073892"
                },
                "short_name": "98032",
                "station_id": "379073892",
                "vehicle_types_available": []
            },
            "type": "Feature"
        },
        {
            "geometry": {
                "coordinates": [
                    9.155821,
                    47.73881
                ],
                "type": "Point"
            },
            "properties": {
                "is_installed": true,
                "is_renting": true,
                "is_returning": true,
                "is_virtual_station": false,
                "last_reported": 1789283634,
                "name": "Dingelsdorf (k HEIMAT Station)",
                "num_bikes_available": 2,
                "num_docks_available": 0,
                "region_id": "1042",
                "rental_uris": {
                    "android": "https://konrad.nextbike.app/station?id=379074268",
                    "ios": "https://konrad.nextbike.app/station?id=379074268",
                    "web": "https://nxtb.it/p/379074268"
                },
                "short_name": "98033",
                "station_id": "379074268",
                "vehicle_types_available": [
                    {
                        "count": 1,
                        "vehicle_type_id": "299"
                    },
                    {
                        "count": 1,
                        "vehicle_type_id": "305"
                    }
                ]
            },
            "type": "Feature"
        },
        {
            "geometry": {
                "coordinates": [
                    9.133137,
                    47.745881
                ],
                "type": "Point"
            },
            "properties": {
                "is_installed": true,
                "is_renting": true,
                "is_returning": true,
                "is_virtual_station": false,
                "last_reported": 1789283634,
                "name": "Wallhausen (k HEIMAT Station)",
                "num_bikes_available": 2,
                "num_docks_available": 0,
                "region_id": "1042",
                "rental_uris": {
                    "android": "https://konrad.nextbike.app/station?id=379074610",
                    "ios": "https://konrad.nextbike.app/station?id=379074610",
                    "web": "https://nxtb.it/p/379074610"
                },
                "short_name": "98034",
                "station_id": "379074610",
                "vehicle_types_available": [
                    {
                        "count": 2,
                        "vehicle_type_id": "305"
                    }
                ]
            },
            "type": "Feature"
        },
        {
            "geometry": {
                "coordinates": [
                    9.11593,
                    47.735543
                ],
                "type": "Point"
            },
            "properties": {
                "is_installed": true,
                "is_renting": true,
                "is_returning": true,
                "is_virtual_station": false,
                "last_reported": 1789283634,
                "name": "Dettingen (k HEIMAT Station)",
                "num_bikes_available": 2,
                "num_docks_available": 0,
                "region_id": "1042",
                "rental_uris": {
                    "android": "https://konrad.nextbike.app/station?id=379074999",
                    "ios": "https://konrad.nextbike.app/station?id=379074999",
                    "web": "https://nxtb.it/p/379074999"
                },
                "short_name": "98035",
                "station_id": "379074999",
                "vehicle_types_available": [
                    {
                        "count": 1,
                        "vehicle_type_id": "299"
                    },
                    {
                        "count": 1,
                        "vehicle_type_id": "305"
                    }
                ]
            },
            "type": "Feature"
        },
        {
            "geometry": {
                "coordinates": [
                    9.159623,
                    47.673664
                ],
                "type": "Point"
            },
            "properties": {
                "is_installed": true,
                "is_renting": true,
                "is_returning": true,
                "is_virtual_station": false,
                "last_reported": 1789283634,
                "name": "Neuwerk (k PLUS Station)",
                "num_bikes_available": 2,
                "num_docks_available": 0,
                "region_id": "1042",
                "rental_uris": {
                    "android": "https://konrad.nextbike.app/station?id=387209888",
                    "ios": "https://konrad.nextbike.app/station?id=387209888",
                    "web": "https://nxtb.it/p/387209888"
                },
                "short_name": "98036",
                "station_id": "387209888",
                "vehicle_types_available": [
                    {
                        "count": 2,
                        "vehicle_type_id": "299"
                    }
                ]
            },
            "type": "Feature"
        },
        {
            "geometry": {
                "coordinates": [
                    9.176878,
                    47.658602
                ],
                "type": "Point"
            },
            "properties": {
                "is_installed": true,
                "is_renting": true,
                "is_returning": true,
                "is_virtual_station": false,
                "last_reported": 1789283634,
                "name": "Bahnhof Konstanz (k PLUS Station)",
                "num_bikes_available": 1,
                "num_docks_available": 0,
                "region_id": "1042",
                "rental_uris": {
                    "android": "https://konrad.nextbike.app/station?id=588567400",
                    "ios": "https://konrad.nextbike.app/station?id=588567400",
                    "web": "https://nxtb.it/p/588567400"
                },
                "short_name": "98037",
                "station_id": "588567400",
                "vehicle_types_available": [
                    {
                        "count": 1,
                        "vehicle_type_id": "305"
                    }
                ]
            },
            "type": "Feature"
        }
    ],
    "gbfs": {
        "station_information": {
            "last_updated": 1789283634,
            "ttl": 60,
            "version": "2.3"
        },
        "station_status": {
            "last_updated": 1789283634,
            "ttl": 60,
            "version": "2.3"
        }
    },
    "type": "FeatureCollection"
}