{
    "features": [
        {
            "geometry": {
                "coordinates": [
                    21.034699,
                    52.062009
                ],
                "type": "Point"
            },
            "properties": {
                "capacity": 15,
                "is_installed": true,
                "is_renting": true,
                "is_returning": true,
                "is_virtual_station": false,
                "last_reported": 1789300899,
                "name": "Stadion",
                "num_bikes_available": 12,
                "num_docks_available": 3,
                "region_id": "461",
                "rental_uris": {
                    "android": "https://app.nextbike.net/station?id=10477200",
                    "ios": "https://app.nextbike.net/station?id=10477200",
                    "web": "https://nxtb.it/p/10477200"
                },
                "short_name": "6364",
                "station_id": "10477200",
                "vehicle_types_available": [
                    {
                        "count": 12,
                        "vehicle_type_id": "71"
                    }
                ]
            },
            "type": "Feature"
        },
        {
            "geometry": {
                "coordinates": [
                    21.02435,
                    52.051776
                ],
                "type": "Point"
            },
            "properties": {
                "capacity": 15,
                "is_installed": true,
                "is_renting": true,
                "is_returning": true,
                "is_virtual_station": false,
                "last_reported": 1789300899,
                "name": "G\u00f3rki Szymona",
                "num_bikes_available": 6,
                "num_docks_available": 9,
                "region_id": "461",
                "rental_uris": {
                    "android": "https://app.nextbike.net/station?id=25315332",
                    "ios": "https://app.nextbike.net/station?id=25315332",
                    "web": "https://nxtb.it/p/25315332"
                },
                "short_name": "6365",
                "station_id": "25315332",
                "vehicle_types_available": [
                    {
                        "count": 6,
                        "vehicle_type_id": "71"
                    }
                ]
            },
            "type": "Feature"
        },
        {
            "geometry": {
                "coordinates": [
                    20.983193,
                    52.056136
                ],
                "type": "Point"
            },
            "properties": {
                "capacity": 6,
                "is_installed": true,
                "is_renting": true,
                "is_returning": true,
                "is_virtual_station": false,
                "last_reported": 1789300899,
                "name": "Kamionka",
                "num_bikes_available": 8,
                "num_docks_available": 0,
                "region_id": "461",
                "rental_uris": {
                    "android": "https://app.nextbike.net/station?id=33275893",
                    "ios": "https://app.nextbike.net/station?id=33275893",
                    "web": "https://nxtb.it/p/33275893"
                },
                "short_name": "6366",
                "station_id": "33275893",
                "vehicle_types_available": [
                    {
                        "count": 8,
                        "vehicle_type_id": "71"
                    }
                ]
            },
            "type": "Feature"
        },
        {
            "geometry": {
                "coordinates": [
                    21.012316,
                    52.076118
                ],
                "type": "Point"
            },
            "properties": {
                "capacity": 15,
                "is_installed": true,
                "is_renting": true,
                "is_returning": true,
                "is_virtual_station": false,
                "last_reported": 1789300899,
                "name": "S\u0142owicza",
                "num_bikes_available": 2,
                "num_docks_available": 13,
                "region_id": "461",
                "rental_uris": {
                    "android": "https://app.nextbike.net/station?id=34660997",
                    "ios": "https://app.nextbike.net/station?id=34660997",
                    "web": "https://nxtb.it/p/34660997"
                },
                "short_name": "6360",
                "station_id": "34660997",
                "vehicle_types_available": [
                    {
                        "count": 2,
                        "vehicle_type_id": "71"
                    }
                ]
            },
            "type": "Feature"
        },
        {
            "geometry": {
                "coordinates": [
                    21.017962,
                    52.066818
                ],
                "type": "Point"
            },
            "properties": {
                "capacity": 15,
                "is_installed": true,
                "is_renting": true,
                "is_returning": true,
                "is_virtual_station": false,
                "last_reported": 1789300899,
                "name": "PKP Piaseczno",
                "num_bikes_available": 1,
                "num_docks_available": 14,
                "region_id": "461",
                "rental_uris": {
                    "android": "https://app.nextbike.net/station?id=5445517",
                    "ios": "https://app.nextbike.net/station?id=5445517",
                    "web": "https://nxtb.it/p/5445517"
                },
                "short_name": "6361",
                "station_id": "5445517",
                "vehicle_types_available": [
                    {
                        "count": 1,
                        "vehicle_type_id": "71"
                    }
                ]
            },
            "type": "Feature"
        },
        {
            "geometry": {
                "coordinates": [
                    21.027054,
                    52.072829
                ],
                "type": "Point"
            },
            "properties": {
                "capacity": 15,
                "is_installed": true,
                "is_renting": true,
                "is_returning": true,
                "is_virtual_station": false,
                "last_reported": 1789300899,
                "name": "Centrum",
                "num_bikes_available": 18,
                "num_docks_available": 0,
                "region_id": "461",
                "rental_uris": {
                    "android": "https://app.nextbike.net/station?id=5445521",
                    "ios": "https://app.nextbike.net/station?id=5445521",
                    "web": "https://nxtb.it/p/5445521"
                },
                "short_name": "6362",
                "station_id": "5445521",
                "vehicle_types_available": [
                    {
                        "count": 17,
                        "vehicle_type_id": "71"
                    },
                    {
                        "count": 1,
                        "vehicle_type_id": "183"
                    }
                ]
            },
            "type": "Feature"
        },
        {
            "geometry": {
                "coordinates": [
                    21.052146,
                    52.09932
                ],
                "type": "Point"
            },
            "properties": {
                "capacity": 15,
                "is_installed": true,
                "is_renting": true,
                "is_returning": true,
                "is_virtual_station": false,
                "last_reported": 1789300899,
                "name": "J\u00f3zefos\u0142aw",
                "num_bikes_available": 5,
                "num_docks_available": 10,
                "region_id": "461",
                "rental_uris": {
                    "android": "https://app.nextbike.net/station?id=5445524",
                    "ios": "https://app.nextbike.net/station?id=5445524",
                    "web": "https://nxtb.it/p/5445524"
                },
                "short_name": "6363",
                "station_id": "5445524",
                "vehicle_types_available": [
                    {
                        "count": 4,
                        "vehicle_type_id": "71"
                    },
                    {
                        "count": 1,
                        "vehicle_type_id": "183"
                    }
                ]
            },
            "type": "Feature"
        }
    ],
    "gbfs": {
        "station_information": {
            "last_updated": 1789300899,
            "ttl": 60,
            "version": "2.3"
        },
        "station_status": {
            "last_updated": 1789300899,
            "ttl": 60,
            "version": "2.3"
        }
    },
    "type": "FeatureCollection"
}