{
    "features": [
        {
            "geometry": {
                "coordinates": [
                    13.5927,
                    45.22726
                ],
                "type": "Point"
            },
            "properties": {
                "is_installed": true,
                "is_renting": true,
                "is_returning": true,
                "is_virtual_station": true,
                "last_reported": 1789128828,
                "name": "Centar Riva, Pore\u010d",
                "num_bikes_available": 0,
                "num_docks_available": 0,
                "region_id": "429",
                "rental_uris": {
                    "android": "https://app.nextbike.net/station?id=32207860",
                    "ios": "https://app.nextbike.net/station?id=32207860",
                    "web": "https://nxtb.it/p/32207860"
                },
                "short_name": "2448",
                "station_area": {
                    "coordinates": [
                        [
                            [
                                [
                                    13.5927,
                                    45.227485
                                ],
                                [
                                    13.592976,
                                    45.227372
                                ],
                                [
                                    13.592976,
                                    45.227148
                                ],
                                [
                                    13.5927,
                                    45.227035
                                ],
                                [
                                    13.592424,
                                    45.227148
                                ],
                                [
                                    13.592424,
                                    45.227372
                                ],
                                [
                                    13.5927,
                                    45.227485
                                ]
                            ]
                        ]
                    ],
                    "type": "MultiPolygon"
                },
                "station_id": "32207860",
                "vehicle_types_available": []
            },
            "type": "Feature"
        },
        {
            "geometry": {
                "coordinates": [
                    13.595022,
                    45.214403
                ],
                "type": "Point"
            },
            "properties": {
                "is_installed": true,
                "is_renting": true,
                "is_returning": true,
                "is_virtual_station": false,
                "last_reported": 1789128828,
                "name": "Brulo, Pore\u010d",
                "num_bikes_available": 11,
                "num_docks_available": 10,
                "region_id": "429",
                "rental_uris": {
                    "android": "https://app.nextbike.net/station?id=3561904",
                    "ios": "https://app.nextbike.net/station?id=3561904",
                    "web": "https://nxtb.it/p/3561904"
                },
                "short_name": "2454",
                "station_id": "3561904",
                "vehicle_types_available": [
                    {
                        "count": 11,
                        "vehicle_type_id": "143"
                    }
                ]
            },
            "type": "Feature"
        },
        {
            "geometry": {
                "coordinates": [
                    13.596346,
                    45.227803
                ],
                "type": "Point"
            },
            "properties": {
                "is_installed": true,
                "is_renting": true,
                "is_returning": true,
                "is_virtual_station": false,
                "last_reported": 1789128828,
                "name": "Centar Lungomare, Pore\u010d",
                "num_bikes_available": 13,
                "num_docks_available": 15,
                "region_id": "429",
                "rental_uris": {
                    "android": "https://app.nextbike.net/station?id=3561974",
                    "ios": "https://app.nextbike.net/station?id=3561974",
                    "web": "https://nxtb.it/p/3561974"
                },
                "short_name": "2452",
                "station_id": "3561974",
                "vehicle_types_available": [
                    {
                        "count": 13,
                        "vehicle_type_id": "143"
                    }
                ]
            },
            "type": "Feature"
        },
        {
            "geometry": {
                "coordinates": [
                    13.600059,
                    45.242549
                ],
                "type": "Point"
            },
            "properties": {
                "is_installed": true,
                "is_renting": true,
                "is_returning": true,
                "is_virtual_station": false,
                "last_reported": 1789128828,
                "name": "Marea, Pore\u010d",
                "num_bikes_available": 0,
                "num_docks_available": 4,
                "region_id": "429",
                "rental_uris": {
                    "android": "https://app.nextbike.net/station?id=3562004",
                    "ios": "https://app.nextbike.net/station?id=3562004",
                    "web": "https://nxtb.it/p/3562004"
                },
                "short_name": "2453",
                "station_id": "3562004",
                "vehicle_types_available": []
            },
            "type": "Feature"
        },
        {
            "geometry": {
                "coordinates": [
                    13.599524,
                    45.240682
                ],
                "type": "Point"
            },
            "properties": {
                "is_installed": true,
                "is_renting": true,
                "is_returning": true,
                "is_virtual_station": false,
                "last_reported": 1789128828,
                "name": "\u0160padi\u0107i, Pore\u010d",
                "num_bikes_available": 2,
                "num_docks_available": 7,
                "region_id": "429",
                "rental_uris": {
                    "android": "https://app.nextbike.net/station?id=3562085",
                    "ios": "https://app.nextbike.net/station?id=3562085",
                    "web": "https://nxtb.it/p/3562085"
                },
                "short_name": "2450",
                "station_id": "3562085",
                "vehicle_types_available": [
                    {
                        "count": 2,
                        "vehicle_type_id": "143"
                    }
                ]
            },
            "type": "Feature"
        },
        {
            "geometry": {
                "coordinates": [
                    13.594465,
                    45.226229
                ],
                "type": "Point"
            },
            "properties": {
                "is_installed": true,
                "is_renting": true,
                "is_returning": true,
                "is_virtual_station": false,
                "last_reported": 1789128828,
                "name": "Centar Riva 2, Pore\u010d",
                "num_bikes_available": 3,
                "num_docks_available": 5,
                "region_id": "429",
                "rental_uris": {
                    "android": "https://app.nextbike.net/station?id=7024128",
                    "ios": "https://app.nextbike.net/station?id=7024128",
                    "web": "https://nxtb.it/p/7024128"
                },
                "short_name": "2449",
                "station_id": "7024128",
                "vehicle_types_available": [
                    {
                        "count": 3,
                        "vehicle_type_id": "143"
                    }
                ]
            },
            "type": "Feature"
        }
    ],
    "gbfs": {
        "station_information": {
            "last_updated": 1789128828,
            "ttl": 60,
            "version": "2.3"
        },
        "station_status": {
            "last_updated": 1789128828,
            "ttl": 60,
            "version": "2.3"
        }
    },
    "type": "FeatureCollection"
}