{
    "features": [
        {
            "geometry": {
                "coordinates": [
                    19.066252,
                    52.654679
                ],
                "type": "Point"
            },
            "properties": {
                "capacity": 5,
                "is_installed": true,
                "is_renting": true,
                "is_returning": true,
                "is_virtual_station": false,
                "last_reported": 1789294374,
                "name": "Plac Wolno\u015bci",
                "num_bikes_available": 4,
                "num_docks_available": 1,
                "region_id": "1166",
                "rental_uris": {
                    "android": "https://app.nextbike.net/station?id=547561413",
                    "ios": "https://app.nextbike.net/station?id=547561413",
                    "web": "https://nxtb.it/p/547561413"
                },
                "short_name": "6025",
                "station_id": "547561413",
                "vehicle_types_available": [
                    {
                        "count": 4,
                        "vehicle_type_id": "71"
                    }
                ]
            },
            "type": "Feature"
        },
        {
            "geometry": {
                "coordinates": [
                    19.060266,
                    52.652689
                ],
                "type": "Point"
            },
            "properties": {
                "capacity": 5,
                "is_installed": true,
                "is_renting": true,
                "is_returning": true,
                "is_virtual_station": false,
                "last_reported": 1789294374,
                "name": "Okrzei - Centrum Przesiadkowe",
                "num_bikes_available": 5,
                "num_docks_available": 0,
                "region_id": "1166",
                "rental_uris": {
                    "android": "https://app.nextbike.net/station?id=547562080",
                    "ios": "https://app.nextbike.net/station?id=547562080",
                    "web": "https://nxtb.it/p/547562080"
                },
                "short_name": "6026",
                "station_id": "547562080",
                "vehicle_types_available": [
                    {
                        "count": 5,
                        "vehicle_type_id": "71"
                    }
                ]
            },
            "type": "Feature"
        },
        {
            "geometry": {
                "coordinates": [
                    19.081209,
                    52.658203
                ],
                "type": "Point"
            },
            "properties": {
                "capacity": 5,
                "is_installed": true,
                "is_renting": true,
                "is_returning": true,
                "is_virtual_station": false,
                "last_reported": 1789294374,
                "name": "Bulwary im. Marsza\u0142ka J\u00f3zefa Pi\u0142sudzkiego/ ZSCH",
                "num_bikes_available": 1,
                "num_docks_available": 4,
                "region_id": "1166",
                "rental_uris": {
                    "android": "https://app.nextbike.net/station?id=547562647",
                    "ios": "https://app.nextbike.net/station?id=547562647",
                    "web": "https://nxtb.it/p/547562647"
                },
                "short_name": "6027",
                "station_id": "547562647",
                "vehicle_types_available": [
                    {
                        "count": 1,
                        "vehicle_type_id": "71"
                    }
                ]
            },
            "type": "Feature"
        },
        {
            "geometry": {
                "coordinates": [
                    19.089819,
                    52.643362
                ],
                "type": "Point"
            },
            "properties": {
                "capacity": 5,
                "is_installed": true,
                "is_renting": true,
                "is_returning": true,
                "is_virtual_station": false,
                "last_reported": 1789294374,
                "name": "Ostrowska P\u0119tla",
                "num_bikes_available": 0,
                "num_docks_available": 5,
                "region_id": "1166",
                "rental_uris": {
                    "android": "https://app.nextbike.net/station?id=547563172",
                    "ios": "https://app.nextbike.net/station?id=547563172",
                    "web": "https://nxtb.it/p/547563172"
                },
                "short_name": "6028",
                "station_id": "547563172",
                "vehicle_types_available": []
            },
            "type": "Feature"
        },
        {
            "geometry": {
                "coordinates": [
                    19.075744,
                    52.642201
                ],
                "type": "Point"
            },
            "properties": {
                "capacity": 5,
                "is_installed": true,
                "is_renting": true,
                "is_returning": true,
                "is_virtual_station": false,
                "last_reported": 1789294374,
                "name": "Kryta P\u0142ywalnia Delfin",
                "num_bikes_available": 3,
                "num_docks_available": 2,
                "region_id": "1166",
                "rental_uris": {
                    "android": "https://app.nextbike.net/station?id=547563600",
                    "ios": "https://app.nextbike.net/station?id=547563600",
                    "web": "https://nxtb.it/p/547563600"
                },
                "short_name": "6029",
                "station_id": "547563600",
                "vehicle_types_available": [
                    {
                        "count": 3,
                        "vehicle_type_id": "71"
                    }
                ]
            },
            "type": "Feature"
        },
        {
            "geometry": {
                "coordinates": [
                    19.086642,
                    52.650631
                ],
                "type": "Point"
            },
            "properties": {
                "capacity": 5,
                "is_installed": true,
                "is_renting": true,
                "is_returning": true,
                "is_virtual_station": false,
                "last_reported": 1789294374,
                "name": "Polna/\u017bytnia",
                "num_bikes_available": 5,
                "num_docks_available": 0,
                "region_id": "1166",
                "rental_uris": {
                    "android": "https://app.nextbike.net/station?id=547563977",
                    "ios": "https://app.nextbike.net/station?id=547563977",
                    "web": "https://nxtb.it/p/547563977"
                },
                "short_name": "6030",
                "station_id": "547563977",
                "vehicle_types_available": [
                    {
                        "count": 5,
                        "vehicle_type_id": "71"
                    }
                ]
            },
            "type": "Feature"
        },
        {
            "geometry": {
                "coordinates": [
                    19.038134,
                    52.667715
                ],
                "type": "Point"
            },
            "properties": {
                "capacity": 5,
                "is_installed": true,
                "is_renting": true,
                "is_returning": true,
                "is_virtual_station": false,
                "last_reported": 1789294374,
                "name": "Promienna/Dworzec Zazamcze",
                "num_bikes_available": 1,
                "num_docks_available": 4,
                "region_id": "1166",
                "rental_uris": {
                    "android": "https://app.nextbike.net/station?id=547564367",
                    "ios": "https://app.nextbike.net/station?id=547564367",
                    "web": "https://nxtb.it/p/547564367"
                },
                "short_name": "6031",
                "station_id": "547564367",
                "vehicle_types_available": [
                    {
                        "count": 1,
                        "vehicle_type_id": "71"
                    }
                ]
            },
            "type": "Feature"
        },
        {
            "geometry": {
                "coordinates": [
                    19.032048,
                    52.673035
                ],
                "type": "Point"
            },
            "properties": {
                "capacity": 5,
                "is_installed": true,
                "is_renting": true,
                "is_returning": true,
                "is_virtual_station": false,
                "last_reported": 1789294374,
                "name": "Toru\u0144ska/\u017bwirowa",
                "num_bikes_available": 3,
                "num_docks_available": 2,
                "region_id": "1166",
                "rental_uris": {
                    "android": "https://app.nextbike.net/station?id=547564743",
                    "ios": "https://app.nextbike.net/station?id=547564743",
                    "web": "https://nxtb.it/p/547564743"
                },
                "short_name": "6032",
                "station_id": "547564743",
                "vehicle_types_available": [
                    {
                        "count": 3,
                        "vehicle_type_id": "71"
                    }
                ]
            },
            "type": "Feature"
        },
        {
            "geometry": {
                "coordinates": [
                    19.011838,
                    52.681518
                ],
                "type": "Point"
            },
            "properties": {
                "capacity": 5,
                "is_installed": true,
                "is_renting": true,
                "is_returning": true,
                "is_virtual_station": false,
                "last_reported": 1789294374,
                "name": "Toru\u0144ska / MPWiK",
                "num_bikes_available": 3,
                "num_docks_available": 2,
                "region_id": "1166",
                "rental_uris": {
                    "android": "https://app.nextbike.net/station?id=547565119",
                    "ios": "https://app.nextbike.net/station?id=547565119",
                    "web": "https://nxtb.it/p/547565119"
                },
                "short_name": "6033",
                "station_id": "547565119",
                "vehicle_types_available": [
                    {
                        "count": 3,
                        "vehicle_type_id": "71"
                    }
                ]
            },
            "type": "Feature"
        },
        {
            "geometry": {
                "coordinates": [
                    19.14606,
                    52.651217
                ],
                "type": "Point"
            },
            "properties": {
                "capacity": 5,
                "is_installed": true,
                "is_renting": true,
                "is_returning": true,
                "is_virtual_station": false,
                "last_reported": 1789294374,
                "name": "Przysta\u0144 na Zalewie W\u0142oc\u0142awskim",
                "num_bikes_available": 8,
                "num_docks_available": 0,
                "region_id": "1166",
                "rental_uris": {
                    "android": "https://app.nextbike.net/station?id=547565421",
                    "ios": "https://app.nextbike.net/station?id=547565421",
                    "web": "https://nxtb.it/p/547565421"
                },
                "short_name": "6034",
                "station_id": "547565421",
                "vehicle_types_available": [
                    {
                        "count": 8,
                        "vehicle_type_id": "71"
                    }
                ]
            },
            "type": "Feature"
        },
        {
            "geometry": {
                "coordinates": [
                    19.140998,
                    52.638031
                ],
                "type": "Point"
            },
            "properties": {
                "capacity": 5,
                "is_installed": true,
                "is_renting": true,
                "is_returning": true,
                "is_virtual_station": false,
                "last_reported": 1789294374,
                "name": "Rybnicka P\u0119tla",
                "num_bikes_available": 3,
                "num_docks_available": 2,
                "region_id": "1166",
                "rental_uris": {
                    "android": "https://app.nextbike.net/station?id=547566018",
                    "ios": "https://app.nextbike.net/station?id=547566018",
                    "web": "https://nxtb.it/p/547566018"
                },
                "short_name": "6035",
                "station_id": "547566018",
                "vehicle_types_available": [
                    {
                        "count": 3,
                        "vehicle_type_id": "71"
                    }
                ]
            },
            "type": "Feature"
        },
        {
            "geometry": {
                "coordinates": [
                    19.027714,
                    52.61801
                ],
                "type": "Point"
            },
            "properties": {
                "capacity": 5,
                "is_installed": true,
                "is_renting": true,
                "is_returning": true,
                "is_virtual_station": false,
                "last_reported": 1789294374,
                "name": "Al.Jana Paw\u0142a II / Letnia",
                "num_bikes_available": 0,
                "num_docks_available": 5,
                "region_id": "1166",
                "rental_uris": {
                    "android": "https://app.nextbike.net/station?id=547567232",
                    "ios": "https://app.nextbike.net/station?id=547567232",
                    "web": "https://nxtb.it/p/547567232"
                },
                "short_name": "6037",
                "station_id": "547567232",
                "vehicle_types_available": []
            },
            "type": "Feature"
        },
        {
            "geometry": {
                "coordinates": [
                    19.037142,
                    52.64684
                ],
                "type": "Point"
            },
            "properties": {
                "capacity": 5,
                "is_installed": true,
                "is_renting": true,
                "is_returning": true,
                "is_virtual_station": false,
                "last_reported": 1789294374,
                "name": "Kapitulna / SP23",
                "num_bikes_available": 7,
                "num_docks_available": 0,
                "region_id": "1166",
                "rental_uris": {
                    "android": "https://app.nextbike.net/station?id=547567540",
                    "ios": "https://app.nextbike.net/station?id=547567540",
                    "web": "https://nxtb.it/p/547567540"
                },
                "short_name": "6038",
                "station_id": "547567540",
                "vehicle_types_available": [
                    {
                        "count": 7,
                        "vehicle_type_id": "71"
                    }
                ]
            },
            "type": "Feature"
        },
        {
            "geometry": {
                "coordinates": [
                    19.071391,
                    52.659978
                ],
                "type": "Point"
            },
            "properties": {
                "capacity": 5,
                "is_installed": true,
                "is_renting": true,
                "is_returning": true,
                "is_virtual_station": false,
                "last_reported": 1789294374,
                "name": "3 Maja/Stary Rynek",
                "num_bikes_available": 3,
                "num_docks_available": 2,
                "region_id": "1166",
                "rental_uris": {
                    "android": "https://app.nextbike.net/station?id=547567847",
                    "ios": "https://app.nextbike.net/station?id=547567847",
                    "web": "https://nxtb.it/p/547567847"
                },
                "short_name": "6039",
                "station_id": "547567847",
                "vehicle_types_available": [
                    {
                        "count": 3,
                        "vehicle_type_id": "71"
                    }
                ]
            },
            "type": "Feature"
        },
        {
            "geometry": {
                "coordinates": [
                    19.073157,
                    52.671158
                ],
                "type": "Point"
            },
            "properties": {
                "capacity": 5,
                "is_installed": true,
                "is_renting": true,
                "is_returning": true,
                "is_virtual_station": false,
                "last_reported": 1789294374,
                "name": "Grodzka / Mostowa",
                "num_bikes_available": 3,
                "num_docks_available": 2,
                "region_id": "1166",
                "rental_uris": {
                    "android": "https://app.nextbike.net/station?id=547568262",
                    "ios": "https://app.nextbike.net/station?id=547568262",
                    "web": "https://nxtb.it/p/547568262"
                },
                "short_name": "6040",
                "station_id": "547568262",
                "vehicle_types_available": [
                    {
                        "count": 3,
                        "vehicle_type_id": "71"
                    }
                ]
            },
            "type": "Feature"
        },
        {
            "geometry": {
                "coordinates": [
                    19.050133,
                    52.679446
                ],
                "type": "Point"
            },
            "properties": {
                "capacity": 5,
                "is_installed": true,
                "is_renting": true,
                "is_returning": true,
                "is_virtual_station": false,
                "last_reported": 1789294374,
                "name": "Grodzka / Brzoskwiniowa",
                "num_bikes_available": 2,
                "num_docks_available": 2,
                "region_id": "1166",
                "rental_uris": {
                    "android": "https://app.nextbike.net/station?id=547568605",
                    "ios": "https://app.nextbike.net/station?id=547568605",
                    "web": "https://nxtb.it/p/547568605"
                },
                "short_name": "6041",
                "station_id": "547568605",
                "vehicle_types_available": [
                    {
                        "count": 2,
                        "vehicle_type_id": "71"
                    }
                ]
            },
            "type": "Feature"
        },
        {
            "geometry": {
                "coordinates": [
                    19.124411,
                    52.652566
                ],
                "type": "Point"
            },
            "properties": {
                "capacity": 5,
                "is_installed": true,
                "is_renting": true,
                "is_returning": true,
                "is_virtual_station": false,
                "last_reported": 1789294374,
                "name": "P\u0142ocka Bloki",
                "num_bikes_available": 1,
                "num_docks_available": 4,
                "region_id": "1166",
                "rental_uris": {
                    "android": "https://app.nextbike.net/station?id=547568923",
                    "ios": "https://app.nextbike.net/station?id=547568923",
                    "web": "https://nxtb.it/p/547568923"
                },
                "short_name": "6042",
                "station_id": "547568923",
                "vehicle_types_available": [
                    {
                        "count": 1,
                        "vehicle_type_id": "71"
                    }
                ]
            },
            "type": "Feature"
        },
        {
            "geometry": {
                "coordinates": [
                    19.120506,
                    52.648663
                ],
                "type": "Point"
            },
            "properties": {
                "capacity": 5,
                "is_installed": true,
                "is_renting": true,
                "is_returning": true,
                "is_virtual_station": false,
                "last_reported": 1789294374,
                "name": "Papie\u017cka / RUN Ch\u0142odnia",
                "num_bikes_available": 2,
                "num_docks_available": 3,
                "region_id": "1166",
                "rental_uris": {
                    "android": "https://app.nextbike.net/station?id=547569302",
                    "ios": "https://app.nextbike.net/station?id=547569302",
                    "web": "https://nxtb.it/p/547569302"
                },
                "short_name": "6043",
                "station_id": "547569302",
                "vehicle_types_available": [
                    {
                        "count": 2,
                        "vehicle_type_id": "71"
                    }
                ]
            },
            "type": "Feature"
        },
        {
            "geometry": {
                "coordinates": [
                    19.04557,
                    52.658912
                ],
                "type": "Point"
            },
            "properties": {
                "capacity": 5,
                "is_installed": true,
                "is_renting": true,
                "is_returning": true,
                "is_virtual_station": false,
                "last_reported": 1789294374,
                "name": "Mi\u0119dzy osiedlowy basen miejski / Wysoka",
                "num_bikes_available": 1,
                "num_docks_available": 4,
                "region_id": "1166",
                "rental_uris": {
                    "android": "https://app.nextbike.net/station?id=547569614",
                    "ios": "https://app.nextbike.net/station?id=547569614",
                    "web": "https://nxtb.it/p/547569614"
                },
                "short_name": "6044",
                "station_id": "547569614",
                "vehicle_types_available": [
                    {
                        "count": 1,
                        "vehicle_type_id": "71"
                    }
                ]
            },
            "type": "Feature"
        },
        {
            "geometry": {
                "coordinates": [
                    19.058502,
                    52.647929
                ],
                "type": "Point"
            },
            "properties": {
                "is_installed": true,
                "is_renting": true,
                "is_returning": true,
                "is_virtual_station": false,
                "last_reported": 1789294374,
                "name": "Kaliska Targowisko (stacja wirtualna)",
                "num_bikes_available": 4,
                "num_docks_available": 0,
                "region_id": "1166",
                "rental_uris": {
                    "android": "https://app.nextbike.net/station?id=547570007",
                    "ios": "https://app.nextbike.net/station?id=547570007",
                    "web": "https://nxtb.it/p/547570007"
                },
                "short_name": "6045",
                "station_id": "547570007",
                "vehicle_types_available": [
                    {
                        "count": 4,
                        "vehicle_type_id": "71"
                    }
                ]
            },
            "type": "Feature"
        },
        {
            "geometry": {
                "coordinates": [
                    19.071125,
                    52.653603
                ],
                "type": "Point"
            },
            "properties": {
                "is_installed": true,
                "is_renting": true,
                "is_returning": true,
                "is_virtual_station": false,
                "last_reported": 1789294374,
                "name": "Zielony Rynek/ Urz\u0105d Miasta (stacja wirtualna)",
                "num_bikes_available": 3,
                "num_docks_available": 0,
                "region_id": "1166",
                "rental_uris": {
                    "android": "https://app.nextbike.net/station?id=547570253",
                    "ios": "https://app.nextbike.net/station?id=547570253",
                    "web": "https://nxtb.it/p/547570253"
                },
                "short_name": "6046",
                "station_id": "547570253",
                "vehicle_types_available": [
                    {
                        "count": 3,
                        "vehicle_type_id": "71"
                    }
                ]
            },
            "type": "Feature"
        },
        {
            "geometry": {
                "coordinates": [
                    19.04686,
                    52.653687
                ],
                "type": "Point"
            },
            "properties": {
                "is_installed": true,
                "is_renting": true,
                "is_returning": true,
                "is_virtual_station": false,
                "last_reported": 1789294374,
                "name": "2226 Kapitulna- CH BiG (stacja wirtualna)",
                "num_bikes_available": 0,
                "num_docks_available": 0,
                "region_id": "1166",
                "rental_uris": {
                    "android": "https://app.nextbike.net/station?id=563960604",
                    "ios": "https://app.nextbike.net/station?id=563960604",
                    "web": "https://nxtb.it/p/563960604"
                },
                "short_name": "2226",
                "station_id": "563960604",
                "vehicle_types_available": []
            },
            "type": "Feature"
        },
        {
            "geometry": {
                "coordinates": [
                    19.123045,
                    52.644671
                ],
                "type": "Point"
            },
            "properties": {
                "is_installed": true,
                "is_renting": true,
                "is_returning": true,
                "is_virtual_station": false,
                "last_reported": 1789294374,
                "name": "Al.Kazimierza Wielkiego - Pchli Targ (stacja wirtualna)",
                "num_bikes_available": 5,
                "num_docks_available": 0,
                "region_id": "1166",
                "rental_uris": {
                    "android": "https://app.nextbike.net/station?id=563960897",
                    "ios": "https://app.nextbike.net/station?id=563960897",
                    "web": "https://nxtb.it/p/563960897"
                },
                "short_name": "2227",
                "station_id": "563960897",
                "vehicle_types_available": [
                    {
                        "count": 5,
                        "vehicle_type_id": "71"
                    }
                ]
            },
            "type": "Feature"
        },
        {
            "geometry": {
                "coordinates": [
                    19.030455,
                    52.660081
                ],
                "type": "Point"
            },
            "properties": {
                "is_installed": true,
                "is_renting": true,
                "is_returning": true,
                "is_virtual_station": false,
                "last_reported": 1789294374,
                "name": "2229 Wieniecka/Szpital Wojew\u00f3dzki (stacja wirtualna)",
                "num_bikes_available": 0,
                "num_docks_available": 0,
                "region_id": "1166",
                "rental_uris": {
                    "android": "https://app.nextbike.net/station?id=563961334",
                    "ios": "https://app.nextbike.net/station?id=563961334",
                    "web": "https://nxtb.it/p/563961334"
                },
                "short_name": "2229",
                "station_id": "563961334",
                "vehicle_types_available": []
            },
            "type": "Feature"
        },
        {
            "geometry": {
                "coordinates": [
                    19.077416,
                    52.658164
                ],
                "type": "Point"
            },
            "properties": {
                "is_installed": true,
                "is_renting": true,
                "is_returning": true,
                "is_virtual_station": false,
                "last_reported": 1789294374,
                "name": "2231 Centrum Kultury Browar B (stacja wirtualna)",
                "num_bikes_available": 0,
                "num_docks_available": 0,
                "region_id": "1166",
                "rental_uris": {
                    "android": "https://app.nextbike.net/station?id=563961649",
                    "ios": "https://app.nextbike.net/station?id=563961649",
                    "web": "https://nxtb.it/p/563961649"
                },
                "short_name": "2231",
                "station_id": "563961649",
                "vehicle_types_available": []
            },
            "type": "Feature"
        },
        {
            "geometry": {
                "coordinates": [
                    19.039925,
                    52.669086
                ],
                "type": "Point"
            },
            "properties": {
                "is_installed": true,
                "is_renting": true,
                "is_returning": true,
                "is_virtual_station": false,
                "last_reported": 1789294374,
                "name": "2232  Mechanik\u00f3w/ PANS (stacja wirtualna)",
                "num_bikes_available": 1,
                "num_docks_available": 0,
                "region_id": "1166",
                "rental_uris": {
                    "android": "https://app.nextbike.net/station?id=563961794",
                    "ios": "https://app.nextbike.net/station?id=563961794",
                    "web": "https://nxtb.it/p/563961794"
                },
                "short_name": "2232",
                "station_id": "563961794",
                "vehicle_types_available": [
                    {
                        "count": 1,
                        "vehicle_type_id": "71"
                    }
                ]
            },
            "type": "Feature"
        },
        {
            "geometry": {
                "coordinates": [
                    19.06497,
                    52.663734
                ],
                "type": "Point"
            },
            "properties": {
                "is_installed": true,
                "is_renting": true,
                "is_returning": true,
                "is_virtual_station": false,
                "last_reported": 1789294374,
                "name": "2233 Przysta\u0144 Piwna (stacja wirtualna)",
                "num_bikes_available": 6,
                "num_docks_available": 0,
                "region_id": "1166",
                "rental_uris": {
                    "android": "https://app.nextbike.net/station?id=563961922",
                    "ios": "https://app.nextbike.net/station?id=563961922",
                    "web": "https://nxtb.it/p/563961922"
                },
                "short_name": "2233",
                "station_id": "563961922",
                "vehicle_types_available": [
                    {
                        "count": 6,
                        "vehicle_type_id": "71"
                    }
                ]
            },
            "type": "Feature"
        },
        {
            "geometry": {
                "coordinates": [
                    19.03038,
                    52.669096
                ],
                "type": "Point"
            },
            "properties": {
                "is_installed": true,
                "is_renting": true,
                "is_returning": true,
                "is_virtual_station": false,
                "last_reported": 1789294374,
                "name": "2234 Promienna P\u0119tla (stacja wirtualna)",
                "num_bikes_available": 3,
                "num_docks_available": 0,
                "region_id": "1166",
                "rental_uris": {
                    "android": "https://app.nextbike.net/station?id=563962085",
                    "ios": "https://app.nextbike.net/station?id=563962085",
                    "web": "https://nxtb.it/p/563962085"
                },
                "short_name": "2234",
                "station_id": "563962085",
                "vehicle_types_available": [
                    {
                        "count": 3,
                        "vehicle_type_id": "71"
                    }
                ]
            },
            "type": "Feature"
        },
        {
            "geometry": {
                "coordinates": [
                    19.044297,
                    52.662228
                ],
                "type": "Point"
            },
            "properties": {
                "is_installed": true,
                "is_renting": true,
                "is_returning": true,
                "is_virtual_station": false,
                "last_reported": 1789294374,
                "name": "2235 (stacja wirtualna) Wieniecka - Budowlanych",
                "num_bikes_available": 2,
                "num_docks_available": 0,
                "region_id": "1166",
                "rental_uris": {
                    "android": "https://app.nextbike.net/station?id=563962206",
                    "ios": "https://app.nextbike.net/station?id=563962206",
                    "web": "https://nxtb.it/p/563962206"
                },
                "short_name": "2235",
                "station_id": "563962206",
                "vehicle_types_available": [
                    {
                        "count": 2,
                        "vehicle_type_id": "71"
                    }
                ]
            },
            "type": "Feature"
        },
        {
            "geometry": {
                "coordinates": [
                    19.077501,
                    52.650302
                ],
                "type": "Point"
            },
            "properties": {
                "is_installed": true,
                "is_renting": true,
                "is_returning": true,
                "is_virtual_station": false,
                "last_reported": 1789294374,
                "name": "2236 Kraszewskiego-Park Im.W\u0142adys\u0142awa \u0141okietka(stacja wirtualna)",
                "num_bikes_available": 2,
                "num_docks_available": 0,
                "region_id": "1166",
                "rental_uris": {
                    "android": "https://app.nextbike.net/station?id=563962373",
                    "ios": "https://app.nextbike.net/station?id=563962373",
                    "web": "https://nxtb.it/p/563962373"
                },
                "short_name": "2236",
                "station_id": "563962373",
                "vehicle_types_available": [
                    {
                        "count": 2,
                        "vehicle_type_id": "71"
                    }
                ]
            },
            "type": "Feature"
        },
        {
            "geometry": {
                "coordinates": [
                    19.096454,
                    52.643509
                ],
                "type": "Point"
            },
            "properties": {
                "is_installed": true,
                "is_renting": true,
                "is_returning": true,
                "is_virtual_station": false,
                "last_reported": 1789294374,
                "name": "2237 \u0141anowa-\u017bytnia (stacja wirtualna)",
                "num_bikes_available": 4,
                "num_docks_available": 0,
                "region_id": "1166",
                "rental_uris": {
                    "android": "https://app.nextbike.net/station?id=563962501",
                    "ios": "https://app.nextbike.net/station?id=563962501",
                    "web": "https://nxtb.it/p/563962501"
                },
                "short_name": "2237",
                "station_id": "563962501",
                "vehicle_types_available": [
                    {
                        "count": 4,
                        "vehicle_type_id": "71"
                    }
                ]
            },
            "type": "Feature"
        },
        {
            "geometry": {
                "coordinates": [
                    19.092179,
                    52.64596
                ],
                "type": "Point"
            },
            "properties": {
                "is_installed": true,
                "is_renting": true,
                "is_returning": true,
                "is_virtual_station": false,
                "last_reported": 1789294374,
                "name": "2238 \u017bytnia-Stokrotka (stacja wirtualna)",
                "num_bikes_available": 0,
                "num_docks_available": 0,
                "region_id": "1166",
                "rental_uris": {
                    "android": "https://app.nextbike.net/station?id=563962604",
                    "ios": "https://app.nextbike.net/station?id=563962604",
                    "web": "https://nxtb.it/p/563962604"
                },
                "short_name": "2238",
                "station_id": "563962604",
                "vehicle_types_available": []
            },
            "type": "Feature"
        },
        {
            "geometry": {
                "coordinates": [
                    19.08866,
                    52.653
                ],
                "type": "Point"
            },
            "properties": {
                "is_installed": true,
                "is_renting": true,
                "is_returning": true,
                "is_virtual_station": false,
                "last_reported": 1789294374,
                "name": "2239 Celulozowa (stacja wirtualna)",
                "num_bikes_available": 0,
                "num_docks_available": 0,
                "region_id": "1166",
                "rental_uris": {
                    "android": "https://app.nextbike.net/station?id=563962723",
                    "ios": "https://app.nextbike.net/station?id=563962723",
                    "web": "https://nxtb.it/p/563962723"
                },
                "short_name": "2239",
                "station_id": "563962723",
                "vehicle_types_available": []
            },
            "type": "Feature"
        },
        {
            "geometry": {
                "coordinates": [
                    19.015296,
                    52.598004
                ],
                "type": "Point"
            },
            "properties": {
                "is_installed": true,
                "is_renting": true,
                "is_returning": true,
                "is_virtual_station": false,
                "last_reported": 1789294374,
                "name": "2240 (stacja wirtualna) D\u0118BOWA - P\u0118TLA AUTOBUSOWA",
                "num_bikes_available": 2,
                "num_docks_available": 0,
                "region_id": "1166",
                "rental_uris": {
                    "android": "https://app.nextbike.net/station?id=563962819",
                    "ios": "https://app.nextbike.net/station?id=563962819",
                    "web": "https://nxtb.it/p/563962819"
                },
                "short_name": "2240",
                "station_id": "563962819",
                "vehicle_types_available": [
                    {
                        "count": 2,
                        "vehicle_type_id": "71"
                    }
                ]
            },
            "type": "Feature"
        },
        {
            "geometry": {
                "coordinates": [
                    19.04701,
                    52.63669
                ],
                "type": "Point"
            },
            "properties": {
                "is_installed": true,
                "is_renting": true,
                "is_returning": true,
                "is_virtual_station": false,
                "last_reported": 1789294374,
                "name": "2228 Kaliska-LIDL(Wiata Rowerowa)",
                "num_bikes_available": 0,
                "num_docks_available": 0,
                "region_id": "1166",
                "rental_uris": {
                    "android": "https://app.nextbike.net/station?id=581821518",
                    "ios": "https://app.nextbike.net/station?id=581821518",
                    "web": "https://nxtb.it/p/581821518"
                },
                "short_name": "2228",
                "station_id": "581821518",
                "vehicle_types_available": []
            },
            "type": "Feature"
        },
        {
            "geometry": {
                "coordinates": [
                    19.033502,
                    52.64312
                ],
                "type": "Point"
            },
            "properties": {
                "is_installed": true,
                "is_renting": true,
                "is_returning": true,
                "is_virtual_station": false,
                "last_reported": 1789294374,
                "name": "6052 \u017burawia - M. Sk\u0142odowskiej - Curie (stacja wirtualna)",
                "num_bikes_available": 2,
                "num_docks_available": 0,
                "region_id": "1166",
                "rental_uris": {
                    "android": "https://app.nextbike.net/station?id=608723162",
                    "ios": "https://app.nextbike.net/station?id=608723162",
                    "web": "https://nxtb.it/p/608723162"
                },
                "short_name": "6052",
                "station_id": "608723162",
                "vehicle_types_available": [
                    {
                        "count": 2,
                        "vehicle_type_id": "71"
                    }
                ]
            },
            "type": "Feature"
        },
        {
            "geometry": {
                "coordinates": [
                    19.048343,
                    52.640846
                ],
                "type": "Point"
            },
            "properties": {
                "is_installed": true,
                "is_renting": true,
                "is_returning": true,
                "is_virtual_station": false,
                "last_reported": 1789294374,
                "name": "6053 Szko\u0142a Podstawowa nr 20/ Ga\u0142czy\u0144skiego (stacja wirtualna)",
                "num_bikes_available": 0,
                "num_docks_available": 0,
                "region_id": "1166",
                "rental_uris": {
                    "android": "https://app.nextbike.net/station?id=608725300",
                    "ios": "https://app.nextbike.net/station?id=608725300",
                    "web": "https://nxtb.it/p/608725300"
                },
                "short_name": "6053",
                "station_id": "608725300",
                "vehicle_types_available": []
            },
            "type": "Feature"
        },
        {
            "geometry": {
                "coordinates": [
                    19.044956,
                    52.639637
                ],
                "type": "Point"
            },
            "properties": {
                "is_installed": true,
                "is_renting": true,
                "is_returning": true,
                "is_virtual_station": false,
                "last_reported": 1789294374,
                "name": "6055 I.Zbiegniewskiej / BIEDRONKA (stacja wirtualna)",
                "num_bikes_available": 1,
                "num_docks_available": 0,
                "region_id": "1166",
                "rental_uris": {
                    "android": "https://app.nextbike.net/station?id=608725784",
                    "ios": "https://app.nextbike.net/station?id=608725784",
                    "web": "https://nxtb.it/p/608725784"
                },
                "short_name": "6055",
                "station_id": "608725784",
                "vehicle_types_available": [
                    {
                        "count": 1,
                        "vehicle_type_id": "71"
                    }
                ]
            },
            "type": "Feature"
        },
        {
            "geometry": {
                "coordinates": [
                    19.069299,
                    52.650315
                ],
                "type": "Point"
            },
            "properties": {
                "capacity": 7,
                "is_installed": true,
                "is_renting": true,
                "is_returning": true,
                "is_virtual_station": false,
                "last_reported": 1789294374,
                "name": "CHOPINA/CICHA",
                "num_bikes_available": 5,
                "num_docks_available": 2,
                "region_id": "1166",
                "rental_uris": {
                    "android": "https://app.nextbike.net/station?id=608965531",
                    "ios": "https://app.nextbike.net/station?id=608965531",
                    "web": "https://nxtb.it/p/608965531"
                },
                "short_name": "6057",
                "station_id": "608965531",
                "vehicle_types_available": [
                    {
                        "count": 5,
                        "vehicle_type_id": "71"
                    }
                ]
            },
            "type": "Feature"
        },
        {
            "geometry": {
                "coordinates": [
                    19.088003,
                    52.675431
                ],
                "type": "Point"
            },
            "properties": {
                "capacity": 5,
                "is_installed": true,
                "is_renting": true,
                "is_returning": true,
                "is_virtual_station": false,
                "last_reported": 1789294374,
                "name": "LIPNOWSKA/GRANICE MIASTA",
                "num_bikes_available": 3,
                "num_docks_available": 2,
                "region_id": "1166",
                "rental_uris": {
                    "android": "https://app.nextbike.net/station?id=608965813",
                    "ios": "https://app.nextbike.net/station?id=608965813",
                    "web": "https://nxtb.it/p/608965813"
                },
                "short_name": "6058",
                "station_id": "608965813",
                "vehicle_types_available": [
                    {
                        "count": 3,
                        "vehicle_type_id": "71"
                    }
                ]
            },
            "type": "Feature"
        },
        {
            "geometry": {
                "coordinates": [
                    19.098699,
                    52.654599
                ],
                "type": "Point"
            },
            "properties": {
                "is_installed": true,
                "is_renting": true,
                "is_returning": true,
                "is_virtual_station": false,
                "last_reported": 1789294374,
                "name": "P\u0141OCKA/MPEC",
                "num_bikes_available": 4,
                "num_docks_available": 0,
                "region_id": "1166",
                "rental_uris": {
                    "android": "https://app.nextbike.net/station?id=608965974",
                    "ios": "https://app.nextbike.net/station?id=608965974",
                    "web": "https://nxtb.it/p/608965974"
                },
                "short_name": "6059",
                "station_id": "608965974",
                "vehicle_types_available": [
                    {
                        "count": 4,
                        "vehicle_type_id": "71"
                    }
                ]
            },
            "type": "Feature"
        },
        {
            "geometry": {
                "coordinates": [
                    19.020867,
                    52.612134
                ],
                "type": "Point"
            },
            "properties": {
                "is_installed": true,
                "is_renting": true,
                "is_returning": true,
                "is_virtual_station": false,
                "last_reported": 1789294374,
                "name": "AL.JANA PAW\u0141A II/SZKOLNA",
                "num_bikes_available": 0,
                "num_docks_available": 0,
                "region_id": "1166",
                "rental_uris": {
                    "android": "https://app.nextbike.net/station?id=608966258",
                    "ios": "https://app.nextbike.net/station?id=608966258",
                    "web": "https://nxtb.it/p/608966258"
                },
                "short_name": "6060",
                "station_id": "608966258",
                "vehicle_types_available": []
            },
            "type": "Feature"
        },
        {
            "geometry": {
                "coordinates": [
                    19.014188,
                    52.60581
                ],
                "type": "Point"
            },
            "properties": {
                "capacity": 7,
                "is_installed": true,
                "is_renting": true,
                "is_returning": true,
                "is_virtual_station": false,
                "last_reported": 1789294374,
                "name": "AL.JANA PAW\u0141A II/ SKATEPARK",
                "num_bikes_available": 5,
                "num_docks_available": 2,
                "region_id": "1166",
                "rental_uris": {
                    "android": "https://app.nextbike.net/station?id=608970479",
                    "ios": "https://app.nextbike.net/station?id=608970479",
                    "web": "https://nxtb.it/p/608970479"
                },
                "short_name": "6024",
                "station_id": "608970479",
                "vehicle_types_available": [
                    {
                        "count": 5,
                        "vehicle_type_id": "71"
                    }
                ]
            },
            "type": "Feature"
        },
        {
            "geometry": {
                "coordinates": [
                    19.049863,
                    52.647595
                ],
                "type": "Point"
            },
            "properties": {
                "capacity": 7,
                "is_installed": true,
                "is_renting": true,
                "is_returning": true,
                "is_virtual_station": false,
                "last_reported": 1789294374,
                "name": "WIEJSKA/SZKO\u0141A MUZYCZNA",
                "num_bikes_available": 0,
                "num_docks_available": 7,
                "region_id": "1166",
                "rental_uris": {
                    "android": "https://app.nextbike.net/station?id=608970776",
                    "ios": "https://app.nextbike.net/station?id=608970776",
                    "web": "https://nxtb.it/p/608970776"
                },
                "short_name": "6023",
                "station_id": "608970776",
                "vehicle_types_available": []
            },
            "type": "Feature"
        },
        {
            "geometry": {
                "coordinates": [
                    19.061856,
                    52.656643
                ],
                "type": "Point"
            },
            "properties": {
                "is_installed": true,
                "is_renting": true,
                "is_returning": true,
                "is_virtual_station": false,
                "last_reported": 1789294374,
                "name": "BAUERA/CENTRUM HANDLOWE",
                "num_bikes_available": 1,
                "num_docks_available": 0,
                "region_id": "1166",
                "rental_uris": {
                    "android": "https://app.nextbike.net/station?id=608970915",
                    "ios": "https://app.nextbike.net/station?id=608970915",
                    "web": "https://nxtb.it/p/608970915"
                },
                "short_name": "6022",
                "station_id": "608970915",
                "vehicle_types_available": [
                    {
                        "count": 1,
                        "vehicle_type_id": "71"
                    }
                ]
            },
            "type": "Feature"
        },
        {
            "geometry": {
                "coordinates": [
                    19.05467,
                    52.643981
                ],
                "type": "Point"
            },
            "properties": {
                "capacity": 5,
                "is_installed": true,
                "is_renting": true,
                "is_returning": true,
                "is_virtual_station": false,
                "last_reported": 1789294374,
                "name": " Kaliska/ Planty",
                "num_bikes_available": 0,
                "num_docks_available": 5,
                "region_id": "1166",
                "rental_uris": {
                    "android": "https://app.nextbike.net/station?id=612392566",
                    "ios": "https://app.nextbike.net/station?id=612392566",
                    "web": "https://nxtb.it/p/612392566"
                },
                "short_name": "6036",
                "station_id": "612392566",
                "vehicle_types_available": []
            },
            "type": "Feature"
        }
    ],
    "gbfs": {
        "station_information": {
            "last_updated": 1789294374,
            "ttl": 60,
            "version": "2.3"
        },
        "station_status": {
            "last_updated": 1789294374,
            "ttl": 60,
            "version": "2.3"
        }
    },
    "type": "FeatureCollection"
}