{
    "features": [
        {
            "geometry": {
                "coordinates": [
                    -6.262501,
                    53.340927
                ],
                "type": "Point"
            },
            "properties": {
                "address": "Clarendon Row",
                "available_bike_stands": 12,
                "available_bikes": 19,
                "banking": false,
                "bike_stands": 31,
                "bonus": false,
                "contract_name": "dublin",
                "last_update": 1789137304000,
                "name": "CLARENDON ROW",
                "number": 1,
                "status": "OPEN"
            },
            "type": "Feature"
        },
        {
            "geometry": {
                "coordinates": [
                    -6.26814,
                    53.356769
                ],
                "type": "Point"
            },
            "properties": {
                "address": "Blessington Street",
                "available_bike_stands": 20,
                "available_bikes": 0,
                "banking": false,
                "bike_stands": 20,
                "bonus": false,
                "contract_name": "dublin",
                "last_update": 1789137254000,
                "name": "BLESSINGTON STREET",
                "number": 2,
                "status": "OPEN"
            },
            "type": "Feature"
        },
        {
            "geometry": {
                "coordinates": [
                    -6.269859,
                    53.351182
                ],
                "type": "Point"
            },
            "properties": {
                "address": "Bolton Street",
                "available_bike_stands": 19,
                "available_bikes": 1,
                "banking": false,
                "bike_stands": 20,
                "bonus": false,
                "contract_name": "dublin",
                "last_update": 1789137397000,
                "name": "BOLTON STREET",
                "number": 3,
                "status": "OPEN"
            },
            "type": "Feature"
        },
        {
            "geometry": {
                "coordinates": [
                    -6.272976,
                    53.346874
                ],
                "type": "Point"
            },
            "properties": {
                "address": "Greek Street",
                "available_bike_stands": 7,
                "available_bikes": 13,
                "banking": false,
                "bike_stands": 20,
                "bonus": false,
                "contract_name": "dublin",
                "last_update": 1789137260000,
                "name": "GREEK STREET",
                "number": 4,
                "status": "OPEN"
            },
            "type": "Feature"
        },
        {
            "geometry": {
                "coordinates": [
                    -6.2600041,
                    53.330704
                ],
                "type": "Point"
            },
            "properties": {
                "address": "Charlemont Street",
                "available_bike_stands": 28,
                "available_bikes": 12,
                "banking": false,
                "bike_stands": 40,
                "bonus": false,
                "contract_name": "dublin",
                "last_update": 1789137330000,
                "name": "CHARLEMONT PLACE",
                "number": 5,
                "status": "OPEN"
            },
            "type": "Feature"
        },
        {
            "geometry": {
                "coordinates": [
                    -6.27012,
                    53.343368
                ],
                "type": "Point"
            },
            "properties": {
                "address": "Christchurch Place",
                "available_bike_stands": 15,
                "available_bikes": 5,
                "banking": false,
                "bike_stands": 20,
                "bonus": false,
                "contract_name": "dublin",
                "last_update": 1789137339000,
                "name": "CHRISTCHURCH PLACE",
                "number": 6,
                "status": "OPEN"
            },
            "type": "Feature"
        },
        {
            "geometry": {
                "coordinates": [
                    -6.2744134,
                    53.3434199
                ],
                "type": "Point"
            },
            "properties": {
                "address": "High Street",
                "available_bike_stands": 22,
                "available_bikes": 7,
                "banking": false,
                "bike_stands": 29,
                "bonus": false,
                "contract_name": "dublin",
                "last_update": 1789137268000,
                "name": "HIGH STREET",
                "number": 7,
                "status": "OPEN"
            },
            "type": "Feature"
        },
        {
            "geometry": {
                "coordinates": [
                    -6.248048,
                    53.347884
                ],
                "type": "Point"
            },
            "properties": {
                "address": "Custom House Quay",
                "available_bike_stands": 2,
                "available_bikes": 28,
                "banking": false,
                "bike_stands": 30,
                "bonus": false,
                "contract_name": "dublin",
                "last_update": 1789137324000,
                "name": "CUSTOM HOUSE QUAY",
                "number": 8,
                "status": "OPEN"
            },
            "type": "Feature"
        },
        {
            "geometry": {
                "coordinates": [
                    -6.263578,
                    53.343034
                ],
                "type": "Point"
            },
            "properties": {
                "address": "Exchequer Street",
                "available_bike_stands": 14,
                "available_bikes": 10,
                "banking": false,
                "bike_stands": 24,
                "bonus": false,
                "contract_name": "dublin",
                "last_update": 1789137335000,
                "name": "EXCHEQUER STREET",
                "number": 9,
                "status": "OPEN"
            },
            "type": "Feature"
        },
        {
            "geometry": {
                "coordinates": [
                    -6.266802,
                    53.344007
                ],
                "type": "Point"
            },
            "properties": {
                "address": "Dame Street",
                "available_bike_stands": 1,
                "available_bikes": 15,
                "banking": true,
                "bike_stands": 16,
                "bonus": false,
                "contract_name": "dublin",
                "last_update": 1789137266000,
                "name": "DAME STREET",
                "number": 10,
                "status": "OPEN"
            },
            "type": "Feature"
        },
        {
            "geometry": {
                "coordinates": [
                    -6.258503,
                    53.334295
                ],
                "type": "Point"
            },
            "properties": {
                "address": "Earlsfort Terrace",
                "available_bike_stands": 29,
                "available_bikes": 1,
                "banking": false,
                "bike_stands": 30,
                "bonus": false,
                "contract_name": "dublin",
                "last_update": 1789137234000,
                "name": "EARLSFORT TERRACE",
                "number": 11,
                "status": "OPEN"
            },
            "type": "Feature"
        },
        {
            "geometry": {
                "coordinates": [
                    -6.269779,
                    53.359246
                ],
                "type": "Point"
            },
            "properties": {
                "address": "Eccles Street",
                "available_bike_stands": 19,
                "available_bikes": 1,
                "banking": false,
                "bike_stands": 20,
                "bonus": false,
                "contract_name": "dublin",
                "last_update": 1789137294000,
                "name": "ECCLES STREET",
                "number": 12,
                "status": "OPEN"
            },
            "type": "Feature"
        },
        {
            "geometry": {
                "coordinates": [
                    -6.252825,
                    53.336074
                ],
                "type": "Point"
            },
            "properties": {
                "address": "Fitzwilliam Square West",
                "available_bike_stands": 30,
                "available_bikes": 0,
                "banking": false,
                "bike_stands": 30,
                "bonus": false,
                "contract_name": "dublin",
                "last_update": 1789137239000,
                "name": "FITZWILLIAM SQUARE WEST",
                "number": 13,
                "status": "OPEN"
            },
            "type": "Feature"
        },
        {
            "geometry": {
                "coordinates": [
                    -6.263371,
                    53.344603
                ],
                "type": "Point"
            },
            "properties": {
                "address": "Fownes Street Upper",
                "available_bike_stands": 13,
                "available_bikes": 17,
                "banking": false,
                "bike_stands": 30,
                "bonus": false,
                "contract_name": "dublin",
                "last_update": 1789137280000,
                "name": "FOWNES STREET UPPER",
                "number": 14,
                "status": "OPEN"
            },
            "type": "Feature"
        },
        {
            "geometry": {
                "coordinates": [
                    -6.264423,
                    53.355473
                ],
                "type": "Point"
            },
            "properties": {
                "address": "Hardwicke Street",
                "available_bike_stands": 16,
                "available_bikes": 0,
                "banking": false,
                "bike_stands": 16,
                "bonus": false,
                "contract_name": "dublin",
                "last_update": 1789137246000,
                "name": "HARDWICKE STREET",
                "number": 15,
                "status": "OPEN"
            },
            "type": "Feature"
        },
        {
            "geometry": {
                "coordinates": [
                    -6.252192,
                    53.347508
                ],
                "type": "Point"
            },
            "properties": {
                "address": "Georges Quay",
                "available_bike_stands": 7,
                "available_bikes": 13,
                "banking": false,
                "bike_stands": 20,
                "bonus": false,
                "contract_name": "dublin",
                "last_update": 1789137294000,
                "name": "GEORGES QUAY",
                "number": 16,
                "status": "OPEN"
            },
            "type": "Feature"
        },
        {
            "geometry": {
                "coordinates": [
                    -6.267732,
                    53.340803
                ],
                "type": "Point"
            },
            "properties": {
                "address": "Golden Lane",
                "available_bike_stands": 17,
                "available_bikes": 3,
                "banking": false,
                "bike_stands": 20,
                "bonus": false,
                "contract_name": "dublin",
                "last_update": 1789137388000,
                "name": "GOLDEN LANE",
                "number": 17,
                "status": "OPEN"
            },
            "type": "Feature"
        },
        {
            "geometry": {
                "coordinates": [
                    -6.2656674,
                    53.3341256
                ],
                "type": "Point"
            },
            "properties": {
                "address": "Grantham Street",
                "available_bike_stands": 29,
                "available_bikes": 1,
                "banking": false,
                "bike_stands": 30,
                "bonus": false,
                "contract_name": "dublin",
                "last_update": 1789137401000,
                "name": "GRANTHAM STREET",
                "number": 18,
                "status": "OPEN"
            },
            "type": "Feature"
        },
        {
            "geometry": {
                "coordinates": [
                    -6.2451391,
                    53.3347015
                ],
                "type": "Point"
            },
            "properties": {
                "address": "Herbert Place",
                "available_bike_stands": 10,
                "available_bikes": 20,
                "banking": false,
                "bike_stands": 30,
                "bonus": false,
                "contract_name": "dublin",
                "last_update": 1789137316000,
                "name": "HERBERT PLACE",
                "number": 19,
                "status": "OPEN"
            },
            "type": "Feature"
        },
        {
            "geometry": {
                "coordinates": [
                    -6.248174,
                    53.336485
                ],
                "type": "Point"
            },
            "properties": {
                "address": "James Street East",
                "available_bike_stands": 11,
                "available_bikes": 19,
                "banking": false,
                "bike_stands": 30,
                "bonus": false,
                "contract_name": "dublin",
                "last_update": 1789137274000,
                "name": "JAMES STREET EAST",
                "number": 20,
                "status": "OPEN"
            },
            "type": "Feature"
        },
        {
            "geometry": {
                "coordinates": [
                    -6.2541845,
                    53.3421448
                ],
                "type": "Point"
            },
            "properties": {
                "address": "Leinster Street South",
                "available_bike_stands": 8,
                "available_bikes": 22,
                "banking": false,
                "bike_stands": 30,
                "bonus": false,
                "contract_name": "dublin",
                "last_update": 1789137306000,
                "name": "LEINSTER STREET SOUTH",
                "number": 21,
                "status": "OPEN"
            },
            "type": "Feature"
        },
        {
            "geometry": {
                "coordinates": [
                    -6.254614,
                    53.345922
                ],
                "type": "Point"
            },
            "properties": {
                "address": "Townsend Street",
                "available_bike_stands": 10,
                "available_bikes": 10,
                "banking": false,
                "bike_stands": 20,
                "bonus": false,
                "contract_name": "dublin",
                "last_update": 1789137289000,
                "name": "TOWNSEND STREET",
                "number": 22,
                "status": "OPEN"
            },
            "type": "Feature"
        },
        {
            "geometry": {
                "coordinates": [
                    -6.2543578,
                    53.3482821
                ],
                "type": "Point"
            },
            "properties": {
                "address": "Custom House",
                "available_bike_stands": 13,
                "available_bikes": 17,
                "banking": false,
                "bike_stands": 30,
                "bonus": false,
                "contract_name": "dublin",
                "last_update": 1789136801000,
                "name": "CUSTOM HOUSE",
                "number": 23,
                "status": "OPEN"
            },
            "type": "Feature"
        },
        {
            "geometry": {
                "coordinates": [
                    -6.2603279,
                    53.3522131
                ],
                "type": "Point"
            },
            "properties": {
                "address": "Cathal Brugha Street",
                "available_bike_stands": 9,
                "available_bikes": 11,
                "banking": false,
                "bike_stands": 20,
                "bonus": false,
                "contract_name": "dublin",
                "last_update": 1789137291000,
                "name": "CATHAL BRUGHA STREET",
                "number": 24,
                "status": "OPEN"
            },
            "type": "Feature"
        },
        {
            "geometry": {
                "coordinates": [
                    -6.247006,
                    53.339069
                ],
                "type": "Point"
            },
            "properties": {
                "address": "Merrion Square East",
                "available_bike_stands": 17,
                "available_bikes": 13,
                "banking": false,
                "bike_stands": 30,
                "bonus": false,
                "contract_name": "dublin",
                "last_update": 1789137271000,
                "name": "MERRION SQUARE EAST",
                "number": 25,
                "status": "OPEN"
            },
            "type": "Feature"
        },
        {
            "geometry": {
                "coordinates": [
                    -6.2517163,
                    53.3400705
                ],
                "type": "Point"
            },
            "properties": {
                "address": "Merrion Square West",
                "available_bike_stands": 6,
                "available_bikes": 14,
                "banking": true,
                "bike_stands": 20,
                "bonus": false,
                "contract_name": "dublin",
                "last_update": 1789137059000,
                "name": "MERRION SQUARE WEST",
                "number": 26,
                "status": "OPEN"
            },
            "type": "Feature"
        },
        {
            "geometry": {
                "coordinates": [
                    -6.2575938,
                    53.3412353
                ],
                "type": "Point"
            },
            "properties": {
                "address": "Molesworth Street",
                "available_bike_stands": 6,
                "available_bikes": 14,
                "banking": false,
                "bike_stands": 20,
                "bonus": false,
                "contract_name": "dublin",
                "last_update": 1789137155000,
                "name": "MOLESWORTH STREET",
                "number": 27,
                "status": "OPEN"
            },
            "type": "Feature"
        },
        {
            "geometry": {
                "coordinates": [
                    -6.258586,
                    53.356299
                ],
                "type": "Point"
            },
            "properties": {
                "address": "Mountjoy Square West",
                "available_bike_stands": 14,
                "available_bikes": 16,
                "banking": false,
                "bike_stands": 30,
                "bonus": false,
                "contract_name": "dublin",
                "last_update": 1789137317000,
                "name": "MOUNTJOY SQUARE WEST",
                "number": 28,
                "status": "OPEN"
            },
            "type": "Feature"
        },
        {
            "geometry": {
                "coordinates": [
                    -6.2683448,
                    53.3461075
                ],
                "type": "Point"
            },
            "properties": {
                "address": "Ormond Quay Upper",
                "available_bike_stands": 20,
                "available_bikes": 8,
                "banking": false,
                "bike_stands": 29,
                "bonus": false,
                "contract_name": "dublin",
                "last_update": 1789137287000,
                "name": "ORMOND QUAY UPPER",
                "number": 29,
                "status": "OPEN"
            },
            "type": "Feature"
        },
        {
            "geometry": {
                "coordinates": [
                    -6.265125,
                    53.350929
                ],
                "type": "Point"
            },
            "properties": {
                "address": "Parnell Street",
                "available_bike_stands": 5,
                "available_bikes": 15,
                "banking": false,
                "bike_stands": 20,
                "bonus": false,
                "contract_name": "dublin",
                "last_update": 1789137380000,
                "name": "PARNELL STREET",
                "number": 31,
                "status": "OPEN"
            },
            "type": "Feature"
        },
        {
            "geometry": {
                "coordinates": [
                    -6.250427,
                    53.344304
                ],
                "type": "Point"
            },
            "properties": {
                "address": "Pearse Street",
                "available_bike_stands": 6,
                "available_bikes": 24,
                "banking": false,
                "bike_stands": 30,
                "bonus": false,
                "contract_name": "dublin",
                "last_update": 1789137319000,
                "name": "PEARSE STREET",
                "number": 32,
                "status": "OPEN"
            },
            "type": "Feature"
        },
        {
            "geometry": {
                "coordinates": [
                    -6.260311,
                    53.349013
                ],
                "type": "Point"
            },
            "properties": {
                "address": "Princes Street / O'Connell Street",
                "available_bike_stands": 0,
                "available_bikes": 23,
                "banking": false,
                "bike_stands": 23,
                "bonus": false,
                "contract_name": "dublin",
                "last_update": 1789137352000,
                "name": "PRINCES STREET / O'CONNELL STREET",
                "number": 33,
                "status": "OPEN"
            },
            "type": "Feature"
        },
        {
            "geometry": {
                "coordinates": [
                    -6.265023,
                    53.331384
                ],
                "type": "Point"
            },
            "properties": {
                "address": "Lennox Street",
                "available_bike_stands": 34,
                "available_bikes": 6,
                "banking": false,
                "bike_stands": 40,
                "bonus": false,
                "contract_name": "dublin",
                "last_update": 1789137300000,
                "name": "LENNOX STREET",
                "number": 34,
                "status": "OPEN"
            },
            "type": "Feature"
        },
        {
            "geometry": {
                "coordinates": [
                    -6.278214,
                    53.347692
                ],
                "type": "Point"
            },
            "properties": {
                "address": "Smithfield",
                "available_bike_stands": 12,
                "available_bikes": 18,
                "banking": false,
                "bike_stands": 30,
                "bonus": false,
                "contract_name": "dublin",
                "last_update": 1789137300000,
                "name": "SMITHFIELD",
                "number": 35,
                "status": "OPEN"
            },
            "type": "Feature"
        },
        {
            "geometry": {
                "coordinates": [
                    -6.256218,
                    53.337636
                ],
                "type": "Point"
            },
            "properties": {
                "address": "St. Stephen's Green East",
                "available_bike_stands": 24,
                "available_bikes": 16,
                "banking": false,
                "bike_stands": 40,
                "bonus": false,
                "contract_name": "dublin",
                "last_update": 1789137270000,
                "name": "ST. STEPHEN'S GREEN EAST",
                "number": 36,
                "status": "OPEN"
            },
            "type": "Feature"
        },
        {
            "geometry": {
                "coordinates": [
                    -6.26199,
                    53.337494
                ],
                "type": "Point"
            },
            "properties": {
                "address": "St. Stephen's Green South",
                "available_bike_stands": 28,
                "available_bikes": 2,
                "banking": true,
                "bike_stands": 30,
                "bonus": false,
                "contract_name": "dublin",
                "last_update": 1789137245000,
                "name": "ST. STEPHEN'S GREEN SOUTH",
                "number": 37,
                "status": "OPEN"
            },
            "type": "Feature"
        },
        {
            "geometry": {
                "coordinates": [
                    -6.2526613,
                    53.3509988
                ],
                "type": "Point"
            },
            "properties": {
                "address": "Talbot Street",
                "available_bike_stands": 19,
                "available_bikes": 21,
                "banking": false,
                "bike_stands": 40,
                "bonus": false,
                "contract_name": "dublin",
                "last_update": 1789137398000,
                "name": "TALBOT STREET",
                "number": 38,
                "status": "OPEN"
            },
            "type": "Feature"
        },
        {
            "geometry": {
                "coordinates": [
                    -6.252717,
                    53.332383
                ],
                "type": "Point"
            },
            "properties": {
                "address": "Wilton Terrace",
                "available_bike_stands": 8,
                "available_bikes": 12,
                "banking": false,
                "bike_stands": 20,
                "bonus": false,
                "contract_name": "dublin",
                "last_update": 1789137400000,
                "name": "WILTON TERRACE",
                "number": 39,
                "status": "OPEN"
            },
            "type": "Feature"
        },
        {
            "geometry": {
                "coordinates": [
                    -6.266651,
                    53.3483
                ],
                "type": "Point"
            },
            "properties": {
                "address": "Jervis Street",
                "available_bike_stands": 9,
                "available_bikes": 12,
                "banking": false,
                "bike_stands": 21,
                "bonus": false,
                "contract_name": "dublin",
                "last_update": 1789137292000,
                "name": "JERVIS STREET",
                "number": 40,
                "status": "OPEN"
            },
            "type": "Feature"
        },
        {
            "geometry": {
                "coordinates": [
                    -6.2578697,
                    53.3324162
                ],
                "type": "Point"
            },
            "properties": {
                "address": "Harcourt Terrace",
                "available_bike_stands": 17,
                "available_bikes": 3,
                "banking": false,
                "bike_stands": 20,
                "bonus": false,
                "contract_name": "dublin",
                "last_update": 1789137085000,
                "name": "HARCOURT TERRACE",
                "number": 41,
                "status": "OPEN"
            },
            "type": "Feature"
        },
        {
            "geometry": {
                "coordinates": [
                    -6.278198,
                    53.349562
                ],
                "type": "Point"
            },
            "properties": {
                "address": "Smithfield North",
                "available_bike_stands": 5,
                "available_bikes": 25,
                "banking": false,
                "bike_stands": 30,
                "bonus": false,
                "contract_name": "dublin",
                "last_update": 1789137271000,
                "name": "SMITHFIELD NORTH",
                "number": 42,
                "status": "OPEN"
            },
            "type": "Feature"
        },
        {
            "geometry": {
                "coordinates": [
                    -6.268044,
                    53.330091
                ],
                "type": "Point"
            },
            "properties": {
                "address": "Portobello Road",
                "available_bike_stands": 19,
                "available_bikes": 11,
                "banking": false,
                "bike_stands": 30,
                "bonus": false,
                "contract_name": "dublin",
                "last_update": 1789137276000,
                "name": "PORTOBELLO ROAD",
                "number": 43,
                "status": "OPEN"
            },
            "type": "Feature"
        },
        {
            "geometry": {
                "coordinates": [
                    -6.2602984,
                    53.3585932
                ],
                "type": "Point"
            },
            "properties": {
                "address": "Upper Sherrard Street",
                "available_bike_stands": 28,
                "available_bikes": 2,
                "banking": false,
                "bike_stands": 30,
                "bonus": false,
                "contract_name": "dublin",
                "last_update": 1789137326000,
                "name": "UPPER SHERRARD STREET",
                "number": 44,
                "status": "OPEN"
            },
            "type": "Feature"
        },
        {
            "geometry": {
                "coordinates": [
                    -6.255265,
                    53.351464
                ],
                "type": "Point"
            },
            "properties": {
                "address": "Deverell Place",
                "available_bike_stands": 26,
                "available_bikes": 4,
                "banking": false,
                "bike_stands": 30,
                "bonus": false,
                "contract_name": "dublin",
                "last_update": 1789137252000,
                "name": "DEVERELL PLACE",
                "number": 45,
                "status": "OPEN"
            },
            "type": "Feature"
        },
        {
            "geometry": {
                "coordinates": [
                    -6.24551,
                    53.335742
                ],
                "type": "Point"
            },
            "properties": {
                "address": "Herbert Street",
                "available_bike_stands": 25,
                "available_bikes": 15,
                "banking": false,
                "bike_stands": 40,
                "bonus": false,
                "contract_name": "dublin",
                "last_update": 1789137245000,
                "name": "HERBERT STREET",
                "number": 47,
                "status": "OPEN"
            },
            "type": "Feature"
        },
        {
            "geometry": {
                "coordinates": [
                    -6.244239,
                    53.347777
                ],
                "type": "Point"
            },
            "properties": {
                "address": "Excise Walk",
                "available_bike_stands": 6,
                "available_bikes": 34,
                "banking": false,
                "bike_stands": 40,
                "bonus": false,
                "contract_name": "dublin",
                "last_update": 1789137273000,
                "name": "EXCISE WALK",
                "number": 48,
                "status": "OPEN"
            },
            "type": "Feature"
        },
        {
            "geometry": {
                "coordinates": [
                    -6.240928,
                    53.347932
                ],
                "type": "Point"
            },
            "properties": {
                "address": "Guild Street",
                "available_bike_stands": 35,
                "available_bikes": 5,
                "banking": false,
                "bike_stands": 40,
                "bonus": false,
                "contract_name": "dublin",
                "last_update": 1789137282000,
                "name": "GUILD STREET",
                "number": 49,
                "status": "OPEN"
            },
            "type": "Feature"
        },
        {
            "geometry": {
                "coordinates": [
                    -6.279696,
                    53.35023
                ],
                "type": "Point"
            },
            "properties": {
                "address": "George's Lane",
                "available_bike_stands": 30,
                "available_bikes": 10,
                "banking": false,
                "bike_stands": 40,
                "bonus": false,
                "contract_name": "dublin",
                "last_update": 1789137295000,
                "name": "GEORGES LANE",
                "number": 50,
                "status": "OPEN"
            },
            "type": "Feature"
        },
        {
            "geometry": {
                "coordinates": [
                    -6.264699,
                    53.339334
                ],
                "type": "Point"
            },
            "properties": {
                "address": "York Street West",
                "available_bike_stands": 19,
                "available_bikes": 11,
                "banking": false,
                "bike_stands": 40,
                "bonus": false,
                "contract_name": "dublin",
                "last_update": 1789137231000,
                "name": "YORK STREET WEST",
                "number": 51,
                "status": "OPEN"
            },
            "type": "Feature"
        },
        {
            "geometry": {
                "coordinates": [
                    -6.262003,
                    53.338755
                ],
                "type": "Point"
            },
            "properties": {
                "address": "York Street East",
                "available_bike_stands": 16,
                "available_bikes": 16,
                "banking": false,
                "bike_stands": 32,
                "bonus": false,
                "contract_name": "dublin",
                "last_update": 1789137251000,
                "name": "YORK STREET EAST",
                "number": 52,
                "status": "OPEN"
            },
            "type": "Feature"
        },
        {
            "geometry": {
                "coordinates": [
                    -6.26059,
                    53.337132
                ],
                "type": "Point"
            },
            "properties": {
                "address": "Newman House",
                "available_bike_stands": 27,
                "available_bikes": 13,
                "banking": false,
                "bike_stands": 40,
                "bonus": false,
                "contract_name": "dublin",
                "last_update": 1789137242000,
                "name": "NEWMAN HOUSE",
                "number": 53,
                "status": "OPEN"
            },
            "type": "Feature"
        },
        {
            "geometry": {
                "coordinates": [
                    -6.26298,
                    53.336021
                ],
                "type": "Point"
            },
            "properties": {
                "address": "Clonmel Street",
                "available_bike_stands": 33,
                "available_bikes": 0,
                "banking": false,
                "bike_stands": 33,
                "bonus": false,
                "contract_name": "dublin",
                "last_update": 1789137151000,
                "name": "CLONMEL STREET",
                "number": 54,
                "status": "OPEN"
            },
            "type": "Feature"
        },
        {
            "geometry": {
                "coordinates": [
                    -6.260714,
                    53.33403
                ],
                "type": "Point"
            },
            "properties": {
                "address": "Hatch Street",
                "available_bike_stands": 17,
                "available_bikes": 19,
                "banking": false,
                "bike_stands": 36,
                "bonus": false,
                "contract_name": "dublin",
                "last_update": 1789137252000,
                "name": "HATCH STREET",
                "number": 55,
                "status": "OPEN"
            },
            "type": "Feature"
        },
        {
            "geometry": {
                "coordinates": [
                    -6.2415388,
                    53.3379853
                ],
                "type": "Point"
            },
            "properties": {
                "address": "Mount Street Lower",
                "available_bike_stands": 35,
                "available_bikes": 5,
                "banking": false,
                "bike_stands": 40,
                "bonus": false,
                "contract_name": "dublin",
                "last_update": 1789137273000,
                "name": "MOUNT STREET LOWER",
                "number": 56,
                "status": "OPEN"
            },
            "type": "Feature"
        },
        {
            "geometry": {
                "coordinates": [
                    -6.243778,
                    53.339629
                ],
                "type": "Point"
            },
            "properties": {
                "address": "Grattan Street",
                "available_bike_stands": 21,
                "available_bikes": 2,
                "banking": false,
                "bike_stands": 23,
                "bonus": false,
                "contract_name": "dublin",
                "last_update": 1789137243000,
                "name": "GRATTAN STREET",
                "number": 57,
                "status": "OPEN"
            },
            "type": "Feature"
        },
        {
            "geometry": {
                "coordinates": [
                    -6.240642,
                    53.339218
                ],
                "type": "Point"
            },
            "properties": {
                "address": "Sir Patrick's Dun",
                "available_bike_stands": 18,
                "available_bikes": 22,
                "banking": false,
                "bike_stands": 40,
                "bonus": false,
                "contract_name": "dublin",
                "last_update": 1789137266000,
                "name": "SIR PATRICK DUN'S",
                "number": 58,
                "status": "OPEN"
            },
            "type": "Feature"
        },
        {
            "geometry": {
                "coordinates": [
                    -6.261397,
                    53.35561
                ],
                "type": "Point"
            },
            "properties": {
                "address": "Denmark Street Great",
                "available_bike_stands": 15,
                "available_bikes": 5,
                "banking": false,
                "bike_stands": 20,
                "bonus": false,
                "contract_name": "dublin",
                "last_update": 1789137232000,
                "name": "DENMARK STREET GREAT",
                "number": 59,
                "status": "OPEN"
            },
            "type": "Feature"
        },
        {
            "geometry": {
                "coordinates": [
                    -6.260348,
                    53.359624
                ],
                "type": "Point"
            },
            "properties": {
                "address": "North Circular Road",
                "available_bike_stands": 29,
                "available_bikes": 1,
                "banking": false,
                "bike_stands": 30,
                "bonus": false,
                "contract_name": "dublin",
                "last_update": 1789137310000,
                "name": "NORTH CIRCULAR ROAD",
                "number": 60,
                "status": "OPEN"
            },
            "type": "Feature"
        },
        {
            "geometry": {
                "coordinates": [
                    -6.263232,
                    53.357043
                ],
                "type": "Point"
            },
            "properties": {
                "address": "Hardwicke Place",
                "available_bike_stands": 23,
                "available_bikes": 2,
                "banking": false,
                "bike_stands": 25,
                "bonus": false,
                "contract_name": "dublin",
                "last_update": 1789137246000,
                "name": "HARDWICKE PLACE",
                "number": 61,
                "status": "OPEN"
            },
            "type": "Feature"
        },
        {
            "geometry": {
                "coordinates": [
                    -6.243576,
                    53.346026
                ],
                "type": "Point"
            },
            "properties": {
                "address": "Lime Street",
                "available_bike_stands": 19,
                "available_bikes": 14,
                "banking": false,
                "bike_stands": 40,
                "bonus": false,
                "contract_name": "dublin",
                "last_update": 1789137393000,
                "name": "LIME STREET",
                "number": 62,
                "status": "OPEN"
            },
            "type": "Feature"
        },
        {
            "geometry": {
                "coordinates": [
                    -6.24672,
                    53.341428
                ],
                "type": "Point"
            },
            "properties": {
                "address": "Fenian Street",
                "available_bike_stands": 3,
                "available_bikes": 32,
                "banking": false,
                "bike_stands": 35,
                "bonus": false,
                "contract_name": "dublin",
                "last_update": 1789137266000,
                "name": "FENIAN STREET",
                "number": 63,
                "status": "OPEN"
            },
            "type": "Feature"
        },
        {
            "geometry": {
                "coordinates": [
                    -6.247163,
                    53.345203
                ],
                "type": "Point"
            },
            "properties": {
                "address": "Sandwith Street",
                "available_bike_stands": 22,
                "available_bikes": 18,
                "banking": false,
                "bike_stands": 40,
                "bonus": false,
                "contract_name": "dublin",
                "last_update": 1789137341000,
                "name": "SANDWITH STREET",
                "number": 64,
                "status": "OPEN"
            },
            "type": "Feature"
        },
        {
            "geometry": {
                "coordinates": [
                    -6.238523,
                    53.34744
                ],
                "type": "Point"
            },
            "properties": {
                "address": "Convention Centre",
                "available_bike_stands": 33,
                "available_bikes": 7,
                "banking": false,
                "bike_stands": 40,
                "bonus": false,
                "contract_name": "dublin",
                "last_update": 1789137303000,
                "name": "CONVENTION CENTRE",
                "number": 65,
                "status": "OPEN"
            },
            "type": "Feature"
        },
        {
            "geometry": {
                "coordinates": [
                    -6.234749,
                    53.347122
                ],
                "type": "Point"
            },
            "properties": {
                "address": "New Central Bank",
                "available_bike_stands": 28,
                "available_bikes": 12,
                "banking": false,
                "bike_stands": 40,
                "bonus": false,
                "contract_name": "dublin",
                "last_update": 1789137330000,
                "name": "NEW CENTRAL BANK",
                "number": 66,
                "status": "OPEN"
            },
            "type": "Feature"
        },
        {
            "geometry": {
                "coordinates": [
                    -6.230852,
                    53.346867
                ],
                "type": "Point"
            },
            "properties": {
                "address": "The Point",
                "available_bike_stands": 24,
                "available_bikes": 16,
                "banking": false,
                "bike_stands": 40,
                "bonus": false,
                "contract_name": "dublin",
                "last_update": 1789137282000,
                "name": "THE POINT",
                "number": 67,
                "status": "OPEN"
            },
            "type": "Feature"
        },
        {
            "geometry": {
                "coordinates": [
                    -6.237153,
                    53.344115
                ],
                "type": "Point"
            },
            "properties": {
                "address": "Hanover Quay",
                "available_bike_stands": 21,
                "available_bikes": 19,
                "banking": false,
                "bike_stands": 40,
                "bonus": false,
                "contract_name": "dublin",
                "last_update": 1789137286000,
                "name": "HANOVER QUAY",
                "number": 68,
                "status": "OPEN"
            },
            "type": "Feature"
        },
        {
            "geometry": {
                "coordinates": [
                    -6.238695,
                    53.342638
                ],
                "type": "Point"
            },
            "properties": {
                "address": "Grand Canal Dock",
                "available_bike_stands": 15,
                "available_bikes": 25,
                "banking": false,
                "bike_stands": 40,
                "bonus": false,
                "contract_name": "dublin",
                "last_update": 1789137380000,
                "name": "GRAND CANAL DOCK",
                "number": 69,
                "status": "OPEN"
            },
            "type": "Feature"
        },
        {
            "geometry": {
                "coordinates": [
                    -6.236779,
                    53.338311
                ],
                "type": "Point"
            },
            "properties": {
                "address": "Barrow Street",
                "available_bike_stands": 3,
                "available_bikes": 18,
                "banking": false,
                "bike_stands": 21,
                "bonus": false,
                "contract_name": "dublin",
                "last_update": 1789137303000,
                "name": "BARROW STREET",
                "number": 70,
                "status": "OPEN"
            },
            "type": "Feature"
        },
        {
            "geometry": {
                "coordinates": [
                    -6.267699,
                    53.337757
                ],
                "type": "Point"
            },
            "properties": {
                "address": "Kevin Street",
                "available_bike_stands": 36,
                "available_bikes": 4,
                "banking": false,
                "bike_stands": 40,
                "bonus": false,
                "contract_name": "dublin",
                "last_update": 1789137318000,
                "name": "KEVIN STREET",
                "number": 71,
                "status": "OPEN"
            },
            "type": "Feature"
        },
        {
            "geometry": {
                "coordinates": [
                    -6.277167,
                    53.343105
                ],
                "type": "Point"
            },
            "properties": {
                "address": "John Street West",
                "available_bike_stands": 24,
                "available_bikes": 7,
                "banking": false,
                "bike_stands": 31,
                "bonus": false,
                "contract_name": "dublin",
                "last_update": 1789137241000,
                "name": "JOHN STREET WEST",
                "number": 72,
                "status": "OPEN"
            },
            "type": "Feature"
        },
        {
            "geometry": {
                "coordinates": [
                    -6.275233,
                    53.342081
                ],
                "type": "Point"
            },
            "properties": {
                "address": "Francis Street",
                "available_bike_stands": 23,
                "available_bikes": 7,
                "banking": false,
                "bike_stands": 30,
                "bonus": false,
                "contract_name": "dublin",
                "last_update": 1789137341000,
                "name": "FRANCIS STREET",
                "number": 73,
                "status": "OPEN"
            },
            "type": "Feature"
        },
        {
            "geometry": {
                "coordinates": [
                    -6.280531,
                    53.343893
                ],
                "type": "Point"
            },
            "properties": {
                "address": "Oliver Bond Street",
                "available_bike_stands": 23,
                "available_bikes": 7,
                "banking": false,
                "bike_stands": 30,
                "bonus": false,
                "contract_name": "dublin",
                "last_update": 1789137273000,
                "name": "OLIVER BOND STREET",
                "number": 74,
                "status": "OPEN"
            },
            "type": "Feature"
        },
        {
            "geometry": {
                "coordinates": [
                    -6.287409,
                    53.343456
                ],
                "type": "Point"
            },
            "properties": {
                "address": "James Street",
                "available_bike_stands": 19,
                "available_bikes": 21,
                "banking": false,
                "bike_stands": 40,
                "bonus": false,
                "contract_name": "dublin",
                "last_update": 1789137259000,
                "name": "JAMES STREET",
                "number": 75,
                "status": "OPEN"
            },
            "type": "Feature"
        },
        {
            "geometry": {
                "coordinates": [
                    -6.287661,
                    53.342296
                ],
                "type": "Point"
            },
            "properties": {
                "address": "Market Street South",
                "available_bike_stands": 31,
                "available_bikes": 7,
                "banking": false,
                "bike_stands": 38,
                "bonus": false,
                "contract_name": "dublin",
                "last_update": 1789137253000,
                "name": "MARKET STREET SOUTH",
                "number": 76,
                "status": "OPEN"
            },
            "type": "Feature"
        },
        {
            "geometry": {
                "coordinates": [
                    -6.267459,
                    53.348875
                ],
                "type": "Point"
            },
            "properties": {
                "address": "Wolfe Tone Street",
                "available_bike_stands": 23,
                "available_bikes": 6,
                "banking": false,
                "bike_stands": 29,
                "bonus": false,
                "contract_name": "dublin",
                "last_update": 1789137287000,
                "name": "WOLFE TONE STREET",
                "number": 77,
                "status": "OPEN"
            },
            "type": "Feature"
        },
        {
            "geometry": {
                "coordinates": [
                    -6.264828,
                    53.359967
                ],
                "type": "Point"
            },
            "properties": {
                "address": "Mater Hospital",
                "available_bike_stands": 37,
                "available_bikes": 3,
                "banking": false,
                "bike_stands": 40,
                "bonus": false,
                "contract_name": "dublin",
                "last_update": 1789137370000,
                "name": "MATER HOSPITAL",
                "number": 78,
                "status": "OPEN"
            },
            "type": "Feature"
        },
        {
            "geometry": {
                "coordinates": [
                    -6.265601,
                    53.358115
                ],
                "type": "Point"
            },
            "properties": {
                "address": "Eccles Street East",
                "available_bike_stands": 27,
                "available_bikes": 0,
                "banking": false,
                "bike_stands": 27,
                "bonus": false,
                "contract_name": "dublin",
                "last_update": 1789137288000,
                "name": "ECCLES STREET EAST",
                "number": 79,
                "status": "OPEN"
            },
            "type": "Feature"
        },
        {
            "geometry": {
                "coordinates": [
                    -6.292951,
                    53.341359
                ],
                "type": "Point"
            },
            "properties": {
                "address": "St James Hospital (Luas)",
                "available_bike_stands": 18,
                "available_bikes": 22,
                "banking": false,
                "bike_stands": 40,
                "bonus": false,
                "contract_name": "dublin",
                "last_update": 1789137262000,
                "name": "ST JAMES HOSPITAL (LUAS)",
                "number": 80,
                "status": "OPEN"
            },
            "type": "Feature"
        },
        {
            "geometry": {
                "coordinates": [
                    -6.29719,
                    53.341645
                ],
                "type": "Point"
            },
            "properties": {
                "address": "Mount Brown",
                "available_bike_stands": 21,
                "available_bikes": 1,
                "banking": false,
                "bike_stands": 22,
                "bonus": false,
                "contract_name": "dublin",
                "last_update": 1789137238000,
                "name": "MOUNT BROWN",
                "number": 82,
                "status": "OPEN"
            },
            "type": "Feature"
        },
        {
            "geometry": {
                "coordinates": [
                    -6.308191,
                    53.340714
                ],
                "type": "Point"
            },
            "properties": {
                "address": "Emmet Road",
                "available_bike_stands": 16,
                "available_bikes": 24,
                "banking": false,
                "bike_stands": 40,
                "bonus": false,
                "contract_name": "dublin",
                "last_update": 1789137237000,
                "name": "EMMET ROAD",
                "number": 83,
                "status": "OPEN"
            },
            "type": "Feature"
        },
        {
            "geometry": {
                "coordinates": [
                    -6.300217,
                    53.339005
                ],
                "type": "Point"
            },
            "properties": {
                "address": "Brookfield Road",
                "available_bike_stands": 30,
                "available_bikes": 0,
                "banking": false,
                "bike_stands": 30,
                "bonus": false,
                "contract_name": "dublin",
                "last_update": 1789137247000,
                "name": "BROOKFIELD ROAD",
                "number": 84,
                "status": "OPEN"
            },
            "type": "Feature"
        },
        {
            "geometry": {
                "coordinates": [
                    -6.30395,
                    53.338776
                ],
                "type": "Point"
            },
            "properties": {
                "address": "Rothe Abbey",
                "available_bike_stands": 21,
                "available_bikes": 14,
                "banking": false,
                "bike_stands": 35,
                "bonus": false,
                "contract_name": "dublin",
                "last_update": 1789137257000,
                "name": "ROTHE ABBEY",
                "number": 85,
                "status": "OPEN"
            },
            "type": "Feature"
        },
        {
            "geometry": {
                "coordinates": [
                    -6.291804,
                    53.347972
                ],
                "type": "Point"
            },
            "properties": {
                "address": "Parkgate Street",
                "available_bike_stands": 26,
                "available_bikes": 12,
                "banking": false,
                "bike_stands": 38,
                "bonus": false,
                "contract_name": "dublin",
                "last_update": 1789137297000,
                "name": "PARKGATE STREET",
                "number": 86,
                "status": "OPEN"
            },
            "type": "Feature"
        },
        {
            "geometry": {
                "coordinates": [
                    -6.28525,
                    53.347477
                ],
                "type": "Point"
            },
            "properties": {
                "address": "Collins Barracks Museum",
                "available_bike_stands": 14,
                "available_bikes": 24,
                "banking": false,
                "bike_stands": 38,
                "bonus": false,
                "contract_name": "dublin",
                "last_update": 1789137271000,
                "name": "COLLINS BARRACKS MUSEUM",
                "number": 87,
                "status": "OPEN"
            },
            "type": "Feature"
        },
        {
            "geometry": {
                "coordinates": [
                    -6.281637,
                    53.3488
                ],
                "type": "Point"
            },
            "properties": {
                "address": "Blackhall Place",
                "available_bike_stands": 17,
                "available_bikes": 13,
                "banking": false,
                "bike_stands": 30,
                "bonus": false,
                "contract_name": "dublin",
                "last_update": 1789137274000,
                "name": "BLACKHALL PLACE",
                "number": 88,
                "status": "OPEN"
            },
            "type": "Feature"
        },
        {
            "geometry": {
                "coordinates": [
                    -6.2509,
                    53.335211
                ],
                "type": "Point"
            },
            "properties": {
                "address": "Fitzwilliam Square East",
                "available_bike_stands": 25,
                "available_bikes": 15,
                "banking": false,
                "bike_stands": 40,
                "bonus": false,
                "contract_name": "dublin",
                "last_update": 1789137236000,
                "name": "FITZWILLIAM SQUARE EAST",
                "number": 89,
                "status": "OPEN"
            },
            "type": "Feature"
        },
        {
            "geometry": {
                "coordinates": [
                    -6.233451,
                    53.344153
                ],
                "type": "Point"
            },
            "properties": {
                "address": "Benson Street",
                "available_bike_stands": 8,
                "available_bikes": 32,
                "banking": false,
                "bike_stands": 40,
                "bonus": false,
                "contract_name": "dublin",
                "last_update": 1789137314000,
                "name": "BENSON STREET",
                "number": 90,
                "status": "OPEN"
            },
            "type": "Feature"
        },
        {
            "geometry": {
                "coordinates": [
                    -6.231291,
                    53.341833
                ],
                "type": "Point"
            },
            "properties": {
                "address": "South Dock Road",
                "available_bike_stands": 1,
                "available_bikes": 29,
                "banking": false,
                "bike_stands": 30,
                "bonus": false,
                "contract_name": "dublin",
                "last_update": 1789137299000,
                "name": "SOUTH DOCK ROAD",
                "number": 91,
                "status": "OPEN"
            },
            "type": "Feature"
        },
        {
            "geometry": {
                "coordinates": [
                    -6.292432,
                    53.347802
                ],
                "type": "Point"
            },
            "properties": {
                "address": "Heuston Bridge (North)",
                "available_bike_stands": 14,
                "available_bikes": 26,
                "banking": false,
                "bike_stands": 40,
                "bonus": false,
                "contract_name": "dublin",
                "last_update": 1789137267000,
                "name": "HEUSTON BRIDGE (NORTH)",
                "number": 92,
                "status": "OPEN"
            },
            "type": "Feature"
        },
        {
            "geometry": {
                "coordinates": [
                    -6.296924,
                    53.346603
                ],
                "type": "Point"
            },
            "properties": {
                "address": "Heuston Station (Central)",
                "available_bike_stands": 37,
                "available_bikes": 3,
                "banking": false,
                "bike_stands": 40,
                "bonus": false,
                "contract_name": "dublin",
                "last_update": 1789137258000,
                "name": "HEUSTON STATION (CENTRAL)",
                "number": 93,
                "status": "OPEN"
            },
            "type": "Feature"
        },
        {
            "geometry": {
                "coordinates": [
                    -6.297804,
                    53.346985
                ],
                "type": "Point"
            },
            "properties": {
                "address": "Heuston Station (Car Park)",
                "available_bike_stands": 26,
                "available_bikes": 14,
                "banking": false,
                "bike_stands": 40,
                "bonus": false,
                "contract_name": "dublin",
                "last_update": 1789137245000,
                "name": "HEUSTON STATION (CAR PARK)",
                "number": 94,
                "status": "OPEN"
            },
            "type": "Feature"
        },
        {
            "geometry": {
                "coordinates": [
                    -6.29706,
                    53.343897
                ],
                "type": "Point"
            },
            "properties": {
                "address": "Royal Hospital",
                "available_bike_stands": 17,
                "available_bikes": 23,
                "banking": false,
                "bike_stands": 40,
                "bonus": false,
                "contract_name": "dublin",
                "last_update": 1789137271000,
                "name": "ROYAL HOSPITAL",
                "number": 95,
                "status": "OPEN"
            },
            "type": "Feature"
        },
        {
            "geometry": {
                "coordinates": [
                    -6.305085,
                    53.341805
                ],
                "type": "Point"
            },
            "properties": {
                "address": "Kilmainham Lane",
                "available_bike_stands": 30,
                "available_bikes": 0,
                "banking": false,
                "bike_stands": 30,
                "bonus": false,
                "contract_name": "dublin",
                "last_update": 1789137237000,
                "name": "KILMAINHAM LANE",
                "number": 96,
                "status": "OPEN"
            },
            "type": "Feature"
        },
        {
            "geometry": {
                "coordinates": [
                    -6.310015,
                    53.342113
                ],
                "type": "Point"
            },
            "properties": {
                "address": "Kilmainham Gaol",
                "available_bike_stands": 20,
                "available_bikes": 20,
                "banking": false,
                "bike_stands": 40,
                "bonus": false,
                "contract_name": "dublin",
                "last_update": 1789137266000,
                "name": "KILMAINHAM GAOL",
                "number": 97,
                "status": "OPEN"
            },
            "type": "Feature"
        },
        {
            "geometry": {
                "coordinates": [
                    -6.256853,
                    53.341515
                ],
                "type": "Point"
            },
            "properties": {
                "address": "Frederick Street South",
                "available_bike_stands": 25,
                "available_bikes": 15,
                "banking": false,
                "bike_stands": 40,
                "bonus": false,
                "contract_name": "dublin",
                "last_update": 1789137248000,
                "name": "FREDERICK STREET SOUTH",
                "number": 98,
                "status": "OPEN"
            },
            "type": "Feature"
        },
        {
            "geometry": {
                "coordinates": [
                    -6.246154,
                    53.346637
                ],
                "type": "Point"
            },
            "properties": {
                "address": "City Quay",
                "available_bike_stands": 23,
                "available_bikes": 7,
                "banking": false,
                "bike_stands": 30,
                "bonus": false,
                "contract_name": "dublin",
                "last_update": 1789137248000,
                "name": "CITY QUAY",
                "number": 99,
                "status": "OPEN"
            },
            "type": "Feature"
        },
        {
            "geometry": {
                "coordinates": [
                    -6.292041,
                    53.347106
                ],
                "type": "Point"
            },
            "properties": {
                "address": "Heuston Bridge (South)",
                "available_bike_stands": 1,
                "available_bikes": 24,
                "banking": false,
                "bike_stands": 25,
                "bonus": false,
                "contract_name": "dublin",
                "last_update": 1789137338000,
                "name": "HEUSTON BRIDGE (SOUTH)",
                "number": 100,
                "status": "OPEN"
            },
            "type": "Feature"
        },
        {
            "geometry": {
                "coordinates": [
                    -6.273507,
                    53.350291
                ],
                "type": "Point"
            },
            "properties": {
                "address": "King Street North",
                "available_bike_stands": 25,
                "available_bikes": 5,
                "banking": false,
                "bike_stands": 30,
                "bonus": false,
                "contract_name": "dublin",
                "last_update": 1789137263000,
                "name": "KING STREET NORTH",
                "number": 101,
                "status": "OPEN"
            },
            "type": "Feature"
        },
        {
            "geometry": {
                "coordinates": [
                    -6.269425,
                    53.354929
                ],
                "type": "Point"
            },
            "properties": {
                "address": "Western Way",
                "available_bike_stands": 28,
                "available_bikes": 9,
                "banking": false,
                "bike_stands": 40,
                "bonus": false,
                "contract_name": "dublin",
                "last_update": 1789137259000,
                "name": "WESTERN WAY",
                "number": 102,
                "status": "OPEN"
            },
            "type": "Feature"
        },
        {
            "geometry": {
                "coordinates": [
                    -6.278681,
                    53.354663
                ],
                "type": "Point"
            },
            "properties": {
                "address": "Grangegorman Lower (South)",
                "available_bike_stands": 35,
                "available_bikes": 5,
                "banking": false,
                "bike_stands": 40,
                "bonus": false,
                "contract_name": "dublin",
                "last_update": 1789137250000,
                "name": "GRANGEGORMAN LOWER (SOUTH)",
                "number": 103,
                "status": "OPEN"
            },
            "type": "Feature"
        },
        {
            "geometry": {
                "coordinates": [
                    -6.278424,
                    53.355173
                ],
                "type": "Point"
            },
            "properties": {
                "address": "Grangegorman Lower (Central)",
                "available_bike_stands": 40,
                "available_bikes": 0,
                "banking": false,
                "bike_stands": 40,
                "bonus": false,
                "contract_name": "dublin",
                "last_update": 1789137275000,
                "name": "GRANGEGORMAN LOWER (CENTRAL)",
                "number": 104,
                "status": "OPEN"
            },
            "type": "Feature"
        },
        {
            "geometry": {
                "coordinates": [
                    -6.278378,
                    53.355954
                ],
                "type": "Point"
            },
            "properties": {
                "address": "Grangegorman Lower (North)",
                "available_bike_stands": 34,
                "available_bikes": 2,
                "banking": false,
                "bike_stands": 36,
                "bonus": false,
                "contract_name": "dublin",
                "last_update": 1789137233000,
                "name": "GRANGEGORMAN LOWER (NORTH)",
                "number": 105,
                "status": "OPEN"
            },
            "type": "Feature"
        },
        {
            "geometry": {
                "coordinates": [
                    -6.280337,
                    53.35893
                ],
                "type": "Point"
            },
            "properties": {
                "address": "Rathdown Road",
                "available_bike_stands": 34,
                "available_bikes": 6,
                "banking": false,
                "bike_stands": 40,
                "bonus": false,
                "contract_name": "dublin",
                "last_update": 1789137266000,
                "name": "RATHDOWN ROAD",
                "number": 106,
                "status": "OPEN"
            },
            "type": "Feature"
        },
        {
            "geometry": {
                "coordinates": [
                    -6.281866,
                    53.359157
                ],
                "type": "Point"
            },
            "properties": {
                "address": "Charleville Road",
                "available_bike_stands": 35,
                "available_bikes": 5,
                "banking": false,
                "bike_stands": 40,
                "bonus": false,
                "contract_name": "dublin",
                "last_update": 1789137269000,
                "name": "CHARLEVILLE ROAD",
                "number": 107,
                "status": "OPEN"
            },
            "type": "Feature"
        },
        {
            "geometry": {
                "coordinates": [
                    -6.276142,
                    53.359405
                ],
                "type": "Point"
            },
            "properties": {
                "address": "Avondale Road",
                "available_bike_stands": 35,
                "available_bikes": 0,
                "banking": false,
                "bike_stands": 35,
                "bonus": false,
                "contract_name": "dublin",
                "last_update": 1789137236000,
                "name": "AVONDALE ROAD",
                "number": 108,
                "status": "OPEN"
            },
            "type": "Feature"
        },
        {
            "geometry": {
                "coordinates": [
                    -6.249319,
                    53.353331
                ],
                "type": "Point"
            },
            "properties": {
                "address": "Buckingham Street Lower",
                "available_bike_stands": 6,
                "available_bikes": 23,
                "banking": false,
                "bike_stands": 29,
                "bonus": false,
                "contract_name": "dublin",
                "last_update": 1789137331000,
                "name": "BUCKINGHAM STREET LOWER",
                "number": 109,
                "status": "OPEN"
            },
            "type": "Feature"
        },
        {
            "geometry": {
                "coordinates": [
                    -6.273717,
                    53.356307
                ],
                "type": "Point"
            },
            "properties": {
                "address": "Phibsborough Road",
                "available_bike_stands": 38,
                "available_bikes": 2,
                "banking": false,
                "bike_stands": 40,
                "bonus": false,
                "contract_name": "dublin",
                "last_update": 1789137263000,
                "name": "PHIBSBOROUGH ROAD",
                "number": 110,
                "status": "OPEN"
            },
            "type": "Feature"
        },
        {
            "geometry": {
                "coordinates": [
                    -6.256359,
                    53.356717
                ],
                "type": "Point"
            },
            "properties": {
                "address": "Mountjoy Square East",
                "available_bike_stands": 40,
                "available_bikes": 0,
                "banking": false,
                "bike_stands": 40,
                "bonus": false,
                "contract_name": "dublin",
                "last_update": 1789137247000,
                "name": "MOUNTJOY SQUARE EAST",
                "number": 111,
                "status": "OPEN"
            },
            "type": "Feature"
        },
        {
            "geometry": {
                "coordinates": [
                    -6.251557,
                    53.357841
                ],
                "type": "Point"
            },
            "properties": {
                "address": "North Circular Road (O'Connell's)",
                "available_bike_stands": 29,
                "available_bikes": 1,
                "banking": false,
                "bike_stands": 30,
                "bonus": false,
                "contract_name": "dublin",
                "last_update": 1789137294000,
                "name": "NORTH CIRCULAR ROAD (O'CONNELL'S)",
                "number": 112,
                "status": "OPEN"
            },
            "type": "Feature"
        },
        {
            "geometry": {
                "coordinates": [
                    -6.248606,
                    53.338614
                ],
                "type": "Point"
            },
            "properties": {
                "address": "Merrion Square South",
                "available_bike_stands": 35,
                "available_bikes": 5,
                "banking": false,
                "bike_stands": 40,
                "bonus": false,
                "contract_name": "dublin",
                "last_update": 1789137231000,
                "name": "MERRION SQUARE SOUTH",
                "number": 113,
                "status": "OPEN"
            },
            "type": "Feature"
        },
        {
            "geometry": {
                "coordinates": [
                    -6.248345,
                    53.333653
                ],
                "type": "Point"
            },
            "properties": {
                "address": "Wilton Terrace (Park)",
                "available_bike_stands": 25,
                "available_bikes": 15,
                "banking": false,
                "bike_stands": 40,
                "bonus": false,
                "contract_name": "dublin",
                "last_update": 1789137077000,
                "name": "WILTON TERRACE (PARK)",
                "number": 114,
                "status": "OPEN"
            },
            "type": "Feature"
        },
        {
            "geometry": {
                "coordinates": [
                    -6.247579,
                    53.354845
                ],
                "type": "Point"
            },
            "properties": {
                "address": "Killarney Street",
                "available_bike_stands": 16,
                "available_bikes": 14,
                "banking": false,
                "bike_stands": 30,
                "bonus": false,
                "contract_name": "dublin",
                "last_update": 1789137290000,
                "name": "KILLARNEY STREET",
                "number": 115,
                "status": "OPEN"
            },
            "type": "Feature"
        },
        {
            "geometry": {
                "coordinates": [
                    -6.272314,
                    53.3547
                ],
                "type": "Point"
            },
            "properties": {
                "address": "Broadstone",
                "available_bike_stands": 11,
                "available_bikes": 19,
                "banking": false,
                "bike_stands": 30,
                "bonus": false,
                "contract_name": "dublin",
                "last_update": 1789137265000,
                "name": "BROADSTONE",
                "number": 116,
                "status": "OPEN"
            },
            "type": "Feature"
        },
        {
            "geometry": {
                "coordinates": [
                    -6.231755,
                    53.343653
                ],
                "type": "Point"
            },
            "properties": {
                "address": "Hanover Quay East",
                "available_bike_stands": 27,
                "available_bikes": 13,
                "banking": false,
                "bike_stands": 40,
                "bonus": false,
                "contract_name": "dublin",
                "last_update": 1789137253000,
                "name": "HANOVER QUAY EAST",
                "number": 117,
                "status": "OPEN"
            },
            "type": "Feature"
        }
    ],
    "type": "FeatureCollection"
}