{
    "features": [
        {
            "geometry": {
                "coordinates": [
                    15.62935,
                    46.562695
                ],
                "type": "Point"
            },
            "properties": {
                "address": "Gosposvetska cesta 69",
                "available_bike_stands": 9,
                "available_bikes": 13,
                "banking": false,
                "bike_stands": 22,
                "bonus": false,
                "contract_name": "maribor",
                "last_update": 1789133395000,
                "name": "GOSPOSVETSKA C. - TURNERJEVA UL.",
                "number": 1,
                "status": "OPEN"
            },
            "type": "Feature"
        },
        {
            "geometry": {
                "coordinates": [
                    15.637118,
                    46.561422
                ],
                "type": "Point"
            },
            "properties": {
                "address": "Gosposvetska cesta 20",
                "available_bike_stands": 11,
                "available_bikes": 11,
                "banking": false,
                "bike_stands": 22,
                "bonus": false,
                "contract_name": "maribor",
                "last_update": 1789133533000,
                "name": "GOSPOSVETSKA C. - VRBANSKA C.",
                "number": 2,
                "status": "OPEN"
            },
            "type": "Feature"
        },
        {
            "geometry": {
                "coordinates": [
                    15.64053,
                    46.560761
                ],
                "type": "Point"
            },
            "properties": {
                "address": "Gosposvetska cesta 4",
                "available_bike_stands": 18,
                "available_bikes": 2,
                "banking": false,
                "bike_stands": 20,
                "bonus": false,
                "contract_name": "maribor",
                "last_update": 1789133395000,
                "name": "GOSPOSVETSKA C. - III. GIMNAZIJA",
                "number": 3,
                "status": "OPEN"
            },
            "type": "Feature"
        },
        {
            "geometry": {
                "coordinates": [
                    15.64146,
                    46.558498
                ],
                "type": "Point"
            },
            "properties": {
                "address": "Strossmayerjeva ulica 3",
                "available_bike_stands": 11,
                "available_bikes": 9,
                "banking": false,
                "bike_stands": 20,
                "bonus": false,
                "contract_name": "maribor",
                "last_update": 1789133615000,
                "name": "STROSSMAYERJEVA UL. - TR\u017dNICA",
                "number": 4,
                "status": "OPEN"
            },
            "type": "Feature"
        },
        {
            "geometry": {
                "coordinates": [
                    15.644185,
                    46.56294
                ],
                "type": "Point"
            },
            "properties": {
                "address": "Mladinska ulica 15",
                "available_bike_stands": 8,
                "available_bikes": 8,
                "banking": false,
                "bike_stands": 16,
                "bonus": false,
                "contract_name": "maribor",
                "last_update": 1789133387000,
                "name": "MLADINSKA UL. - TRUBARJEVA UL.",
                "number": 5,
                "status": "OPEN"
            },
            "type": "Feature"
        },
        {
            "geometry": {
                "coordinates": [
                    15.644443,
                    46.558924
                ],
                "type": "Point"
            },
            "properties": {
                "address": "Slom\u0161kov trg 10",
                "available_bike_stands": 19,
                "available_bikes": 1,
                "banking": false,
                "bike_stands": 20,
                "bonus": false,
                "contract_name": "maribor",
                "last_update": 1789133492000,
                "name": "PO\u0160TA - SLOM\u0160KOV TRG",
                "number": 6,
                "status": "OPEN"
            },
            "type": "Feature"
        },
        {
            "geometry": {
                "coordinates": [
                    15.650781,
                    46.560227
                ],
                "type": "Point"
            },
            "properties": {
                "address": "Partizanska cesta 6a",
                "available_bike_stands": 8,
                "available_bikes": 12,
                "banking": false,
                "bike_stands": 20,
                "bonus": false,
                "contract_name": "maribor",
                "last_update": 1789133455000,
                "name": "PARTIZANSKA C. - TIC",
                "number": 7,
                "status": "OPEN"
            },
            "type": "Feature"
        },
        {
            "geometry": {
                "coordinates": [
                    15.650235,
                    46.56196
                ],
                "type": "Point"
            },
            "properties": {
                "address": "Razlagova ulica 1",
                "available_bike_stands": 19,
                "available_bikes": 1,
                "banking": false,
                "bike_stands": 20,
                "bonus": false,
                "contract_name": "maribor",
                "last_update": 1789133569000,
                "name": "RAZLAGOVA UL. - OB\u010cINA",
                "number": 8,
                "status": "OPEN"
            },
            "type": "Feature"
        },
        {
            "geometry": {
                "coordinates": [
                    15.649072,
                    46.558519
                ],
                "type": "Point"
            },
            "properties": {
                "address": "Ulica slovenske osamosvojitve 5",
                "available_bike_stands": 20,
                "available_bikes": 0,
                "banking": false,
                "bike_stands": 20,
                "bonus": false,
                "contract_name": "maribor",
                "last_update": 1789133402000,
                "name": "OTP BANKA - TRG LEONA \u0160TUKLJA",
                "number": 9,
                "status": "OPEN"
            },
            "type": "Feature"
        },
        {
            "geometry": {
                "coordinates": [
                    15.646833,
                    46.557328
                ],
                "type": "Point"
            },
            "properties": {
                "address": "Glavni trg 20",
                "available_bike_stands": 18,
                "available_bikes": 2,
                "banking": false,
                "bike_stands": 20,
                "bonus": false,
                "contract_name": "maribor",
                "last_update": 1789133371000,
                "name": "TELEMACH - GLAVNI TRG - STARI PERON",
                "number": 10,
                "status": "OPEN"
            },
            "type": "Feature"
        },
        {
            "geometry": {
                "coordinates": [
                    15.652935,
                    46.56056
                ],
                "type": "Point"
            },
            "properties": {
                "address": "Partizanska c. 13",
                "available_bike_stands": 20,
                "available_bikes": 0,
                "banking": false,
                "bike_stands": 20,
                "bonus": false,
                "contract_name": "maribor",
                "last_update": 1789133353000,
                "name": "PARTIZANSKA C. - CANKARJEVA UL.",
                "number": 11,
                "status": "OPEN"
            },
            "type": "Feature"
        },
        {
            "geometry": {
                "coordinates": [
                    15.654739,
                    46.558534
                ],
                "type": "Point"
            },
            "properties": {
                "address": "Mlinska ulica 24",
                "available_bike_stands": 5,
                "available_bikes": 15,
                "banking": false,
                "bike_stands": 20,
                "bonus": false,
                "contract_name": "maribor",
                "last_update": 1789133397000,
                "name": "MLINSKA UL . - AVTOBUSNA POSTAJA",
                "number": 12,
                "status": "OPEN"
            },
            "type": "Feature"
        },
        {
            "geometry": {
                "coordinates": [
                    15.65692,
                    46.561555
                ],
                "type": "Point"
            },
            "properties": {
                "address": "Partizanska cesta 46-48",
                "available_bike_stands": 5,
                "available_bikes": 15,
                "banking": false,
                "bike_stands": 20,
                "bonus": false,
                "contract_name": "maribor",
                "last_update": 1789133480000,
                "name": "PARTIZANSKA C. - \u017dELEZNI\u0160KA POSTAJA",
                "number": 13,
                "status": "OPEN"
            },
            "type": "Feature"
        },
        {
            "geometry": {
                "coordinates": [
                    15.646023,
                    46.552652
                ],
                "type": "Point"
            },
            "properties": {
                "address": "Ulica Mo\u0161e Pijada 6",
                "available_bike_stands": 4,
                "available_bikes": 16,
                "banking": false,
                "bike_stands": 20,
                "bonus": false,
                "contract_name": "maribor",
                "last_update": 1789133606000,
                "name": "ULICA MO\u0160E PIJADA - UKC",
                "number": 14,
                "status": "OPEN"
            },
            "type": "Feature"
        },
        {
            "geometry": {
                "coordinates": [
                    15.645591,
                    46.548853
                ],
                "type": "Point"
            },
            "properties": {
                "address": "Ljubljanska ul. 30-25",
                "available_bike_stands": 18,
                "available_bikes": 2,
                "banking": false,
                "bike_stands": 20,
                "bonus": false,
                "contract_name": "maribor",
                "last_update": 1789133641000,
                "name": "LJUBLJANSKA UL. - II. GIMNAZIJA",
                "number": 15,
                "status": "OPEN"
            },
            "type": "Feature"
        },
        {
            "geometry": {
                "coordinates": [
                    15.63498,
                    46.559319
                ],
                "type": "Point"
            },
            "properties": {
                "address": "Koro\u0161ka cesta 74",
                "available_bike_stands": 15,
                "available_bikes": 5,
                "banking": false,
                "bike_stands": 20,
                "bonus": false,
                "contract_name": "maribor",
                "last_update": 1789133505000,
                "name": "KORO\u0160KA C. - KORO\u0160KI VETER",
                "number": 16,
                "status": "OPEN"
            },
            "type": "Feature"
        },
        {
            "geometry": {
                "coordinates": [
                    15.624098,
                    46.553109
                ],
                "type": "Point"
            },
            "properties": {
                "address": "NA POLJANAH 53",
                "available_bike_stands": 0,
                "available_bikes": 20,
                "banking": false,
                "bike_stands": 20,
                "bonus": false,
                "contract_name": "maribor",
                "last_update": 1789133371000,
                "name": "NA POLJANAH - HEROJA \u0160ERCERJA",
                "number": 17,
                "status": "OPEN"
            },
            "type": "Feature"
        },
        {
            "geometry": {
                "coordinates": [
                    15.623133,
                    46.565603
                ],
                "type": "Point"
            },
            "properties": {
                "address": "Koro\u0161ka cesta 173",
                "available_bike_stands": 5,
                "available_bikes": 15,
                "banking": false,
                "bike_stands": 20,
                "bonus": false,
                "contract_name": "maribor",
                "last_update": 1789133353000,
                "name": "LIDL - KORO\u0160KA C.",
                "number": 18,
                "status": "OPEN"
            },
            "type": "Feature"
        },
        {
            "geometry": {
                "coordinates": [
                    15.651564,
                    46.551963
                ],
                "type": "Point"
            },
            "properties": {
                "address": "Titova cesta 15",
                "available_bike_stands": 18,
                "available_bikes": 2,
                "banking": false,
                "bike_stands": 20,
                "bonus": false,
                "contract_name": "maribor",
                "last_update": 1789133468000,
                "name": "LIDL - TITOVA C.",
                "number": 19,
                "status": "OPEN"
            },
            "type": "Feature"
        },
        {
            "geometry": {
                "coordinates": [
                    15.652826,
                    46.554703
                ],
                "type": "Point"
            },
            "properties": {
                "address": "Pobre\u0161ka cesta 18",
                "available_bike_stands": 4,
                "available_bikes": 16,
                "banking": false,
                "bike_stands": 21,
                "bonus": false,
                "contract_name": "maribor",
                "last_update": 1789133621000,
                "name": "EUROPARK - POBRE\u0160KA C.",
                "number": 20,
                "status": "OPEN"
            },
            "type": "Feature"
        },
        {
            "geometry": {
                "coordinates": [
                    15.639333,
                    46.550683
                ],
                "type": "Point"
            },
            "properties": {
                "address": "Gorkega ulica 32",
                "available_bike_stands": 9,
                "available_bikes": 11,
                "banking": false,
                "bike_stands": 20,
                "bonus": false,
                "contract_name": "maribor",
                "last_update": 1789133390000,
                "name": "GORKEGA UL. - O\u0160 FRANCETA PRE\u0160ERNA",
                "number": 21,
                "status": "OPEN"
            },
            "type": "Feature"
        },
        {
            "geometry": {
                "coordinates": [
                    15.635014,
                    46.549005
                ],
                "type": "Point"
            },
            "properties": {
                "address": "Gorkega ulica 48",
                "available_bike_stands": 4,
                "available_bikes": 16,
                "banking": false,
                "bike_stands": 20,
                "bonus": false,
                "contract_name": "maribor",
                "last_update": 1789133359000,
                "name": "DVORANA TABOR",
                "number": 22,
                "status": "OPEN"
            },
            "type": "Feature"
        },
        {
            "geometry": {
                "coordinates": [
                    15.63831,
                    46.54199
                ],
                "type": "Point"
            },
            "properties": {
                "address": "Betnavska c. 83",
                "available_bike_stands": 7,
                "available_bikes": 13,
                "banking": false,
                "bike_stands": 20,
                "bonus": false,
                "contract_name": "maribor",
                "last_update": 1789133345000,
                "name": "VZAJEMNA, VARUH ZDRAVJA - BETNAVSKA C.",
                "number": 24,
                "status": "OPEN"
            },
            "type": "Feature"
        },
        {
            "geometry": {
                "coordinates": [
                    15.634329,
                    46.542655
                ],
                "type": "Point"
            },
            "properties": {
                "address": "Kardeljeva c. 55",
                "available_bike_stands": 4,
                "available_bikes": 16,
                "banking": false,
                "bike_stands": 20,
                "bonus": false,
                "contract_name": "maribor",
                "last_update": 1789133782000,
                "name": "SPAR - TR\u017dNICA TABOR",
                "number": 25,
                "status": "OPEN"
            },
            "type": "Feature"
        },
        {
            "geometry": {
                "coordinates": [
                    15.629317,
                    46.543986
                ],
                "type": "Point"
            },
            "properties": {
                "address": "C. PROLETARSKIH BRIGAD 71",
                "available_bike_stands": 7,
                "available_bikes": 13,
                "banking": false,
                "bike_stands": 20,
                "bonus": false,
                "contract_name": "maribor",
                "last_update": 1789133770000,
                "name": "NICEHASH - C. PROLETARSKIH BRIGAD",
                "number": 26,
                "status": "OPEN"
            },
            "type": "Feature"
        },
        {
            "geometry": {
                "coordinates": [
                    15.659814,
                    46.554741
                ],
                "type": "Point"
            },
            "properties": {
                "address": "Cesta XIV. divizije",
                "available_bike_stands": 14,
                "available_bikes": 6,
                "banking": false,
                "bike_stands": 20,
                "bonus": false,
                "contract_name": "maribor",
                "last_update": 1789133330000,
                "name": "JHMB \u2013 DVOETA\u017dNI MOST",
                "number": 27,
                "status": "OPEN"
            },
            "type": "Feature"
        },
        {
            "geometry": {
                "coordinates": [
                    15.64212,
                    46.556731
                ],
                "type": "Point"
            },
            "properties": {
                "address": "Pristan 6",
                "available_bike_stands": 19,
                "available_bikes": 1,
                "banking": false,
                "bike_stands": 20,
                "bonus": false,
                "contract_name": "maribor",
                "last_update": 1789133318000,
                "name": "UM FGPA - LENT - SODNI STOLP",
                "number": 28,
                "status": "OPEN"
            },
            "type": "Feature"
        },
        {
            "geometry": {
                "coordinates": [
                    15.647629,
                    46.556534
                ],
                "type": "Point"
            },
            "properties": {
                "address": "Usnjarska ulica 5",
                "available_bike_stands": 13,
                "available_bikes": 7,
                "banking": false,
                "bike_stands": 20,
                "bonus": false,
                "contract_name": "maribor",
                "last_update": 1789133325000,
                "name": "PETROL \u2013 LENT \u2013 VODNI STOLP",
                "number": 29,
                "status": "OPEN"
            },
            "type": "Feature"
        },
        {
            "geometry": {
                "coordinates": [
                    15.620882,
                    46.547827
                ],
                "type": "Point"
            },
            "properties": {
                "address": "Ul. Jo\u017eeta Ko\u0161arja 2",
                "available_bike_stands": 12,
                "available_bikes": 8,
                "banking": false,
                "bike_stands": 20,
                "bonus": false,
                "contract_name": "maribor",
                "last_update": 1789133516000,
                "name": "MCDONALD\u2019S - STUDENCI",
                "number": 30,
                "status": "OPEN"
            },
            "type": "Feature"
        },
        {
            "geometry": {
                "coordinates": [
                    15.632287,
                    46.5666599
                ],
                "type": "Point"
            },
            "properties": {
                "address": "Vrbanska 45",
                "available_bike_stands": 3,
                "available_bikes": 17,
                "banking": false,
                "bike_stands": 20,
                "bonus": false,
                "contract_name": "maribor",
                "last_update": 1789133339000,
                "name": "ZAVAROVALNICA TRIGLAV - VRBANSKA",
                "number": 31,
                "status": "OPEN"
            },
            "type": "Feature"
        },
        {
            "geometry": {
                "coordinates": [
                    15.644643,
                    46.540351
                ],
                "type": "Point"
            },
            "properties": {
                "address": "C. Proletarskih brigad 21",
                "available_bike_stands": 11,
                "available_bikes": 9,
                "banking": false,
                "bike_stands": 20,
                "bonus": false,
                "contract_name": "maribor",
                "last_update": 1789133333000,
                "name": "ZAVAROVALNICA SAVA - JADRANSKA CESTA",
                "number": 32,
                "status": "OPEN"
            },
            "type": "Feature"
        },
        {
            "geometry": {
                "coordinates": [
                    15.6489818,
                    46.5485967
                ],
                "type": "Point"
            },
            "properties": {
                "address": "Linhartova ulica 5",
                "available_bike_stands": 9,
                "available_bikes": 11,
                "banking": false,
                "bike_stands": 20,
                "bonus": false,
                "contract_name": "maribor",
                "last_update": 1789133727000,
                "name": "HOFER - TITOVA CESTA",
                "number": 33,
                "status": "OPEN"
            },
            "type": "Feature"
        },
        {
            "geometry": {
                "coordinates": [
                    15.666239,
                    46.5549848
                ],
                "type": "Point"
            },
            "properties": {
                "address": "Osojnikova ulica 29",
                "available_bike_stands": 8,
                "available_bikes": 12,
                "banking": false,
                "bike_stands": 20,
                "bonus": false,
                "contract_name": "maribor",
                "last_update": 1789133357000,
                "name": "PLINARNA MARIBOR - OSOJNIKOVA ULICA",
                "number": 34,
                "status": "OPEN"
            },
            "type": "Feature"
        },
        {
            "geometry": {
                "coordinates": [
                    15.6637039,
                    46.5511454
                ],
                "type": "Point"
            },
            "properties": {
                "address": "Cesta XIV. divizije 37",
                "available_bike_stands": 8,
                "available_bikes": 12,
                "banking": false,
                "bike_stands": 20,
                "bonus": false,
                "contract_name": "maribor",
                "last_update": 1789133320000,
                "name": "JHMB-POKOPALI\u0160\u010cE-OSOJNIKOVA",
                "number": 35,
                "status": "OPEN"
            },
            "type": "Feature"
        },
        {
            "geometry": {
                "coordinates": [
                    15.6608685,
                    46.5523985
                ],
                "type": "Point"
            },
            "properties": {
                "address": "Cesta XIV. divizije 18",
                "available_bike_stands": 7,
                "available_bikes": 13,
                "banking": false,
                "bike_stands": 20,
                "bonus": false,
                "contract_name": "maribor",
                "last_update": 1789133308000,
                "name": "WOLT-GREENWICH",
                "number": 36,
                "status": "OPEN"
            },
            "type": "Feature"
        },
        {
            "geometry": {
                "coordinates": [
                    15.659948,
                    46.536355
                ],
                "type": "Point"
            },
            "properties": {
                "address": "Prvomajska ulica 4",
                "available_bike_stands": 11,
                "available_bikes": 9,
                "banking": false,
                "bike_stands": 20,
                "bonus": false,
                "contract_name": "maribor",
                "last_update": 1789133327000,
                "name": "EUROSPIN - PTUJSKA C.",
                "number": 37,
                "status": "OPEN"
            },
            "type": "Feature"
        },
        {
            "geometry": {
                "coordinates": [
                    15.66561,
                    46.533439
                ],
                "type": "Point"
            },
            "properties": {
                "address": "Ptujska c. 101",
                "available_bike_stands": 18,
                "available_bikes": 2,
                "banking": false,
                "bike_stands": 20,
                "bonus": false,
                "contract_name": "maribor",
                "last_update": 1789133674000,
                "name": "OTP BANKA - PTUJSKA C.",
                "number": 38,
                "status": "OPEN"
            },
            "type": "Feature"
        },
        {
            "geometry": {
                "coordinates": [
                    15.6733612,
                    46.5272564
                ],
                "type": "Point"
            },
            "properties": {
                "address": "Ptujska c. 194",
                "available_bike_stands": 15,
                "available_bikes": 5,
                "banking": false,
                "bike_stands": 20,
                "bonus": false,
                "contract_name": "maribor",
                "last_update": 1789133315000,
                "name": "HOFER - PTUJSKA C.",
                "number": 39,
                "status": "OPEN"
            },
            "type": "Feature"
        },
        {
            "geometry": {
                "coordinates": [
                    15.6263605,
                    46.5399463
                ],
                "type": "Point"
            },
            "properties": {
                "address": "Pru\u0161nikova ul. 40",
                "available_bike_stands": 9,
                "available_bikes": 11,
                "banking": false,
                "bike_stands": 20,
                "bonus": false,
                "contract_name": "maribor",
                "last_update": 1789133473000,
                "name": "FERO-TERM - PRU\u0160NIKOVA UL.",
                "number": 40,
                "status": "OPEN"
            },
            "type": "Feature"
        },
        {
            "geometry": {
                "coordinates": [
                    15.668984,
                    46.534268
                ],
                "type": "Point"
            },
            "properties": {
                "address": "Ulica \u0160ercerjeve brigade 9",
                "available_bike_stands": 9,
                "available_bikes": 11,
                "banking": false,
                "bike_stands": 20,
                "bonus": false,
                "contract_name": "maribor",
                "last_update": 1789133318000,
                "name": "BILUMINA - UL. \u0160ERCERJEVE BRIGADE",
                "number": 41,
                "status": "OPEN"
            },
            "type": "Feature"
        },
        {
            "geometry": {
                "coordinates": [
                    15.628772,
                    46.551864
                ],
                "type": "Point"
            },
            "properties": {
                "address": "Na Poljanah 18",
                "available_bike_stands": 2,
                "available_bikes": 18,
                "banking": false,
                "bike_stands": 20,
                "bonus": false,
                "contract_name": "maribor",
                "last_update": 1789133439000,
                "name": "IKONA CENTER \u2013 NA POLJANAH",
                "number": 42,
                "status": "OPEN"
            },
            "type": "Feature"
        }
    ],
    "type": "FeatureCollection"
}