{
    "features": [
        {
            "geometry": {
                "coordinates": [
                    -3.9969,
                    51.574668
                ],
                "type": "Point"
            },
            "properties": {
                "capacity": 10,
                "is_installed": true,
                "is_renting": true,
                "is_returning": true,
                "is_virtual_station": false,
                "last_reported": 1789300901,
                "name": "Oystermouth",
                "num_bikes_available": 0,
                "num_docks_available": 10,
                "region_id": "486",
                "rental_uris": {
                    "android": "https://app.nextbike.net/station?id=10478722",
                    "ios": "https://app.nextbike.net/station?id=10478722",
                    "web": "https://nxtb.it/p/10478722"
                },
                "short_name": "8769",
                "station_id": "10478722",
                "vehicle_types_available": []
            },
            "type": "Feature"
        },
        {
            "geometry": {
                "coordinates": [
                    -3.987098,
                    51.571525
                ],
                "type": "Point"
            },
            "properties": {
                "capacity": 10,
                "is_installed": true,
                "is_renting": true,
                "is_returning": true,
                "is_virtual_station": false,
                "last_reported": 1789300901,
                "name": "Knab Rock",
                "num_bikes_available": 0,
                "num_docks_available": 7,
                "region_id": "486",
                "rental_uris": {
                    "android": "https://app.nextbike.net/station?id=174257397",
                    "ios": "https://app.nextbike.net/station?id=174257397",
                    "web": "https://nxtb.it/p/174257397"
                },
                "short_name": "8770",
                "station_id": "174257397",
                "vehicle_types_available": []
            },
            "type": "Feature"
        },
        {
            "geometry": {
                "coordinates": [
                    -3.958592,
                    51.614204
                ],
                "type": "Point"
            },
            "properties": {
                "capacity": 10,
                "is_installed": true,
                "is_renting": true,
                "is_returning": true,
                "is_virtual_station": false,
                "last_reported": 1789300901,
                "name": "Guildhall",
                "num_bikes_available": 1,
                "num_docks_available": 9,
                "region_id": "486",
                "rental_uris": {
                    "android": "https://app.nextbike.net/station?id=485164078",
                    "ios": "https://app.nextbike.net/station?id=485164078",
                    "web": "https://nxtb.it/p/485164078"
                },
                "short_name": "8771",
                "station_id": "485164078",
                "vehicle_types_available": [
                    {
                        "count": 1,
                        "vehicle_type_id": "185"
                    }
                ]
            },
            "type": "Feature"
        },
        {
            "geometry": {
                "coordinates": [
                    -3.94598,
                    51.617134
                ],
                "type": "Point"
            },
            "properties": {
                "capacity": 8,
                "is_installed": true,
                "is_renting": true,
                "is_returning": true,
                "is_virtual_station": false,
                "last_reported": 1789300901,
                "name": "Swansea Bus Station",
                "num_bikes_available": 0,
                "num_docks_available": 5,
                "region_id": "486",
                "rental_uris": {
                    "android": "https://app.nextbike.net/station?id=485164474",
                    "ios": "https://app.nextbike.net/station?id=485164474",
                    "web": "https://nxtb.it/p/485164474"
                },
                "short_name": "8772",
                "station_id": "485164474",
                "vehicle_types_available": []
            },
            "type": "Feature"
        },
        {
            "geometry": {
                "coordinates": [
                    -3.935065,
                    51.630414
                ],
                "type": "Point"
            },
            "properties": {
                "is_installed": true,
                "is_renting": true,
                "is_returning": true,
                "is_virtual_station": true,
                "last_reported": 1789300901,
                "name": "True - Student Accommodation ",
                "num_bikes_available": 0,
                "num_docks_available": 0,
                "region_id": "486",
                "rental_uris": {
                    "android": "https://app.nextbike.net/station?id=525343989",
                    "ios": "https://app.nextbike.net/station?id=525343989",
                    "web": "https://nxtb.it/p/525343989"
                },
                "short_name": "8773",
                "station_area": {
                    "coordinates": [
                        [
                            [
                                [
                                    -3.935065,
                                    51.630639
                                ],
                                [
                                    -3.934751,
                                    51.630526
                                ],
                                [
                                    -3.934751,
                                    51.630302
                                ],
                                [
                                    -3.935065,
                                    51.630189
                                ],
                                [
                                    -3.935379,
                                    51.630302
                                ],
                                [
                                    -3.935379,
                                    51.630526
                                ],
                                [
                                    -3.935065,
                                    51.630639
                                ]
                            ]
                        ]
                    ],
                    "type": "MultiPolygon"
                },
                "station_id": "525343989",
                "vehicle_types_available": []
            },
            "type": "Feature"
        },
        {
            "geometry": {
                "coordinates": [
                    -3.980886,
                    51.609306
                ],
                "type": "Point"
            },
            "properties": {
                "capacity": 20,
                "is_installed": true,
                "is_renting": true,
                "is_returning": true,
                "is_virtual_station": false,
                "last_reported": 1789300901,
                "name": "Swansea University Singleton Campus",
                "num_bikes_available": 0,
                "num_docks_available": 16,
                "region_id": "486",
                "rental_uris": {
                    "android": "https://app.nextbike.net/station?id=6344888",
                    "ios": "https://app.nextbike.net/station?id=6344888",
                    "web": "https://nxtb.it/p/6344888"
                },
                "short_name": "8765",
                "station_id": "6344888",
                "vehicle_types_available": []
            },
            "type": "Feature"
        },
        {
            "geometry": {
                "coordinates": [
                    -3.87902,
                    51.61855
                ],
                "type": "Point"
            },
            "properties": {
                "capacity": 20,
                "is_installed": true,
                "is_renting": true,
                "is_returning": true,
                "is_virtual_station": false,
                "last_reported": 1789300901,
                "name": "Swansea University Bay Campus",
                "num_bikes_available": 1,
                "num_docks_available": 19,
                "region_id": "486",
                "rental_uris": {
                    "android": "https://app.nextbike.net/station?id=6344959",
                    "ios": "https://app.nextbike.net/station?id=6344959",
                    "web": "https://nxtb.it/p/6344959"
                },
                "short_name": "8764",
                "station_id": "6344959",
                "vehicle_types_available": [
                    {
                        "count": 1,
                        "vehicle_type_id": "196"
                    }
                ]
            },
            "type": "Feature"
        },
        {
            "geometry": {
                "coordinates": [
                    -3.910753,
                    51.621572
                ],
                "type": "Point"
            },
            "properties": {
                "capacity": 10,
                "is_installed": true,
                "is_renting": true,
                "is_returning": true,
                "is_virtual_station": false,
                "last_reported": 1789300901,
                "name": "Fabian Way Park and Ride",
                "num_bikes_available": 0,
                "num_docks_available": 10,
                "region_id": "486",
                "rental_uris": {
                    "android": "https://app.nextbike.net/station?id=6344970",
                    "ios": "https://app.nextbike.net/station?id=6344970",
                    "web": "https://nxtb.it/p/6344970"
                },
                "short_name": "8766",
                "station_id": "6344970",
                "vehicle_types_available": []
            },
            "type": "Feature"
        }
    ],
    "gbfs": {
        "station_information": {
            "last_updated": 1789300901,
            "ttl": 60,
            "version": "2.3"
        },
        "station_status": {
            "last_updated": 1789300901,
            "ttl": 60,
            "version": "2.3"
        }
    },
    "type": "FeatureCollection"
}