{
    "features": [
        {
            "geometry": {
                "coordinates": [
                    14.263596,
                    50.426369
                ],
                "type": "Point"
            },
            "properties": {
                "capacity": 4,
                "is_installed": true,
                "is_renting": true,
                "is_returning": true,
                "is_virtual_station": false,
                "last_reported": 1789287236,
                "name": "Vlakov\u00e9 n\u00e1dra\u017e\u00ed",
                "num_bikes_available": 16,
                "num_docks_available": 0,
                "region_id": "1259",
                "rental_uris": {
                    "android": "https://app.nextbike.net/station?id=607925391",
                    "ios": "https://app.nextbike.net/station?id=607925391",
                    "web": "https://nxtb.it/p/607925391"
                },
                "short_name": "495550",
                "station_id": "607925391",
                "vehicle_types_available": [
                    {
                        "count": 16,
                        "vehicle_type_id": "184"
                    }
                ]
            },
            "type": "Feature"
        },
        {
            "geometry": {
                "coordinates": [
                    14.260122,
                    50.424255
                ],
                "type": "Point"
            },
            "properties": {
                "capacity": 4,
                "is_installed": true,
                "is_renting": true,
                "is_returning": true,
                "is_virtual_station": false,
                "last_reported": 1789287236,
                "name": "Karlovo n\u00e1m\u011bst\u00ed",
                "num_bikes_available": 0,
                "num_docks_available": 4,
                "region_id": "1259",
                "rental_uris": {
                    "android": "https://app.nextbike.net/station?id=607925461",
                    "ios": "https://app.nextbike.net/station?id=607925461",
                    "web": "https://nxtb.it/p/607925461"
                },
                "short_name": "495551",
                "station_id": "607925461",
                "vehicle_types_available": []
            },
            "type": "Feature"
        },
        {
            "geometry": {
                "coordinates": [
                    14.258659,
                    50.424126
                ],
                "type": "Point"
            },
            "properties": {
                "capacity": 4,
                "is_installed": true,
                "is_renting": true,
                "is_returning": true,
                "is_virtual_station": false,
                "last_reported": 1789287236,
                "name": "Husovo n\u00e1m\u011bst\u00ed",
                "num_bikes_available": 1,
                "num_docks_available": 3,
                "region_id": "1259",
                "rental_uris": {
                    "android": "https://app.nextbike.net/station?id=607925554",
                    "ios": "https://app.nextbike.net/station?id=607925554",
                    "web": "https://nxtb.it/p/607925554"
                },
                "short_name": "495552",
                "station_id": "607925554",
                "vehicle_types_available": [
                    {
                        "count": 1,
                        "vehicle_type_id": "184"
                    }
                ]
            },
            "type": "Feature"
        },
        {
            "geometry": {
                "coordinates": [
                    14.253879,
                    50.422516
                ],
                "type": "Point"
            },
            "properties": {
                "capacity": 4,
                "is_installed": true,
                "is_renting": true,
                "is_returning": true,
                "is_virtual_station": false,
                "last_reported": 1789287236,
                "name": "Purky\u0148ovo n\u00e1m\u011bst\u00ed",
                "num_bikes_available": 0,
                "num_docks_available": 4,
                "region_id": "1259",
                "rental_uris": {
                    "android": "https://app.nextbike.net/station?id=607925592",
                    "ios": "https://app.nextbike.net/station?id=607925592",
                    "web": "https://nxtb.it/p/607925592"
                },
                "short_name": "495553",
                "station_id": "607925592",
                "vehicle_types_available": []
            },
            "type": "Feature"
        },
        {
            "geometry": {
                "coordinates": [
                    14.251898,
                    50.424522
                ],
                "type": "Point"
            },
            "properties": {
                "capacity": 4,
                "is_installed": true,
                "is_renting": true,
                "is_returning": true,
                "is_virtual_station": false,
                "last_reported": 1789287236,
                "name": "Kino Sokol",
                "num_bikes_available": 0,
                "num_docks_available": 3,
                "region_id": "1259",
                "rental_uris": {
                    "android": "https://app.nextbike.net/station?id=607925629",
                    "ios": "https://app.nextbike.net/station?id=607925629",
                    "web": "https://nxtb.it/p/607925629"
                },
                "short_name": "495554",
                "station_id": "607925629",
                "vehicle_types_available": []
            },
            "type": "Feature"
        },
        {
            "geometry": {
                "coordinates": [
                    14.247844,
                    50.423248
                ],
                "type": "Point"
            },
            "properties": {
                "capacity": 4,
                "is_installed": true,
                "is_renting": true,
                "is_returning": true,
                "is_virtual_station": false,
                "last_reported": 1789287236,
                "name": "Nemocnice",
                "num_bikes_available": 1,
                "num_docks_available": 3,
                "region_id": "1259",
                "rental_uris": {
                    "android": "https://app.nextbike.net/station?id=607925675",
                    "ios": "https://app.nextbike.net/station?id=607925675",
                    "web": "https://nxtb.it/p/607925675"
                },
                "short_name": "495555",
                "station_id": "607925675",
                "vehicle_types_available": [
                    {
                        "count": 1,
                        "vehicle_type_id": "184"
                    }
                ]
            },
            "type": "Feature"
        },
        {
            "geometry": {
                "coordinates": [
                    14.243603,
                    50.424141
                ],
                "type": "Point"
            },
            "properties": {
                "capacity": 4,
                "is_installed": true,
                "is_renting": true,
                "is_returning": true,
                "is_virtual_station": false,
                "last_reported": 1789287236,
                "name": "Alej 17. listopadu",
                "num_bikes_available": 0,
                "num_docks_available": 4,
                "region_id": "1259",
                "rental_uris": {
                    "android": "https://app.nextbike.net/station?id=607925711",
                    "ios": "https://app.nextbike.net/station?id=607925711",
                    "web": "https://nxtb.it/p/607925711"
                },
                "short_name": "495556",
                "station_id": "607925711",
                "vehicle_types_available": []
            },
            "type": "Feature"
        },
        {
            "geometry": {
                "coordinates": [
                    14.244328,
                    50.426189
                ],
                "type": "Point"
            },
            "properties": {
                "capacity": 4,
                "is_installed": true,
                "is_renting": true,
                "is_returning": true,
                "is_virtual_station": false,
                "last_reported": 1789287236,
                "name": "Vrchlick\u00e9ho",
                "num_bikes_available": 0,
                "num_docks_available": 4,
                "region_id": "1259",
                "rental_uris": {
                    "android": "https://app.nextbike.net/station?id=607925734",
                    "ios": "https://app.nextbike.net/station?id=607925734",
                    "web": "https://nxtb.it/p/607925734"
                },
                "short_name": "495557",
                "station_id": "607925734",
                "vehicle_types_available": []
            },
            "type": "Feature"
        },
        {
            "geometry": {
                "coordinates": [
                    14.231148,
                    50.423588
                ],
                "type": "Point"
            },
            "properties": {
                "capacity": 4,
                "is_installed": true,
                "is_renting": true,
                "is_returning": true,
                "is_virtual_station": false,
                "last_reported": 1789287236,
                "name": "Podlusky",
                "num_bikes_available": 4,
                "num_docks_available": 0,
                "region_id": "1259",
                "rental_uris": {
                    "android": "https://app.nextbike.net/station?id=607925767",
                    "ios": "https://app.nextbike.net/station?id=607925767",
                    "web": "https://nxtb.it/p/607925767"
                },
                "short_name": "495558",
                "station_id": "607925767",
                "vehicle_types_available": [
                    {
                        "count": 4,
                        "vehicle_type_id": "184"
                    }
                ]
            },
            "type": "Feature"
        },
        {
            "geometry": {
                "coordinates": [
                    14.244984,
                    50.421436
                ],
                "type": "Point"
            },
            "properties": {
                "capacity": 4,
                "is_installed": true,
                "is_renting": true,
                "is_returning": true,
                "is_virtual_station": false,
                "last_reported": 1789287236,
                "name": "\u0160koln\u00ed",
                "num_bikes_available": 0,
                "num_docks_available": 4,
                "region_id": "1259",
                "rental_uris": {
                    "android": "https://app.nextbike.net/station?id=607925868",
                    "ios": "https://app.nextbike.net/station?id=607925868",
                    "web": "https://nxtb.it/p/607925868"
                },
                "short_name": "495559",
                "station_id": "607925868",
                "vehicle_types_available": []
            },
            "type": "Feature"
        },
        {
            "geometry": {
                "coordinates": [
                    14.249099,
                    50.419308
                ],
                "type": "Point"
            },
            "properties": {
                "capacity": 4,
                "is_installed": true,
                "is_renting": true,
                "is_returning": true,
                "is_virtual_station": false,
                "last_reported": 1789287236,
                "name": "Libu\u0161ina",
                "num_bikes_available": 2,
                "num_docks_available": 2,
                "region_id": "1259",
                "rental_uris": {
                    "android": "https://app.nextbike.net/station?id=607925908",
                    "ios": "https://app.nextbike.net/station?id=607925908",
                    "web": "https://nxtb.it/p/607925908"
                },
                "short_name": "495560",
                "station_id": "607925908",
                "vehicle_types_available": [
                    {
                        "count": 2,
                        "vehicle_type_id": "184"
                    }
                ]
            },
            "type": "Feature"
        },
        {
            "geometry": {
                "coordinates": [
                    14.267147,
                    50.423813
                ],
                "type": "Point"
            },
            "properties": {
                "capacity": 4,
                "is_installed": true,
                "is_renting": true,
                "is_returning": true,
                "is_virtual_station": false,
                "last_reported": 1789287236,
                "name": "N\u00e1m\u011bst\u00ed 28. \u0159\u00edjna",
                "num_bikes_available": 0,
                "num_docks_available": 4,
                "region_id": "1259",
                "rental_uris": {
                    "android": "https://app.nextbike.net/station?id=607925959",
                    "ios": "https://app.nextbike.net/station?id=607925959",
                    "web": "https://nxtb.it/p/607925959"
                },
                "short_name": "495561",
                "station_id": "607925959",
                "vehicle_types_available": []
            },
            "type": "Feature"
        },
        {
            "geometry": {
                "coordinates": [
                    14.278816,
                    50.425999
                ],
                "type": "Point"
            },
            "properties": {
                "capacity": 4,
                "is_installed": true,
                "is_renting": true,
                "is_returning": true,
                "is_virtual_station": false,
                "last_reported": 1789287236,
                "name": "Bezd\u011bkov",
                "num_bikes_available": 11,
                "num_docks_available": 0,
                "region_id": "1259",
                "rental_uris": {
                    "android": "https://app.nextbike.net/station?id=607926017",
                    "ios": "https://app.nextbike.net/station?id=607926017",
                    "web": "https://nxtb.it/p/607926017"
                },
                "short_name": "495562",
                "station_id": "607926017",
                "vehicle_types_available": [
                    {
                        "count": 11,
                        "vehicle_type_id": "184"
                    }
                ]
            },
            "type": "Feature"
        },
        {
            "geometry": {
                "coordinates": [
                    14.260449,
                    50.425121
                ],
                "type": "Point"
            },
            "properties": {
                "capacity": 4,
                "is_installed": true,
                "is_renting": true,
                "is_returning": true,
                "is_virtual_station": false,
                "last_reported": 1789287236,
                "name": "Karlovo n\u00e1m\u011bst\u00ed, u z\u00e1mku",
                "num_bikes_available": 3,
                "num_docks_available": 1,
                "region_id": "1259",
                "rental_uris": {
                    "android": "https://app.nextbike.net/station?id=607926045",
                    "ios": "https://app.nextbike.net/station?id=607926045",
                    "web": "https://nxtb.it/p/607926045"
                },
                "short_name": "495563",
                "station_id": "607926045",
                "vehicle_types_available": [
                    {
                        "count": 3,
                        "vehicle_type_id": "184"
                    }
                ]
            },
            "type": "Feature"
        },
        {
            "geometry": {
                "coordinates": [
                    14.24077,
                    50.42215
                ],
                "type": "Point"
            },
            "properties": {
                "capacity": 4,
                "is_installed": true,
                "is_renting": true,
                "is_returning": true,
                "is_virtual_station": false,
                "last_reported": 1789287236,
                "name": "Neklanova",
                "num_bikes_available": 4,
                "num_docks_available": 0,
                "region_id": "1259",
                "rental_uris": {
                    "android": "https://app.nextbike.net/station?id=607926094",
                    "ios": "https://app.nextbike.net/station?id=607926094",
                    "web": "https://nxtb.it/p/607926094"
                },
                "short_name": "495564",
                "station_id": "607926094",
                "vehicle_types_available": [
                    {
                        "count": 4,
                        "vehicle_type_id": "184"
                    }
                ]
            },
            "type": "Feature"
        },
        {
            "geometry": {
                "coordinates": [
                    14.259878,
                    50.423161
                ],
                "type": "Point"
            },
            "properties": {
                "capacity": 4,
                "is_installed": true,
                "is_renting": true,
                "is_returning": true,
                "is_virtual_station": false,
                "last_reported": 1789287236,
                "name": "Riegrova",
                "num_bikes_available": 1,
                "num_docks_available": 3,
                "region_id": "1259",
                "rental_uris": {
                    "android": "https://app.nextbike.net/station?id=607926143",
                    "ios": "https://app.nextbike.net/station?id=607926143",
                    "web": "https://nxtb.it/p/607926143"
                },
                "short_name": "495565",
                "station_id": "607926143",
                "vehicle_types_available": [
                    {
                        "count": 1,
                        "vehicle_type_id": "184"
                    }
                ]
            },
            "type": "Feature"
        },
        {
            "geometry": {
                "coordinates": [
                    14.237598,
                    50.424313
                ],
                "type": "Point"
            },
            "properties": {
                "capacity": 4,
                "is_installed": true,
                "is_renting": true,
                "is_returning": true,
                "is_virtual_station": false,
                "last_reported": 1789287236,
                "name": "Kaufland",
                "num_bikes_available": 0,
                "num_docks_available": 4,
                "region_id": "1259",
                "rental_uris": {
                    "android": "https://app.nextbike.net/station?id=608454702",
                    "ios": "https://app.nextbike.net/station?id=608454702",
                    "web": "https://nxtb.it/p/608454702"
                },
                "short_name": "495566",
                "station_id": "608454702",
                "vehicle_types_available": []
            },
            "type": "Feature"
        }
    ],
    "gbfs": {
        "station_information": {
            "last_updated": 1789287236,
            "ttl": 60,
            "version": "2.3"
        },
        "station_status": {
            "last_updated": 1789287236,
            "ttl": 60,
            "version": "2.3"
        }
    },
    "type": "FeatureCollection"
}