{
    "features": [
        {
            "geometry": {
                "coordinates": [
                    17.47118,
                    49.071434
                ],
                "type": "Point"
            },
            "properties": {
                "capacity": 4,
                "is_installed": true,
                "is_renting": true,
                "is_returning": true,
                "is_virtual_station": false,
                "last_reported": 1789130236,
                "name": "Verb\u00ed\u0159sk\u00e1",
                "num_bikes_available": 2,
                "num_docks_available": 2,
                "region_id": "702",
                "rental_uris": {
                    "android": "https://app.nextbike.net/station?id=322628208",
                    "ios": "https://app.nextbike.net/station?id=322628208",
                    "web": "https://nxtb.it/p/322628208"
                },
                "short_name": "47364",
                "station_id": "322628208",
                "vehicle_types_available": [
                    {
                        "count": 2,
                        "vehicle_type_id": "333"
                    }
                ]
            },
            "type": "Feature"
        },
        {
            "geometry": {
                "coordinates": [
                    17.448987,
                    49.067906
                ],
                "type": "Point"
            },
            "properties": {
                "is_installed": true,
                "is_renting": true,
                "is_returning": true,
                "is_virtual_station": false,
                "last_reported": 1789130236,
                "name": "Z\u0160 Za Alej\u00ed",
                "num_bikes_available": 3,
                "num_docks_available": 0,
                "region_id": "702",
                "rental_uris": {
                    "android": "https://app.nextbike.net/station?id=42606401",
                    "ios": "https://app.nextbike.net/station?id=42606401",
                    "web": "https://nxtb.it/p/42606401"
                },
                "short_name": "48793",
                "station_id": "42606401",
                "vehicle_types_available": [
                    {
                        "count": 2,
                        "vehicle_type_id": "333"
                    },
                    {
                        "count": 1,
                        "vehicle_type_id": "254"
                    }
                ]
            },
            "type": "Feature"
        },
        {
            "geometry": {
                "coordinates": [
                    17.452303,
                    49.064437
                ],
                "type": "Point"
            },
            "properties": {
                "is_installed": true,
                "is_renting": true,
                "is_returning": true,
                "is_virtual_station": false,
                "last_reported": 1789130236,
                "name": "Nemocnice",
                "num_bikes_available": 4,
                "num_docks_available": 0,
                "region_id": "702",
                "rental_uris": {
                    "android": "https://app.nextbike.net/station?id=42609556",
                    "ios": "https://app.nextbike.net/station?id=42609556",
                    "web": "https://nxtb.it/p/42609556"
                },
                "short_name": "48794",
                "station_id": "42609556",
                "vehicle_types_available": [
                    {
                        "count": 4,
                        "vehicle_type_id": "333"
                    }
                ]
            },
            "type": "Feature"
        },
        {
            "geometry": {
                "coordinates": [
                    17.486634,
                    49.06404
                ],
                "type": "Point"
            },
            "properties": {
                "is_installed": true,
                "is_renting": true,
                "is_returning": true,
                "is_virtual_station": false,
                "last_reported": 1789130236,
                "name": "1. M\u00e1je - h\u0159bitov",
                "num_bikes_available": 4,
                "num_docks_available": 0,
                "region_id": "702",
                "rental_uris": {
                    "android": "https://app.nextbike.net/station?id=42609646",
                    "ios": "https://app.nextbike.net/station?id=42609646",
                    "web": "https://nxtb.it/p/42609646"
                },
                "short_name": "48795",
                "station_id": "42609646",
                "vehicle_types_available": [
                    {
                        "count": 4,
                        "vehicle_type_id": "333"
                    }
                ]
            },
            "type": "Feature"
        },
        {
            "geometry": {
                "coordinates": [
                    17.477905,
                    49.060084
                ],
                "type": "Point"
            },
            "properties": {
                "is_installed": true,
                "is_renting": true,
                "is_returning": true,
                "is_virtual_station": false,
                "last_reported": 1789130236,
                "name": "V\u011btrn\u00e1 - Hru\u0161ka",
                "num_bikes_available": 0,
                "num_docks_available": 0,
                "region_id": "702",
                "rental_uris": {
                    "android": "https://app.nextbike.net/station?id=42609973",
                    "ios": "https://app.nextbike.net/station?id=42609973",
                    "web": "https://nxtb.it/p/42609973"
                },
                "short_name": "48796",
                "station_id": "42609973",
                "vehicle_types_available": []
            },
            "type": "Feature"
        },
        {
            "geometry": {
                "coordinates": [
                    17.479818,
                    49.058075
                ],
                "type": "Point"
            },
            "properties": {
                "is_installed": true,
                "is_renting": true,
                "is_returning": true,
                "is_virtual_station": false,
                "last_reported": 1789130236,
                "name": "Sadov\u00e1 - Enapo",
                "num_bikes_available": 2,
                "num_docks_available": 0,
                "region_id": "702",
                "rental_uris": {
                    "android": "https://app.nextbike.net/station?id=42610336",
                    "ios": "https://app.nextbike.net/station?id=42610336",
                    "web": "https://nxtb.it/p/42610336"
                },
                "short_name": "48798",
                "station_id": "42610336",
                "vehicle_types_available": [
                    {
                        "count": 1,
                        "vehicle_type_id": "150"
                    },
                    {
                        "count": 1,
                        "vehicle_type_id": "333"
                    }
                ]
            },
            "type": "Feature"
        },
        {
            "geometry": {
                "coordinates": [
                    17.503199,
                    49.085515
                ],
                "type": "Point"
            },
            "properties": {
                "is_installed": true,
                "is_renting": true,
                "is_returning": true,
                "is_virtual_station": false,
                "last_reported": 1789130236,
                "name": "Na N\u00e1vsi - kostel",
                "num_bikes_available": 1,
                "num_docks_available": 0,
                "region_id": "702",
                "rental_uris": {
                    "android": "https://app.nextbike.net/station?id=42610566",
                    "ios": "https://app.nextbike.net/station?id=42610566",
                    "web": "https://nxtb.it/p/42610566"
                },
                "short_name": "48799",
                "station_id": "42610566",
                "vehicle_types_available": [
                    {
                        "count": 1,
                        "vehicle_type_id": "254"
                    }
                ]
            },
            "type": "Feature"
        },
        {
            "geometry": {
                "coordinates": [
                    17.494769,
                    49.085676
                ],
                "type": "Point"
            },
            "properties": {
                "is_installed": true,
                "is_renting": true,
                "is_returning": true,
                "is_virtual_station": false,
                "last_reported": 1789130236,
                "name": "Pivovarsk\u00e1 - Hru\u0161ka",
                "num_bikes_available": 4,
                "num_docks_available": 0,
                "region_id": "702",
                "rental_uris": {
                    "android": "https://app.nextbike.net/station?id=42610722",
                    "ios": "https://app.nextbike.net/station?id=42610722",
                    "web": "https://nxtb.it/p/42610722"
                },
                "short_name": "48800",
                "station_id": "42610722",
                "vehicle_types_available": [
                    {
                        "count": 3,
                        "vehicle_type_id": "333"
                    },
                    {
                        "count": 1,
                        "vehicle_type_id": "254"
                    }
                ]
            },
            "type": "Feature"
        },
        {
            "geometry": {
                "coordinates": [
                    17.464078,
                    49.069556
                ],
                "type": "Point"
            },
            "properties": {
                "is_installed": true,
                "is_renting": true,
                "is_returning": true,
                "is_virtual_station": false,
                "last_reported": 1789130236,
                "name": "Obchodn\u00ed - \u010cSAD (do\u010dasn\u011b p\u0159esunuto)",
                "num_bikes_available": 2,
                "num_docks_available": 0,
                "region_id": "702",
                "rental_uris": {
                    "android": "https://app.nextbike.net/station?id=42611963",
                    "ios": "https://app.nextbike.net/station?id=42611963",
                    "web": "https://nxtb.it/p/42611963"
                },
                "short_name": "48801",
                "station_id": "42611963",
                "vehicle_types_available": [
                    {
                        "count": 1,
                        "vehicle_type_id": "254"
                    },
                    {
                        "count": 1,
                        "vehicle_type_id": "333"
                    }
                ]
            },
            "type": "Feature"
        },
        {
            "geometry": {
                "coordinates": [
                    17.463534,
                    49.068366
                ],
                "type": "Point"
            },
            "properties": {
                "is_installed": true,
                "is_renting": true,
                "is_returning": true,
                "is_virtual_station": false,
                "last_reported": 1789130236,
                "name": "Havl\u00ed\u010dkova",
                "num_bikes_available": 0,
                "num_docks_available": 0,
                "region_id": "702",
                "rental_uris": {
                    "android": "https://app.nextbike.net/station?id=42612383",
                    "ios": "https://app.nextbike.net/station?id=42612383",
                    "web": "https://nxtb.it/p/42612383"
                },
                "short_name": "48803",
                "station_id": "42612383",
                "vehicle_types_available": []
            },
            "type": "Feature"
        },
        {
            "geometry": {
                "coordinates": [
                    17.464537,
                    49.068513
                ],
                "type": "Point"
            },
            "properties": {
                "is_installed": true,
                "is_renting": true,
                "is_returning": true,
                "is_virtual_station": false,
                "last_reported": 1789130236,
                "name": "Palack\u00e9ho n\u00e1m\u011bst\u00ed",
                "num_bikes_available": 0,
                "num_docks_available": 0,
                "region_id": "702",
                "rental_uris": {
                    "android": "https://app.nextbike.net/station?id=42612593",
                    "ios": "https://app.nextbike.net/station?id=42612593",
                    "web": "https://nxtb.it/p/42612593"
                },
                "short_name": "48804",
                "station_id": "42612593",
                "vehicle_types_available": []
            },
            "type": "Feature"
        },
        {
            "geometry": {
                "coordinates": [
                    17.46929,
                    49.068943
                ],
                "type": "Point"
            },
            "properties": {
                "is_installed": true,
                "is_renting": true,
                "is_returning": true,
                "is_virtual_station": false,
                "last_reported": 1789130236,
                "name": "Zelen\u00e9 n\u00e1m\u011bst\u00ed",
                "num_bikes_available": 0,
                "num_docks_available": 0,
                "region_id": "702",
                "rental_uris": {
                    "android": "https://app.nextbike.net/station?id=42612907",
                    "ios": "https://app.nextbike.net/station?id=42612907",
                    "web": "https://nxtb.it/p/42612907"
                },
                "short_name": "48805",
                "station_id": "42612907",
                "vehicle_types_available": []
            },
            "type": "Feature"
        },
        {
            "geometry": {
                "coordinates": [
                    17.471332,
                    49.069672
                ],
                "type": "Point"
            },
            "properties": {
                "is_installed": true,
                "is_renting": true,
                "is_returning": true,
                "is_virtual_station": false,
                "last_reported": 1789130236,
                "name": "Studentsk\u00e9 n\u00e1m\u011bst\u00ed - menza",
                "num_bikes_available": 2,
                "num_docks_available": 0,
                "region_id": "702",
                "rental_uris": {
                    "android": "https://app.nextbike.net/station?id=42613071",
                    "ios": "https://app.nextbike.net/station?id=42613071",
                    "web": "https://nxtb.it/p/42613071"
                },
                "short_name": "48806",
                "station_id": "42613071",
                "vehicle_types_available": [
                    {
                        "count": 2,
                        "vehicle_type_id": "333"
                    }
                ]
            },
            "type": "Feature"
        },
        {
            "geometry": {
                "coordinates": [
                    17.47365,
                    49.070624
                ],
                "type": "Point"
            },
            "properties": {
                "is_installed": true,
                "is_renting": true,
                "is_returning": true,
                "is_virtual_station": false,
                "last_reported": 1789130236,
                "name": "Kaufland",
                "num_bikes_available": 2,
                "num_docks_available": 0,
                "region_id": "702",
                "rental_uris": {
                    "android": "https://app.nextbike.net/station?id=42613264",
                    "ios": "https://app.nextbike.net/station?id=42613264",
                    "web": "https://nxtb.it/p/42613264"
                },
                "short_name": "48807",
                "station_id": "42613264",
                "vehicle_types_available": [
                    {
                        "count": 2,
                        "vehicle_type_id": "333"
                    }
                ]
            },
            "type": "Feature"
        },
        {
            "geometry": {
                "coordinates": [
                    17.47515,
                    49.068864
                ],
                "type": "Point"
            },
            "properties": {
                "is_installed": true,
                "is_renting": true,
                "is_returning": true,
                "is_virtual_station": false,
                "last_reported": 1789130236,
                "name": "Na Rybn\u00edku - COOP",
                "num_bikes_available": 2,
                "num_docks_available": 0,
                "region_id": "702",
                "rental_uris": {
                    "android": "https://app.nextbike.net/station?id=42613409",
                    "ios": "https://app.nextbike.net/station?id=42613409",
                    "web": "https://nxtb.it/p/42613409"
                },
                "short_name": "48808",
                "station_id": "42613409",
                "vehicle_types_available": [
                    {
                        "count": 2,
                        "vehicle_type_id": "333"
                    }
                ]
            },
            "type": "Feature"
        },
        {
            "geometry": {
                "coordinates": [
                    17.472689,
                    49.066874
                ],
                "type": "Point"
            },
            "properties": {
                "is_installed": true,
                "is_renting": true,
                "is_returning": true,
                "is_virtual_station": false,
                "last_reported": 1789130236,
                "name": "Aquapark",
                "num_bikes_available": 5,
                "num_docks_available": 0,
                "region_id": "702",
                "rental_uris": {
                    "android": "https://app.nextbike.net/station?id=42613441",
                    "ios": "https://app.nextbike.net/station?id=42613441",
                    "web": "https://nxtb.it/p/42613441"
                },
                "short_name": "48809",
                "station_id": "42613441",
                "vehicle_types_available": [
                    {
                        "count": 5,
                        "vehicle_type_id": "333"
                    }
                ]
            },
            "type": "Feature"
        },
        {
            "geometry": {
                "coordinates": [
                    17.46869,
                    49.067664
                ],
                "type": "Point"
            },
            "properties": {
                "is_installed": true,
                "is_renting": true,
                "is_returning": true,
                "is_virtual_station": false,
                "last_reported": 1789130236,
                "name": "Kino Hv\u011bzda",
                "num_bikes_available": 0,
                "num_docks_available": 0,
                "region_id": "702",
                "rental_uris": {
                    "android": "https://app.nextbike.net/station?id=42613531",
                    "ios": "https://app.nextbike.net/station?id=42613531",
                    "web": "https://nxtb.it/p/42613531"
                },
                "short_name": "48810",
                "station_id": "42613531",
                "vehicle_types_available": []
            },
            "type": "Feature"
        },
        {
            "geometry": {
                "coordinates": [
                    17.47015,
                    49.066396
                ],
                "type": "Point"
            },
            "properties": {
                "is_installed": true,
                "is_renting": true,
                "is_returning": true,
                "is_virtual_station": false,
                "last_reported": 1789130236,
                "name": "M\u011bstsk\u00fd fotbalov\u00fd stadion Miroslava Valenty",
                "num_bikes_available": 1,
                "num_docks_available": 0,
                "region_id": "702",
                "rental_uris": {
                    "android": "https://app.nextbike.net/station?id=42636293",
                    "ios": "https://app.nextbike.net/station?id=42636293",
                    "web": "https://nxtb.it/p/42636293"
                },
                "short_name": "48811",
                "station_id": "42636293",
                "vehicle_types_available": [
                    {
                        "count": 1,
                        "vehicle_type_id": "199"
                    }
                ]
            },
            "type": "Feature"
        },
        {
            "geometry": {
                "coordinates": [
                    17.469546,
                    49.062937
                ],
                "type": "Point"
            },
            "properties": {
                "is_installed": true,
                "is_renting": true,
                "is_returning": true,
                "is_virtual_station": false,
                "last_reported": 1789130236,
                "name": "Pod Svahy",
                "num_bikes_available": 1,
                "num_docks_available": 0,
                "region_id": "702",
                "rental_uris": {
                    "android": "https://app.nextbike.net/station?id=42636458",
                    "ios": "https://app.nextbike.net/station?id=42636458",
                    "web": "https://nxtb.it/p/42636458"
                },
                "short_name": "48812",
                "station_id": "42636458",
                "vehicle_types_available": [
                    {
                        "count": 1,
                        "vehicle_type_id": "333"
                    }
                ]
            },
            "type": "Feature"
        },
        {
            "geometry": {
                "coordinates": [
                    17.468414,
                    49.061107
                ],
                "type": "Point"
            },
            "properties": {
                "is_installed": true,
                "is_renting": true,
                "is_returning": true,
                "is_virtual_station": false,
                "last_reported": 1789130236,
                "name": "T\u0159\u00edda Mar\u0161\u00e1la Malinovsk\u00e9ho - Tesco",
                "num_bikes_available": 1,
                "num_docks_available": 0,
                "region_id": "702",
                "rental_uris": {
                    "android": "https://app.nextbike.net/station?id=42636525",
                    "ios": "https://app.nextbike.net/station?id=42636525",
                    "web": "https://nxtb.it/p/42636525"
                },
                "short_name": "48813",
                "station_id": "42636525",
                "vehicle_types_available": [
                    {
                        "count": 1,
                        "vehicle_type_id": "333"
                    }
                ]
            },
            "type": "Feature"
        },
        {
            "geometry": {
                "coordinates": [
                    17.465177,
                    49.058219
                ],
                "type": "Point"
            },
            "properties": {
                "is_installed": true,
                "is_renting": true,
                "is_returning": true,
                "is_virtual_station": false,
                "last_reported": 1789130236,
                "name": "T\u0159\u00edda Mar\u0161\u00e1la Malinovsk\u00e9ho - Lidl",
                "num_bikes_available": 0,
                "num_docks_available": 0,
                "region_id": "702",
                "rental_uris": {
                    "android": "https://app.nextbike.net/station?id=42636605",
                    "ios": "https://app.nextbike.net/station?id=42636605",
                    "web": "https://nxtb.it/p/42636605"
                },
                "short_name": "48814",
                "station_id": "42636605",
                "vehicle_types_available": []
            },
            "type": "Feature"
        },
        {
            "geometry": {
                "coordinates": [
                    17.467579,
                    49.055696
                ],
                "type": "Point"
            },
            "properties": {
                "is_installed": true,
                "is_renting": true,
                "is_returning": true,
                "is_virtual_station": false,
                "last_reported": 1789130236,
                "name": "Za Ol\u0161\u00e1vkou - Penny",
                "num_bikes_available": 5,
                "num_docks_available": 0,
                "region_id": "702",
                "rental_uris": {
                    "android": "https://app.nextbike.net/station?id=42640992",
                    "ios": "https://app.nextbike.net/station?id=42640992",
                    "web": "https://nxtb.it/p/42640992"
                },
                "short_name": "48815",
                "station_id": "42640992",
                "vehicle_types_available": [
                    {
                        "count": 5,
                        "vehicle_type_id": "333"
                    }
                ]
            },
            "type": "Feature"
        },
        {
            "geometry": {
                "coordinates": [
                    17.480474,
                    49.051421
                ],
                "type": "Point"
            },
            "properties": {
                "is_installed": true,
                "is_renting": true,
                "is_returning": true,
                "is_virtual_station": false,
                "last_reported": 1789130236,
                "name": "Kulturn\u00ed d\u016fm Sady",
                "num_bikes_available": 0,
                "num_docks_available": 0,
                "region_id": "702",
                "rental_uris": {
                    "android": "https://app.nextbike.net/station?id=42664989",
                    "ios": "https://app.nextbike.net/station?id=42664989",
                    "web": "https://nxtb.it/p/42664989"
                },
                "short_name": "48816",
                "station_id": "42664989",
                "vehicle_types_available": []
            },
            "type": "Feature"
        },
        {
            "geometry": {
                "coordinates": [
                    17.504509,
                    49.037817
                ],
                "type": "Point"
            },
            "properties": {
                "is_installed": true,
                "is_renting": true,
                "is_returning": true,
                "is_virtual_station": false,
                "last_reported": 1789130236,
                "name": "Na P\u0159\u00edkop\u011b - hospoda",
                "num_bikes_available": 0,
                "num_docks_available": 0,
                "region_id": "702",
                "rental_uris": {
                    "android": "https://app.nextbike.net/station?id=42665426",
                    "ios": "https://app.nextbike.net/station?id=42665426",
                    "web": "https://nxtb.it/p/42665426"
                },
                "short_name": "48818",
                "station_id": "42665426",
                "vehicle_types_available": []
            },
            "type": "Feature"
        },
        {
            "geometry": {
                "coordinates": [
                    17.457839,
                    49.066686
                ],
                "type": "Point"
            },
            "properties": {
                "is_installed": true,
                "is_renting": true,
                "is_returning": true,
                "is_virtual_station": false,
                "last_reported": 1789130236,
                "name": "Vlakov\u00e9 n\u00e1dra\u017e\u00ed",
                "num_bikes_available": 1,
                "num_docks_available": 0,
                "region_id": "702",
                "rental_uris": {
                    "android": "https://app.nextbike.net/station?id=42666176",
                    "ios": "https://app.nextbike.net/station?id=42666176",
                    "web": "https://nxtb.it/p/42666176"
                },
                "short_name": "48820",
                "station_id": "42666176",
                "vehicle_types_available": [
                    {
                        "count": 1,
                        "vehicle_type_id": "333"
                    }
                ]
            },
            "type": "Feature"
        },
        {
            "geometry": {
                "coordinates": [
                    17.458918,
                    49.067783
                ],
                "type": "Point"
            },
            "properties": {
                "is_installed": true,
                "is_renting": true,
                "is_returning": true,
                "is_virtual_station": false,
                "last_reported": 1789130236,
                "name": "Klub kultury",
                "num_bikes_available": 2,
                "num_docks_available": 0,
                "region_id": "702",
                "rental_uris": {
                    "android": "https://app.nextbike.net/station?id=42666444",
                    "ios": "https://app.nextbike.net/station?id=42666444",
                    "web": "https://nxtb.it/p/42666444"
                },
                "short_name": "48821",
                "station_id": "42666444",
                "vehicle_types_available": [
                    {
                        "count": 2,
                        "vehicle_type_id": "333"
                    }
                ]
            },
            "type": "Feature"
        },
        {
            "geometry": {
                "coordinates": [
                    17.461032,
                    49.068225
                ],
                "type": "Point"
            },
            "properties": {
                "is_installed": true,
                "is_renting": true,
                "is_returning": true,
                "is_virtual_station": false,
                "last_reported": 1789130236,
                "name": "Masarykovo n\u00e1m\u011bst\u00ed - po\u0161ta",
                "num_bikes_available": 0,
                "num_docks_available": 0,
                "region_id": "702",
                "rental_uris": {
                    "android": "https://app.nextbike.net/station?id=42666676",
                    "ios": "https://app.nextbike.net/station?id=42666676",
                    "web": "https://nxtb.it/p/42666676"
                },
                "short_name": "48822",
                "station_id": "42666676",
                "vehicle_types_available": []
            },
            "type": "Feature"
        },
        {
            "geometry": {
                "coordinates": [
                    17.458115,
                    49.069862
                ],
                "type": "Point"
            },
            "properties": {
                "is_installed": true,
                "is_renting": true,
                "is_returning": true,
                "is_virtual_station": false,
                "last_reported": 1789130236,
                "name": "Mari\u00e1nsk\u00e9 n\u00e1m\u011bst\u00ed",
                "num_bikes_available": 3,
                "num_docks_available": 0,
                "region_id": "702",
                "rental_uris": {
                    "android": "https://app.nextbike.net/station?id=42666934",
                    "ios": "https://app.nextbike.net/station?id=42666934",
                    "web": "https://nxtb.it/p/42666934"
                },
                "short_name": "48823",
                "station_id": "42666934",
                "vehicle_types_available": [
                    {
                        "count": 3,
                        "vehicle_type_id": "333"
                    }
                ]
            },
            "type": "Feature"
        },
        {
            "geometry": {
                "coordinates": [
                    17.449687,
                    49.066097
                ],
                "type": "Point"
            },
            "properties": {
                "is_installed": true,
                "is_renting": true,
                "is_returning": true,
                "is_virtual_station": false,
                "last_reported": 1789130236,
                "name": "Zahradn\u00ed - po\u0161ta",
                "num_bikes_available": 2,
                "num_docks_available": 0,
                "region_id": "702",
                "rental_uris": {
                    "android": "https://app.nextbike.net/station?id=42667500",
                    "ios": "https://app.nextbike.net/station?id=42667500",
                    "web": "https://nxtb.it/p/42667500"
                },
                "short_name": "48826",
                "station_id": "42667500",
                "vehicle_types_available": [
                    {
                        "count": 2,
                        "vehicle_type_id": "333"
                    }
                ]
            },
            "type": "Feature"
        },
        {
            "geometry": {
                "coordinates": [
                    17.460206,
                    49.067895
                ],
                "type": "Point"
            },
            "properties": {
                "is_installed": true,
                "is_renting": true,
                "is_returning": true,
                "is_virtual_station": false,
                "last_reported": 1789130236,
                "name": "M\u011bstsk\u00fd \u00fa\u0159ad",
                "num_bikes_available": 1,
                "num_docks_available": 0,
                "region_id": "702",
                "rental_uris": {
                    "android": "https://app.nextbike.net/station?id=43031583",
                    "ios": "https://app.nextbike.net/station?id=43031583",
                    "web": "https://nxtb.it/p/43031583"
                },
                "short_name": "48827",
                "station_id": "43031583",
                "vehicle_types_available": [
                    {
                        "count": 1,
                        "vehicle_type_id": "333"
                    }
                ]
            },
            "type": "Feature"
        },
        {
            "geometry": {
                "coordinates": [
                    17.480193,
                    49.06548
                ],
                "type": "Point"
            },
            "properties": {
                "is_installed": true,
                "is_renting": true,
                "is_returning": true,
                "is_virtual_station": false,
                "last_reported": 1789130236,
                "name": "Knihovna",
                "num_bikes_available": 1,
                "num_docks_available": 0,
                "region_id": "702",
                "rental_uris": {
                    "android": "https://app.nextbike.net/station?id=43269869",
                    "ios": "https://app.nextbike.net/station?id=43269869",
                    "web": "https://nxtb.it/p/43269869"
                },
                "short_name": "48828",
                "station_id": "43269869",
                "vehicle_types_available": [
                    {
                        "count": 1,
                        "vehicle_type_id": "333"
                    }
                ]
            },
            "type": "Feature"
        },
        {
            "geometry": {
                "coordinates": [
                    17.502342,
                    49.088864
                ],
                "type": "Point"
            },
            "properties": {
                "is_installed": true,
                "is_renting": true,
                "is_returning": true,
                "is_virtual_station": false,
                "last_reported": 1789130236,
                "name": "Jaro\u0161ov - Louky",
                "num_bikes_available": 0,
                "num_docks_available": 0,
                "region_id": "702",
                "rental_uris": {
                    "android": "https://app.nextbike.net/station?id=43274137",
                    "ios": "https://app.nextbike.net/station?id=43274137",
                    "web": "https://nxtb.it/p/43274137"
                },
                "short_name": "48829",
                "station_id": "43274137",
                "vehicle_types_available": []
            },
            "type": "Feature"
        },
        {
            "geometry": {
                "coordinates": [
                    17.451627,
                    49.071108
                ],
                "type": "Point"
            },
            "properties": {
                "is_installed": true,
                "is_renting": true,
                "is_returning": true,
                "is_virtual_station": false,
                "last_reported": 1789130236,
                "name": "Star\u00e1 Tenice",
                "num_bikes_available": 1,
                "num_docks_available": 0,
                "region_id": "702",
                "rental_uris": {
                    "android": "https://app.nextbike.net/station?id=43276419",
                    "ios": "https://app.nextbike.net/station?id=43276419",
                    "web": "https://nxtb.it/p/43276419"
                },
                "short_name": "48830",
                "station_id": "43276419",
                "vehicle_types_available": [
                    {
                        "count": 1,
                        "vehicle_type_id": "333"
                    }
                ]
            },
            "type": "Feature"
        },
        {
            "geometry": {
                "coordinates": [
                    17.458912,
                    49.073567
                ],
                "type": "Point"
            },
            "properties": {
                "is_installed": true,
                "is_renting": true,
                "is_returning": true,
                "is_virtual_station": false,
                "last_reported": 1789130236,
                "name": "Ryb\u00e1rny",
                "num_bikes_available": 1,
                "num_docks_available": 0,
                "region_id": "702",
                "rental_uris": {
                    "android": "https://app.nextbike.net/station?id=43276525",
                    "ios": "https://app.nextbike.net/station?id=43276525",
                    "web": "https://nxtb.it/p/43276525"
                },
                "short_name": "48831",
                "station_id": "43276525",
                "vehicle_types_available": [
                    {
                        "count": 1,
                        "vehicle_type_id": "333"
                    }
                ]
            },
            "type": "Feature"
        },
        {
            "geometry": {
                "coordinates": [
                    17.447022,
                    49.064
                ],
                "type": "Point"
            },
            "properties": {
                "is_installed": true,
                "is_renting": true,
                "is_returning": true,
                "is_virtual_station": false,
                "last_reported": 1789130236,
                "name": "\u0160t\u011bpnice - Domov pro seniory",
                "num_bikes_available": 8,
                "num_docks_available": 0,
                "region_id": "702",
                "rental_uris": {
                    "android": "https://app.nextbike.net/station?id=43276700",
                    "ios": "https://app.nextbike.net/station?id=43276700",
                    "web": "https://nxtb.it/p/43276700"
                },
                "short_name": "48832",
                "station_id": "43276700",
                "vehicle_types_available": [
                    {
                        "count": 7,
                        "vehicle_type_id": "333"
                    },
                    {
                        "count": 1,
                        "vehicle_type_id": "254"
                    }
                ]
            },
            "type": "Feature"
        },
        {
            "geometry": {
                "coordinates": [
                    17.443842,
                    49.066773
                ],
                "type": "Point"
            },
            "properties": {
                "is_installed": true,
                "is_renting": true,
                "is_returning": true,
                "is_virtual_station": false,
                "last_reported": 1789130236,
                "name": "\u0160t\u011bpnick\u00e1 - Masaro",
                "num_bikes_available": 6,
                "num_docks_available": 0,
                "region_id": "702",
                "rental_uris": {
                    "android": "https://app.nextbike.net/station?id=44874006",
                    "ios": "https://app.nextbike.net/station?id=44874006",
                    "web": "https://nxtb.it/p/44874006"
                },
                "short_name": "48833",
                "station_id": "44874006",
                "vehicle_types_available": [
                    {
                        "count": 5,
                        "vehicle_type_id": "333"
                    },
                    {
                        "count": 1,
                        "vehicle_type_id": "254"
                    }
                ]
            },
            "type": "Feature"
        },
        {
            "geometry": {
                "coordinates": [
                    17.482679,
                    49.062185
                ],
                "type": "Point"
            },
            "properties": {
                "is_installed": true,
                "is_renting": true,
                "is_returning": true,
                "is_virtual_station": false,
                "last_reported": 1789130236,
                "name": "Ma\u0159atice - zast\u00e1vka",
                "num_bikes_available": 0,
                "num_docks_available": 0,
                "region_id": "702",
                "rental_uris": {
                    "android": "https://app.nextbike.net/station?id=44874398",
                    "ios": "https://app.nextbike.net/station?id=44874398",
                    "web": "https://nxtb.it/p/44874398"
                },
                "short_name": "48834",
                "station_id": "44874398",
                "vehicle_types_available": []
            },
            "type": "Feature"
        },
        {
            "geometry": {
                "coordinates": [
                    17.500275,
                    49.043743
                ],
                "type": "Point"
            },
            "properties": {
                "is_installed": true,
                "is_renting": true,
                "is_returning": true,
                "is_virtual_station": false,
                "last_reported": 1789130236,
                "name": "V\u00e9sky - hasi\u010dsk\u00e1 zbrojnice",
                "num_bikes_available": 2,
                "num_docks_available": 0,
                "region_id": "702",
                "rental_uris": {
                    "android": "https://app.nextbike.net/station?id=44876105",
                    "ios": "https://app.nextbike.net/station?id=44876105",
                    "web": "https://nxtb.it/p/44876105"
                },
                "short_name": "48835",
                "station_id": "44876105",
                "vehicle_types_available": [
                    {
                        "count": 2,
                        "vehicle_type_id": "333"
                    }
                ]
            },
            "type": "Feature"
        },
        {
            "geometry": {
                "coordinates": [
                    17.4855,
                    49.050799
                ],
                "type": "Point"
            },
            "properties": {
                "is_installed": true,
                "is_renting": true,
                "is_returning": true,
                "is_virtual_station": false,
                "last_reported": 1789130236,
                "name": "Hosp\u016fdka U Kova\u0159\u00edk\u016f",
                "num_bikes_available": 4,
                "num_docks_available": 0,
                "region_id": "702",
                "rental_uris": {
                    "android": "https://app.nextbike.net/station?id=47166079",
                    "ios": "https://app.nextbike.net/station?id=47166079",
                    "web": "https://nxtb.it/p/47166079"
                },
                "short_name": "48836",
                "station_id": "47166079",
                "vehicle_types_available": [
                    {
                        "count": 1,
                        "vehicle_type_id": "254"
                    },
                    {
                        "count": 3,
                        "vehicle_type_id": "333"
                    }
                ]
            },
            "type": "Feature"
        },
        {
            "geometry": {
                "coordinates": [
                    17.46759,
                    49.04201
                ],
                "type": "Point"
            },
            "properties": {
                "is_installed": true,
                "is_renting": true,
                "is_returning": true,
                "is_virtual_station": false,
                "last_reported": 1789130236,
                "name": "N\u00e1m\u011bst\u00ed Svobody",
                "num_bikes_available": 3,
                "num_docks_available": 0,
                "region_id": "1092",
                "rental_uris": {
                    "android": "https://app.nextbike.net/station?id=472345543",
                    "ios": "https://app.nextbike.net/station?id=472345543",
                    "web": "https://nxtb.it/p/472345543"
                },
                "short_name": "48838",
                "station_id": "472345543",
                "vehicle_types_available": [
                    {
                        "count": 3,
                        "vehicle_type_id": "333"
                    }
                ]
            },
            "type": "Feature"
        },
        {
            "geometry": {
                "coordinates": [
                    17.46994,
                    49.05169
                ],
                "type": "Point"
            },
            "properties": {
                "is_installed": true,
                "is_renting": true,
                "is_returning": true,
                "is_virtual_station": false,
                "last_reported": 1789130236,
                "name": "Vlakov\u00e9 n\u00e1dra\u017e\u00ed",
                "num_bikes_available": 3,
                "num_docks_available": 0,
                "region_id": "1092",
                "rental_uris": {
                    "android": "https://app.nextbike.net/station?id=472346578",
                    "ios": "https://app.nextbike.net/station?id=472346578",
                    "web": "https://nxtb.it/p/472346578"
                },
                "short_name": "48839",
                "station_id": "472346578",
                "vehicle_types_available": [
                    {
                        "count": 3,
                        "vehicle_type_id": "333"
                    }
                ]
            },
            "type": "Feature"
        },
        {
            "geometry": {
                "coordinates": [
                    17.46412,
                    49.04312
                ],
                "type": "Point"
            },
            "properties": {
                "is_installed": true,
                "is_renting": true,
                "is_returning": true,
                "is_virtual_station": false,
                "last_reported": 1789130236,
                "name": "Sportovn\u00ed hala",
                "num_bikes_available": 1,
                "num_docks_available": 0,
                "region_id": "1092",
                "rental_uris": {
                    "android": "https://app.nextbike.net/station?id=472346846",
                    "ios": "https://app.nextbike.net/station?id=472346846",
                    "web": "https://nxtb.it/p/472346846"
                },
                "short_name": "48840",
                "station_id": "472346846",
                "vehicle_types_available": [
                    {
                        "count": 1,
                        "vehicle_type_id": "333"
                    }
                ]
            },
            "type": "Feature"
        },
        {
            "geometry": {
                "coordinates": [
                    17.46328,
                    49.03847
                ],
                "type": "Point"
            },
            "properties": {
                "is_installed": true,
                "is_renting": true,
                "is_returning": true,
                "is_virtual_station": false,
                "last_reported": 1789130236,
                "name": "Z\u0160 Kunovice",
                "num_bikes_available": 0,
                "num_docks_available": 0,
                "region_id": "1092",
                "rental_uris": {
                    "android": "https://app.nextbike.net/station?id=472347053",
                    "ios": "https://app.nextbike.net/station?id=472347053",
                    "web": "https://nxtb.it/p/472347053"
                },
                "short_name": "48841",
                "station_id": "472347053",
                "vehicle_types_available": []
            },
            "type": "Feature"
        },
        {
            "geometry": {
                "coordinates": [
                    17.47234,
                    49.04018
                ],
                "type": "Point"
            },
            "properties": {
                "is_installed": true,
                "is_renting": true,
                "is_returning": true,
                "is_virtual_station": false,
                "last_reported": 1789130236,
                "name": "V Humnech",
                "num_bikes_available": 4,
                "num_docks_available": 0,
                "region_id": "1092",
                "rental_uris": {
                    "android": "https://app.nextbike.net/station?id=472348345",
                    "ios": "https://app.nextbike.net/station?id=472348345",
                    "web": "https://nxtb.it/p/472348345"
                },
                "short_name": "48842",
                "station_id": "472348345",
                "vehicle_types_available": [
                    {
                        "count": 4,
                        "vehicle_type_id": "333"
                    }
                ]
            },
            "type": "Feature"
        },
        {
            "geometry": {
                "coordinates": [
                    17.46084,
                    49.03864
                ],
                "type": "Point"
            },
            "properties": {
                "is_installed": true,
                "is_renting": true,
                "is_returning": true,
                "is_virtual_station": false,
                "last_reported": 1789130236,
                "name": "Zast\u00e1vka",
                "num_bikes_available": 1,
                "num_docks_available": 0,
                "region_id": "1092",
                "rental_uris": {
                    "android": "https://app.nextbike.net/station?id=472349570",
                    "ios": "https://app.nextbike.net/station?id=472349570",
                    "web": "https://nxtb.it/p/472349570"
                },
                "short_name": "48844",
                "station_id": "472349570",
                "vehicle_types_available": [
                    {
                        "count": 1,
                        "vehicle_type_id": "254"
                    }
                ]
            },
            "type": "Feature"
        },
        {
            "geometry": {
                "coordinates": [
                    17.45807,
                    49.04434
                ],
                "type": "Point"
            },
            "properties": {
                "is_installed": true,
                "is_renting": true,
                "is_returning": true,
                "is_virtual_station": false,
                "last_reported": 1789130236,
                "name": "Poln\u00ed/Na B\u011blince",
                "num_bikes_available": 1,
                "num_docks_available": 0,
                "region_id": "1092",
                "rental_uris": {
                    "android": "https://app.nextbike.net/station?id=472351048",
                    "ios": "https://app.nextbike.net/station?id=472351048",
                    "web": "https://nxtb.it/p/472351048"
                },
                "short_name": "48845",
                "station_id": "472351048",
                "vehicle_types_available": [
                    {
                        "count": 1,
                        "vehicle_type_id": "254"
                    }
                ]
            },
            "type": "Feature"
        },
        {
            "geometry": {
                "coordinates": [
                    17.47034,
                    49.04538
                ],
                "type": "Point"
            },
            "properties": {
                "is_installed": true,
                "is_renting": true,
                "is_returning": true,
                "is_virtual_station": false,
                "last_reported": 1789130236,
                "name": "Kulturn\u00ed za\u0159\u00edzen\u00ed",
                "num_bikes_available": 6,
                "num_docks_available": 0,
                "region_id": "1092",
                "rental_uris": {
                    "android": "https://app.nextbike.net/station?id=472351974",
                    "ios": "https://app.nextbike.net/station?id=472351974",
                    "web": "https://nxtb.it/p/472351974"
                },
                "short_name": "48847",
                "station_id": "472351974",
                "vehicle_types_available": [
                    {
                        "count": 5,
                        "vehicle_type_id": "333"
                    },
                    {
                        "count": 1,
                        "vehicle_type_id": "254"
                    }
                ]
            },
            "type": "Feature"
        },
        {
            "geometry": {
                "coordinates": [
                    17.46497,
                    49.04147
                ],
                "type": "Point"
            },
            "properties": {
                "is_installed": true,
                "is_renting": true,
                "is_returning": true,
                "is_virtual_station": false,
                "last_reported": 1789130236,
                "name": "Pod Kostelem",
                "num_bikes_available": 0,
                "num_docks_available": 0,
                "region_id": "1092",
                "rental_uris": {
                    "android": "https://app.nextbike.net/station?id=611592465",
                    "ios": "https://app.nextbike.net/station?id=611592465",
                    "web": "https://nxtb.it/p/611592465"
                },
                "short_name": "48846",
                "station_id": "611592465",
                "vehicle_types_available": []
            },
            "type": "Feature"
        },
        {
            "geometry": {
                "coordinates": [
                    17.464677,
                    49.061542
                ],
                "type": "Point"
            },
            "properties": {
                "is_installed": true,
                "is_renting": true,
                "is_returning": true,
                "is_virtual_station": false,
                "last_reported": 1789130236,
                "name": "N\u00e1m\u011bst\u00ed Republiky",
                "num_bikes_available": 3,
                "num_docks_available": 0,
                "region_id": "702",
                "rental_uris": {
                    "android": "https://app.nextbike.net/station?id=97063153",
                    "ios": "https://app.nextbike.net/station?id=97063153",
                    "web": "https://nxtb.it/p/97063153"
                },
                "short_name": "48837",
                "station_id": "97063153",
                "vehicle_types_available": [
                    {
                        "count": 1,
                        "vehicle_type_id": "254"
                    },
                    {
                        "count": 2,
                        "vehicle_type_id": "333"
                    }
                ]
            },
            "type": "Feature"
        }
    ],
    "gbfs": {
        "station_information": {
            "last_updated": 1789130236,
            "ttl": 60,
            "version": "2.3"
        },
        "station_status": {
            "last_updated": 1789130236,
            "ttl": 60,
            "version": "2.3"
        }
    },
    "type": "FeatureCollection"
}