{
    "features": [
        {
            "geometry": {
                "coordinates": [
                    22.08072,
                    53.179
                ],
                "type": "Point"
            },
            "properties": {
                "capacity": 10,
                "is_installed": true,
                "is_renting": true,
                "is_returning": true,
                "is_virtual_station": false,
                "last_reported": 1789293701,
                "name": "Stary Rynek",
                "num_bikes_available": 12,
                "num_docks_available": 0,
                "region_id": "796",
                "rental_uris": {
                    "android": "https://app.nextbike.net/station?id=90236448",
                    "ios": "https://app.nextbike.net/station?id=90236448",
                    "web": "https://nxtb.it/p/90236448"
                },
                "short_name": "60201",
                "station_id": "90236448",
                "vehicle_types_available": [
                    {
                        "count": 9,
                        "vehicle_type_id": "71"
                    },
                    {
                        "count": 3,
                        "vehicle_type_id": "114"
                    }
                ]
            },
            "type": "Feature"
        },
        {
            "geometry": {
                "coordinates": [
                    22.08735,
                    53.18021
                ],
                "type": "Point"
            },
            "properties": {
                "capacity": 10,
                "is_installed": true,
                "is_renting": true,
                "is_returning": true,
                "is_virtual_station": false,
                "last_reported": 1789293701,
                "name": "Bulwary",
                "num_bikes_available": 7,
                "num_docks_available": 3,
                "region_id": "796",
                "rental_uris": {
                    "android": "https://app.nextbike.net/station?id=90236587",
                    "ios": "https://app.nextbike.net/station?id=90236587",
                    "web": "https://nxtb.it/p/90236587"
                },
                "short_name": "60202",
                "station_id": "90236587",
                "vehicle_types_available": [
                    {
                        "count": 7,
                        "vehicle_type_id": "71"
                    }
                ]
            },
            "type": "Feature"
        },
        {
            "geometry": {
                "coordinates": [
                    22.06652,
                    53.16107
                ],
                "type": "Point"
            },
            "properties": {
                "capacity": 10,
                "is_installed": true,
                "is_renting": true,
                "is_returning": true,
                "is_virtual_station": false,
                "last_reported": 1789293701,
                "name": "Strzelnica",
                "num_bikes_available": 9,
                "num_docks_available": 1,
                "region_id": "796",
                "rental_uris": {
                    "android": "https://app.nextbike.net/station?id=90236857",
                    "ios": "https://app.nextbike.net/station?id=90236857",
                    "web": "https://nxtb.it/p/90236857"
                },
                "short_name": "60203",
                "station_id": "90236857",
                "vehicle_types_available": [
                    {
                        "count": 5,
                        "vehicle_type_id": "71"
                    },
                    {
                        "count": 4,
                        "vehicle_type_id": "114"
                    }
                ]
            },
            "type": "Feature"
        },
        {
            "geometry": {
                "coordinates": [
                    22.06983,
                    53.16726
                ],
                "type": "Point"
            },
            "properties": {
                "capacity": 10,
                "is_installed": true,
                "is_renting": true,
                "is_returning": true,
                "is_virtual_station": false,
                "last_reported": 1789293701,
                "name": "Park Wodny",
                "num_bikes_available": 7,
                "num_docks_available": 3,
                "region_id": "796",
                "rental_uris": {
                    "android": "https://app.nextbike.net/station?id=90240388",
                    "ios": "https://app.nextbike.net/station?id=90240388",
                    "web": "https://nxtb.it/p/90240388"
                },
                "short_name": "60204",
                "station_id": "90240388",
                "vehicle_types_available": [
                    {
                        "count": 6,
                        "vehicle_type_id": "71"
                    },
                    {
                        "count": 1,
                        "vehicle_type_id": "114"
                    }
                ]
            },
            "type": "Feature"
        },
        {
            "geometry": {
                "coordinates": [
                    22.03859,
                    53.17508
                ],
                "type": "Point"
            },
            "properties": {
                "capacity": 10,
                "is_installed": true,
                "is_renting": true,
                "is_returning": true,
                "is_virtual_station": false,
                "last_reported": 1789293701,
                "name": "Bawe\u0142na",
                "num_bikes_available": 8,
                "num_docks_available": 2,
                "region_id": "796",
                "rental_uris": {
                    "android": "https://app.nextbike.net/station?id=90240588",
                    "ios": "https://app.nextbike.net/station?id=90240588",
                    "web": "https://nxtb.it/p/90240588"
                },
                "short_name": "60205",
                "station_id": "90240588",
                "vehicle_types_available": [
                    {
                        "count": 8,
                        "vehicle_type_id": "71"
                    }
                ]
            },
            "type": "Feature"
        },
        {
            "geometry": {
                "coordinates": [
                    22.07631,
                    53.18121
                ],
                "type": "Point"
            },
            "properties": {
                "capacity": 10,
                "is_installed": true,
                "is_renting": true,
                "is_returning": true,
                "is_virtual_station": false,
                "last_reported": 1789293701,
                "name": "Park Ko\u015bciuszki",
                "num_bikes_available": 7,
                "num_docks_available": 3,
                "region_id": "796",
                "rental_uris": {
                    "android": "https://app.nextbike.net/station?id=90240721",
                    "ios": "https://app.nextbike.net/station?id=90240721",
                    "web": "https://nxtb.it/p/90240721"
                },
                "short_name": "60206",
                "station_id": "90240721",
                "vehicle_types_available": [
                    {
                        "count": 6,
                        "vehicle_type_id": "71"
                    },
                    {
                        "count": 1,
                        "vehicle_type_id": "114"
                    }
                ]
            },
            "type": "Feature"
        },
        {
            "geometry": {
                "coordinates": [
                    22.077074,
                    53.16739
                ],
                "type": "Point"
            },
            "properties": {
                "capacity": 10,
                "is_installed": true,
                "is_renting": true,
                "is_returning": true,
                "is_virtual_station": false,
                "last_reported": 1789293701,
                "name": "Orlik",
                "num_bikes_available": 7,
                "num_docks_available": 3,
                "region_id": "796",
                "rental_uris": {
                    "android": "https://app.nextbike.net/station?id=90240860",
                    "ios": "https://app.nextbike.net/station?id=90240860",
                    "web": "https://nxtb.it/p/90240860"
                },
                "short_name": "60207",
                "station_id": "90240860",
                "vehicle_types_available": [
                    {
                        "count": 6,
                        "vehicle_type_id": "71"
                    },
                    {
                        "count": 1,
                        "vehicle_type_id": "114"
                    }
                ]
            },
            "type": "Feature"
        },
        {
            "geometry": {
                "coordinates": [
                    22.068434,
                    53.173636
                ],
                "type": "Point"
            },
            "properties": {
                "capacity": 10,
                "is_installed": true,
                "is_renting": true,
                "is_returning": true,
                "is_virtual_station": false,
                "last_reported": 1789293701,
                "name": "Dworzec Miejski",
                "num_bikes_available": 9,
                "num_docks_available": 1,
                "region_id": "796",
                "rental_uris": {
                    "android": "https://app.nextbike.net/station?id=90241190",
                    "ios": "https://app.nextbike.net/station?id=90241190",
                    "web": "https://nxtb.it/p/90241190"
                },
                "short_name": "60208",
                "station_id": "90241190",
                "vehicle_types_available": [
                    {
                        "count": 8,
                        "vehicle_type_id": "71"
                    },
                    {
                        "count": 1,
                        "vehicle_type_id": "114"
                    }
                ]
            },
            "type": "Feature"
        },
        {
            "geometry": {
                "coordinates": [
                    22.07616,
                    53.16077
                ],
                "type": "Point"
            },
            "properties": {
                "capacity": 10,
                "is_installed": true,
                "is_renting": true,
                "is_returning": true,
                "is_virtual_station": false,
                "last_reported": 1789293701,
                "name": "Galeria \u0141om\u017ca",
                "num_bikes_available": 9,
                "num_docks_available": 1,
                "region_id": "796",
                "rental_uris": {
                    "android": "https://app.nextbike.net/station?id=90241331",
                    "ios": "https://app.nextbike.net/station?id=90241331",
                    "web": "https://nxtb.it/p/90241331"
                },
                "short_name": "60209",
                "station_id": "90241331",
                "vehicle_types_available": [
                    {
                        "count": 7,
                        "vehicle_type_id": "71"
                    },
                    {
                        "count": 2,
                        "vehicle_type_id": "114"
                    }
                ]
            },
            "type": "Feature"
        },
        {
            "geometry": {
                "coordinates": [
                    22.07912,
                    53.156069
                ],
                "type": "Point"
            },
            "properties": {
                "capacity": 10,
                "is_installed": true,
                "is_renting": true,
                "is_returning": true,
                "is_virtual_station": false,
                "last_reported": 1789293701,
                "name": "Ul. Szmaragdowa",
                "num_bikes_available": 6,
                "num_docks_available": 4,
                "region_id": "796",
                "rental_uris": {
                    "android": "https://app.nextbike.net/station?id=90241572",
                    "ios": "https://app.nextbike.net/station?id=90241572",
                    "web": "https://nxtb.it/p/90241572"
                },
                "short_name": "60210",
                "station_id": "90241572",
                "vehicle_types_available": [
                    {
                        "count": 5,
                        "vehicle_type_id": "71"
                    },
                    {
                        "count": 1,
                        "vehicle_type_id": "114"
                    }
                ]
            },
            "type": "Feature"
        },
        {
            "geometry": {
                "coordinates": [
                    22.049158,
                    53.159751
                ],
                "type": "Point"
            },
            "properties": {
                "capacity": 10,
                "is_installed": true,
                "is_renting": true,
                "is_returning": true,
                "is_virtual_station": false,
                "last_reported": 1789293701,
                "name": "Ul. Akademicka",
                "num_bikes_available": 8,
                "num_docks_available": 2,
                "region_id": "796",
                "rental_uris": {
                    "android": "https://app.nextbike.net/station?id=90242048",
                    "ios": "https://app.nextbike.net/station?id=90242048",
                    "web": "https://nxtb.it/p/90242048"
                },
                "short_name": "60211",
                "station_id": "90242048",
                "vehicle_types_available": [
                    {
                        "count": 6,
                        "vehicle_type_id": "71"
                    },
                    {
                        "count": 2,
                        "vehicle_type_id": "114"
                    }
                ]
            },
            "type": "Feature"
        },
        {
            "geometry": {
                "coordinates": [
                    22.083823,
                    53.165661
                ],
                "type": "Point"
            },
            "properties": {
                "capacity": 10,
                "is_installed": true,
                "is_renting": true,
                "is_returning": true,
                "is_virtual_station": false,
                "last_reported": 1789293701,
                "name": "SP9",
                "num_bikes_available": 9,
                "num_docks_available": 1,
                "region_id": "796",
                "rental_uris": {
                    "android": "https://app.nextbike.net/station?id=90242187",
                    "ios": "https://app.nextbike.net/station?id=90242187",
                    "web": "https://nxtb.it/p/90242187"
                },
                "short_name": "60212",
                "station_id": "90242187",
                "vehicle_types_available": [
                    {
                        "count": 7,
                        "vehicle_type_id": "71"
                    },
                    {
                        "count": 2,
                        "vehicle_type_id": "114"
                    }
                ]
            },
            "type": "Feature"
        },
        {
            "geometry": {
                "coordinates": [
                    22.063909,
                    53.159311
                ],
                "type": "Point"
            },
            "properties": {
                "capacity": 10,
                "is_installed": true,
                "is_renting": true,
                "is_returning": true,
                "is_virtual_station": false,
                "last_reported": 1789293701,
                "name": "Przykoszarowa",
                "num_bikes_available": 7,
                "num_docks_available": 3,
                "region_id": "796",
                "rental_uris": {
                    "android": "https://app.nextbike.net/station?id=90242331",
                    "ios": "https://app.nextbike.net/station?id=90242331",
                    "web": "https://nxtb.it/p/90242331"
                },
                "short_name": "60213",
                "station_id": "90242331",
                "vehicle_types_available": [
                    {
                        "count": 5,
                        "vehicle_type_id": "71"
                    },
                    {
                        "count": 2,
                        "vehicle_type_id": "114"
                    }
                ]
            },
            "type": "Feature"
        },
        {
            "geometry": {
                "coordinates": [
                    22.0632,
                    53.16797
                ],
                "type": "Point"
            },
            "properties": {
                "capacity": 10,
                "is_installed": true,
                "is_renting": true,
                "is_returning": true,
                "is_virtual_station": false,
                "last_reported": 1789293701,
                "name": "Aleja Park",
                "num_bikes_available": 9,
                "num_docks_available": 1,
                "region_id": "796",
                "rental_uris": {
                    "android": "https://app.nextbike.net/station?id=90242438",
                    "ios": "https://app.nextbike.net/station?id=90242438",
                    "web": "https://nxtb.it/p/90242438"
                },
                "short_name": "60214",
                "station_id": "90242438",
                "vehicle_types_available": [
                    {
                        "count": 8,
                        "vehicle_type_id": "71"
                    },
                    {
                        "count": 1,
                        "vehicle_type_id": "114"
                    }
                ]
            },
            "type": "Feature"
        },
        {
            "geometry": {
                "coordinates": [
                    22.0824,
                    53.15893
                ],
                "type": "Point"
            },
            "properties": {
                "capacity": 10,
                "is_installed": true,
                "is_renting": true,
                "is_returning": true,
                "is_virtual_station": false,
                "last_reported": 1789293701,
                "name": "Perspektywa",
                "num_bikes_available": 7,
                "num_docks_available": 3,
                "region_id": "796",
                "rental_uris": {
                    "android": "https://app.nextbike.net/station?id=90242559",
                    "ios": "https://app.nextbike.net/station?id=90242559",
                    "web": "https://nxtb.it/p/90242559"
                },
                "short_name": "60215",
                "station_id": "90242559",
                "vehicle_types_available": [
                    {
                        "count": 5,
                        "vehicle_type_id": "71"
                    },
                    {
                        "count": 2,
                        "vehicle_type_id": "114"
                    }
                ]
            },
            "type": "Feature"
        }
    ],
    "gbfs": {
        "station_information": {
            "last_updated": 1789293701,
            "ttl": 60,
            "version": "2.3"
        },
        "station_status": {
            "last_updated": 1789293701,
            "ttl": 60,
            "version": "2.3"
        }
    },
    "type": "FeatureCollection"
}