{
    "features": [
        {
            "geometry": {
                "coordinates": [
                    25.084485,
                    44.808185
                ],
                "type": "Point"
            },
            "properties": {
                "capacity": 20,
                "is_installed": true,
                "is_renting": true,
                "is_returning": true,
                "is_virtual_station": false,
                "last_reported": 1789289371,
                "name": "Topoloveni 1",
                "num_bikes_available": 5,
                "num_docks_available": 15,
                "region_id": "832",
                "rental_uris": {
                    "android": "https://app.nextbike.net/station?id=131736038",
                    "ios": "https://app.nextbike.net/station?id=131736038",
                    "web": "https://nxtb.it/p/131736038"
                },
                "short_name": "35020",
                "station_id": "131736038",
                "vehicle_types_available": [
                    {
                        "count": 5,
                        "vehicle_type_id": "196"
                    }
                ]
            },
            "type": "Feature"
        },
        {
            "geometry": {
                "coordinates": [
                    25.082721,
                    44.809129
                ],
                "type": "Point"
            },
            "properties": {
                "capacity": 20,
                "is_installed": true,
                "is_renting": true,
                "is_returning": true,
                "is_virtual_station": false,
                "last_reported": 1789289371,
                "name": "Topoloveni 2",
                "num_bikes_available": 2,
                "num_docks_available": 18,
                "region_id": "832",
                "rental_uris": {
                    "android": "https://app.nextbike.net/station?id=131736599",
                    "ios": "https://app.nextbike.net/station?id=131736599",
                    "web": "https://nxtb.it/p/131736599"
                },
                "short_name": "35021",
                "station_id": "131736599",
                "vehicle_types_available": [
                    {
                        "count": 2,
                        "vehicle_type_id": "196"
                    }
                ]
            },
            "type": "Feature"
        },
        {
            "geometry": {
                "coordinates": [
                    25.079598,
                    44.827037
                ],
                "type": "Point"
            },
            "properties": {
                "capacity": 20,
                "is_installed": true,
                "is_renting": true,
                "is_returning": true,
                "is_virtual_station": false,
                "last_reported": 1789289371,
                "name": "Topoloveni 3",
                "num_bikes_available": 2,
                "num_docks_available": 18,
                "region_id": "832",
                "rental_uris": {
                    "android": "https://app.nextbike.net/station?id=318707735",
                    "ios": "https://app.nextbike.net/station?id=318707735",
                    "web": "https://nxtb.it/p/318707735"
                },
                "short_name": "35022",
                "station_id": "318707735",
                "vehicle_types_available": [
                    {
                        "count": 2,
                        "vehicle_type_id": "196"
                    }
                ]
            },
            "type": "Feature"
        },
        {
            "geometry": {
                "coordinates": [
                    25.08662,
                    44.84953
                ],
                "type": "Point"
            },
            "properties": {
                "capacity": 10,
                "is_installed": true,
                "is_renting": true,
                "is_returning": true,
                "is_virtual_station": false,
                "last_reported": 1789289371,
                "name": "Topoloveni 4",
                "num_bikes_available": 2,
                "num_docks_available": 8,
                "region_id": "832",
                "rental_uris": {
                    "android": "https://app.nextbike.net/station?id=490733827",
                    "ios": "https://app.nextbike.net/station?id=490733827",
                    "web": "https://nxtb.it/p/490733827"
                },
                "short_name": "35023",
                "station_id": "490733827",
                "vehicle_types_available": [
                    {
                        "count": 2,
                        "vehicle_type_id": "196"
                    }
                ]
            },
            "type": "Feature"
        }
    ],
    "gbfs": {
        "station_information": {
            "last_updated": 1789289371,
            "ttl": 60,
            "version": "2.3"
        },
        "station_status": {
            "last_updated": 1789289371,
            "ttl": 60,
            "version": "2.3"
        }
    },
    "type": "FeatureCollection"
}