{
    "features": [
        {
            "geometry": {
                "coordinates": [
                    6.63965,
                    45.88034
                ],
                "type": "Point"
            },
            "properties": {
                "capacity": 10,
                "is_charging_station": true,
                "is_installed": true,
                "is_renting": true,
                "is_returning": true,
                "is_valet_station": false,
                "is_virtual_station": false,
                "last_reported": 1789251204,
                "name": "La Princesse",
                "num_bikes_available": 9,
                "num_docks_available": 1,
                "rental_uris": {
                    "android": "%!(EXTRA string=st_d33uhfumbtds73f4ke4g)",
                    "ios": "%!(EXTRA string=st_d33uhfumbtds73f4ke4g)"
                },
                "station_id": "st_d33uhfumbtds73f4ke4g",
                "vehicle_type_capacity": {
                    "1": 1
                },
                "vehicle_types_available": [
                    {
                        "count": 9,
                        "vehicle_type_id": "1"
                    }
                ]
            },
            "type": "Feature"
        },
        {
            "geometry": {
                "coordinates": [
                    6.6536,
                    45.91125
                ],
                "type": "Point"
            },
            "properties": {
                "capacity": 10,
                "is_charging_station": true,
                "is_installed": true,
                "is_renting": true,
                "is_returning": true,
                "is_valet_station": false,
                "is_virtual_station": false,
                "last_reported": 1789251204,
                "name": "Mairie - Domancy",
                "num_bikes_available": 5,
                "num_docks_available": 5,
                "rental_uris": {
                    "android": "%!(EXTRA string=st_d33uhg6mbtds7380efj0)",
                    "ios": "%!(EXTRA string=st_d33uhg6mbtds7380efj0)"
                },
                "station_id": "st_d33uhg6mbtds7380efj0",
                "vehicle_type_capacity": {
                    "1": 5
                },
                "vehicle_types_available": [
                    {
                        "count": 5,
                        "vehicle_type_id": "1"
                    }
                ]
            },
            "type": "Feature"
        },
        {
            "geometry": {
                "coordinates": [
                    6.72339,
                    45.81197
                ],
                "type": "Point"
            },
            "properties": {
                "capacity": 10,
                "is_charging_station": true,
                "is_installed": true,
                "is_renting": true,
                "is_returning": true,
                "is_valet_station": false,
                "is_virtual_station": false,
                "last_reported": 1789251204,
                "name": "Le Lay ",
                "num_bikes_available": 1,
                "num_docks_available": 9,
                "rental_uris": {
                    "android": "%!(EXTRA string=st_d33uhg6mbtds7380eflg)",
                    "ios": "%!(EXTRA string=st_d33uhg6mbtds7380eflg)"
                },
                "station_id": "st_d33uhg6mbtds7380eflg",
                "vehicle_type_capacity": {
                    "1": 9
                },
                "vehicle_types_available": [
                    {
                        "count": 1,
                        "vehicle_type_id": "1"
                    }
                ]
            },
            "type": "Feature"
        },
        {
            "geometry": {
                "coordinates": [
                    6.61297,
                    45.85734
                ],
                "type": "Point"
            },
            "properties": {
                "capacity": 10,
                "is_charging_station": true,
                "is_installed": true,
                "is_renting": true,
                "is_returning": true,
                "is_valet_station": false,
                "is_virtual_station": false,
                "last_reported": 1789251204,
                "name": "Caserne des pompiers",
                "num_bikes_available": 4,
                "num_docks_available": 6,
                "rental_uris": {
                    "android": "%!(EXTRA string=st_d33uhg6mbtds7380efp0)",
                    "ios": "%!(EXTRA string=st_d33uhg6mbtds7380efp0)"
                },
                "station_id": "st_d33uhg6mbtds7380efp0",
                "vehicle_type_capacity": {
                    "1": 9
                },
                "vehicle_types_available": [
                    {
                        "count": 4,
                        "vehicle_type_id": "1"
                    }
                ]
            },
            "type": "Feature"
        },
        {
            "geometry": {
                "coordinates": [
                    6.72676,
                    45.82292
                ],
                "type": "Point"
            },
            "properties": {
                "capacity": 10,
                "is_charging_station": true,
                "is_installed": true,
                "is_renting": true,
                "is_returning": true,
                "is_valet_station": false,
                "is_virtual_station": false,
                "last_reported": 1789251204,
                "name": "Mairie - Les Contamines",
                "num_bikes_available": 8,
                "num_docks_available": 2,
                "rental_uris": {
                    "android": "%!(EXTRA string=st_d33uhg6mbtds73f4ke80)",
                    "ios": "%!(EXTRA string=st_d33uhg6mbtds73f4ke80)"
                },
                "station_id": "st_d33uhg6mbtds73f4ke80",
                "vehicle_type_capacity": {
                    "1": 2
                },
                "vehicle_types_available": [
                    {
                        "count": 8,
                        "vehicle_type_id": "1"
                    }
                ]
            },
            "type": "Feature"
        },
        {
            "geometry": {
                "coordinates": [
                    6.61824,
                    45.85987
                ],
                "type": "Point"
            },
            "properties": {
                "capacity": 10,
                "is_charging_station": true,
                "is_installed": true,
                "is_renting": true,
                "is_returning": true,
                "is_valet_station": false,
                "is_virtual_station": false,
                "last_reported": 1789251204,
                "name": "Le Palais",
                "num_bikes_available": 0,
                "num_docks_available": 10,
                "rental_uris": {
                    "android": "%!(EXTRA string=st_d33uhg6mbtds73f4kebg)",
                    "ios": "%!(EXTRA string=st_d33uhg6mbtds73f4kebg)"
                },
                "station_id": "st_d33uhg6mbtds73f4kebg",
                "vehicle_type_capacity": {
                    "1": 10
                },
                "vehicle_types_available": [
                    {
                        "count": 0,
                        "vehicle_type_id": "1"
                    }
                ]
            },
            "type": "Feature"
        },
        {
            "geometry": {
                "coordinates": [
                    6.71975,
                    45.92636
                ],
                "type": "Point"
            },
            "properties": {
                "capacity": 10,
                "is_charging_station": true,
                "is_installed": true,
                "is_renting": true,
                "is_returning": true,
                "is_valet_station": false,
                "is_virtual_station": false,
                "last_reported": 1789251204,
                "name": "Gare de Chedde",
                "num_bikes_available": 6,
                "num_docks_available": 4,
                "rental_uris": {
                    "android": "%!(EXTRA string=st_d33uhgembtds7380efvg)",
                    "ios": "%!(EXTRA string=st_d33uhgembtds7380efvg)"
                },
                "station_id": "st_d33uhgembtds7380efvg",
                "vehicle_type_capacity": {
                    "1": 4
                },
                "vehicle_types_available": [
                    {
                        "count": 6,
                        "vehicle_type_id": "1"
                    }
                ]
            },
            "type": "Feature"
        },
        {
            "geometry": {
                "coordinates": [
                    6.70442,
                    45.91939
                ],
                "type": "Point"
            },
            "properties": {
                "capacity": 10,
                "is_charging_station": true,
                "is_installed": true,
                "is_renting": true,
                "is_returning": true,
                "is_valet_station": false,
                "is_virtual_station": false,
                "last_reported": 1789251204,
                "name": "Marlioz",
                "num_bikes_available": 8,
                "num_docks_available": 2,
                "rental_uris": {
                    "android": "%!(EXTRA string=st_d33uhgembtds7380eg20)",
                    "ios": "%!(EXTRA string=st_d33uhgembtds7380eg20)"
                },
                "station_id": "st_d33uhgembtds7380eg20",
                "vehicle_type_capacity": {
                    "1": 2
                },
                "vehicle_types_available": [
                    {
                        "count": 8,
                        "vehicle_type_id": "1"
                    }
                ]
            },
            "type": "Feature"
        },
        {
            "geometry": {
                "coordinates": [
                    6.69577,
                    45.91464
                ],
                "type": "Point"
            },
            "properties": {
                "capacity": 10,
                "is_charging_station": true,
                "is_installed": true,
                "is_renting": true,
                "is_returning": true,
                "is_valet_station": false,
                "is_virtual_station": false,
                "last_reported": 1789251204,
                "name": "Zone de l'Arve",
                "num_bikes_available": 4,
                "num_docks_available": 6,
                "rental_uris": {
                    "android": "%!(EXTRA string=st_d33uhgembtds7380eg4g)",
                    "ios": "%!(EXTRA string=st_d33uhgembtds7380eg4g)"
                },
                "station_id": "st_d33uhgembtds7380eg4g",
                "vehicle_type_capacity": {
                    "1": 6
                },
                "vehicle_types_available": [
                    {
                        "count": 4,
                        "vehicle_type_id": "1"
                    }
                ]
            },
            "type": "Feature"
        },
        {
            "geometry": {
                "coordinates": [
                    6.70041,
                    45.90606
                ],
                "type": "Point"
            },
            "properties": {
                "capacity": 10,
                "is_charging_station": true,
                "is_installed": true,
                "is_renting": true,
                "is_returning": true,
                "is_valet_station": false,
                "is_virtual_station": false,
                "last_reported": 1789251204,
                "name": "Gare du Fayet",
                "num_bikes_available": 8,
                "num_docks_available": 2,
                "rental_uris": {
                    "android": "%!(EXTRA string=st_d33uhgembtds7380eg90)",
                    "ios": "%!(EXTRA string=st_d33uhgembtds7380eg90)"
                },
                "station_id": "st_d33uhgembtds7380eg90",
                "vehicle_type_capacity": {
                    "1": 2
                },
                "vehicle_types_available": [
                    {
                        "count": 8,
                        "vehicle_type_id": "1"
                    }
                ]
            },
            "type": "Feature"
        },
        {
            "geometry": {
                "coordinates": [
                    6.63185,
                    45.8535
                ],
                "type": "Point"
            },
            "properties": {
                "capacity": 10,
                "is_charging_station": true,
                "is_installed": true,
                "is_renting": true,
                "is_returning": true,
                "is_valet_station": false,
                "is_virtual_station": false,
                "last_reported": 1789251204,
                "name": "Mont d'Arbois",
                "num_bikes_available": 3,
                "num_docks_available": 7,
                "rental_uris": {
                    "android": "%!(EXTRA string=st_d33uhgembtds73f4keg0)",
                    "ios": "%!(EXTRA string=st_d33uhgembtds73f4keg0)"
                },
                "station_id": "st_d33uhgembtds73f4keg0",
                "vehicle_type_capacity": {
                    "1": 7
                },
                "vehicle_types_available": [
                    {
                        "count": 3,
                        "vehicle_type_id": "1"
                    }
                ]
            },
            "type": "Feature"
        },
        {
            "geometry": {
                "coordinates": [
                    6.71292,
                    45.91581
                ],
                "type": "Point"
            },
            "properties": {
                "capacity": 10,
                "is_charging_station": true,
                "is_installed": true,
                "is_renting": true,
                "is_returning": true,
                "is_valet_station": false,
                "is_virtual_station": false,
                "last_reported": 1789251204,
                "name": "PAE du Mont-Blanc ",
                "num_bikes_available": 5,
                "num_docks_available": 5,
                "rental_uris": {
                    "android": "%!(EXTRA string=st_d33uhgembtds73f4kehg)",
                    "ios": "%!(EXTRA string=st_d33uhgembtds73f4kehg)"
                },
                "station_id": "st_d33uhgembtds73f4kehg",
                "vehicle_type_capacity": {
                    "1": 5
                },
                "vehicle_types_available": [
                    {
                        "count": 5,
                        "vehicle_type_id": "1"
                    }
                ]
            },
            "type": "Feature"
        },
        {
            "geometry": {
                "coordinates": [
                    6.57181,
                    45.83794
                ],
                "type": "Point"
            },
            "properties": {
                "capacity": 10,
                "is_charging_station": true,
                "is_installed": true,
                "is_renting": true,
                "is_returning": true,
                "is_valet_station": false,
                "is_virtual_station": false,
                "last_reported": 1789251204,
                "name": "Mairie - Praz-sur-Arly",
                "num_bikes_available": 1,
                "num_docks_available": 9,
                "rental_uris": {
                    "android": "%!(EXTRA string=st_d33uhgembtds73f4kem0)",
                    "ios": "%!(EXTRA string=st_d33uhgembtds73f4kem0)"
                },
                "station_id": "st_d33uhgembtds73f4kem0",
                "vehicle_type_capacity": {
                    "1": 9
                },
                "vehicle_types_available": [
                    {
                        "count": 1,
                        "vehicle_type_id": "1"
                    }
                ]
            },
            "type": "Feature"
        },
        {
            "geometry": {
                "coordinates": [
                    6.57808,
                    45.83846
                ],
                "type": "Point"
            },
            "properties": {
                "capacity": 10,
                "is_charging_station": true,
                "is_installed": true,
                "is_renting": true,
                "is_returning": true,
                "is_valet_station": false,
                "is_virtual_station": false,
                "last_reported": 1789251204,
                "name": "Base de loisirs des Belles ",
                "num_bikes_available": 9,
                "num_docks_available": 2,
                "rental_uris": {
                    "android": "%!(EXTRA string=st_d33uhgembtds73f4kepg)",
                    "ios": "%!(EXTRA string=st_d33uhgembtds73f4kepg)"
                },
                "station_id": "st_d33uhgembtds73f4kepg",
                "vehicle_type_capacity": {
                    "1": 2
                },
                "vehicle_types_available": [
                    {
                        "count": 9,
                        "vehicle_type_id": "1"
                    }
                ]
            },
            "type": "Feature"
        },
        {
            "geometry": {
                "coordinates": [
                    6.71517,
                    45.88425
                ],
                "type": "Point"
            },
            "properties": {
                "capacity": 10,
                "is_charging_station": true,
                "is_installed": true,
                "is_renting": true,
                "is_returning": true,
                "is_valet_station": false,
                "is_virtual_station": false,
                "last_reported": 1789251204,
                "name": "Piscine",
                "num_bikes_available": 10,
                "num_docks_available": 0,
                "rental_uris": {
                    "android": "%!(EXTRA string=st_d33uhgmmbtds7380egdg)",
                    "ios": "%!(EXTRA string=st_d33uhgmmbtds7380egdg)"
                },
                "station_id": "st_d33uhgmmbtds7380egdg",
                "vehicle_type_capacity": {
                    "1": 0
                },
                "vehicle_types_available": [
                    {
                        "count": 10,
                        "vehicle_type_id": "1"
                    }
                ]
            },
            "type": "Feature"
        },
        {
            "geometry": {
                "coordinates": [
                    6.62793,
                    45.94263
                ],
                "type": "Point"
            },
            "properties": {
                "capacity": 10,
                "is_charging_station": true,
                "is_installed": true,
                "is_renting": true,
                "is_returning": true,
                "is_valet_station": false,
                "is_virtual_station": false,
                "last_reported": 1789251204,
                "name": "Gymnase du Rosay - Cl\u00e9 des Arts",
                "num_bikes_available": 5,
                "num_docks_available": 5,
                "rental_uris": {
                    "android": "%!(EXTRA string=st_d33uhgmmbtds7380egi0)",
                    "ios": "%!(EXTRA string=st_d33uhgmmbtds7380egi0)"
                },
                "station_id": "st_d33uhgmmbtds7380egi0",
                "vehicle_type_capacity": {
                    "1": 5
                },
                "vehicle_types_available": [
                    {
                        "count": 5,
                        "vehicle_type_id": "1"
                    }
                ]
            },
            "type": "Feature"
        },
        {
            "geometry": {
                "coordinates": [
                    6.64094,
                    45.93267
                ],
                "type": "Point"
            },
            "properties": {
                "capacity": 10,
                "is_charging_station": true,
                "is_installed": true,
                "is_renting": true,
                "is_returning": true,
                "is_valet_station": false,
                "is_virtual_station": false,
                "last_reported": 1789251204,
                "name": "Cayenne - Curral",
                "num_bikes_available": 10,
                "num_docks_available": 0,
                "rental_uris": {
                    "android": "%!(EXTRA string=st_d33uhgmmbtds7380egkg)",
                    "ios": "%!(EXTRA string=st_d33uhgmmbtds7380egkg)"
                },
                "station_id": "st_d33uhgmmbtds7380egkg",
                "vehicle_type_capacity": {
                    "1": 8
                },
                "vehicle_types_available": [
                    {
                        "count": 10,
                        "vehicle_type_id": "1"
                    }
                ]
            },
            "type": "Feature"
        },
        {
            "geometry": {
                "coordinates": [
                    6.64341,
                    45.93911
                ],
                "type": "Point"
            },
            "properties": {
                "capacity": 10,
                "is_charging_station": true,
                "is_installed": true,
                "is_renting": true,
                "is_returning": true,
                "is_valet_station": false,
                "is_virtual_station": false,
                "last_reported": 1789251204,
                "name": "Esplanade Saint-Martin ",
                "num_bikes_available": 6,
                "num_docks_available": 4,
                "rental_uris": {
                    "android": "%!(EXTRA string=st_d33uhgmmbtds7380egm0)",
                    "ios": "%!(EXTRA string=st_d33uhgmmbtds7380egm0)"
                },
                "station_id": "st_d33uhgmmbtds7380egm0",
                "vehicle_type_capacity": {
                    "1": 4
                },
                "vehicle_types_available": [
                    {
                        "count": 6,
                        "vehicle_type_id": "1"
                    }
                ]
            },
            "type": "Feature"
        },
        {
            "geometry": {
                "coordinates": [
                    6.70764,
                    45.89055
                ],
                "type": "Point"
            },
            "properties": {
                "capacity": 10,
                "is_charging_station": true,
                "is_installed": true,
                "is_renting": true,
                "is_returning": true,
                "is_valet_station": false,
                "is_virtual_station": false,
                "last_reported": 1789251204,
                "name": "Le Ch\u00e2telet ",
                "num_bikes_available": 1,
                "num_docks_available": 9,
                "rental_uris": {
                    "android": "%!(EXTRA string=st_d33uhgmmbtds73f4ket0)",
                    "ios": "%!(EXTRA string=st_d33uhgmmbtds73f4ket0)"
                },
                "station_id": "st_d33uhgmmbtds73f4ket0",
                "vehicle_type_capacity": {
                    "1": 9
                },
                "vehicle_types_available": [
                    {
                        "count": 1,
                        "vehicle_type_id": "1"
                    }
                ]
            },
            "type": "Feature"
        },
        {
            "geometry": {
                "coordinates": [
                    6.71175,
                    45.89278
                ],
                "type": "Point"
            },
            "properties": {
                "capacity": 10,
                "is_charging_station": true,
                "is_installed": true,
                "is_renting": true,
                "is_returning": true,
                "is_valet_station": false,
                "is_virtual_station": false,
                "last_reported": 1789251204,
                "name": "Maison de Saint-Gervais",
                "num_bikes_available": 4,
                "num_docks_available": 6,
                "rental_uris": {
                    "android": "%!(EXTRA string=st_d33uhgmmbtds73f4kevg)",
                    "ios": "%!(EXTRA string=st_d33uhgmmbtds73f4kevg)"
                },
                "station_id": "st_d33uhgmmbtds73f4kevg",
                "vehicle_type_capacity": {
                    "1": 6
                },
                "vehicle_types_available": [
                    {
                        "count": 4,
                        "vehicle_type_id": "1"
                    }
                ]
            },
            "type": "Feature"
        },
        {
            "geometry": {
                "coordinates": [
                    6.70647,
                    45.89818
                ],
                "type": "Point"
            },
            "properties": {
                "capacity": 10,
                "is_charging_station": true,
                "is_installed": true,
                "is_renting": true,
                "is_returning": true,
                "is_valet_station": false,
                "is_virtual_station": false,
                "last_reported": 1789251204,
                "name": "Ascenseur des thermes ",
                "num_bikes_available": 4,
                "num_docks_available": 6,
                "rental_uris": {
                    "android": "%!(EXTRA string=st_d33uhgmmbtds73f4kf30)",
                    "ios": "%!(EXTRA string=st_d33uhgmmbtds73f4kf30)"
                },
                "station_id": "st_d33uhgmmbtds73f4kf30",
                "vehicle_type_capacity": {
                    "1": 6
                },
                "vehicle_types_available": [
                    {
                        "count": 4,
                        "vehicle_type_id": "1"
                    }
                ]
            },
            "type": "Feature"
        },
        {
            "geometry": {
                "coordinates": [
                    6.631611,
                    45.935639
                ],
                "type": "Point"
            },
            "properties": {
                "capacity": 10,
                "is_charging_station": true,
                "is_installed": true,
                "is_renting": true,
                "is_returning": true,
                "is_valet_station": false,
                "is_virtual_station": false,
                "last_reported": 1789251204,
                "name": "Place Charles Albert",
                "num_bikes_available": 4,
                "num_docks_available": 6,
                "rental_uris": {
                    "android": "%!(EXTRA string=st_d33uhgmmbtds73f4kf5g)",
                    "ios": "%!(EXTRA string=st_d33uhgmmbtds73f4kf5g)"
                },
                "station_id": "st_d33uhgmmbtds73f4kf5g",
                "vehicle_type_capacity": {
                    "1": 6
                },
                "vehicle_types_available": [
                    {
                        "count": 4,
                        "vehicle_type_id": "1"
                    }
                ]
            },
            "type": "Feature"
        },
        {
            "geometry": {
                "coordinates": [
                    6.64443,
                    45.89572
                ],
                "type": "Point"
            },
            "properties": {
                "capacity": 10,
                "is_charging_station": true,
                "is_installed": true,
                "is_renting": true,
                "is_returning": true,
                "is_valet_station": false,
                "is_virtual_station": false,
                "last_reported": 1789251204,
                "name": "Parking des cristaux",
                "num_bikes_available": 3,
                "num_docks_available": 7,
                "rental_uris": {
                    "android": "%!(EXTRA string=st_d33uhgumbtds73f4kfeg)",
                    "ios": "%!(EXTRA string=st_d33uhgumbtds73f4kfeg)"
                },
                "station_id": "st_d33uhgumbtds73f4kfeg",
                "vehicle_type_capacity": {
                    "1": 7
                },
                "vehicle_types_available": [
                    {
                        "count": 3,
                        "vehicle_type_id": "1"
                    }
                ]
            },
            "type": "Feature"
        }
    ],
    "gbfs": {
        "station_information": {
            "last_updated": 1789251204,
            "ttl": 60,
            "version": "2.2"
        },
        "station_status": {
            "last_updated": 1789251204,
            "ttl": 60,
            "version": "2.2"
        }
    },
    "type": "FeatureCollection"
}