{
    "features": [
        {
            "geometry": {
                "coordinates": [
                    7.052273,
                    51.036263
                ],
                "type": "Point"
            },
            "properties": {
                "is_installed": true,
                "is_renting": true,
                "is_returning": true,
                "is_virtual_station": false,
                "last_reported": 1789321755,
                "name": "Schlebusch Post - Bergisches E-Bike",
                "num_bikes_available": 0,
                "num_docks_available": 0,
                "region_id": "676",
                "rental_uris": {
                    "android": "https://app.nextbike.net/station?id=114157087",
                    "ios": "https://app.nextbike.net/station?id=114157087",
                    "web": "https://nxtb.it/p/114157087"
                },
                "short_name": "51554",
                "station_id": "114157087",
                "vehicle_types_available": []
            },
            "type": "Feature"
        },
        {
            "geometry": {
                "coordinates": [
                    7.044286,
                    51.019269
                ],
                "type": "Point"
            },
            "properties": {
                "is_installed": true,
                "is_renting": true,
                "is_returning": true,
                "is_virtual_station": false,
                "last_reported": 1789321755,
                "name": "Schlebusch Stadtbahn - Bergisches E-Bike",
                "num_bikes_available": 0,
                "num_docks_available": 0,
                "region_id": "676",
                "rental_uris": {
                    "android": "https://app.nextbike.net/station?id=114157532",
                    "ios": "https://app.nextbike.net/station?id=114157532",
                    "web": "https://nxtb.it/p/114157532"
                },
                "short_name": "51555",
                "station_id": "114157532",
                "vehicle_types_available": []
            },
            "type": "Feature"
        },
        {
            "geometry": {
                "coordinates": [
                    7.006359,
                    51.066681
                ],
                "type": "Point"
            },
            "properties": {
                "is_installed": true,
                "is_renting": true,
                "is_returning": true,
                "is_virtual_station": false,
                "last_reported": 1789321755,
                "name": "Opladen Busbahnhof - Bergisches E-Bike",
                "num_bikes_available": 0,
                "num_docks_available": 0,
                "region_id": "676",
                "rental_uris": {
                    "android": "https://app.nextbike.net/station?id=114158034",
                    "ios": "https://app.nextbike.net/station?id=114158034",
                    "web": "https://nxtb.it/p/114158034"
                },
                "short_name": "51556",
                "station_id": "114158034",
                "vehicle_types_available": []
            },
            "type": "Feature"
        },
        {
            "geometry": {
                "coordinates": [
                    7.185895,
                    51.147675
                ],
                "type": "Point"
            },
            "properties": {
                "is_installed": true,
                "is_renting": true,
                "is_returning": true,
                "is_virtual_station": false,
                "last_reported": 1789321755,
                "name": "Pohlhausen Wendeschleife",
                "num_bikes_available": 0,
                "num_docks_available": 0,
                "region_id": "676",
                "rental_uris": {
                    "android": "https://app.nextbike.net/station?id=149650839",
                    "ios": "https://app.nextbike.net/station?id=149650839",
                    "web": "https://nxtb.it/p/149650839"
                },
                "short_name": "51557",
                "station_id": "149650839",
                "vehicle_types_available": []
            },
            "type": "Feature"
        },
        {
            "geometry": {
                "coordinates": [
                    7.214885,
                    50.842668
                ],
                "type": "Point"
            },
            "properties": {
                "capacity": 8,
                "is_installed": true,
                "is_renting": true,
                "is_returning": true,
                "is_virtual_station": false,
                "last_reported": 1789321755,
                "name": "Lohmar - Stadthaus  - Bergisches E-Bike",
                "num_bikes_available": 0,
                "num_docks_available": 8,
                "region_id": "676",
                "rental_uris": {
                    "android": "https://app.nextbike.net/station?id=149965176",
                    "ios": "https://app.nextbike.net/station?id=149965176",
                    "web": "https://nxtb.it/p/149965176"
                },
                "short_name": "51558",
                "station_id": "149965176",
                "vehicle_types_available": []
            },
            "type": "Feature"
        },
        {
            "geometry": {
                "coordinates": [
                    7.252216,
                    50.910478
                ],
                "type": "Point"
            },
            "properties": {
                "is_installed": true,
                "is_renting": true,
                "is_returning": true,
                "is_virtual_station": false,
                "last_reported": 1789321755,
                "name": "Lohmar - Honrath Bahnhof - Bergisches E-Bike",
                "num_bikes_available": 1,
                "num_docks_available": 0,
                "region_id": "676",
                "rental_uris": {
                    "android": "https://app.nextbike.net/station?id=149965663",
                    "ios": "https://app.nextbike.net/station?id=149965663",
                    "web": "https://nxtb.it/p/149965663"
                },
                "short_name": "51559",
                "station_id": "149965663",
                "vehicle_types_available": [
                    {
                        "count": 1,
                        "vehicle_type_id": "348"
                    }
                ]
            },
            "type": "Feature"
        },
        {
            "geometry": {
                "coordinates": [
                    7.097028,
                    50.919989
                ],
                "type": "Point"
            },
            "properties": {
                "is_installed": true,
                "is_renting": true,
                "is_returning": true,
                "is_virtual_station": false,
                "last_reported": 1789321755,
                "name": "(H) K\u00f6nigsforst - Bergisches E-Bike",
                "num_bikes_available": 2,
                "num_docks_available": 0,
                "region_id": "676",
                "rental_uris": {
                    "android": "https://app.nextbike.net/station?id=149974334",
                    "ios": "https://app.nextbike.net/station?id=149974334",
                    "web": "https://nxtb.it/p/149974334"
                },
                "short_name": "51561",
                "station_id": "149974334",
                "vehicle_types_available": [
                    {
                        "count": 1,
                        "vehicle_type_id": "196"
                    },
                    {
                        "count": 1,
                        "vehicle_type_id": "348"
                    }
                ]
            },
            "type": "Feature"
        },
        {
            "geometry": {
                "coordinates": [
                    7.042472,
                    51.001124
                ],
                "type": "Point"
            },
            "properties": {
                "is_installed": true,
                "is_renting": true,
                "is_returning": true,
                "is_virtual_station": false,
                "last_reported": 1789321755,
                "name": "(H) Odenthaler Str. - Bergisches E-Bike",
                "num_bikes_available": 0,
                "num_docks_available": 0,
                "region_id": "676",
                "rental_uris": {
                    "android": "https://app.nextbike.net/station?id=149975040",
                    "ios": "https://app.nextbike.net/station?id=149975040",
                    "web": "https://nxtb.it/p/149975040"
                },
                "short_name": "51562",
                "station_id": "149975040",
                "vehicle_types_available": []
            },
            "type": "Feature"
        },
        {
            "geometry": {
                "coordinates": [
                    7.125144,
                    51.002421
                ],
                "type": "Point"
            },
            "properties": {
                "is_installed": true,
                "is_renting": true,
                "is_returning": true,
                "is_virtual_station": false,
                "last_reported": 1789321755,
                "name": "Hebborn \u2013 Engelsgut",
                "num_bikes_available": 3,
                "num_docks_available": 0,
                "region_id": "676",
                "rental_uris": {
                    "android": "https://app.nextbike.net/station?id=227517874",
                    "ios": "https://app.nextbike.net/station?id=227517874",
                    "web": "https://nxtb.it/p/227517874"
                },
                "short_name": "51563",
                "station_id": "227517874",
                "vehicle_types_available": [
                    {
                        "count": 3,
                        "vehicle_type_id": "348"
                    }
                ]
            },
            "type": "Feature"
        },
        {
            "geometry": {
                "coordinates": [
                    7.100396,
                    51.000606
                ],
                "type": "Point"
            },
            "properties": {
                "is_installed": true,
                "is_renting": true,
                "is_returning": true,
                "is_virtual_station": false,
                "last_reported": 1789321755,
                "name": "Paffrath \u2013 H\u00f6ffenstra\u00dfe",
                "num_bikes_available": 4,
                "num_docks_available": 0,
                "region_id": "676",
                "rental_uris": {
                    "android": "https://app.nextbike.net/station?id=227529638",
                    "ios": "https://app.nextbike.net/station?id=227529638",
                    "web": "https://nxtb.it/p/227529638"
                },
                "short_name": "51564",
                "station_id": "227529638",
                "vehicle_types_available": [
                    {
                        "count": 1,
                        "vehicle_type_id": "196"
                    },
                    {
                        "count": 3,
                        "vehicle_type_id": "348"
                    }
                ]
            },
            "type": "Feature"
        },
        {
            "geometry": {
                "coordinates": [
                    7.096039,
                    50.99224
                ],
                "type": "Point"
            },
            "properties": {
                "is_installed": true,
                "is_renting": true,
                "is_returning": true,
                "is_virtual_station": false,
                "last_reported": 1789321755,
                "name": "Hand \u2013 August-Kierspel-Stra\u00dfe",
                "num_bikes_available": 1,
                "num_docks_available": 0,
                "region_id": "676",
                "rental_uris": {
                    "android": "https://app.nextbike.net/station?id=227530014",
                    "ios": "https://app.nextbike.net/station?id=227530014",
                    "web": "https://nxtb.it/p/227530014"
                },
                "short_name": "51565",
                "station_id": "227530014",
                "vehicle_types_available": [
                    {
                        "count": 2,
                        "vehicle_type_id": "348"
                    }
                ]
            },
            "type": "Feature"
        },
        {
            "geometry": {
                "coordinates": [
                    7.104658,
                    50.988793
                ],
                "type": "Point"
            },
            "properties": {
                "is_installed": true,
                "is_renting": true,
                "is_returning": true,
                "is_virtual_station": false,
                "last_reported": 1789321755,
                "name": "Hermann-L\u00f6ns-Viertel \u2013 Willy-Brandt-Stra\u00dfe",
                "num_bikes_available": 2,
                "num_docks_available": 0,
                "region_id": "676",
                "rental_uris": {
                    "android": "https://app.nextbike.net/station?id=227530225",
                    "ios": "https://app.nextbike.net/station?id=227530225",
                    "web": "https://nxtb.it/p/227530225"
                },
                "short_name": "51566",
                "station_id": "227530225",
                "vehicle_types_available": [
                    {
                        "count": 2,
                        "vehicle_type_id": "196"
                    }
                ]
            },
            "type": "Feature"
        },
        {
            "geometry": {
                "coordinates": [
                    7.126362,
                    50.984328
                ],
                "type": "Point"
            },
            "properties": {
                "is_installed": true,
                "is_renting": true,
                "is_returning": true,
                "is_virtual_station": false,
                "last_reported": 1789321755,
                "name": "Gronau \u2013 Heidkamper Stra\u00dfe",
                "num_bikes_available": 1,
                "num_docks_available": 0,
                "region_id": "676",
                "rental_uris": {
                    "android": "https://app.nextbike.net/station?id=227530569",
                    "ios": "https://app.nextbike.net/station?id=227530569",
                    "web": "https://nxtb.it/p/227530569"
                },
                "short_name": "51567",
                "station_id": "227530569",
                "vehicle_types_available": [
                    {
                        "count": 1,
                        "vehicle_type_id": "348"
                    }
                ]
            },
            "type": "Feature"
        },
        {
            "geometry": {
                "coordinates": [
                    7.126275,
                    50.957607
                ],
                "type": "Point"
            },
            "properties": {
                "is_installed": true,
                "is_renting": true,
                "is_returning": true,
                "is_virtual_station": false,
                "last_reported": 1789321755,
                "name": "Kippekausen \u2013 Burgplatz",
                "num_bikes_available": 0,
                "num_docks_available": 0,
                "region_id": "676",
                "rental_uris": {
                    "android": "https://app.nextbike.net/station?id=227530780",
                    "ios": "https://app.nextbike.net/station?id=227530780",
                    "web": "https://nxtb.it/p/227530780"
                },
                "short_name": "51568",
                "station_id": "227530780",
                "vehicle_types_available": []
            },
            "type": "Feature"
        },
        {
            "geometry": {
                "coordinates": [
                    7.079144,
                    50.948867
                ],
                "type": "Point"
            },
            "properties": {
                "is_installed": true,
                "is_renting": true,
                "is_returning": true,
                "is_virtual_station": false,
                "last_reported": 1789321755,
                "name": "(H) Br\u00fcck Mauspfad 1 - Bergisches E-Bike",
                "num_bikes_available": 2,
                "num_docks_available": 0,
                "region_id": "676",
                "rental_uris": {
                    "android": "https://app.nextbike.net/station?id=256607869",
                    "ios": "https://app.nextbike.net/station?id=256607869",
                    "web": "https://nxtb.it/p/256607869"
                },
                "short_name": "51571",
                "station_id": "256607869",
                "vehicle_types_available": [
                    {
                        "count": 1,
                        "vehicle_type_id": "196"
                    },
                    {
                        "count": 1,
                        "vehicle_type_id": "348"
                    }
                ]
            },
            "type": "Feature"
        },
        {
            "geometry": {
                "coordinates": [
                    7.086504,
                    50.978007
                ],
                "type": "Point"
            },
            "properties": {
                "is_installed": true,
                "is_renting": true,
                "is_returning": true,
                "is_virtual_station": false,
                "last_reported": 1789321755,
                "name": "(H) Thielenbruch - Bergisches E-Bike",
                "num_bikes_available": 0,
                "num_docks_available": 0,
                "region_id": "676",
                "rental_uris": {
                    "android": "https://app.nextbike.net/station?id=256609255",
                    "ios": "https://app.nextbike.net/station?id=256609255",
                    "web": "https://nxtb.it/p/256609255"
                },
                "short_name": "51572",
                "station_id": "256609255",
                "vehicle_types_available": []
            },
            "type": "Feature"
        },
        {
            "geometry": {
                "coordinates": [
                    7.12325,
                    50.990333
                ],
                "type": "Point"
            },
            "properties": {
                "capacity": 12,
                "is_installed": true,
                "is_renting": true,
                "is_returning": true,
                "is_virtual_station": false,
                "last_reported": 1789321755,
                "name": "Bergisch Gladbach - S/Busbahnhof (E-DLS)",
                "num_bikes_available": 0,
                "num_docks_available": 11,
                "region_id": "676",
                "rental_uris": {
                    "android": "https://app.nextbike.net/station?id=29654533",
                    "ios": "https://app.nextbike.net/station?id=29654533",
                    "web": "https://nxtb.it/p/29654533"
                },
                "short_name": "51522",
                "station_id": "29654533",
                "vehicle_types_available": []
            },
            "type": "Feature"
        },
        {
            "geometry": {
                "coordinates": [
                    7.161333,
                    50.963972
                ],
                "type": "Point"
            },
            "properties": {
                "capacity": 6,
                "is_installed": true,
                "is_renting": true,
                "is_returning": true,
                "is_virtual_station": false,
                "last_reported": 1789321755,
                "name": "Bensberg U/Busbahnhof (E-DLS)",
                "num_bikes_available": 0,
                "num_docks_available": 6,
                "region_id": "676",
                "rental_uris": {
                    "android": "https://app.nextbike.net/station?id=30239595",
                    "ios": "https://app.nextbike.net/station?id=30239595",
                    "web": "https://nxtb.it/p/30239595"
                },
                "short_name": "51524",
                "station_id": "30239595",
                "vehicle_types_available": []
            },
            "type": "Feature"
        },
        {
            "geometry": {
                "coordinates": [
                    7.155694,
                    51.102417
                ],
                "type": "Point"
            },
            "properties": {
                "capacity": 8,
                "is_installed": true,
                "is_renting": true,
                "is_returning": true,
                "is_virtual_station": false,
                "last_reported": 1789321755,
                "name": "Burscheid Raiffeisenplatz (E-DLS)",
                "num_bikes_available": 7,
                "num_docks_available": 1,
                "region_id": "676",
                "rental_uris": {
                    "android": "https://app.nextbike.net/station?id=30239622",
                    "ios": "https://app.nextbike.net/station?id=30239622",
                    "web": "https://nxtb.it/p/30239622"
                },
                "short_name": "51526",
                "station_id": "30239622",
                "vehicle_types_available": [
                    {
                        "count": 7,
                        "vehicle_type_id": "348"
                    }
                ]
            },
            "type": "Feature"
        },
        {
            "geometry": {
                "coordinates": [
                    7.266639,
                    51.052444
                ],
                "type": "Point"
            },
            "properties": {
                "capacity": 8,
                "is_installed": true,
                "is_renting": true,
                "is_returning": true,
                "is_virtual_station": false,
                "last_reported": 1789321755,
                "name": "K\u00fcrten Rathaus (E-DLS)",
                "num_bikes_available": 1,
                "num_docks_available": 7,
                "region_id": "676",
                "rental_uris": {
                    "android": "https://app.nextbike.net/station?id=30239678",
                    "ios": "https://app.nextbike.net/station?id=30239678",
                    "web": "https://nxtb.it/p/30239678"
                },
                "short_name": "51529",
                "station_id": "30239678",
                "vehicle_types_available": [
                    {
                        "count": 1,
                        "vehicle_type_id": "348"
                    }
                ]
            },
            "type": "Feature"
        },
        {
            "geometry": {
                "coordinates": [
                    7.005667,
                    51.107139
                ],
                "type": "Point"
            },
            "properties": {
                "capacity": 8,
                "is_installed": true,
                "is_renting": true,
                "is_returning": true,
                "is_virtual_station": false,
                "last_reported": 1789321755,
                "name": "Leichlingen Bahnhof (E-DLS)",
                "num_bikes_available": 0,
                "num_docks_available": 8,
                "region_id": "676",
                "rental_uris": {
                    "android": "https://app.nextbike.net/station?id=30240121",
                    "ios": "https://app.nextbike.net/station?id=30240121",
                    "web": "https://nxtb.it/p/30240121"
                },
                "short_name": "51525",
                "station_id": "30240121",
                "vehicle_types_available": []
            },
            "type": "Feature"
        },
        {
            "geometry": {
                "coordinates": [
                    7.288045,
                    50.932625
                ],
                "type": "Point"
            },
            "properties": {
                "capacity": 12,
                "is_installed": true,
                "is_renting": true,
                "is_returning": true,
                "is_virtual_station": false,
                "last_reported": 1789321755,
                "name": "Overath Bahnhof (E-DLS)",
                "num_bikes_available": 2,
                "num_docks_available": 10,
                "region_id": "676",
                "rental_uris": {
                    "android": "https://app.nextbike.net/station?id=30240231",
                    "ios": "https://app.nextbike.net/station?id=30240231",
                    "web": "https://nxtb.it/p/30240231"
                },
                "short_name": "51531",
                "station_id": "30240231",
                "vehicle_types_available": [
                    {
                        "count": 2,
                        "vehicle_type_id": "348"
                    }
                ]
            },
            "type": "Feature"
        },
        {
            "geometry": {
                "coordinates": [
                    7.182677,
                    50.900797
                ],
                "type": "Point"
            },
            "properties": {
                "capacity": 12,
                "is_installed": true,
                "is_renting": true,
                "is_returning": true,
                "is_virtual_station": false,
                "last_reported": 1789321755,
                "name": "R\u00f6srath Bahnhof (E-DLS)",
                "num_bikes_available": 5,
                "num_docks_available": 11,
                "region_id": "676",
                "rental_uris": {
                    "android": "https://app.nextbike.net/station?id=30240394",
                    "ios": "https://app.nextbike.net/station?id=30240394",
                    "web": "https://nxtb.it/p/30240394"
                },
                "short_name": "51527",
                "station_id": "30240394",
                "vehicle_types_available": [
                    {
                        "count": 1,
                        "vehicle_type_id": "196"
                    },
                    {
                        "count": 4,
                        "vehicle_type_id": "348"
                    }
                ]
            },
            "type": "Feature"
        },
        {
            "geometry": {
                "coordinates": [
                    7.219444,
                    51.144028
                ],
                "type": "Point"
            },
            "properties": {
                "capacity": 8,
                "is_installed": true,
                "is_renting": true,
                "is_returning": true,
                "is_virtual_station": false,
                "last_reported": 1789321755,
                "name": "Wermelskirchen Busbahnhof (E-DLS)",
                "num_bikes_available": 6,
                "num_docks_available": 7,
                "region_id": "676",
                "rental_uris": {
                    "android": "https://app.nextbike.net/station?id=30240427",
                    "ios": "https://app.nextbike.net/station?id=30240427",
                    "web": "https://nxtb.it/p/30240427"
                },
                "short_name": "51528",
                "station_id": "30240427",
                "vehicle_types_available": [
                    {
                        "count": 6,
                        "vehicle_type_id": "348"
                    }
                ]
            },
            "type": "Feature"
        },
        {
            "geometry": {
                "coordinates": [
                    7.129503,
                    51.052734
                ],
                "type": "Point"
            },
            "properties": {
                "capacity": 8,
                "is_installed": true,
                "is_renting": true,
                "is_returning": true,
                "is_virtual_station": false,
                "last_reported": 1789321755,
                "name": "Odenthal Altenberg (E-DLS)",
                "num_bikes_available": 2,
                "num_docks_available": 7,
                "region_id": "676",
                "rental_uris": {
                    "android": "https://app.nextbike.net/station?id=30282698",
                    "ios": "https://app.nextbike.net/station?id=30282698",
                    "web": "https://nxtb.it/p/30282698"
                },
                "short_name": "51530",
                "station_id": "30282698",
                "vehicle_types_available": [
                    {
                        "count": 1,
                        "vehicle_type_id": "196"
                    },
                    {
                        "count": 1,
                        "vehicle_type_id": "348"
                    }
                ]
            },
            "type": "Feature"
        },
        {
            "geometry": {
                "coordinates": [
                    7.117236,
                    51.031841
                ],
                "type": "Point"
            },
            "properties": {
                "capacity": 8,
                "is_installed": true,
                "is_renting": true,
                "is_returning": true,
                "is_virtual_station": false,
                "last_reported": 1789321755,
                "name": "Odenthal Herzogenfeld (E-DLS)",
                "num_bikes_available": 3,
                "num_docks_available": 8,
                "region_id": "676",
                "rental_uris": {
                    "android": "https://app.nextbike.net/station?id=30282744",
                    "ios": "https://app.nextbike.net/station?id=30282744",
                    "web": "https://nxtb.it/p/30282744"
                },
                "short_name": "51532",
                "station_id": "30282744",
                "vehicle_types_available": [
                    {
                        "count": 2,
                        "vehicle_type_id": "196"
                    },
                    {
                        "count": 1,
                        "vehicle_type_id": "348"
                    }
                ]
            },
            "type": "Feature"
        },
        {
            "geometry": {
                "coordinates": [
                    7.181611,
                    51.007556
                ],
                "type": "Point"
            },
            "properties": {
                "is_installed": true,
                "is_renting": true,
                "is_returning": true,
                "is_virtual_station": false,
                "last_reported": 1789321755,
                "name": "Bergisch Gladbach Herrenstrunden",
                "num_bikes_available": 1,
                "num_docks_available": 0,
                "region_id": "676",
                "rental_uris": {
                    "android": "https://app.nextbike.net/station?id=32134117",
                    "ios": "https://app.nextbike.net/station?id=32134117",
                    "web": "https://nxtb.it/p/32134117"
                },
                "short_name": "51547",
                "station_id": "32134117",
                "vehicle_types_available": [
                    {
                        "count": 1,
                        "vehicle_type_id": "196"
                    }
                ]
            },
            "type": "Feature"
        },
        {
            "geometry": {
                "coordinates": [
                    7.114554,
                    50.958251
                ],
                "type": "Point"
            },
            "properties": {
                "is_installed": true,
                "is_renting": true,
                "is_returning": true,
                "is_virtual_station": false,
                "last_reported": 1789321755,
                "name": "Bergisch Gladbach Refrath",
                "num_bikes_available": 3,
                "num_docks_available": 0,
                "region_id": "676",
                "rental_uris": {
                    "android": "https://app.nextbike.net/station?id=32134165",
                    "ios": "https://app.nextbike.net/station?id=32134165",
                    "web": "https://nxtb.it/p/32134165"
                },
                "short_name": "51545",
                "station_id": "32134165",
                "vehicle_types_available": [
                    {
                        "count": 2,
                        "vehicle_type_id": "196"
                    },
                    {
                        "count": 1,
                        "vehicle_type_id": "348"
                    }
                ]
            },
            "type": "Feature"
        },
        {
            "geometry": {
                "coordinates": [
                    7.0816,
                    51.014399
                ],
                "type": "Point"
            },
            "properties": {
                "is_installed": true,
                "is_renting": true,
                "is_returning": true,
                "is_virtual_station": false,
                "last_reported": 1789321755,
                "name": "Bergisch Gladbach Schildgen",
                "num_bikes_available": 8,
                "num_docks_available": 0,
                "region_id": "676",
                "rental_uris": {
                    "android": "https://app.nextbike.net/station?id=32134225",
                    "ios": "https://app.nextbike.net/station?id=32134225",
                    "web": "https://nxtb.it/p/32134225"
                },
                "short_name": "51539",
                "station_id": "32134225",
                "vehicle_types_available": [
                    {
                        "count": 8,
                        "vehicle_type_id": "348"
                    }
                ]
            },
            "type": "Feature"
        },
        {
            "geometry": {
                "coordinates": [
                    7.184889,
                    50.959278
                ],
                "type": "Point"
            },
            "properties": {
                "is_installed": true,
                "is_renting": true,
                "is_returning": true,
                "is_virtual_station": false,
                "last_reported": 1789321755,
                "name": "Bergisch Gladbach Technologie-Park",
                "num_bikes_available": 0,
                "num_docks_available": 0,
                "region_id": "676",
                "rental_uris": {
                    "android": "https://app.nextbike.net/station?id=32134268",
                    "ios": "https://app.nextbike.net/station?id=32134268",
                    "web": "https://nxtb.it/p/32134268"
                },
                "short_name": "51549",
                "station_id": "32134268",
                "vehicle_types_available": []
            },
            "type": "Feature"
        },
        {
            "geometry": {
                "coordinates": [
                    7.209833,
                    51.040278
                ],
                "type": "Point"
            },
            "properties": {
                "is_installed": true,
                "is_renting": true,
                "is_returning": true,
                "is_virtual_station": false,
                "last_reported": 1789321755,
                "name": "K\u00fcrten Bechen",
                "num_bikes_available": 3,
                "num_docks_available": 0,
                "region_id": "676",
                "rental_uris": {
                    "android": "https://app.nextbike.net/station?id=32134665",
                    "ios": "https://app.nextbike.net/station?id=32134665",
                    "web": "https://nxtb.it/p/32134665"
                },
                "short_name": "51538",
                "station_id": "32134665",
                "vehicle_types_available": [
                    {
                        "count": 3,
                        "vehicle_type_id": "348"
                    }
                ]
            },
            "type": "Feature"
        },
        {
            "geometry": {
                "coordinates": [
                    7.015894,
                    51.105271
                ],
                "type": "Point"
            },
            "properties": {
                "is_installed": true,
                "is_renting": true,
                "is_returning": true,
                "is_virtual_station": false,
                "last_reported": 1789321755,
                "name": "Leichlingen Busbahnhof",
                "num_bikes_available": 3,
                "num_docks_available": 0,
                "region_id": "676",
                "rental_uris": {
                    "android": "https://app.nextbike.net/station?id=32134828",
                    "ios": "https://app.nextbike.net/station?id=32134828",
                    "web": "https://nxtb.it/p/32134828"
                },
                "short_name": "51540",
                "station_id": "32134828",
                "vehicle_types_available": [
                    {
                        "count": 3,
                        "vehicle_type_id": "196"
                    }
                ]
            },
            "type": "Feature"
        },
        {
            "geometry": {
                "coordinates": [
                    7.110639,
                    51.117556
                ],
                "type": "Point"
            },
            "properties": {
                "capacity": 8,
                "is_installed": true,
                "is_renting": true,
                "is_returning": true,
                "is_virtual_station": false,
                "last_reported": 1789321755,
                "name": "Leichlingen - Witzhelden (E-DLS)",
                "num_bikes_available": 4,
                "num_docks_available": 7,
                "region_id": "676",
                "rental_uris": {
                    "android": "https://app.nextbike.net/station?id=32134890",
                    "ios": "https://app.nextbike.net/station?id=32134890",
                    "web": "https://nxtb.it/p/32134890"
                },
                "short_name": "51521",
                "station_id": "32134890",
                "vehicle_types_available": [
                    {
                        "count": 1,
                        "vehicle_type_id": "196"
                    },
                    {
                        "count": 3,
                        "vehicle_type_id": "348"
                    }
                ]
            },
            "type": "Feature"
        },
        {
            "geometry": {
                "coordinates": [
                    7.122056,
                    51.058917
                ],
                "type": "Point"
            },
            "properties": {
                "is_installed": true,
                "is_renting": true,
                "is_returning": true,
                "is_virtual_station": false,
                "last_reported": 1789321755,
                "name": "Odenthal Blecher",
                "num_bikes_available": 3,
                "num_docks_available": 0,
                "region_id": "676",
                "rental_uris": {
                    "android": "https://app.nextbike.net/station?id=32135341",
                    "ios": "https://app.nextbike.net/station?id=32135341",
                    "web": "https://nxtb.it/p/32135341"
                },
                "short_name": "51551",
                "station_id": "32135341",
                "vehicle_types_available": [
                    {
                        "count": 3,
                        "vehicle_type_id": "348"
                    }
                ]
            },
            "type": "Feature"
        },
        {
            "geometry": {
                "coordinates": [
                    7.174833,
                    51.050778
                ],
                "type": "Point"
            },
            "properties": {
                "is_installed": true,
                "is_renting": true,
                "is_returning": true,
                "is_virtual_station": false,
                "last_reported": 1789321755,
                "name": "Odenthal Neschen",
                "num_bikes_available": 5,
                "num_docks_available": 0,
                "region_id": "676",
                "rental_uris": {
                    "android": "https://app.nextbike.net/station?id=32135453",
                    "ios": "https://app.nextbike.net/station?id=32135453",
                    "web": "https://nxtb.it/p/32135453"
                },
                "short_name": "51552",
                "station_id": "32135453",
                "vehicle_types_available": [
                    {
                        "count": 5,
                        "vehicle_type_id": "348"
                    }
                ]
            },
            "type": "Feature"
        },
        {
            "geometry": {
                "coordinates": [
                    7.122722,
                    51.01975
                ],
                "type": "Point"
            },
            "properties": {
                "is_installed": true,
                "is_renting": true,
                "is_returning": true,
                "is_virtual_station": false,
                "last_reported": 1789321755,
                "name": "Odenthal Voiswinkel",
                "num_bikes_available": 8,
                "num_docks_available": 0,
                "region_id": "676",
                "rental_uris": {
                    "android": "https://app.nextbike.net/station?id=32135544",
                    "ios": "https://app.nextbike.net/station?id=32135544",
                    "web": "https://nxtb.it/p/32135544"
                },
                "short_name": "51544",
                "station_id": "32135544",
                "vehicle_types_available": [
                    {
                        "count": 8,
                        "vehicle_type_id": "348"
                    }
                ]
            },
            "type": "Feature"
        },
        {
            "geometry": {
                "coordinates": [
                    7.254917,
                    50.938861
                ],
                "type": "Point"
            },
            "properties": {
                "is_installed": true,
                "is_renting": true,
                "is_returning": true,
                "is_virtual_station": false,
                "last_reported": 1789321755,
                "name": "Overath Heiligenhaus",
                "num_bikes_available": 2,
                "num_docks_available": 0,
                "region_id": "676",
                "rental_uris": {
                    "android": "https://app.nextbike.net/station?id=32135599",
                    "ios": "https://app.nextbike.net/station?id=32135599",
                    "web": "https://nxtb.it/p/32135599"
                },
                "short_name": "51535",
                "station_id": "32135599",
                "vehicle_types_available": [
                    {
                        "count": 2,
                        "vehicle_type_id": "348"
                    }
                ]
            },
            "type": "Feature"
        },
        {
            "geometry": {
                "coordinates": [
                    7.325056,
                    50.933167
                ],
                "type": "Point"
            },
            "properties": {
                "is_installed": true,
                "is_renting": true,
                "is_returning": true,
                "is_virtual_station": false,
                "last_reported": 1789321755,
                "name": "Overath Marialinden",
                "num_bikes_available": 0,
                "num_docks_available": 0,
                "region_id": "676",
                "rental_uris": {
                    "android": "https://app.nextbike.net/station?id=32135725",
                    "ios": "https://app.nextbike.net/station?id=32135725",
                    "web": "https://nxtb.it/p/32135725"
                },
                "short_name": "51536",
                "station_id": "32135725",
                "vehicle_types_available": []
            },
            "type": "Feature"
        },
        {
            "geometry": {
                "coordinates": [
                    7.1875,
                    51.092889
                ],
                "type": "Point"
            },
            "properties": {
                "capacity": 6,
                "is_installed": true,
                "is_renting": true,
                "is_returning": true,
                "is_virtual_station": false,
                "last_reported": 1789321755,
                "name": "Wermelskirchen Dabringhausen (E-DLS)",
                "num_bikes_available": 3,
                "num_docks_available": 6,
                "region_id": "676",
                "rental_uris": {
                    "android": "https://app.nextbike.net/station?id=32135897",
                    "ios": "https://app.nextbike.net/station?id=32135897",
                    "web": "https://nxtb.it/p/32135897"
                },
                "short_name": "51534",
                "station_id": "32135897",
                "vehicle_types_available": [
                    {
                        "count": 3,
                        "vehicle_type_id": "348"
                    }
                ]
            },
            "type": "Feature"
        },
        {
            "geometry": {
                "coordinates": [
                    7.256972,
                    51.109194
                ],
                "type": "Point"
            },
            "properties": {
                "is_installed": true,
                "is_renting": true,
                "is_returning": true,
                "is_virtual_station": false,
                "last_reported": 1789321755,
                "name": "Wermelskirchen Dh\u00fcnn",
                "num_bikes_available": 0,
                "num_docks_available": 0,
                "region_id": "676",
                "rental_uris": {
                    "android": "https://app.nextbike.net/station?id=32136019",
                    "ios": "https://app.nextbike.net/station?id=32136019",
                    "web": "https://nxtb.it/p/32136019"
                },
                "short_name": "51541",
                "station_id": "32136019",
                "vehicle_types_available": []
            },
            "type": "Feature"
        },
        {
            "geometry": {
                "coordinates": [
                    7.196167,
                    50.914278
                ],
                "type": "Point"
            },
            "properties": {
                "capacity": 6,
                "is_installed": true,
                "is_renting": true,
                "is_returning": true,
                "is_virtual_station": false,
                "last_reported": 1789321755,
                "name": "R\u00f6srath - Hoffnungsthal, Rathaus (E-DLS)",
                "num_bikes_available": 2,
                "num_docks_available": 6,
                "region_id": "676",
                "rental_uris": {
                    "android": "https://app.nextbike.net/station?id=32136150",
                    "ios": "https://app.nextbike.net/station?id=32136150",
                    "web": "https://nxtb.it/p/32136150"
                },
                "short_name": "51520",
                "station_id": "32136150",
                "vehicle_types_available": [
                    {
                        "count": 2,
                        "vehicle_type_id": "196"
                    }
                ]
            },
            "type": "Feature"
        },
        {
            "geometry": {
                "coordinates": [
                    7.17625,
                    50.924389
                ],
                "type": "Point"
            },
            "properties": {
                "capacity": 6,
                "is_installed": true,
                "is_renting": true,
                "is_returning": true,
                "is_virtual_station": false,
                "last_reported": 1789321755,
                "name": "R\u00f6srath - Forsbach - Halfenhof (E-DLS)",
                "num_bikes_available": 5,
                "num_docks_available": 2,
                "region_id": "676",
                "rental_uris": {
                    "android": "https://app.nextbike.net/station?id=32136249",
                    "ios": "https://app.nextbike.net/station?id=32136249",
                    "web": "https://nxtb.it/p/32136249"
                },
                "short_name": "51523",
                "station_id": "32136249",
                "vehicle_types_available": [
                    {
                        "count": 5,
                        "vehicle_type_id": "348"
                    }
                ]
            },
            "type": "Feature"
        },
        {
            "geometry": {
                "coordinates": [
                    7.108771,
                    51.042072
                ],
                "type": "Point"
            },
            "properties": {
                "is_installed": true,
                "is_renting": true,
                "is_returning": true,
                "is_virtual_station": false,
                "last_reported": 1789321755,
                "name": "Gl\u00f6busch Haltestelle \"Sch\u00f6ne Aussicht\"",
                "num_bikes_available": 0,
                "num_docks_available": 0,
                "region_id": "676",
                "rental_uris": {
                    "android": "https://app.nextbike.net/station?id=34475982",
                    "ios": "https://app.nextbike.net/station?id=34475982",
                    "web": "https://nxtb.it/p/34475982"
                },
                "short_name": "51548",
                "station_id": "34475982",
                "vehicle_types_available": [
                    {
                        "count": 2,
                        "vehicle_type_id": "348"
                    }
                ]
            },
            "type": "Feature"
        },
        {
            "geometry": {
                "coordinates": [
                    7.1022,
                    50.984904
                ],
                "type": "Point"
            },
            "properties": {
                "is_installed": true,
                "is_renting": true,
                "is_returning": true,
                "is_virtual_station": false,
                "last_reported": 1789321755,
                "name": "Duckterath - Damaschkestr",
                "num_bikes_available": 3,
                "num_docks_available": 0,
                "region_id": "676",
                "rental_uris": {
                    "android": "https://app.nextbike.net/station?id=372361428",
                    "ios": "https://app.nextbike.net/station?id=372361428",
                    "web": "https://nxtb.it/p/372361428"
                },
                "short_name": "51533",
                "station_id": "372361428",
                "vehicle_types_available": [
                    {
                        "count": 2,
                        "vehicle_type_id": "196"
                    },
                    {
                        "count": 1,
                        "vehicle_type_id": "348"
                    }
                ]
            },
            "type": "Feature"
        },
        {
            "geometry": {
                "coordinates": [
                    7.142667,
                    50.963528
                ],
                "type": "Point"
            },
            "properties": {
                "is_installed": true,
                "is_renting": true,
                "is_returning": true,
                "is_virtual_station": false,
                "last_reported": 1789321755,
                "name": "Neuenweg",
                "num_bikes_available": 0,
                "num_docks_available": 0,
                "region_id": "676",
                "rental_uris": {
                    "android": "https://app.nextbike.net/station?id=372368300",
                    "ios": "https://app.nextbike.net/station?id=372368300",
                    "web": "https://nxtb.it/p/372368300"
                },
                "short_name": "51573",
                "station_id": "372368300",
                "vehicle_types_available": []
            },
            "type": "Feature"
        },
        {
            "geometry": {
                "coordinates": [
                    7.215542,
                    50.948575
                ],
                "type": "Point"
            },
            "properties": {
                "is_installed": true,
                "is_renting": true,
                "is_returning": true,
                "is_virtual_station": false,
                "last_reported": 1789321755,
                "name": "Overath Untereschbach",
                "num_bikes_available": 1,
                "num_docks_available": 0,
                "region_id": "676",
                "rental_uris": {
                    "android": "https://app.nextbike.net/station?id=372373866",
                    "ios": "https://app.nextbike.net/station?id=372373866",
                    "web": "https://nxtb.it/p/372373866"
                },
                "short_name": "51574",
                "station_id": "372373866",
                "vehicle_types_available": [
                    {
                        "count": 1,
                        "vehicle_type_id": "348"
                    }
                ]
            },
            "type": "Feature"
        },
        {
            "geometry": {
                "coordinates": [
                    7.143302,
                    50.976852
                ],
                "type": "Point"
            },
            "properties": {
                "is_installed": true,
                "is_renting": true,
                "is_returning": true,
                "is_virtual_station": false,
                "last_reported": 1789321755,
                "name": "Bergisch Gladbach Kreishaus",
                "num_bikes_available": 0,
                "num_docks_available": 0,
                "region_id": "676",
                "rental_uris": {
                    "android": "https://app.nextbike.net/station?id=375458753",
                    "ios": "https://app.nextbike.net/station?id=375458753",
                    "web": "https://nxtb.it/p/375458753"
                },
                "short_name": "51575",
                "station_id": "375458753",
                "vehicle_types_available": []
            },
            "type": "Feature"
        },
        {
            "geometry": {
                "coordinates": [
                    7.12009,
                    51.082717
                ],
                "type": "Point"
            },
            "properties": {
                "capacity": 6,
                "is_installed": true,
                "is_renting": true,
                "is_returning": true,
                "is_virtual_station": false,
                "last_reported": 1789321755,
                "name": "Burscheid Rathaus",
                "num_bikes_available": 2,
                "num_docks_available": 5,
                "region_id": "676",
                "rental_uris": {
                    "android": "https://app.nextbike.net/station?id=41026989",
                    "ios": "https://app.nextbike.net/station?id=41026989",
                    "web": "https://nxtb.it/p/41026989"
                },
                "short_name": "51542",
                "station_id": "41026989",
                "vehicle_types_available": [
                    {
                        "count": 2,
                        "vehicle_type_id": "348"
                    }
                ]
            },
            "type": "Feature"
        },
        {
            "geometry": {
                "coordinates": [
                    7.20101,
                    51.130166
                ],
                "type": "Point"
            },
            "properties": {
                "is_installed": true,
                "is_renting": true,
                "is_returning": true,
                "is_virtual_station": false,
                "last_reported": 1789321755,
                "name": "RVK",
                "num_bikes_available": 8,
                "num_docks_available": 0,
                "region_id": "676",
                "rental_uris": {
                    "android": "https://app.nextbike.net/station?id=471945393",
                    "ios": "https://app.nextbike.net/station?id=471945393",
                    "web": "https://nxtb.it/p/471945393"
                },
                "short_name": "51578",
                "station_id": "471945393",
                "vehicle_types_available": [
                    {
                        "count": 1,
                        "vehicle_type_id": "196"
                    },
                    {
                        "count": 7,
                        "vehicle_type_id": "348"
                    }
                ]
            },
            "type": "Feature"
        },
        {
            "geometry": {
                "coordinates": [
                    7.187954,
                    51.13818
                ],
                "type": "Point"
            },
            "properties": {
                "is_installed": true,
                "is_renting": true,
                "is_returning": true,
                "is_virtual_station": false,
                "last_reported": 1789321755,
                "name": "Wermelskirchen Ehrenmal-P\u00e4rkchen",
                "num_bikes_available": 1,
                "num_docks_available": 0,
                "region_id": "676",
                "rental_uris": {
                    "android": "https://app.nextbike.net/station?id=476557459",
                    "ios": "https://app.nextbike.net/station?id=476557459",
                    "web": "https://nxtb.it/p/476557459"
                },
                "short_name": "51579",
                "station_id": "476557459",
                "vehicle_types_available": [
                    {
                        "count": 1,
                        "vehicle_type_id": "348"
                    }
                ]
            },
            "type": "Feature"
        },
        {
            "geometry": {
                "coordinates": [
                    7.210078,
                    51.13686
                ],
                "type": "Point"
            },
            "properties": {
                "is_installed": true,
                "is_renting": true,
                "is_returning": true,
                "is_virtual_station": false,
                "last_reported": 1789321755,
                "name": "Haltestelle Eich",
                "num_bikes_available": 0,
                "num_docks_available": 0,
                "region_id": "676",
                "rental_uris": {
                    "android": "https://app.nextbike.net/station?id=476557884",
                    "ios": "https://app.nextbike.net/station?id=476557884",
                    "web": "https://nxtb.it/p/476557884"
                },
                "short_name": "51580",
                "station_id": "476557884",
                "vehicle_types_available": []
            },
            "type": "Feature"
        },
        {
            "geometry": {
                "coordinates": [
                    7.159052,
                    50.898817
                ],
                "type": "Point"
            },
            "properties": {
                "is_installed": true,
                "is_renting": true,
                "is_returning": true,
                "is_virtual_station": false,
                "last_reported": 1789321755,
                "name": "R\u00f6srath Bahnhof St\u00fcmpen",
                "num_bikes_available": 2,
                "num_docks_available": 0,
                "region_id": "676",
                "rental_uris": {
                    "android": "https://app.nextbike.net/station?id=49442145",
                    "ios": "https://app.nextbike.net/station?id=49442145",
                    "web": "https://nxtb.it/p/49442145"
                },
                "short_name": "51550",
                "station_id": "49442145",
                "vehicle_types_available": [
                    {
                        "count": 2,
                        "vehicle_type_id": "348"
                    }
                ]
            },
            "type": "Feature"
        },
        {
            "geometry": {
                "coordinates": [
                    7.197056,
                    50.929
                ],
                "type": "Point"
            },
            "properties": {
                "is_installed": true,
                "is_renting": true,
                "is_returning": true,
                "is_virtual_station": false,
                "last_reported": 1789321755,
                "name": "Lehmbach Wendeplatz Bergische Strasse",
                "num_bikes_available": 8,
                "num_docks_available": 0,
                "region_id": "676",
                "rental_uris": {
                    "android": "https://app.nextbike.net/station?id=49442475",
                    "ios": "https://app.nextbike.net/station?id=49442475",
                    "web": "https://nxtb.it/p/49442475"
                },
                "short_name": "51543",
                "station_id": "49442475",
                "vehicle_types_available": [
                    {
                        "count": 8,
                        "vehicle_type_id": "348"
                    }
                ]
            },
            "type": "Feature"
        },
        {
            "geometry": {
                "coordinates": [
                    7.007242,
                    51.099569
                ],
                "type": "Point"
            },
            "properties": {
                "is_installed": true,
                "is_renting": true,
                "is_returning": true,
                "is_virtual_station": false,
                "last_reported": 1789321755,
                "name": "Br\u00fcckenstra\u00dfe",
                "num_bikes_available": 0,
                "num_docks_available": 0,
                "region_id": "676",
                "rental_uris": {
                    "android": "https://app.nextbike.net/station?id=633866693",
                    "ios": "https://app.nextbike.net/station?id=633866693",
                    "web": "https://nxtb.it/p/633866693"
                },
                "short_name": "51569",
                "station_id": "633866693",
                "vehicle_types_available": []
            },
            "type": "Feature"
        },
        {
            "geometry": {
                "coordinates": [
                    7.130917,
                    50.979111
                ],
                "type": "Point"
            },
            "properties": {
                "is_installed": true,
                "is_renting": true,
                "is_returning": true,
                "is_virtual_station": false,
                "last_reported": 1789321755,
                "name": "Gustav-L\u00fcbbe-Haus",
                "num_bikes_available": 2,
                "num_docks_available": 0,
                "region_id": "676",
                "rental_uris": {
                    "android": "https://app.nextbike.net/station?id=635796570",
                    "ios": "https://app.nextbike.net/station?id=635796570",
                    "web": "https://nxtb.it/p/635796570"
                },
                "short_name": "51582",
                "station_id": "635796570",
                "vehicle_types_available": [
                    {
                        "count": 2,
                        "vehicle_type_id": "348"
                    }
                ]
            },
            "type": "Feature"
        },
        {
            "geometry": {
                "coordinates": [
                    7.190697,
                    50.906466
                ],
                "type": "Point"
            },
            "properties": {
                "is_installed": true,
                "is_renting": true,
                "is_returning": true,
                "is_virtual_station": false,
                "last_reported": 1789321755,
                "name": "Venauen - R\u00f6srath",
                "num_bikes_available": 1,
                "num_docks_available": 0,
                "region_id": "676",
                "rental_uris": {
                    "android": "https://app.nextbike.net/station?id=637515201",
                    "ios": "https://app.nextbike.net/station?id=637515201",
                    "web": "https://nxtb.it/p/637515201"
                },
                "short_name": "51585",
                "station_id": "637515201",
                "vehicle_types_available": [
                    {
                        "count": 1,
                        "vehicle_type_id": "348"
                    }
                ]
            },
            "type": "Feature"
        },
        {
            "geometry": {
                "coordinates": [
                    7.147167,
                    50.904417
                ],
                "type": "Point"
            },
            "properties": {
                "is_installed": true,
                "is_renting": true,
                "is_returning": true,
                "is_virtual_station": false,
                "last_reported": 1789321755,
                "name": "R\u00f6srath Kleineichen",
                "num_bikes_available": 5,
                "num_docks_available": 0,
                "region_id": "676",
                "rental_uris": {
                    "android": "https://app.nextbike.net/station?id=81377215",
                    "ios": "https://app.nextbike.net/station?id=81377215",
                    "web": "https://nxtb.it/p/81377215"
                },
                "short_name": "51553",
                "station_id": "81377215",
                "vehicle_types_available": [
                    {
                        "count": 5,
                        "vehicle_type_id": "348"
                    }
                ]
            },
            "type": "Feature"
        }
    ],
    "gbfs": {
        "station_information": {
            "last_updated": 1789321755,
            "ttl": 60,
            "version": "2.3"
        },
        "station_status": {
            "last_updated": 1789321755,
            "ttl": 60,
            "version": "2.3"
        }
    },
    "type": "FeatureCollection"
}