{
    "features": [
        {
            "geometry": {
                "coordinates": [
                    6.11985,
                    48.7663
                ],
                "type": "Point"
            },
            "properties": {
                "capacity": 10,
                "is_charging_station": false,
                "is_installed": true,
                "is_renting": true,
                "is_returning": true,
                "is_valet_station": false,
                "is_virtual_station": false,
                "last_reported": 1789297958,
                "name": "Lyc\u00e9e Schwartz",
                "num_bikes_available": 2,
                "num_docks_available": 8,
                "rental_uris": {
                    "android": "velomoove://app?sid=st_d2oqi3h4mrmajg2lmnh0",
                    "ios": "velomoove://app?sid=st_d2oqi3h4mrmajg2lmnh0"
                },
                "station_id": "st_d2oqi3h4mrmajg2lmnh0",
                "vehicle_type_capacity": {
                    "1": 8
                },
                "vehicle_types_available": [
                    {
                        "count": 2,
                        "vehicle_type_id": "1"
                    }
                ]
            },
            "type": "Feature"
        },
        {
            "geometry": {
                "coordinates": [
                    6.143429,
                    48.792243
                ],
                "type": "Point"
            },
            "properties": {
                "capacity": 10,
                "is_charging_station": false,
                "is_installed": true,
                "is_renting": true,
                "is_returning": true,
                "is_valet_station": false,
                "is_virtual_station": false,
                "last_reported": 1789297958,
                "name": "Guingot",
                "num_bikes_available": 6,
                "num_docks_available": 4,
                "rental_uris": {
                    "android": "velomoove://app?sid=st_d2oqi3h4mrmajg2lmnig",
                    "ios": "velomoove://app?sid=st_d2oqi3h4mrmajg2lmnig"
                },
                "station_id": "st_d2oqi3h4mrmajg2lmnig",
                "vehicle_type_capacity": {
                    "1": 5
                },
                "vehicle_types_available": [
                    {
                        "count": 6,
                        "vehicle_type_id": "1"
                    }
                ]
            },
            "type": "Feature"
        },
        {
            "geometry": {
                "coordinates": [
                    6.10902,
                    48.80084
                ],
                "type": "Point"
            },
            "properties": {
                "capacity": 10,
                "is_charging_station": false,
                "is_installed": true,
                "is_renting": true,
                "is_returning": true,
                "is_valet_station": false,
                "is_virtual_station": false,
                "last_reported": 1789297958,
                "name": "Marbache Gare",
                "num_bikes_available": 4,
                "num_docks_available": 6,
                "rental_uris": {
                    "android": "velomoove://app?sid=st_d2oqi3h4mrmajg2lmno0",
                    "ios": "velomoove://app?sid=st_d2oqi3h4mrmajg2lmno0"
                },
                "station_id": "st_d2oqi3h4mrmajg2lmno0",
                "vehicle_type_capacity": {
                    "1": 10
                },
                "vehicle_types_available": [
                    {
                        "count": 4,
                        "vehicle_type_id": "1"
                    }
                ]
            },
            "type": "Feature"
        },
        {
            "geometry": {
                "coordinates": [
                    6.05734,
                    48.76732
                ],
                "type": "Point"
            },
            "properties": {
                "capacity": 10,
                "is_charging_station": false,
                "is_installed": true,
                "is_renting": true,
                "is_returning": true,
                "is_valet_station": false,
                "is_virtual_station": false,
                "last_reported": 1789297958,
                "name": "Footcity",
                "num_bikes_available": 3,
                "num_docks_available": 8,
                "rental_uris": {
                    "android": "velomoove://app?sid=st_d2oqi3h4mrmajg2lmnqg",
                    "ios": "velomoove://app?sid=st_d2oqi3h4mrmajg2lmnqg"
                },
                "station_id": "st_d2oqi3h4mrmajg2lmnqg",
                "vehicle_type_capacity": {
                    "1": 8
                },
                "vehicle_types_available": [
                    {
                        "count": 3,
                        "vehicle_type_id": "1"
                    }
                ]
            },
            "type": "Feature"
        },
        {
            "geometry": {
                "coordinates": [
                    6.132525,
                    48.772722
                ],
                "type": "Point"
            },
            "properties": {
                "capacity": 10,
                "is_charging_station": false,
                "is_installed": true,
                "is_renting": true,
                "is_returning": true,
                "is_valet_station": false,
                "is_virtual_station": false,
                "last_reported": 1789297958,
                "name": "Pompey Gare - Eiffel",
                "num_bikes_available": 1,
                "num_docks_available": 9,
                "rental_uris": {
                    "android": "velomoove://app?sid=st_d2oqi3l92fgkec8kjlsg",
                    "ios": "velomoove://app?sid=st_d2oqi3l92fgkec8kjlsg"
                },
                "station_id": "st_d2oqi3l92fgkec8kjlsg",
                "vehicle_type_capacity": {
                    "1": 9
                },
                "vehicle_types_available": [
                    {
                        "count": 1,
                        "vehicle_type_id": "1"
                    }
                ]
            },
            "type": "Feature"
        },
        {
            "geometry": {
                "coordinates": [
                    6.12775,
                    48.76674
                ],
                "type": "Point"
            },
            "properties": {
                "capacity": 10,
                "is_charging_station": false,
                "is_installed": true,
                "is_renting": true,
                "is_returning": true,
                "is_valet_station": false,
                "is_virtual_station": false,
                "last_reported": 1789297958,
                "name": "10 Septembre",
                "num_bikes_available": 4,
                "num_docks_available": 6,
                "rental_uris": {
                    "android": "velomoove://app?sid=st_d2oqi3l92fgkec8kjlu0",
                    "ios": "velomoove://app?sid=st_d2oqi3l92fgkec8kjlu0"
                },
                "station_id": "st_d2oqi3l92fgkec8kjlu0",
                "vehicle_type_capacity": {
                    "1": 6
                },
                "vehicle_types_available": [
                    {
                        "count": 4,
                        "vehicle_type_id": "1"
                    }
                ]
            },
            "type": "Feature"
        },
        {
            "geometry": {
                "coordinates": [
                    6.16361,
                    48.7938
                ],
                "type": "Point"
            },
            "properties": {
                "capacity": 10,
                "is_charging_station": false,
                "is_installed": true,
                "is_renting": true,
                "is_returning": true,
                "is_valet_station": false,
                "is_virtual_station": false,
                "last_reported": 1789297958,
                "name": "Malleloy Centre",
                "num_bikes_available": 12,
                "num_docks_available": 0,
                "rental_uris": {
                    "android": "velomoove://app?sid=st_d2oqi3l92fgkec8kjm5g",
                    "ios": "velomoove://app?sid=st_d2oqi3l92fgkec8kjm5g"
                },
                "station_id": "st_d2oqi3l92fgkec8kjm5g",
                "vehicle_type_capacity": {
                    "1": 10
                },
                "vehicle_types_available": [
                    {
                        "count": 12,
                        "vehicle_type_id": "1"
                    }
                ]
            },
            "type": "Feature"
        },
        {
            "geometry": {
                "coordinates": [
                    6.13003,
                    48.76092
                ],
                "type": "Point"
            },
            "properties": {
                "capacity": 10,
                "is_charging_station": false,
                "is_installed": true,
                "is_renting": true,
                "is_returning": true,
                "is_valet_station": false,
                "is_virtual_station": false,
                "last_reported": 1789297958,
                "name": "Frouard Mairie",
                "num_bikes_available": 7,
                "num_docks_available": 3,
                "rental_uris": {
                    "android": "velomoove://app?sid=st_d2oqi3p4mrmajg2lmo10",
                    "ios": "velomoove://app?sid=st_d2oqi3p4mrmajg2lmo10"
                },
                "station_id": "st_d2oqi3p4mrmajg2lmo10",
                "vehicle_type_capacity": {
                    "1": 3
                },
                "vehicle_types_available": [
                    {
                        "count": 7,
                        "vehicle_type_id": "1"
                    }
                ]
            },
            "type": "Feature"
        },
        {
            "geometry": {
                "coordinates": [
                    6.06163,
                    48.74947
                ],
                "type": "Point"
            },
            "properties": {
                "capacity": 10,
                "is_charging_station": false,
                "is_installed": true,
                "is_renting": true,
                "is_returning": true,
                "is_valet_station": false,
                "is_virtual_station": false,
                "last_reported": 1789297958,
                "name": "Liverdun Gare",
                "num_bikes_available": 6,
                "num_docks_available": 4,
                "rental_uris": {
                    "android": "velomoove://app?sid=st_d2oqi3t92fgkec8kjmb0",
                    "ios": "velomoove://app?sid=st_d2oqi3t92fgkec8kjmb0"
                },
                "station_id": "st_d2oqi3t92fgkec8kjmb0",
                "vehicle_type_capacity": {
                    "1": 4
                },
                "vehicle_types_available": [
                    {
                        "count": 6,
                        "vehicle_type_id": "1"
                    }
                ]
            },
            "type": "Feature"
        },
        {
            "geometry": {
                "coordinates": [
                    6.06184,
                    48.75251
                ],
                "type": "Point"
            },
            "properties": {
                "capacity": 10,
                "is_charging_station": false,
                "is_installed": true,
                "is_renting": true,
                "is_returning": true,
                "is_valet_station": false,
                "is_virtual_station": false,
                "last_reported": 1789297958,
                "name": "Esplanade du Moulin",
                "num_bikes_available": 7,
                "num_docks_available": 4,
                "rental_uris": {
                    "android": "velomoove://app?sid=st_d2oqi3t92fgkec8kjmdg",
                    "ios": "velomoove://app?sid=st_d2oqi3t92fgkec8kjmdg"
                },
                "station_id": "st_d2oqi3t92fgkec8kjmdg",
                "vehicle_type_capacity": {
                    "1": 4
                },
                "vehicle_types_available": [
                    {
                        "count": 7,
                        "vehicle_type_id": "1"
                    }
                ]
            },
            "type": "Feature"
        },
        {
            "geometry": {
                "coordinates": [
                    6.08709,
                    48.75239
                ],
                "type": "Point"
            },
            "properties": {
                "capacity": 10,
                "is_charging_station": false,
                "is_installed": true,
                "is_renting": true,
                "is_returning": true,
                "is_valet_station": false,
                "is_virtual_station": false,
                "last_reported": 1789297958,
                "name": "Pr\u00e9 Saint Nicolas",
                "num_bikes_available": 4,
                "num_docks_available": 7,
                "rental_uris": {
                    "android": "velomoove://app?sid=st_d2oqi3t92fgkec8kjmh0",
                    "ios": "velomoove://app?sid=st_d2oqi3t92fgkec8kjmh0"
                },
                "station_id": "st_d2oqi3t92fgkec8kjmh0",
                "vehicle_type_capacity": {
                    "1": 10
                },
                "vehicle_types_available": [
                    {
                        "count": 4,
                        "vehicle_type_id": "1"
                    }
                ]
            },
            "type": "Feature"
        },
        {
            "geometry": {
                "coordinates": [
                    6.10676,
                    48.75779
                ],
                "type": "Point"
            },
            "properties": {
                "capacity": 10,
                "is_charging_station": false,
                "is_installed": true,
                "is_renting": true,
                "is_returning": true,
                "is_valet_station": false,
                "is_virtual_station": false,
                "last_reported": 1789297958,
                "name": "Le Nid",
                "num_bikes_available": 8,
                "num_docks_available": 2,
                "rental_uris": {
                    "android": "velomoove://app?sid=st_d2oqi3t92fgkec8kjmig",
                    "ios": "velomoove://app?sid=st_d2oqi3t92fgkec8kjmig"
                },
                "station_id": "st_d2oqi3t92fgkec8kjmig",
                "vehicle_type_capacity": {
                    "1": 10
                },
                "vehicle_types_available": [
                    {
                        "count": 8,
                        "vehicle_type_id": "1"
                    }
                ]
            },
            "type": "Feature"
        },
        {
            "geometry": {
                "coordinates": [
                    6.13423,
                    48.75919
                ],
                "type": "Point"
            },
            "properties": {
                "capacity": 10,
                "is_charging_station": false,
                "is_installed": true,
                "is_renting": true,
                "is_returning": true,
                "is_valet_station": false,
                "is_virtual_station": false,
                "last_reported": 1789297958,
                "name": "Point Central",
                "num_bikes_available": 8,
                "num_docks_available": 2,
                "rental_uris": {
                    "android": "velomoove://app?sid=st_d2oqi3t92fgkec8kjml0",
                    "ios": "velomoove://app?sid=st_d2oqi3t92fgkec8kjml0"
                },
                "station_id": "st_d2oqi3t92fgkec8kjml0",
                "vehicle_type_capacity": {
                    "1": 2
                },
                "vehicle_types_available": [
                    {
                        "count": 8,
                        "vehicle_type_id": "1"
                    }
                ]
            },
            "type": "Feature"
        },
        {
            "geometry": {
                "coordinates": [
                    6.13962,
                    48.75464
                ],
                "type": "Point"
            },
            "properties": {
                "capacity": 10,
                "is_charging_station": false,
                "is_installed": true,
                "is_renting": true,
                "is_returning": true,
                "is_valet_station": false,
                "is_virtual_station": false,
                "last_reported": 1789297958,
                "name": "Ermitage",
                "num_bikes_available": 2,
                "num_docks_available": 8,
                "rental_uris": {
                    "android": "velomoove://app?sid=st_d2oqi414mrmajg2lmo7g",
                    "ios": "velomoove://app?sid=st_d2oqi414mrmajg2lmo7g"
                },
                "station_id": "st_d2oqi414mrmajg2lmo7g",
                "vehicle_type_capacity": {
                    "1": 8
                },
                "vehicle_types_available": [
                    {
                        "count": 2,
                        "vehicle_type_id": "1"
                    }
                ]
            },
            "type": "Feature"
        },
        {
            "geometry": {
                "coordinates": [
                    6.14757,
                    48.74509
                ],
                "type": "Point"
            },
            "properties": {
                "capacity": 10,
                "is_charging_station": false,
                "is_installed": true,
                "is_renting": true,
                "is_returning": true,
                "is_valet_station": false,
                "is_virtual_station": false,
                "last_reported": 1789297958,
                "name": "Grand Air",
                "num_bikes_available": 5,
                "num_docks_available": 5,
                "rental_uris": {
                    "android": "velomoove://app?sid=st_d2oqi414mrmajg2lmoa0",
                    "ios": "velomoove://app?sid=st_d2oqi414mrmajg2lmoa0"
                },
                "station_id": "st_d2oqi414mrmajg2lmoa0",
                "vehicle_type_capacity": {
                    "1": 5
                },
                "vehicle_types_available": [
                    {
                        "count": 5,
                        "vehicle_type_id": "1"
                    }
                ]
            },
            "type": "Feature"
        },
        {
            "geometry": {
                "coordinates": [
                    6.16955,
                    48.74753
                ],
                "type": "Point"
            },
            "properties": {
                "capacity": 10,
                "is_charging_station": false,
                "is_installed": true,
                "is_renting": true,
                "is_returning": true,
                "is_valet_station": false,
                "is_virtual_station": false,
                "last_reported": 1789297958,
                "name": "T\u00e9m\u00e9raire ",
                "num_bikes_available": 5,
                "num_docks_available": 5,
                "rental_uris": {
                    "android": "velomoove://app?sid=st_d2oqi414mrmajg2lmodg",
                    "ios": "velomoove://app?sid=st_d2oqi414mrmajg2lmodg"
                },
                "station_id": "st_d2oqi414mrmajg2lmodg",
                "vehicle_type_capacity": {
                    "1": 5
                },
                "vehicle_types_available": [
                    {
                        "count": 5,
                        "vehicle_type_id": "1"
                    }
                ]
            },
            "type": "Feature"
        },
        {
            "geometry": {
                "coordinates": [
                    6.19869,
                    48.74871
                ],
                "type": "Point"
            },
            "properties": {
                "capacity": 10,
                "is_charging_station": false,
                "is_installed": true,
                "is_renting": true,
                "is_returning": true,
                "is_valet_station": false,
                "is_virtual_station": false,
                "last_reported": 1789297958,
                "name": "Steinach",
                "num_bikes_available": 6,
                "num_docks_available": 4,
                "rental_uris": {
                    "android": "velomoove://app?sid=st_d2oqi414mrmajg2lmoi0",
                    "ios": "velomoove://app?sid=st_d2oqi414mrmajg2lmoi0"
                },
                "station_id": "st_d2oqi414mrmajg2lmoi0",
                "vehicle_type_capacity": {
                    "1": 4
                },
                "vehicle_types_available": [
                    {
                        "count": 6,
                        "vehicle_type_id": "1"
                    }
                ]
            },
            "type": "Feature"
        },
        {
            "geometry": {
                "coordinates": [
                    6.14373,
                    48.75549
                ],
                "type": "Point"
            },
            "properties": {
                "capacity": 10,
                "is_charging_station": false,
                "is_installed": true,
                "is_renting": true,
                "is_returning": true,
                "is_valet_station": false,
                "is_virtual_station": false,
                "last_reported": 1789297958,
                "name": "Frouard Gare",
                "num_bikes_available": 3,
                "num_docks_available": 7,
                "rental_uris": {
                    "android": "velomoove://app?sid=st_d2oqi4592fgkec8kjmng",
                    "ios": "velomoove://app?sid=st_d2oqi4592fgkec8kjmng"
                },
                "station_id": "st_d2oqi4592fgkec8kjmng",
                "vehicle_type_capacity": {
                    "1": 7
                },
                "vehicle_types_available": [
                    {
                        "count": 3,
                        "vehicle_type_id": "1"
                    }
                ]
            },
            "type": "Feature"
        },
        {
            "geometry": {
                "coordinates": [
                    6.1607,
                    48.7598
                ],
                "type": "Point"
            },
            "properties": {
                "capacity": 10,
                "is_charging_station": false,
                "is_installed": true,
                "is_renting": true,
                "is_returning": true,
                "is_valet_station": false,
                "is_virtual_station": false,
                "last_reported": 1789297958,
                "name": "Haut du Ruisseau",
                "num_bikes_available": 5,
                "num_docks_available": 5,
                "rental_uris": {
                    "android": "velomoove://app?sid=st_d2oqi4592fgkec8kjmr0",
                    "ios": "velomoove://app?sid=st_d2oqi4592fgkec8kjmr0"
                },
                "station_id": "st_d2oqi4592fgkec8kjmr0",
                "vehicle_type_capacity": {
                    "1": 5
                },
                "vehicle_types_available": [
                    {
                        "count": 5,
                        "vehicle_type_id": "1"
                    }
                ]
            },
            "type": "Feature"
        },
        {
            "geometry": {
                "coordinates": [
                    6.13778,
                    48.77552
                ],
                "type": "Point"
            },
            "properties": {
                "capacity": 10,
                "is_charging_station": false,
                "is_installed": true,
                "is_renting": true,
                "is_returning": true,
                "is_valet_station": false,
                "is_virtual_station": false,
                "last_reported": 1789297958,
                "name": "Ban la Dame",
                "num_bikes_available": 2,
                "num_docks_available": 8,
                "rental_uris": {
                    "android": "velomoove://app?sid=st_d2oqi4592fgkec8kjmug",
                    "ios": "velomoove://app?sid=st_d2oqi4592fgkec8kjmug"
                },
                "station_id": "st_d2oqi4592fgkec8kjmug",
                "vehicle_type_capacity": {
                    "1": 8
                },
                "vehicle_types_available": [
                    {
                        "count": 2,
                        "vehicle_type_id": "1"
                    }
                ]
            },
            "type": "Feature"
        },
        {
            "geometry": {
                "coordinates": [
                    6.18328,
                    48.74507
                ],
                "type": "Point"
            },
            "properties": {
                "capacity": 10,
                "is_charging_station": false,
                "is_installed": true,
                "is_renting": true,
                "is_returning": true,
                "is_valet_station": false,
                "is_virtual_station": false,
                "last_reported": 1789297958,
                "name": "Bas Serroir",
                "num_bikes_available": 2,
                "num_docks_available": 8,
                "rental_uris": {
                    "android": "velomoove://app?sid=st_d2oqi4592fgkec8kjn10",
                    "ios": "velomoove://app?sid=st_d2oqi4592fgkec8kjn10"
                },
                "station_id": "st_d2oqi4592fgkec8kjn10",
                "vehicle_type_capacity": {
                    "1": 8
                },
                "vehicle_types_available": [
                    {
                        "count": 2,
                        "vehicle_type_id": "1"
                    }
                ]
            },
            "type": "Feature"
        },
        {
            "geometry": {
                "coordinates": [
                    6.16903,
                    48.73499
                ],
                "type": "Point"
            },
            "properties": {
                "capacity": 10,
                "is_charging_station": false,
                "is_installed": true,
                "is_renting": true,
                "is_returning": true,
                "is_valet_station": false,
                "is_virtual_station": false,
                "last_reported": 1789297958,
                "name": "Champigneulles Gare",
                "num_bikes_available": 0,
                "num_docks_available": 10,
                "rental_uris": {
                    "android": "velomoove://app?sid=st_d2oqi494mrmajg2lmokg",
                    "ios": "velomoove://app?sid=st_d2oqi494mrmajg2lmokg"
                },
                "station_id": "st_d2oqi494mrmajg2lmokg",
                "vehicle_type_capacity": {
                    "1": 10
                },
                "vehicle_types_available": [
                    {
                        "count": 0,
                        "vehicle_type_id": "1"
                    }
                ]
            },
            "type": "Feature"
        },
        {
            "geometry": {
                "coordinates": [
                    6.16668,
                    48.74408
                ],
                "type": "Point"
            },
            "properties": {
                "capacity": 10,
                "is_charging_station": false,
                "is_installed": true,
                "is_renting": true,
                "is_returning": true,
                "is_valet_station": false,
                "is_virtual_station": false,
                "last_reported": 1789297958,
                "name": "Parc Logistique",
                "num_bikes_available": 1,
                "num_docks_available": 9,
                "rental_uris": {
                    "android": "velomoove://app?sid=st_d2oqi4d92fgkec8kjn4g",
                    "ios": "velomoove://app?sid=st_d2oqi4d92fgkec8kjn4g"
                },
                "station_id": "st_d2oqi4d92fgkec8kjn4g",
                "vehicle_type_capacity": {
                    "1": 9
                },
                "vehicle_types_available": [
                    {
                        "count": 1,
                        "vehicle_type_id": "1"
                    }
                ]
            },
            "type": "Feature"
        },
        {
            "geometry": {
                "coordinates": [
                    6.16661,
                    48.73517
                ],
                "type": "Point"
            },
            "properties": {
                "capacity": 10,
                "is_charging_station": false,
                "is_installed": true,
                "is_renting": true,
                "is_returning": true,
                "is_valet_station": false,
                "is_virtual_station": false,
                "last_reported": 1789297958,
                "name": "Port",
                "num_bikes_available": 0,
                "num_docks_available": 10,
                "rental_uris": {
                    "android": "velomoove://app?sid=st_d2oqi4d92fgkec8kjna0",
                    "ios": "velomoove://app?sid=st_d2oqi4d92fgkec8kjna0"
                },
                "station_id": "st_d2oqi4d92fgkec8kjna0",
                "vehicle_type_capacity": {
                    "1": 10
                },
                "vehicle_types_available": [
                    {
                        "count": 0,
                        "vehicle_type_id": "1"
                    }
                ]
            },
            "type": "Feature"
        },
        {
            "geometry": {
                "coordinates": [
                    6.1602,
                    48.73643
                ],
                "type": "Point"
            },
            "properties": {
                "capacity": 10,
                "is_charging_station": false,
                "is_installed": true,
                "is_renting": true,
                "is_returning": true,
                "is_valet_station": false,
                "is_virtual_station": false,
                "last_reported": 1789297958,
                "name": "Les Mouettes",
                "num_bikes_available": 5,
                "num_docks_available": 4,
                "rental_uris": {
                    "android": "velomoove://app?sid=st_d2oqi4h4mrmajg2lmom0",
                    "ios": "velomoove://app?sid=st_d2oqi4h4mrmajg2lmom0"
                },
                "station_id": "st_d2oqi4h4mrmajg2lmom0",
                "vehicle_type_capacity": {
                    "1": 4
                },
                "vehicle_types_available": [
                    {
                        "count": 5,
                        "vehicle_type_id": "1"
                    }
                ]
            },
            "type": "Feature"
        },
        {
            "geometry": {
                "coordinates": [
                    6.15581,
                    48.72733
                ],
                "type": "Point"
            },
            "properties": {
                "capacity": 10,
                "is_charging_station": false,
                "is_installed": true,
                "is_renting": true,
                "is_returning": true,
                "is_valet_station": false,
                "is_virtual_station": false,
                "last_reported": 1789297958,
                "name": "Bellefontaine",
                "num_bikes_available": 6,
                "num_docks_available": 4,
                "rental_uris": {
                    "android": "velomoove://app?sid=st_d2oqi4h4mrmajg2lmong",
                    "ios": "velomoove://app?sid=st_d2oqi4h4mrmajg2lmong"
                },
                "station_id": "st_d2oqi4h4mrmajg2lmong",
                "vehicle_type_capacity": {
                    "1": 4
                },
                "vehicle_types_available": [
                    {
                        "count": 6,
                        "vehicle_type_id": "1"
                    }
                ]
            },
            "type": "Feature"
        },
        {
            "geometry": {
                "coordinates": [
                    6.15004,
                    48.72712
                ],
                "type": "Point"
            },
            "properties": {
                "capacity": 10,
                "is_charging_station": false,
                "is_installed": true,
                "is_renting": true,
                "is_returning": true,
                "is_valet_station": false,
                "is_virtual_station": false,
                "last_reported": 1789297958,
                "name": "Piscine",
                "num_bikes_available": 5,
                "num_docks_available": 5,
                "rental_uris": {
                    "android": "velomoove://app?sid=st_d2oqi4p4mrmajg2lmoq0",
                    "ios": "velomoove://app?sid=st_d2oqi4p4mrmajg2lmoq0"
                },
                "station_id": "st_d2oqi4p4mrmajg2lmoq0",
                "vehicle_type_capacity": {
                    "1": 5
                },
                "vehicle_types_available": [
                    {
                        "count": 5,
                        "vehicle_type_id": "1"
                    }
                ]
            },
            "type": "Feature"
        },
        {
            "geometry": {
                "coordinates": [
                    6.130868,
                    48.768904
                ],
                "type": "Point"
            },
            "properties": {
                "capacity": 10,
                "is_charging_station": false,
                "is_installed": true,
                "is_renting": true,
                "is_returning": true,
                "is_valet_station": false,
                "is_virtual_station": false,
                "last_reported": 1789297958,
                "name": "Confluence",
                "num_bikes_available": 2,
                "num_docks_available": 8,
                "rental_uris": {
                    "android": "velomoove://app?sid=st_d2oqi4t92fgkec8kjnig",
                    "ios": "velomoove://app?sid=st_d2oqi4t92fgkec8kjnig"
                },
                "station_id": "st_d2oqi4t92fgkec8kjnig",
                "vehicle_type_capacity": {
                    "1": 8
                },
                "vehicle_types_available": [
                    {
                        "count": 2,
                        "vehicle_type_id": "1"
                    }
                ]
            },
            "type": "Feature"
        }
    ],
    "gbfs": {
        "station_information": {
            "last_updated": 1789297958,
            "ttl": 60,
            "version": "2.2"
        },
        "station_status": {
            "last_updated": 1789297958,
            "ttl": 60,
            "version": "2.2"
        }
    },
    "type": "FeatureCollection"
}