{
    "features": [
        {
            "geometry": {
                "coordinates": [
                    20.986858,
                    50.011964
                ],
                "type": "Point"
            },
            "properties": {
                "capacity": 14,
                "is_installed": true,
                "is_renting": true,
                "is_returning": true,
                "is_virtual_station": false,
                "last_reported": 1789328228,
                "name": "Plac Kazimierza",
                "num_bikes_available": 14,
                "num_docks_available": 0,
                "region_id": "548",
                "rental_uris": {
                    "android": "https://app.nextbike.net/station?id=10031377",
                    "ios": "https://app.nextbike.net/station?id=10031377",
                    "web": "https://nxtb.it/p/10031377"
                },
                "short_name": "3880",
                "station_id": "10031377",
                "vehicle_types_available": [
                    {
                        "count": 2,
                        "vehicle_type_id": "116"
                    },
                    {
                        "count": 11,
                        "vehicle_type_id": "4"
                    },
                    {
                        "count": 1,
                        "vehicle_type_id": "163"
                    }
                ]
            },
            "type": "Feature"
        },
        {
            "geometry": {
                "coordinates": [
                    20.98884,
                    50.015361
                ],
                "type": "Point"
            },
            "properties": {
                "capacity": 15,
                "is_installed": true,
                "is_renting": true,
                "is_returning": true,
                "is_virtual_station": false,
                "last_reported": 1789328228,
                "name": "Plac Jana Szczepanika",
                "num_bikes_available": 8,
                "num_docks_available": 7,
                "region_id": "548",
                "rental_uris": {
                    "android": "https://app.nextbike.net/station?id=10031384",
                    "ios": "https://app.nextbike.net/station?id=10031384",
                    "web": "https://nxtb.it/p/10031384"
                },
                "short_name": "3881",
                "station_id": "10031384",
                "vehicle_types_available": [
                    {
                        "count": 8,
                        "vehicle_type_id": "4"
                    }
                ]
            },
            "type": "Feature"
        },
        {
            "geometry": {
                "coordinates": [
                    20.975236,
                    50.006092
                ],
                "type": "Point"
            },
            "properties": {
                "capacity": 12,
                "is_installed": true,
                "is_renting": true,
                "is_returning": true,
                "is_virtual_station": false,
                "last_reported": 1789328228,
                "name": "Dworzec PKP",
                "num_bikes_available": 4,
                "num_docks_available": 10,
                "region_id": "548",
                "rental_uris": {
                    "android": "https://app.nextbike.net/station?id=10031388",
                    "ios": "https://app.nextbike.net/station?id=10031388",
                    "web": "https://nxtb.it/p/10031388"
                },
                "short_name": "3882",
                "station_id": "10031388",
                "vehicle_types_available": [
                    {
                        "count": 4,
                        "vehicle_type_id": "4"
                    }
                ]
            },
            "type": "Feature"
        },
        {
            "geometry": {
                "coordinates": [
                    20.985465,
                    50.021536
                ],
                "type": "Point"
            },
            "properties": {
                "capacity": 20,
                "is_installed": true,
                "is_renting": true,
                "is_returning": true,
                "is_virtual_station": false,
                "last_reported": 1789328228,
                "name": "Park Strzelecki",
                "num_bikes_available": 15,
                "num_docks_available": 14,
                "region_id": "548",
                "rental_uris": {
                    "android": "https://app.nextbike.net/station?id=10031393",
                    "ios": "https://app.nextbike.net/station?id=10031393",
                    "web": "https://nxtb.it/p/10031393"
                },
                "short_name": "3883",
                "station_id": "10031393",
                "vehicle_types_available": [
                    {
                        "count": 3,
                        "vehicle_type_id": "116"
                    },
                    {
                        "count": 11,
                        "vehicle_type_id": "4"
                    },
                    {
                        "count": 1,
                        "vehicle_type_id": "163"
                    }
                ]
            },
            "type": "Feature"
        },
        {
            "geometry": {
                "coordinates": [
                    21.012712,
                    50.022558
                ],
                "type": "Point"
            },
            "properties": {
                "capacity": 15,
                "is_installed": true,
                "is_renting": true,
                "is_returning": true,
                "is_virtual_station": false,
                "last_reported": 1789328228,
                "name": "Osiedle Zielone",
                "num_bikes_available": 10,
                "num_docks_available": 8,
                "region_id": "548",
                "rental_uris": {
                    "android": "https://app.nextbike.net/station?id=10031400",
                    "ios": "https://app.nextbike.net/station?id=10031400",
                    "web": "https://nxtb.it/p/10031400"
                },
                "short_name": "3884",
                "station_id": "10031400",
                "vehicle_types_available": [
                    {
                        "count": 10,
                        "vehicle_type_id": "4"
                    }
                ]
            },
            "type": "Feature"
        },
        {
            "geometry": {
                "coordinates": [
                    20.992433,
                    50.044311
                ],
                "type": "Point"
            },
            "properties": {
                "capacity": 15,
                "is_installed": true,
                "is_renting": true,
                "is_returning": true,
                "is_virtual_station": false,
                "last_reported": 1789328228,
                "name": "Krzyska \u2013 Szko\u0142a",
                "num_bikes_available": 10,
                "num_docks_available": 4,
                "region_id": "548",
                "rental_uris": {
                    "android": "https://app.nextbike.net/station?id=10031402",
                    "ios": "https://app.nextbike.net/station?id=10031402",
                    "web": "https://nxtb.it/p/10031402"
                },
                "short_name": "3885",
                "station_id": "10031402",
                "vehicle_types_available": [
                    {
                        "count": 10,
                        "vehicle_type_id": "4"
                    }
                ]
            },
            "type": "Feature"
        },
        {
            "geometry": {
                "coordinates": [
                    21.001062,
                    49.992456
                ],
                "type": "Point"
            },
            "properties": {
                "capacity": 15,
                "is_installed": true,
                "is_renting": true,
                "is_returning": true,
                "is_virtual_station": false,
                "last_reported": 1789328228,
                "name": "G\u00f3ra \u015aw. Marcina",
                "num_bikes_available": 10,
                "num_docks_available": 6,
                "region_id": "548",
                "rental_uris": {
                    "android": "https://app.nextbike.net/station?id=10031406",
                    "ios": "https://app.nextbike.net/station?id=10031406",
                    "web": "https://nxtb.it/p/10031406"
                },
                "short_name": "3886",
                "station_id": "10031406",
                "vehicle_types_available": [
                    {
                        "count": 10,
                        "vehicle_type_id": "4"
                    }
                ]
            },
            "type": "Feature"
        },
        {
            "geometry": {
                "coordinates": [
                    20.947723,
                    49.994859
                ],
                "type": "Point"
            },
            "properties": {
                "capacity": 15,
                "is_installed": true,
                "is_renting": true,
                "is_returning": true,
                "is_virtual_station": false,
                "last_reported": 1789328228,
                "name": "Osiedle Koszyckie",
                "num_bikes_available": 10,
                "num_docks_available": 5,
                "region_id": "548",
                "rental_uris": {
                    "android": "https://app.nextbike.net/station?id=10031409",
                    "ios": "https://app.nextbike.net/station?id=10031409",
                    "web": "https://nxtb.it/p/10031409"
                },
                "short_name": "3887",
                "station_id": "10031409",
                "vehicle_types_available": [
                    {
                        "count": 9,
                        "vehicle_type_id": "4"
                    },
                    {
                        "count": 1,
                        "vehicle_type_id": "163"
                    }
                ]
            },
            "type": "Feature"
        },
        {
            "geometry": {
                "coordinates": [
                    20.925607,
                    50.009739
                ],
                "type": "Point"
            },
            "properties": {
                "capacity": 20,
                "is_installed": true,
                "is_renting": true,
                "is_returning": true,
                "is_virtual_station": false,
                "last_reported": 1789328228,
                "name": "Centrum Sztuki Mo\u015bcice",
                "num_bikes_available": 12,
                "num_docks_available": 14,
                "region_id": "548",
                "rental_uris": {
                    "android": "https://app.nextbike.net/station?id=10031415",
                    "ios": "https://app.nextbike.net/station?id=10031415",
                    "web": "https://nxtb.it/p/10031415"
                },
                "short_name": "3888",
                "station_id": "10031415",
                "vehicle_types_available": [
                    {
                        "count": 2,
                        "vehicle_type_id": "116"
                    },
                    {
                        "count": 8,
                        "vehicle_type_id": "4"
                    },
                    {
                        "count": 2,
                        "vehicle_type_id": "163"
                    }
                ]
            },
            "type": "Feature"
        },
        {
            "geometry": {
                "coordinates": [
                    20.923703,
                    50.0149
                ],
                "type": "Point"
            },
            "properties": {
                "capacity": 19,
                "is_installed": true,
                "is_renting": true,
                "is_returning": true,
                "is_virtual_station": false,
                "last_reported": 1789328228,
                "name": "Mo\u015bcice \u2013 Kwiatkowskiego",
                "num_bikes_available": 12,
                "num_docks_available": 8,
                "region_id": "548",
                "rental_uris": {
                    "android": "https://app.nextbike.net/station?id=10031418",
                    "ios": "https://app.nextbike.net/station?id=10031418",
                    "web": "https://nxtb.it/p/10031418"
                },
                "short_name": "3889",
                "station_id": "10031418",
                "vehicle_types_available": [
                    {
                        "count": 1,
                        "vehicle_type_id": "116"
                    },
                    {
                        "count": 11,
                        "vehicle_type_id": "4"
                    }
                ]
            },
            "type": "Feature"
        },
        {
            "geometry": {
                "coordinates": [
                    20.992723,
                    50.009141
                ],
                "type": "Point"
            },
            "properties": {
                "capacity": 15,
                "is_installed": true,
                "is_renting": true,
                "is_returning": true,
                "is_virtual_station": false,
                "last_reported": 1789328228,
                "name": "Konarskiego - S\u0105d",
                "num_bikes_available": 9,
                "num_docks_available": 7,
                "region_id": "548",
                "rental_uris": {
                    "android": "https://app.nextbike.net/station?id=130235737",
                    "ios": "https://app.nextbike.net/station?id=130235737",
                    "web": "https://nxtb.it/p/130235737"
                },
                "short_name": "3896",
                "station_id": "130235737",
                "vehicle_types_available": [
                    {
                        "count": 8,
                        "vehicle_type_id": "4"
                    },
                    {
                        "count": 1,
                        "vehicle_type_id": "163"
                    }
                ]
            },
            "type": "Feature"
        },
        {
            "geometry": {
                "coordinates": [
                    20.981917,
                    50.032008
                ],
                "type": "Point"
            },
            "properties": {
                "capacity": 12,
                "is_installed": true,
                "is_renting": true,
                "is_returning": true,
                "is_virtual_station": false,
                "last_reported": 1789328228,
                "name": "Piaskowa \u2013 Park",
                "num_bikes_available": 6,
                "num_docks_available": 6,
                "region_id": "548",
                "rental_uris": {
                    "android": "https://app.nextbike.net/station?id=130238242",
                    "ios": "https://app.nextbike.net/station?id=130238242",
                    "web": "https://nxtb.it/p/130238242"
                },
                "short_name": "3897",
                "station_id": "130238242",
                "vehicle_types_available": [
                    {
                        "count": 1,
                        "vehicle_type_id": "116"
                    },
                    {
                        "count": 5,
                        "vehicle_type_id": "4"
                    }
                ]
            },
            "type": "Feature"
        },
        {
            "geometry": {
                "coordinates": [
                    21.00299,
                    50.02666
                ],
                "type": "Point"
            },
            "properties": {
                "capacity": 15,
                "is_installed": true,
                "is_renting": true,
                "is_returning": true,
                "is_virtual_station": false,
                "last_reported": 1789328228,
                "name": "Osiedle Legion\u00f3w",
                "num_bikes_available": 11,
                "num_docks_available": 6,
                "region_id": "548",
                "rental_uris": {
                    "android": "https://app.nextbike.net/station?id=32183274",
                    "ios": "https://app.nextbike.net/station?id=32183274",
                    "web": "https://nxtb.it/p/32183274"
                },
                "short_name": "3890",
                "station_id": "32183274",
                "vehicle_types_available": [
                    {
                        "count": 11,
                        "vehicle_type_id": "4"
                    }
                ]
            },
            "type": "Feature"
        },
        {
            "geometry": {
                "coordinates": [
                    21.00667,
                    50.03047
                ],
                "type": "Point"
            },
            "properties": {
                "capacity": 13,
                "is_installed": true,
                "is_renting": true,
                "is_returning": true,
                "is_virtual_station": false,
                "last_reported": 1789328228,
                "name": "Osiedle Westerplatte",
                "num_bikes_available": 8,
                "num_docks_available": 6,
                "region_id": "548",
                "rental_uris": {
                    "android": "https://app.nextbike.net/station?id=32183286",
                    "ios": "https://app.nextbike.net/station?id=32183286",
                    "web": "https://nxtb.it/p/32183286"
                },
                "short_name": "3891",
                "station_id": "32183286",
                "vehicle_types_available": [
                    {
                        "count": 7,
                        "vehicle_type_id": "4"
                    },
                    {
                        "count": 1,
                        "vehicle_type_id": "163"
                    }
                ]
            },
            "type": "Feature"
        },
        {
            "geometry": {
                "coordinates": [
                    20.96975,
                    50.01163
                ],
                "type": "Point"
            },
            "properties": {
                "capacity": 15,
                "is_installed": true,
                "is_renting": true,
                "is_returning": true,
                "is_virtual_station": false,
                "last_reported": 1789328228,
                "name": "Mo\u015bcickiego - Osiedle",
                "num_bikes_available": 16,
                "num_docks_available": 2,
                "region_id": "548",
                "rental_uris": {
                    "android": "https://app.nextbike.net/station?id=32183346",
                    "ios": "https://app.nextbike.net/station?id=32183346",
                    "web": "https://nxtb.it/p/32183346"
                },
                "short_name": "3892",
                "station_id": "32183346",
                "vehicle_types_available": [
                    {
                        "count": 15,
                        "vehicle_type_id": "4"
                    },
                    {
                        "count": 1,
                        "vehicle_type_id": "163"
                    }
                ]
            },
            "type": "Feature"
        },
        {
            "geometry": {
                "coordinates": [
                    21.00469,
                    50.01442
                ],
                "type": "Point"
            },
            "properties": {
                "capacity": 16,
                "is_installed": true,
                "is_renting": true,
                "is_returning": true,
                "is_virtual_station": false,
                "last_reported": 1789328228,
                "name": "Lwowska - Kowalska",
                "num_bikes_available": 10,
                "num_docks_available": 6,
                "region_id": "548",
                "rental_uris": {
                    "android": "https://app.nextbike.net/station?id=32183368",
                    "ios": "https://app.nextbike.net/station?id=32183368",
                    "web": "https://nxtb.it/p/32183368"
                },
                "short_name": "3893",
                "station_id": "32183368",
                "vehicle_types_available": [
                    {
                        "count": 1,
                        "vehicle_type_id": "116"
                    },
                    {
                        "count": 8,
                        "vehicle_type_id": "4"
                    },
                    {
                        "count": 1,
                        "vehicle_type_id": "163"
                    }
                ]
            },
            "type": "Feature"
        },
        {
            "geometry": {
                "coordinates": [
                    20.97496,
                    50.01906
                ],
                "type": "Point"
            },
            "properties": {
                "capacity": 15,
                "is_installed": true,
                "is_renting": true,
                "is_returning": true,
                "is_virtual_station": false,
                "last_reported": 1789328228,
                "name": "Klikowska - Pu\u0142askiego",
                "num_bikes_available": 11,
                "num_docks_available": 5,
                "region_id": "548",
                "rental_uris": {
                    "android": "https://app.nextbike.net/station?id=32183374",
                    "ios": "https://app.nextbike.net/station?id=32183374",
                    "web": "https://nxtb.it/p/32183374"
                },
                "short_name": "3894",
                "station_id": "32183374",
                "vehicle_types_available": [
                    {
                        "count": 10,
                        "vehicle_type_id": "4"
                    },
                    {
                        "count": 1,
                        "vehicle_type_id": "163"
                    }
                ]
            },
            "type": "Feature"
        },
        {
            "geometry": {
                "coordinates": [
                    21.001241,
                    50.017874
                ],
                "type": "Point"
            },
            "properties": {
                "capacity": 16,
                "is_installed": true,
                "is_renting": true,
                "is_returning": true,
                "is_virtual_station": false,
                "last_reported": 1789328228,
                "name": "S\u0142oneczna",
                "num_bikes_available": 10,
                "num_docks_available": 8,
                "region_id": "548",
                "rental_uris": {
                    "android": "https://app.nextbike.net/station?id=32183410",
                    "ios": "https://app.nextbike.net/station?id=32183410",
                    "web": "https://nxtb.it/p/32183410"
                },
                "short_name": "3895",
                "station_id": "32183410",
                "vehicle_types_available": [
                    {
                        "count": 10,
                        "vehicle_type_id": "4"
                    }
                ]
            },
            "type": "Feature"
        }
    ],
    "gbfs": {
        "station_information": {
            "last_updated": 1789328228,
            "ttl": 60,
            "version": "2.3"
        },
        "station_status": {
            "last_updated": 1789328228,
            "ttl": 60,
            "version": "2.3"
        }
    },
    "type": "FeatureCollection"
}