{
    "features": [
        {
            "geometry": {
                "coordinates": [
                    16.17171,
                    54.21807
                ],
                "type": "Point"
            },
            "properties": {
                "capacity": 10,
                "is_installed": true,
                "is_renting": true,
                "is_returning": true,
                "is_virtual_station": false,
                "last_reported": 1789275706,
                "name": "Unii Europejskiej",
                "num_bikes_available": 18,
                "num_docks_available": 0,
                "region_id": "496",
                "rental_uris": {
                    "android": "https://app.nextbike.net/station?id=43207133",
                    "ios": "https://app.nextbike.net/station?id=43207133",
                    "web": "https://nxtb.it/p/43207133"
                },
                "short_name": "63011",
                "station_id": "43207133",
                "vehicle_types_available": [
                    {
                        "count": 17,
                        "vehicle_type_id": "71"
                    },
                    {
                        "count": 1,
                        "vehicle_type_id": "170"
                    }
                ]
            },
            "type": "Feature"
        },
        {
            "geometry": {
                "coordinates": [
                    16.20076,
                    54.21308
                ],
                "type": "Point"
            },
            "properties": {
                "capacity": 10,
                "is_installed": true,
                "is_renting": true,
                "is_returning": true,
                "is_virtual_station": false,
                "last_reported": 1789275706,
                "name": "Bukowe",
                "num_bikes_available": 13,
                "num_docks_available": 0,
                "region_id": "496",
                "rental_uris": {
                    "android": "https://app.nextbike.net/station?id=43207146",
                    "ios": "https://app.nextbike.net/station?id=43207146",
                    "web": "https://nxtb.it/p/43207146"
                },
                "short_name": "63012",
                "station_id": "43207146",
                "vehicle_types_available": [
                    {
                        "count": 12,
                        "vehicle_type_id": "71"
                    },
                    {
                        "count": 1,
                        "vehicle_type_id": "170"
                    }
                ]
            },
            "type": "Feature"
        },
        {
            "geometry": {
                "coordinates": [
                    16.16028,
                    54.20773
                ],
                "type": "Point"
            },
            "properties": {
                "capacity": 9,
                "is_installed": true,
                "is_renting": true,
                "is_returning": true,
                "is_virtual_station": false,
                "last_reported": 1789275706,
                "name": "Morskie",
                "num_bikes_available": 5,
                "num_docks_available": 4,
                "region_id": "496",
                "rental_uris": {
                    "android": "https://app.nextbike.net/station?id=43207393",
                    "ios": "https://app.nextbike.net/station?id=43207393",
                    "web": "https://nxtb.it/p/43207393"
                },
                "short_name": "63013",
                "station_id": "43207393",
                "vehicle_types_available": [
                    {
                        "count": 4,
                        "vehicle_type_id": "71"
                    },
                    {
                        "count": 1,
                        "vehicle_type_id": "170"
                    }
                ]
            },
            "type": "Feature"
        },
        {
            "geometry": {
                "coordinates": [
                    16.14793,
                    54.1952
                ],
                "type": "Point"
            },
            "properties": {
                "capacity": 9,
                "is_installed": true,
                "is_renting": true,
                "is_returning": true,
                "is_virtual_station": false,
                "last_reported": 1789275706,
                "name": "Strefa Ekonomiczna",
                "num_bikes_available": 10,
                "num_docks_available": 0,
                "region_id": "496",
                "rental_uris": {
                    "android": "https://app.nextbike.net/station?id=43207410",
                    "ios": "https://app.nextbike.net/station?id=43207410",
                    "web": "https://nxtb.it/p/43207410"
                },
                "short_name": "63014",
                "station_id": "43207410",
                "vehicle_types_available": [
                    {
                        "count": 9,
                        "vehicle_type_id": "71"
                    },
                    {
                        "count": 1,
                        "vehicle_type_id": "170"
                    }
                ]
            },
            "type": "Feature"
        },
        {
            "geometry": {
                "coordinates": [
                    16.21065,
                    54.19108
                ],
                "type": "Point"
            },
            "properties": {
                "capacity": 9,
                "is_installed": true,
                "is_renting": true,
                "is_returning": true,
                "is_virtual_station": false,
                "last_reported": 1789275706,
                "name": "Traugutta",
                "num_bikes_available": 4,
                "num_docks_available": 5,
                "region_id": "496",
                "rental_uris": {
                    "android": "https://app.nextbike.net/station?id=43207432",
                    "ios": "https://app.nextbike.net/station?id=43207432",
                    "web": "https://nxtb.it/p/43207432"
                },
                "short_name": "63015",
                "station_id": "43207432",
                "vehicle_types_available": [
                    {
                        "count": 3,
                        "vehicle_type_id": "71"
                    },
                    {
                        "count": 1,
                        "vehicle_type_id": "170"
                    }
                ]
            },
            "type": "Feature"
        },
        {
            "geometry": {
                "coordinates": [
                    16.211531,
                    54.156222
                ],
                "type": "Point"
            },
            "properties": {
                "capacity": 12,
                "is_installed": true,
                "is_renting": true,
                "is_returning": true,
                "is_virtual_station": false,
                "last_reported": 1789275706,
                "name": "Kretomi\u0144ska",
                "num_bikes_available": 9,
                "num_docks_available": 3,
                "region_id": "496",
                "rental_uris": {
                    "android": "https://app.nextbike.net/station?id=43207449",
                    "ios": "https://app.nextbike.net/station?id=43207449",
                    "web": "https://nxtb.it/p/43207449"
                },
                "short_name": "63016",
                "station_id": "43207449",
                "vehicle_types_available": [
                    {
                        "count": 9,
                        "vehicle_type_id": "71"
                    }
                ]
            },
            "type": "Feature"
        },
        {
            "geometry": {
                "coordinates": [
                    16.189692,
                    54.197231
                ],
                "type": "Point"
            },
            "properties": {
                "capacity": 13,
                "is_installed": true,
                "is_renting": true,
                "is_returning": true,
                "is_virtual_station": false,
                "last_reported": 1789275706,
                "name": "Fa\u0142ata ",
                "num_bikes_available": 2,
                "num_docks_available": 11,
                "region_id": "496",
                "rental_uris": {
                    "android": "https://app.nextbike.net/station?id=43207482",
                    "ios": "https://app.nextbike.net/station?id=43207482",
                    "web": "https://nxtb.it/p/43207482"
                },
                "short_name": "63017",
                "station_id": "43207482",
                "vehicle_types_available": [
                    {
                        "count": 2,
                        "vehicle_type_id": "71"
                    }
                ]
            },
            "type": "Feature"
        },
        {
            "geometry": {
                "coordinates": [
                    16.185718,
                    54.202047
                ],
                "type": "Point"
            },
            "properties": {
                "capacity": 12,
                "is_installed": true,
                "is_renting": true,
                "is_returning": true,
                "is_virtual_station": false,
                "last_reported": 1789275706,
                "name": "W\u0142adys\u0142awa IV/Wa\u0144kowicz",
                "num_bikes_available": 2,
                "num_docks_available": 10,
                "region_id": "496",
                "rental_uris": {
                    "android": "https://app.nextbike.net/station?id=43207556",
                    "ios": "https://app.nextbike.net/station?id=43207556",
                    "web": "https://nxtb.it/p/43207556"
                },
                "short_name": "63018",
                "station_id": "43207556",
                "vehicle_types_available": [
                    {
                        "count": 2,
                        "vehicle_type_id": "71"
                    }
                ]
            },
            "type": "Feature"
        },
        {
            "geometry": {
                "coordinates": [
                    16.19181,
                    54.18685
                ],
                "type": "Point"
            },
            "properties": {
                "capacity": 10,
                "is_installed": true,
                "is_renting": true,
                "is_returning": true,
                "is_virtual_station": false,
                "last_reported": 1789275706,
                "name": "Stawisi\u0144skiego",
                "num_bikes_available": 1,
                "num_docks_available": 9,
                "region_id": "496",
                "rental_uris": {
                    "android": "https://app.nextbike.net/station?id=43207565",
                    "ios": "https://app.nextbike.net/station?id=43207565",
                    "web": "https://nxtb.it/p/43207565"
                },
                "short_name": "63019",
                "station_id": "43207565",
                "vehicle_types_available": [
                    {
                        "count": 1,
                        "vehicle_type_id": "71"
                    }
                ]
            },
            "type": "Feature"
        },
        {
            "geometry": {
                "coordinates": [
                    16.18435,
                    54.18371
                ],
                "type": "Point"
            },
            "properties": {
                "capacity": 12,
                "is_installed": true,
                "is_renting": true,
                "is_returning": true,
                "is_virtual_station": false,
                "last_reported": 1789275706,
                "name": "Targowisko",
                "num_bikes_available": 10,
                "num_docks_available": 2,
                "region_id": "496",
                "rental_uris": {
                    "android": "https://app.nextbike.net/station?id=43207573",
                    "ios": "https://app.nextbike.net/station?id=43207573",
                    "web": "https://nxtb.it/p/43207573"
                },
                "short_name": "63020",
                "station_id": "43207573",
                "vehicle_types_available": [
                    {
                        "count": 10,
                        "vehicle_type_id": "71"
                    }
                ]
            },
            "type": "Feature"
        },
        {
            "geometry": {
                "coordinates": [
                    16.17118,
                    54.19068
                ],
                "type": "Point"
            },
            "properties": {
                "capacity": 15,
                "is_installed": true,
                "is_renting": true,
                "is_returning": true,
                "is_virtual_station": false,
                "last_reported": 1789275706,
                "name": "Dworzec",
                "num_bikes_available": 27,
                "num_docks_available": 0,
                "region_id": "496",
                "rental_uris": {
                    "android": "https://app.nextbike.net/station?id=43207657",
                    "ios": "https://app.nextbike.net/station?id=43207657",
                    "web": "https://nxtb.it/p/43207657"
                },
                "short_name": "63021",
                "station_id": "43207657",
                "vehicle_types_available": [
                    {
                        "count": 24,
                        "vehicle_type_id": "71"
                    },
                    {
                        "count": 3,
                        "vehicle_type_id": "170"
                    }
                ]
            },
            "type": "Feature"
        },
        {
            "geometry": {
                "coordinates": [
                    16.18204,
                    54.19041
                ],
                "type": "Point"
            },
            "properties": {
                "capacity": 16,
                "is_installed": true,
                "is_renting": true,
                "is_returning": true,
                "is_virtual_station": false,
                "last_reported": 1789275706,
                "name": "Ratusz",
                "num_bikes_available": 11,
                "num_docks_available": 5,
                "region_id": "496",
                "rental_uris": {
                    "android": "https://app.nextbike.net/station?id=43207666",
                    "ios": "https://app.nextbike.net/station?id=43207666",
                    "web": "https://nxtb.it/p/43207666"
                },
                "short_name": "63022",
                "station_id": "43207666",
                "vehicle_types_available": [
                    {
                        "count": 8,
                        "vehicle_type_id": "71"
                    },
                    {
                        "count": 3,
                        "vehicle_type_id": "170"
                    }
                ]
            },
            "type": "Feature"
        },
        {
            "geometry": {
                "coordinates": [
                    16.19847,
                    54.17638
                ],
                "type": "Point"
            },
            "properties": {
                "capacity": 12,
                "is_installed": true,
                "is_renting": true,
                "is_returning": true,
                "is_virtual_station": false,
                "last_reported": 1789275706,
                "name": "Gnie\u017anie\u0144ska",
                "num_bikes_available": 8,
                "num_docks_available": 4,
                "region_id": "496",
                "rental_uris": {
                    "android": "https://app.nextbike.net/station?id=43207697",
                    "ios": "https://app.nextbike.net/station?id=43207697",
                    "web": "https://nxtb.it/p/43207697"
                },
                "short_name": "63023",
                "station_id": "43207697",
                "vehicle_types_available": [
                    {
                        "count": 8,
                        "vehicle_type_id": "71"
                    }
                ]
            },
            "type": "Feature"
        },
        {
            "geometry": {
                "coordinates": [
                    16.19713,
                    54.20499
                ],
                "type": "Point"
            },
            "properties": {
                "capacity": 12,
                "is_installed": true,
                "is_renting": true,
                "is_returning": true,
                "is_virtual_station": false,
                "last_reported": 1789275706,
                "name": "Politechnika",
                "num_bikes_available": 2,
                "num_docks_available": 10,
                "region_id": "496",
                "rental_uris": {
                    "android": "https://app.nextbike.net/station?id=43207712",
                    "ios": "https://app.nextbike.net/station?id=43207712",
                    "web": "https://nxtb.it/p/43207712"
                },
                "short_name": "63024",
                "station_id": "43207712",
                "vehicle_types_available": [
                    {
                        "count": 2,
                        "vehicle_type_id": "71"
                    }
                ]
            },
            "type": "Feature"
        },
        {
            "geometry": {
                "coordinates": [
                    16.20233,
                    54.19869
                ],
                "type": "Point"
            },
            "properties": {
                "capacity": 12,
                "is_installed": true,
                "is_renting": true,
                "is_returning": true,
                "is_virtual_station": false,
                "last_reported": 1789275706,
                "name": "Budowlanka",
                "num_bikes_available": 2,
                "num_docks_available": 10,
                "region_id": "496",
                "rental_uris": {
                    "android": "https://app.nextbike.net/station?id=43207733",
                    "ios": "https://app.nextbike.net/station?id=43207733",
                    "web": "https://nxtb.it/p/43207733"
                },
                "short_name": "63025",
                "station_id": "43207733",
                "vehicle_types_available": [
                    {
                        "count": 2,
                        "vehicle_type_id": "71"
                    }
                ]
            },
            "type": "Feature"
        },
        {
            "geometry": {
                "coordinates": [
                    16.2202,
                    54.19032
                ],
                "type": "Point"
            },
            "properties": {
                "capacity": 11,
                "is_installed": true,
                "is_renting": true,
                "is_returning": true,
                "is_virtual_station": false,
                "last_reported": 1789275706,
                "name": "Zielona",
                "num_bikes_available": 11,
                "num_docks_available": 0,
                "region_id": "496",
                "rental_uris": {
                    "android": "https://app.nextbike.net/station?id=43207751",
                    "ios": "https://app.nextbike.net/station?id=43207751",
                    "web": "https://nxtb.it/p/43207751"
                },
                "short_name": "63026",
                "station_id": "43207751",
                "vehicle_types_available": [
                    {
                        "count": 10,
                        "vehicle_type_id": "71"
                    },
                    {
                        "count": 1,
                        "vehicle_type_id": "170"
                    }
                ]
            },
            "type": "Feature"
        },
        {
            "geometry": {
                "coordinates": [
                    16.17028,
                    54.24544
                ],
                "type": "Point"
            },
            "properties": {
                "capacity": 4,
                "is_installed": true,
                "is_renting": true,
                "is_returning": true,
                "is_virtual_station": false,
                "last_reported": 1789275706,
                "name": "Zagroda Jamne\u0144ska",
                "num_bikes_available": 8,
                "num_docks_available": 0,
                "region_id": "496",
                "rental_uris": {
                    "android": "https://app.nextbike.net/station?id=43207770",
                    "ios": "https://app.nextbike.net/station?id=43207770",
                    "web": "https://nxtb.it/p/43207770"
                },
                "short_name": "63027",
                "station_id": "43207770",
                "vehicle_types_available": [
                    {
                        "count": 6,
                        "vehicle_type_id": "71"
                    },
                    {
                        "count": 2,
                        "vehicle_type_id": "170"
                    }
                ]
            },
            "type": "Feature"
        },
        {
            "geometry": {
                "coordinates": [
                    16.18377,
                    54.21114
                ],
                "type": "Point"
            },
            "properties": {
                "capacity": 18,
                "is_installed": true,
                "is_renting": true,
                "is_returning": true,
                "is_virtual_station": false,
                "last_reported": 1789275706,
                "name": "W\u0105wozowa",
                "num_bikes_available": 8,
                "num_docks_available": 10,
                "region_id": "496",
                "rental_uris": {
                    "android": "https://app.nextbike.net/station?id=43207788",
                    "ios": "https://app.nextbike.net/station?id=43207788",
                    "web": "https://nxtb.it/p/43207788"
                },
                "short_name": "63028",
                "station_id": "43207788",
                "vehicle_types_available": [
                    {
                        "count": 8,
                        "vehicle_type_id": "71"
                    }
                ]
            },
            "type": "Feature"
        },
        {
            "geometry": {
                "coordinates": [
                    16.15839,
                    54.20299
                ],
                "type": "Point"
            },
            "properties": {
                "capacity": 8,
                "is_installed": true,
                "is_renting": true,
                "is_returning": true,
                "is_virtual_station": false,
                "last_reported": 1789275706,
                "name": "Przemys\u0142owa",
                "num_bikes_available": 7,
                "num_docks_available": 1,
                "region_id": "496",
                "rental_uris": {
                    "android": "https://app.nextbike.net/station?id=43207841",
                    "ios": "https://app.nextbike.net/station?id=43207841",
                    "web": "https://nxtb.it/p/43207841"
                },
                "short_name": "63029",
                "station_id": "43207841",
                "vehicle_types_available": [
                    {
                        "count": 7,
                        "vehicle_type_id": "71"
                    }
                ]
            },
            "type": "Feature"
        },
        {
            "geometry": {
                "coordinates": [
                    16.20822,
                    54.17835
                ],
                "type": "Point"
            },
            "properties": {
                "capacity": 8,
                "is_installed": true,
                "is_renting": true,
                "is_returning": true,
                "is_virtual_station": false,
                "last_reported": 1789275706,
                "name": "Wodna dolina",
                "num_bikes_available": 10,
                "num_docks_available": 0,
                "region_id": "496",
                "rental_uris": {
                    "android": "https://app.nextbike.net/station?id=43207867",
                    "ios": "https://app.nextbike.net/station?id=43207867",
                    "web": "https://nxtb.it/p/43207867"
                },
                "short_name": "63030",
                "station_id": "43207867",
                "vehicle_types_available": [
                    {
                        "count": 9,
                        "vehicle_type_id": "71"
                    },
                    {
                        "count": 1,
                        "vehicle_type_id": "170"
                    }
                ]
            },
            "type": "Feature"
        }
    ],
    "gbfs": {
        "station_information": {
            "last_updated": 1789275706,
            "ttl": 60,
            "version": "2.3"
        },
        "station_status": {
            "last_updated": 1789275706,
            "ttl": 60,
            "version": "2.3"
        }
    },
    "type": "FeatureCollection"
}