{
    "features": [
        {
            "geometry": {
                "coordinates": [
                    17.698435,
                    50.104058
                ],
                "type": "Point"
            },
            "properties": {
                "is_installed": true,
                "is_renting": true,
                "is_returning": true,
                "is_virtual_station": false,
                "last_reported": 1789302303,
                "name": "Petrovick\u00e1, bytovky",
                "num_bikes_available": 4,
                "num_docks_available": 0,
                "region_id": "707",
                "rental_uris": {
                    "android": "https://app.nextbike.net/station?id=116464313",
                    "ios": "https://app.nextbike.net/station?id=116464313",
                    "web": "https://nxtb.it/p/116464313"
                },
                "short_name": "49600",
                "station_id": "116464313",
                "vehicle_types_available": [
                    {
                        "count": 4,
                        "vehicle_type_id": "302"
                    }
                ]
            },
            "type": "Feature"
        },
        {
            "geometry": {
                "coordinates": [
                    17.730208,
                    50.080156
                ],
                "type": "Point"
            },
            "properties": {
                "is_installed": true,
                "is_renting": true,
                "is_returning": true,
                "is_virtual_station": false,
                "last_reported": 1789302303,
                "name": "Petr\u016fv d\u016fl, to\u010dna",
                "num_bikes_available": 3,
                "num_docks_available": 0,
                "region_id": "707",
                "rental_uris": {
                    "android": "https://app.nextbike.net/station?id=116465033",
                    "ios": "https://app.nextbike.net/station?id=116465033",
                    "web": "https://nxtb.it/p/116465033"
                },
                "short_name": "49601",
                "station_id": "116465033",
                "vehicle_types_available": [
                    {
                        "count": 3,
                        "vehicle_type_id": "302"
                    }
                ]
            },
            "type": "Feature"
        },
        {
            "geometry": {
                "coordinates": [
                    17.697454,
                    50.087769
                ],
                "type": "Point"
            },
            "properties": {
                "capacity": 10,
                "is_installed": true,
                "is_renting": true,
                "is_returning": true,
                "is_virtual_station": false,
                "last_reported": 1789302303,
                "name": "Discgolf",
                "num_bikes_available": 4,
                "num_docks_available": 6,
                "region_id": "707",
                "rental_uris": {
                    "android": "https://app.nextbike.net/station?id=27583040",
                    "ios": "https://app.nextbike.net/station?id=27583040",
                    "web": "https://nxtb.it/p/27583040"
                },
                "short_name": "46097",
                "station_id": "27583040",
                "vehicle_types_available": [
                    {
                        "count": 3,
                        "vehicle_type_id": "302"
                    },
                    {
                        "count": 1,
                        "vehicle_type_id": "419"
                    }
                ]
            },
            "type": "Feature"
        },
        {
            "geometry": {
                "coordinates": [
                    17.720303,
                    50.092774
                ],
                "type": "Point"
            },
            "properties": {
                "capacity": 10,
                "is_installed": true,
                "is_renting": true,
                "is_returning": true,
                "is_virtual_station": false,
                "last_reported": 1789302303,
                "name": "Kofola - Santa Trans",
                "num_bikes_available": 3,
                "num_docks_available": 7,
                "region_id": "707",
                "rental_uris": {
                    "android": "https://app.nextbike.net/station?id=27583208",
                    "ios": "https://app.nextbike.net/station?id=27583208",
                    "web": "https://nxtb.it/p/27583208"
                },
                "short_name": "46117",
                "station_id": "27583208",
                "vehicle_types_available": [
                    {
                        "count": 3,
                        "vehicle_type_id": "302"
                    }
                ]
            },
            "type": "Feature"
        },
        {
            "geometry": {
                "coordinates": [
                    17.720166,
                    50.079546
                ],
                "type": "Point"
            },
            "properties": {
                "capacity": 10,
                "is_installed": true,
                "is_renting": true,
                "is_returning": true,
                "is_virtual_station": false,
                "last_reported": 1789302303,
                "name": "Hotel Cvil\u00edn",
                "num_bikes_available": 4,
                "num_docks_available": 6,
                "region_id": "707",
                "rental_uris": {
                    "android": "https://app.nextbike.net/station?id=27583218",
                    "ios": "https://app.nextbike.net/station?id=27583218",
                    "web": "https://nxtb.it/p/27583218"
                },
                "short_name": "46118",
                "station_id": "27583218",
                "vehicle_types_available": [
                    {
                        "count": 4,
                        "vehicle_type_id": "419"
                    }
                ]
            },
            "type": "Feature"
        },
        {
            "geometry": {
                "coordinates": [
                    17.688312,
                    50.084441
                ],
                "type": "Point"
            },
            "properties": {
                "capacity": 10,
                "is_installed": true,
                "is_renting": true,
                "is_returning": true,
                "is_virtual_station": false,
                "last_reported": 1789302303,
                "name": "Strojosvit",
                "num_bikes_available": 0,
                "num_docks_available": 10,
                "region_id": "707",
                "rental_uris": {
                    "android": "https://app.nextbike.net/station?id=27604206",
                    "ios": "https://app.nextbike.net/station?id=27604206",
                    "web": "https://nxtb.it/p/27604206"
                },
                "short_name": "46199",
                "station_id": "27604206",
                "vehicle_types_available": []
            },
            "type": "Feature"
        },
        {
            "geometry": {
                "coordinates": [
                    17.69604,
                    50.082213
                ],
                "type": "Point"
            },
            "properties": {
                "is_installed": true,
                "is_renting": true,
                "is_returning": true,
                "is_virtual_station": false,
                "last_reported": 1789302303,
                "name": "Ch\u00e1\u0159ovsk\u00e1, gar\u00e1\u017ee",
                "num_bikes_available": 8,
                "num_docks_available": 0,
                "region_id": "707",
                "rental_uris": {
                    "android": "https://app.nextbike.net/station?id=278444375",
                    "ios": "https://app.nextbike.net/station?id=278444375",
                    "web": "https://nxtb.it/p/278444375"
                },
                "short_name": "49602",
                "station_id": "278444375",
                "vehicle_types_available": [
                    {
                        "count": 1,
                        "vehicle_type_id": "418"
                    },
                    {
                        "count": 6,
                        "vehicle_type_id": "302"
                    },
                    {
                        "count": 1,
                        "vehicle_type_id": "419"
                    }
                ]
            },
            "type": "Feature"
        },
        {
            "geometry": {
                "coordinates": [
                    17.693702,
                    50.084244
                ],
                "type": "Point"
            },
            "properties": {
                "is_installed": true,
                "is_renting": true,
                "is_returning": true,
                "is_virtual_station": false,
                "last_reported": 1789302303,
                "name": "Jysk",
                "num_bikes_available": 1,
                "num_docks_available": 0,
                "region_id": "707",
                "rental_uris": {
                    "android": "https://app.nextbike.net/station?id=278444656",
                    "ios": "https://app.nextbike.net/station?id=278444656",
                    "web": "https://nxtb.it/p/278444656"
                },
                "short_name": "49603",
                "station_id": "278444656",
                "vehicle_types_available": [
                    {
                        "count": 1,
                        "vehicle_type_id": "302"
                    }
                ]
            },
            "type": "Feature"
        },
        {
            "geometry": {
                "coordinates": [
                    17.697022,
                    50.096888
                ],
                "type": "Point"
            },
            "properties": {
                "capacity": 10,
                "is_installed": true,
                "is_renting": true,
                "is_returning": true,
                "is_virtual_station": false,
                "last_reported": 1789302303,
                "name": "Letn\u00ed koupali\u0161t\u011b",
                "num_bikes_available": 0,
                "num_docks_available": 10,
                "region_id": "707",
                "rental_uris": {
                    "android": "https://app.nextbike.net/station?id=36122575",
                    "ios": "https://app.nextbike.net/station?id=36122575",
                    "web": "https://nxtb.it/p/36122575"
                },
                "short_name": "46167",
                "station_id": "36122575",
                "vehicle_types_available": []
            },
            "type": "Feature"
        },
        {
            "geometry": {
                "coordinates": [
                    17.715225,
                    50.098257
                ],
                "type": "Point"
            },
            "properties": {
                "is_installed": true,
                "is_renting": true,
                "is_returning": true,
                "is_virtual_station": false,
                "last_reported": 1789302303,
                "name": "Hlub\u010dick\u00e1, Na \u0160pici",
                "num_bikes_available": 2,
                "num_docks_available": 0,
                "region_id": "707",
                "rental_uris": {
                    "android": "https://app.nextbike.net/station?id=43880188",
                    "ios": "https://app.nextbike.net/station?id=43880188",
                    "web": "https://nxtb.it/p/43880188"
                },
                "short_name": "48054",
                "station_id": "43880188",
                "vehicle_types_available": [
                    {
                        "count": 2,
                        "vehicle_type_id": "302"
                    }
                ]
            },
            "type": "Feature"
        },
        {
            "geometry": {
                "coordinates": [
                    17.712282,
                    50.093792
                ],
                "type": "Point"
            },
            "properties": {
                "is_installed": true,
                "is_renting": true,
                "is_returning": true,
                "is_virtual_station": false,
                "last_reported": 1789302303,
                "name": "N\u00e1dra\u017e\u00ed Krnov-Cvil\u00edn",
                "num_bikes_available": 3,
                "num_docks_available": 0,
                "region_id": "707",
                "rental_uris": {
                    "android": "https://app.nextbike.net/station?id=43880395",
                    "ios": "https://app.nextbike.net/station?id=43880395",
                    "web": "https://nxtb.it/p/43880395"
                },
                "short_name": "48055",
                "station_id": "43880395",
                "vehicle_types_available": [
                    {
                        "count": 3,
                        "vehicle_type_id": "302"
                    }
                ]
            },
            "type": "Feature"
        },
        {
            "geometry": {
                "coordinates": [
                    17.716236,
                    50.087559
                ],
                "type": "Point"
            },
            "properties": {
                "is_installed": true,
                "is_renting": true,
                "is_returning": true,
                "is_virtual_station": false,
                "last_reported": 1789302303,
                "name": "Opavsk\u00e1, cukr\u00e1rna",
                "num_bikes_available": 4,
                "num_docks_available": 0,
                "region_id": "707",
                "rental_uris": {
                    "android": "https://app.nextbike.net/station?id=43880411",
                    "ios": "https://app.nextbike.net/station?id=43880411",
                    "web": "https://nxtb.it/p/43880411"
                },
                "short_name": "48056",
                "station_id": "43880411",
                "vehicle_types_available": [
                    {
                        "count": 4,
                        "vehicle_type_id": "302"
                    }
                ]
            },
            "type": "Feature"
        },
        {
            "geometry": {
                "coordinates": [
                    17.712925,
                    50.086353
                ],
                "type": "Point"
            },
            "properties": {
                "is_installed": true,
                "is_renting": true,
                "is_returning": true,
                "is_virtual_station": false,
                "last_reported": 1789302303,
                "name": "St\u0159edisko voln\u00e9ho \u010dasu",
                "num_bikes_available": 5,
                "num_docks_available": 0,
                "region_id": "707",
                "rental_uris": {
                    "android": "https://app.nextbike.net/station?id=43880428",
                    "ios": "https://app.nextbike.net/station?id=43880428",
                    "web": "https://nxtb.it/p/43880428"
                },
                "short_name": "48057",
                "station_id": "43880428",
                "vehicle_types_available": [
                    {
                        "count": 5,
                        "vehicle_type_id": "302"
                    }
                ]
            },
            "type": "Feature"
        },
        {
            "geometry": {
                "coordinates": [
                    17.709013,
                    50.087983
                ],
                "type": "Point"
            },
            "properties": {
                "is_installed": true,
                "is_renting": true,
                "is_returning": true,
                "is_virtual_station": false,
                "last_reported": 1789302303,
                "name": "Opavsk\u00e1 \u2013 u Kauflandu",
                "num_bikes_available": 2,
                "num_docks_available": 0,
                "region_id": "707",
                "rental_uris": {
                    "android": "https://app.nextbike.net/station?id=43880445",
                    "ios": "https://app.nextbike.net/station?id=43880445",
                    "web": "https://nxtb.it/p/43880445"
                },
                "short_name": "48058",
                "station_id": "43880445",
                "vehicle_types_available": [
                    {
                        "count": 2,
                        "vehicle_type_id": "302"
                    }
                ]
            },
            "type": "Feature"
        },
        {
            "geometry": {
                "coordinates": [
                    17.704997,
                    50.089531
                ],
                "type": "Point"
            },
            "properties": {
                "is_installed": true,
                "is_renting": true,
                "is_returning": true,
                "is_virtual_station": false,
                "last_reported": 1789302303,
                "name": "N\u00e1m. Minorit\u016f",
                "num_bikes_available": 0,
                "num_docks_available": 0,
                "region_id": "707",
                "rental_uris": {
                    "android": "https://app.nextbike.net/station?id=43880467",
                    "ios": "https://app.nextbike.net/station?id=43880467",
                    "web": "https://nxtb.it/p/43880467"
                },
                "short_name": "48059",
                "station_id": "43880467",
                "vehicle_types_available": []
            },
            "type": "Feature"
        },
        {
            "geometry": {
                "coordinates": [
                    17.704294,
                    50.092283
                ],
                "type": "Point"
            },
            "properties": {
                "is_installed": true,
                "is_renting": true,
                "is_returning": true,
                "is_virtual_station": false,
                "last_reported": 1789302303,
                "name": "Dvo\u0159\u00e1k\u016fv okruh \u2013 z\u00e1kladn\u00ed \u0161kola",
                "num_bikes_available": 2,
                "num_docks_available": 0,
                "region_id": "707",
                "rental_uris": {
                    "android": "https://app.nextbike.net/station?id=43880487",
                    "ios": "https://app.nextbike.net/station?id=43880487",
                    "web": "https://nxtb.it/p/43880487"
                },
                "short_name": "48060",
                "station_id": "43880487",
                "vehicle_types_available": [
                    {
                        "count": 2,
                        "vehicle_type_id": "302"
                    }
                ]
            },
            "type": "Feature"
        },
        {
            "geometry": {
                "coordinates": [
                    17.700371,
                    50.094169
                ],
                "type": "Point"
            },
            "properties": {
                "is_installed": true,
                "is_renting": true,
                "is_returning": true,
                "is_virtual_station": false,
                "last_reported": 1789302303,
                "name": "Sportovn\u00ed are\u00e1l \u2013 skatepark",
                "num_bikes_available": 14,
                "num_docks_available": 0,
                "region_id": "707",
                "rental_uris": {
                    "android": "https://app.nextbike.net/station?id=43880648",
                    "ios": "https://app.nextbike.net/station?id=43880648",
                    "web": "https://nxtb.it/p/43880648"
                },
                "short_name": "48061",
                "station_id": "43880648",
                "vehicle_types_available": [
                    {
                        "count": 13,
                        "vehicle_type_id": "302"
                    },
                    {
                        "count": 1,
                        "vehicle_type_id": "418"
                    }
                ]
            },
            "type": "Feature"
        },
        {
            "geometry": {
                "coordinates": [
                    17.698369,
                    50.089147
                ],
                "type": "Point"
            },
            "properties": {
                "is_installed": true,
                "is_renting": true,
                "is_returning": true,
                "is_virtual_station": false,
                "last_reported": 1789302303,
                "name": "\u0160meralova \u2013 zmrzlina",
                "num_bikes_available": 1,
                "num_docks_available": 0,
                "region_id": "707",
                "rental_uris": {
                    "android": "https://app.nextbike.net/station?id=43880672",
                    "ios": "https://app.nextbike.net/station?id=43880672",
                    "web": "https://nxtb.it/p/43880672"
                },
                "short_name": "48062",
                "station_id": "43880672",
                "vehicle_types_available": [
                    {
                        "count": 1,
                        "vehicle_type_id": "302"
                    }
                ]
            },
            "type": "Feature"
        },
        {
            "geometry": {
                "coordinates": [
                    17.700134,
                    50.087098
                ],
                "type": "Point"
            },
            "properties": {
                "is_installed": true,
                "is_renting": true,
                "is_returning": true,
                "is_virtual_station": false,
                "last_reported": 1789302303,
                "name": "N\u00e1m. M\u00edru \u2013 ZU\u0160",
                "num_bikes_available": 3,
                "num_docks_available": 0,
                "region_id": "707",
                "rental_uris": {
                    "android": "https://app.nextbike.net/station?id=43880693",
                    "ios": "https://app.nextbike.net/station?id=43880693",
                    "web": "https://nxtb.it/p/43880693"
                },
                "short_name": "48063",
                "station_id": "43880693",
                "vehicle_types_available": [
                    {
                        "count": 2,
                        "vehicle_type_id": "302"
                    },
                    {
                        "count": 1,
                        "vehicle_type_id": "419"
                    }
                ]
            },
            "type": "Feature"
        },
        {
            "geometry": {
                "coordinates": [
                    17.694769,
                    50.088305
                ],
                "type": "Point"
            },
            "properties": {
                "is_installed": true,
                "is_renting": true,
                "is_returning": true,
                "is_virtual_station": false,
                "last_reported": 1789302303,
                "name": "Revolu\u010dn\u00ed \u2013 Albert (p\u0159esunuto)",
                "num_bikes_available": 1,
                "num_docks_available": 0,
                "region_id": "707",
                "rental_uris": {
                    "android": "https://app.nextbike.net/station?id=43880705",
                    "ios": "https://app.nextbike.net/station?id=43880705",
                    "web": "https://nxtb.it/p/43880705"
                },
                "short_name": "48064",
                "station_id": "43880705",
                "vehicle_types_available": [
                    {
                        "count": 1,
                        "vehicle_type_id": "302"
                    }
                ]
            },
            "type": "Feature"
        },
        {
            "geometry": {
                "coordinates": [
                    17.691564,
                    50.091455
                ],
                "type": "Point"
            },
            "properties": {
                "is_installed": true,
                "is_renting": true,
                "is_returning": true,
                "is_virtual_station": false,
                "last_reported": 1789302303,
                "name": "\u00da\u0159ad pr\u00e1ce",
                "num_bikes_available": 4,
                "num_docks_available": 0,
                "region_id": "707",
                "rental_uris": {
                    "android": "https://app.nextbike.net/station?id=43880759",
                    "ios": "https://app.nextbike.net/station?id=43880759",
                    "web": "https://nxtb.it/p/43880759"
                },
                "short_name": "48066",
                "station_id": "43880759",
                "vehicle_types_available": [
                    {
                        "count": 4,
                        "vehicle_type_id": "302"
                    }
                ]
            },
            "type": "Feature"
        },
        {
            "geometry": {
                "coordinates": [
                    17.690164,
                    50.096171
                ],
                "type": "Point"
            },
            "properties": {
                "is_installed": true,
                "is_renting": true,
                "is_returning": true,
                "is_virtual_station": false,
                "last_reported": 1789302303,
                "name": "M. Gork\u00e9ho \u2013 nemocnice",
                "num_bikes_available": 0,
                "num_docks_available": 0,
                "region_id": "707",
                "rental_uris": {
                    "android": "https://app.nextbike.net/station?id=43880780",
                    "ios": "https://app.nextbike.net/station?id=43880780",
                    "web": "https://nxtb.it/p/43880780"
                },
                "short_name": "48067",
                "station_id": "43880780",
                "vehicle_types_available": []
            },
            "type": "Feature"
        },
        {
            "geometry": {
                "coordinates": [
                    17.6864,
                    50.093139
                ],
                "type": "Point"
            },
            "properties": {
                "is_installed": true,
                "is_renting": true,
                "is_returning": true,
                "is_virtual_station": false,
                "last_reported": 1789302303,
                "name": "Bowling Albrechtick\u00e1",
                "num_bikes_available": 0,
                "num_docks_available": 0,
                "region_id": "707",
                "rental_uris": {
                    "android": "https://app.nextbike.net/station?id=43880794",
                    "ios": "https://app.nextbike.net/station?id=43880794",
                    "web": "https://nxtb.it/p/43880794"
                },
                "short_name": "48068",
                "station_id": "43880794",
                "vehicle_types_available": []
            },
            "type": "Feature"
        },
        {
            "geometry": {
                "coordinates": [
                    17.683839,
                    50.088679
                ],
                "type": "Point"
            },
            "properties": {
                "is_installed": true,
                "is_renting": true,
                "is_returning": true,
                "is_virtual_station": false,
                "last_reported": 1789302303,
                "name": "Vlakov\u00e9 n\u00e1dra\u017e\u00ed Krnov",
                "num_bikes_available": 5,
                "num_docks_available": 0,
                "region_id": "707",
                "rental_uris": {
                    "android": "https://app.nextbike.net/station?id=43880823",
                    "ios": "https://app.nextbike.net/station?id=43880823",
                    "web": "https://nxtb.it/p/43880823"
                },
                "short_name": "48070",
                "station_id": "43880823",
                "vehicle_types_available": [
                    {
                        "count": 5,
                        "vehicle_type_id": "302"
                    }
                ]
            },
            "type": "Feature"
        },
        {
            "geometry": {
                "coordinates": [
                    17.676914,
                    50.08614
                ],
                "type": "Point"
            },
            "properties": {
                "is_installed": true,
                "is_renting": true,
                "is_returning": true,
                "is_virtual_station": false,
                "last_reported": 1789302303,
                "name": "TJ Lokomotiva Krnov",
                "num_bikes_available": 1,
                "num_docks_available": 0,
                "region_id": "707",
                "rental_uris": {
                    "android": "https://app.nextbike.net/station?id=43880837",
                    "ios": "https://app.nextbike.net/station?id=43880837",
                    "web": "https://nxtb.it/p/43880837"
                },
                "short_name": "48071",
                "station_id": "43880837",
                "vehicle_types_available": [
                    {
                        "count": 1,
                        "vehicle_type_id": "302"
                    }
                ]
            },
            "type": "Feature"
        },
        {
            "geometry": {
                "coordinates": [
                    17.680591,
                    50.097044
                ],
                "type": "Point"
            },
            "properties": {
                "is_installed": true,
                "is_renting": true,
                "is_returning": true,
                "is_virtual_station": false,
                "last_reported": 1789302303,
                "name": "Albrechtick\u00e1 \u2013 obchod Hru\u0161ka",
                "num_bikes_available": 0,
                "num_docks_available": 0,
                "region_id": "707",
                "rental_uris": {
                    "android": "https://app.nextbike.net/station?id=43880859",
                    "ios": "https://app.nextbike.net/station?id=43880859",
                    "web": "https://nxtb.it/p/43880859"
                },
                "short_name": "48072",
                "station_id": "43880859",
                "vehicle_types_available": []
            },
            "type": "Feature"
        },
        {
            "geometry": {
                "coordinates": [
                    17.658015,
                    50.108861
                ],
                "type": "Point"
            },
            "properties": {
                "is_installed": true,
                "is_renting": true,
                "is_returning": true,
                "is_virtual_station": false,
                "last_reported": 1789302303,
                "name": "Chom\u00fd\u017e \u2013 sportovn\u00ed are\u00e1l",
                "num_bikes_available": 1,
                "num_docks_available": 0,
                "region_id": "707",
                "rental_uris": {
                    "android": "https://app.nextbike.net/station?id=43880875",
                    "ios": "https://app.nextbike.net/station?id=43880875",
                    "web": "https://nxtb.it/p/43880875"
                },
                "short_name": "48073",
                "station_id": "43880875",
                "vehicle_types_available": [
                    {
                        "count": 1,
                        "vehicle_type_id": "302"
                    }
                ]
            },
            "type": "Feature"
        },
        {
            "geometry": {
                "coordinates": [
                    17.638298,
                    50.123786
                ],
                "type": "Point"
            },
            "properties": {
                "is_installed": true,
                "is_renting": true,
                "is_returning": true,
                "is_virtual_station": false,
                "last_reported": 1789302303,
                "name": "Kr\u00e1sn\u00e9 Lou\u010dky \u2013 obchod",
                "num_bikes_available": 2,
                "num_docks_available": 0,
                "region_id": "707",
                "rental_uris": {
                    "android": "https://app.nextbike.net/station?id=43880885",
                    "ios": "https://app.nextbike.net/station?id=43880885",
                    "web": "https://nxtb.it/p/43880885"
                },
                "short_name": "48074",
                "station_id": "43880885",
                "vehicle_types_available": [
                    {
                        "count": 2,
                        "vehicle_type_id": "419"
                    }
                ]
            },
            "type": "Feature"
        },
        {
            "geometry": {
                "coordinates": [
                    17.738067,
                    50.067924
                ],
                "type": "Point"
            },
            "properties": {
                "is_installed": true,
                "is_renting": true,
                "is_returning": true,
                "is_virtual_station": false,
                "last_reported": 1789302303,
                "name": "Pr\u016fmyslov\u00e1 z\u00f3na \u010cerven\u00fd dv\u016fr",
                "num_bikes_available": 9,
                "num_docks_available": 0,
                "region_id": "707",
                "rental_uris": {
                    "android": "https://app.nextbike.net/station?id=43880897",
                    "ios": "https://app.nextbike.net/station?id=43880897",
                    "web": "https://nxtb.it/p/43880897"
                },
                "short_name": "48075",
                "station_id": "43880897",
                "vehicle_types_available": [
                    {
                        "count": 6,
                        "vehicle_type_id": "302"
                    },
                    {
                        "count": 3,
                        "vehicle_type_id": "419"
                    }
                ]
            },
            "type": "Feature"
        },
        {
            "geometry": {
                "coordinates": [
                    17.711131,
                    50.095433
                ],
                "type": "Point"
            },
            "properties": {
                "is_installed": true,
                "is_renting": true,
                "is_returning": true,
                "is_virtual_station": false,
                "last_reported": 1789302303,
                "name": "Kofola - Za Drahou",
                "num_bikes_available": 0,
                "num_docks_available": 0,
                "region_id": "707",
                "rental_uris": {
                    "android": "https://app.nextbike.net/station?id=44887980",
                    "ios": "https://app.nextbike.net/station?id=44887980",
                    "web": "https://nxtb.it/p/44887980"
                },
                "short_name": "48006",
                "station_id": "44887980",
                "vehicle_types_available": []
            },
            "type": "Feature"
        },
        {
            "geometry": {
                "coordinates": [
                    17.687648,
                    50.092544
                ],
                "type": "Point"
            },
            "properties": {
                "is_installed": true,
                "is_renting": true,
                "is_returning": true,
                "is_virtual_station": false,
                "last_reported": 1789302303,
                "name": "Billa - Nov\u00e1 Kas\u00e1rna",
                "num_bikes_available": 3,
                "num_docks_available": 0,
                "region_id": "707",
                "rental_uris": {
                    "android": "https://app.nextbike.net/station?id=592649937",
                    "ios": "https://app.nextbike.net/station?id=592649937",
                    "web": "https://nxtb.it/p/592649937"
                },
                "short_name": "47960",
                "station_id": "592649937",
                "vehicle_types_available": [
                    {
                        "count": 3,
                        "vehicle_type_id": "302"
                    }
                ]
            },
            "type": "Feature"
        },
        {
            "geometry": {
                "coordinates": [
                    17.693572,
                    50.086606
                ],
                "type": "Point"
            },
            "properties": {
                "is_installed": true,
                "is_renting": true,
                "is_returning": true,
                "is_virtual_station": false,
                "last_reported": 1789302303,
                "name": "M\u011bstsk\u00e9 l\u00e1zn\u011b - baz\u00e9n",
                "num_bikes_available": 1,
                "num_docks_available": 0,
                "region_id": "707",
                "rental_uris": {
                    "android": "https://app.nextbike.net/station?id=592650006",
                    "ios": "https://app.nextbike.net/station?id=592650006",
                    "web": "https://nxtb.it/p/592650006"
                },
                "short_name": "47961",
                "station_id": "592650006",
                "vehicle_types_available": [
                    {
                        "count": 1,
                        "vehicle_type_id": "302"
                    }
                ]
            },
            "type": "Feature"
        },
        {
            "geometry": {
                "coordinates": [
                    17.707366,
                    50.091337
                ],
                "type": "Point"
            },
            "properties": {
                "is_installed": true,
                "is_renting": true,
                "is_returning": true,
                "is_virtual_station": false,
                "last_reported": 1789302303,
                "name": "Svat\u00e9ho Ducha",
                "num_bikes_available": 0,
                "num_docks_available": 0,
                "region_id": "707",
                "rental_uris": {
                    "android": "https://app.nextbike.net/station?id=592650216",
                    "ios": "https://app.nextbike.net/station?id=592650216",
                    "web": "https://nxtb.it/p/592650216"
                },
                "short_name": "47962",
                "station_id": "592650216",
                "vehicle_types_available": []
            },
            "type": "Feature"
        },
        {
            "geometry": {
                "coordinates": [
                    17.694917,
                    50.091996
                ],
                "type": "Point"
            },
            "properties": {
                "is_installed": true,
                "is_renting": true,
                "is_returning": true,
                "is_virtual_station": false,
                "last_reported": 1789302303,
                "name": "Pedagogick\u00e1 \u0161kola",
                "num_bikes_available": 1,
                "num_docks_available": 0,
                "region_id": "707",
                "rental_uris": {
                    "android": "https://app.nextbike.net/station?id=592650265",
                    "ios": "https://app.nextbike.net/station?id=592650265",
                    "web": "https://nxtb.it/p/592650265"
                },
                "short_name": "47963",
                "station_id": "592650265",
                "vehicle_types_available": [
                    {
                        "count": 1,
                        "vehicle_type_id": "302"
                    }
                ]
            },
            "type": "Feature"
        },
        {
            "geometry": {
                "coordinates": [
                    17.686499,
                    50.087112
                ],
                "type": "Point"
            },
            "properties": {
                "is_installed": true,
                "is_renting": true,
                "is_returning": true,
                "is_virtual_station": false,
                "last_reported": 1789302303,
                "name": "Obchodn\u00ed centrum S1",
                "num_bikes_available": 10,
                "num_docks_available": 0,
                "region_id": "707",
                "rental_uris": {
                    "android": "https://app.nextbike.net/station?id=592660252",
                    "ios": "https://app.nextbike.net/station?id=592660252",
                    "web": "https://nxtb.it/p/592660252"
                },
                "short_name": "47965",
                "station_id": "592660252",
                "vehicle_types_available": [
                    {
                        "count": 10,
                        "vehicle_type_id": "302"
                    }
                ]
            },
            "type": "Feature"
        },
        {
            "geometry": {
                "coordinates": [
                    17.724043,
                    50.086259
                ],
                "type": "Point"
            },
            "properties": {
                "is_installed": true,
                "is_renting": true,
                "is_returning": true,
                "is_virtual_station": false,
                "last_reported": 1789302303,
                "name": "S\u00eddli\u0161t\u011b pod Cvil\u00ednem, S",
                "num_bikes_available": 5,
                "num_docks_available": 0,
                "region_id": "707",
                "rental_uris": {
                    "android": "https://app.nextbike.net/station?id=592660353",
                    "ios": "https://app.nextbike.net/station?id=592660353",
                    "web": "https://nxtb.it/p/592660353"
                },
                "short_name": "47966",
                "station_id": "592660353",
                "vehicle_types_available": [
                    {
                        "count": 5,
                        "vehicle_type_id": "302"
                    }
                ]
            },
            "type": "Feature"
        },
        {
            "geometry": {
                "coordinates": [
                    17.698276,
                    50.092043
                ],
                "type": "Point"
            },
            "properties": {
                "is_installed": true,
                "is_renting": true,
                "is_returning": true,
                "is_virtual_station": false,
                "last_reported": 1789302303,
                "name": "Atletick\u00fd stadion",
                "num_bikes_available": 0,
                "num_docks_available": 0,
                "region_id": "707",
                "rental_uris": {
                    "android": "https://app.nextbike.net/station?id=592660409",
                    "ios": "https://app.nextbike.net/station?id=592660409",
                    "web": "https://nxtb.it/p/592660409"
                },
                "short_name": "47967",
                "station_id": "592660409",
                "vehicle_types_available": []
            },
            "type": "Feature"
        },
        {
            "geometry": {
                "coordinates": [
                    17.684739,
                    50.081184
                ],
                "type": "Point"
            },
            "properties": {
                "is_installed": true,
                "is_renting": true,
                "is_returning": true,
                "is_virtual_station": false,
                "last_reported": 1789302303,
                "name": "Ch\u00e1\u0159ovsk\u00fd park",
                "num_bikes_available": 1,
                "num_docks_available": 0,
                "region_id": "707",
                "rental_uris": {
                    "android": "https://app.nextbike.net/station?id=592660769",
                    "ios": "https://app.nextbike.net/station?id=592660769",
                    "web": "https://nxtb.it/p/592660769"
                },
                "short_name": "47968",
                "station_id": "592660769",
                "vehicle_types_available": [
                    {
                        "count": 1,
                        "vehicle_type_id": "419"
                    }
                ]
            },
            "type": "Feature"
        },
        {
            "geometry": {
                "coordinates": [
                    17.666068,
                    50.10518
                ],
                "type": "Point"
            },
            "properties": {
                "is_installed": true,
                "is_renting": true,
                "is_returning": true,
                "is_virtual_station": false,
                "last_reported": 1789302303,
                "name": "Chom\u00fd\u017e - Blatn\u00e1",
                "num_bikes_available": 5,
                "num_docks_available": 0,
                "region_id": "707",
                "rental_uris": {
                    "android": "https://app.nextbike.net/station?id=592660826",
                    "ios": "https://app.nextbike.net/station?id=592660826",
                    "web": "https://nxtb.it/p/592660826"
                },
                "short_name": "47969",
                "station_id": "592660826",
                "vehicle_types_available": [
                    {
                        "count": 4,
                        "vehicle_type_id": "302"
                    },
                    {
                        "count": 1,
                        "vehicle_type_id": "419"
                    }
                ]
            },
            "type": "Feature"
        },
        {
            "geometry": {
                "coordinates": [
                    17.641799,
                    50.069227
                ],
                "type": "Point"
            },
            "properties": {
                "is_installed": true,
                "is_renting": true,
                "is_returning": true,
                "is_virtual_station": false,
                "last_reported": 1789302303,
                "name": "Brantice, u k\u0159\u00ed\u017ee",
                "num_bikes_available": 4,
                "num_docks_available": 0,
                "region_id": "707",
                "rental_uris": {
                    "android": "https://app.nextbike.net/station?id=592660871",
                    "ios": "https://app.nextbike.net/station?id=592660871",
                    "web": "https://nxtb.it/p/592660871"
                },
                "short_name": "47970",
                "station_id": "592660871",
                "vehicle_types_available": [
                    {
                        "count": 3,
                        "vehicle_type_id": "302"
                    },
                    {
                        "count": 1,
                        "vehicle_type_id": "419"
                    }
                ]
            },
            "type": "Feature"
        },
        {
            "geometry": {
                "coordinates": [
                    17.732641,
                    50.049023
                ],
                "type": "Point"
            },
            "properties": {
                "is_installed": true,
                "is_renting": true,
                "is_returning": true,
                "is_virtual_station": false,
                "last_reported": 1789302303,
                "name": "\u00davalno, Plov\u00e1rna Na V\u00fdslun\u00ed",
                "num_bikes_available": 0,
                "num_docks_available": 0,
                "region_id": "707",
                "rental_uris": {
                    "android": "https://app.nextbike.net/station?id=592661008",
                    "ios": "https://app.nextbike.net/station?id=592661008",
                    "web": "https://nxtb.it/p/592661008"
                },
                "short_name": "47971",
                "station_id": "592661008",
                "vehicle_types_available": []
            },
            "type": "Feature"
        },
        {
            "geometry": {
                "coordinates": [
                    17.744536,
                    50.047275
                ],
                "type": "Point"
            },
            "properties": {
                "is_installed": true,
                "is_renting": true,
                "is_returning": true,
                "is_virtual_station": false,
                "last_reported": 1789302303,
                "name": "\u00davalno, Galerie na Rycht\u011b",
                "num_bikes_available": 1,
                "num_docks_available": 0,
                "region_id": "707",
                "rental_uris": {
                    "android": "https://app.nextbike.net/station?id=592661060",
                    "ios": "https://app.nextbike.net/station?id=592661060",
                    "web": "https://nxtb.it/p/592661060"
                },
                "short_name": "47972",
                "station_id": "592661060",
                "vehicle_types_available": [
                    {
                        "count": 1,
                        "vehicle_type_id": "419"
                    }
                ]
            },
            "type": "Feature"
        },
        {
            "geometry": {
                "coordinates": [
                    17.738888,
                    50.046849
                ],
                "type": "Point"
            },
            "properties": {
                "is_installed": true,
                "is_renting": true,
                "is_returning": true,
                "is_virtual_station": false,
                "last_reported": 1789302303,
                "name": "\u00davalno, rozcest\u00ed u bludn\u00e9ho balvanu",
                "num_bikes_available": 0,
                "num_docks_available": 0,
                "region_id": "707",
                "rental_uris": {
                    "android": "https://app.nextbike.net/station?id=592661109",
                    "ios": "https://app.nextbike.net/station?id=592661109",
                    "web": "https://nxtb.it/p/592661109"
                },
                "short_name": "47973",
                "station_id": "592661109",
                "vehicle_types_available": []
            },
            "type": "Feature"
        },
        {
            "geometry": {
                "coordinates": [
                    17.75476,
                    50.049027
                ],
                "type": "Point"
            },
            "properties": {
                "is_installed": true,
                "is_renting": true,
                "is_returning": true,
                "is_virtual_station": false,
                "last_reported": 1789302303,
                "name": "\u00davalno, n\u00e1dra\u017e\u00ed",
                "num_bikes_available": 5,
                "num_docks_available": 0,
                "region_id": "707",
                "rental_uris": {
                    "android": "https://app.nextbike.net/station?id=592661224",
                    "ios": "https://app.nextbike.net/station?id=592661224",
                    "web": "https://nxtb.it/p/592661224"
                },
                "short_name": "47974",
                "station_id": "592661224",
                "vehicle_types_available": [
                    {
                        "count": 3,
                        "vehicle_type_id": "302"
                    },
                    {
                        "count": 2,
                        "vehicle_type_id": "419"
                    }
                ]
            },
            "type": "Feature"
        },
        {
            "geometry": {
                "coordinates": [
                    17.629238,
                    50.063846
                ],
                "type": "Point"
            },
            "properties": {
                "is_installed": true,
                "is_renting": true,
                "is_returning": true,
                "is_virtual_station": false,
                "last_reported": 1789302303,
                "name": "Brantice, obecn\u00ed \u00fa\u0159ad",
                "num_bikes_available": 6,
                "num_docks_available": 0,
                "region_id": "707",
                "rental_uris": {
                    "android": "https://app.nextbike.net/station?id=592661268",
                    "ios": "https://app.nextbike.net/station?id=592661268",
                    "web": "https://nxtb.it/p/592661268"
                },
                "short_name": "47975",
                "station_id": "592661268",
                "vehicle_types_available": [
                    {
                        "count": 4,
                        "vehicle_type_id": "302"
                    },
                    {
                        "count": 1,
                        "vehicle_type_id": "418"
                    },
                    {
                        "count": 1,
                        "vehicle_type_id": "419"
                    }
                ]
            },
            "type": "Feature"
        },
        {
            "geometry": {
                "coordinates": [
                    17.610286,
                    50.054583
                ],
                "type": "Point"
            },
            "properties": {
                "is_installed": true,
                "is_renting": true,
                "is_returning": true,
                "is_virtual_station": false,
                "last_reported": 1789302303,
                "name": "Brantice, rozc. k \u017eel.st.",
                "num_bikes_available": 0,
                "num_docks_available": 0,
                "region_id": "707",
                "rental_uris": {
                    "android": "https://app.nextbike.net/station?id=592661318",
                    "ios": "https://app.nextbike.net/station?id=592661318",
                    "web": "https://nxtb.it/p/592661318"
                },
                "short_name": "47976",
                "station_id": "592661318",
                "vehicle_types_available": []
            },
            "type": "Feature"
        },
        {
            "geometry": {
                "coordinates": [
                    17.702307,
                    50.090114
                ],
                "type": "Point"
            },
            "properties": {
                "capacity": 10,
                "is_installed": true,
                "is_renting": true,
                "is_returning": true,
                "is_virtual_station": false,
                "last_reported": 1789302303,
                "name": "Hlavn\u00ed n\u00e1m\u011bst\u00ed",
                "num_bikes_available": 0,
                "num_docks_available": 10,
                "region_id": "707",
                "rental_uris": {
                    "android": "https://app.nextbike.net/station?id=595779340",
                    "ios": "https://app.nextbike.net/station?id=595779340",
                    "web": "https://nxtb.it/p/595779340"
                },
                "short_name": "47977",
                "station_id": "595779340",
                "vehicle_types_available": []
            },
            "type": "Feature"
        },
        {
            "geometry": {
                "coordinates": [
                    17.70759,
                    50.089495
                ],
                "type": "Point"
            },
            "properties": {
                "capacity": 10,
                "is_installed": true,
                "is_renting": true,
                "is_returning": true,
                "is_virtual_station": false,
                "last_reported": 1789302303,
                "name": "Synagoga",
                "num_bikes_available": 0,
                "num_docks_available": 10,
                "region_id": "707",
                "rental_uris": {
                    "android": "https://app.nextbike.net/station?id=616569064",
                    "ios": "https://app.nextbike.net/station?id=616569064",
                    "web": "https://nxtb.it/p/616569064"
                },
                "short_name": "47978",
                "station_id": "616569064",
                "vehicle_types_available": []
            },
            "type": "Feature"
        },
        {
            "geometry": {
                "coordinates": [
                    17.654397,
                    50.074615
                ],
                "type": "Point"
            },
            "properties": {
                "capacity": 10,
                "is_installed": true,
                "is_renting": true,
                "is_returning": true,
                "is_virtual_station": false,
                "last_reported": 1789302303,
                "name": "Brantice, Jednota",
                "num_bikes_available": 2,
                "num_docks_available": 8,
                "region_id": "707",
                "rental_uris": {
                    "android": "https://app.nextbike.net/station?id=616569310",
                    "ios": "https://app.nextbike.net/station?id=616569310",
                    "web": "https://nxtb.it/p/616569310"
                },
                "short_name": "47979",
                "station_id": "616569310",
                "vehicle_types_available": [
                    {
                        "count": 2,
                        "vehicle_type_id": "302"
                    }
                ]
            },
            "type": "Feature"
        },
        {
            "geometry": {
                "coordinates": [
                    17.623428,
                    50.058313
                ],
                "type": "Point"
            },
            "properties": {
                "capacity": 10,
                "is_installed": true,
                "is_renting": true,
                "is_returning": true,
                "is_virtual_station": false,
                "last_reported": 1789302303,
                "name": "Brantice, bytovky",
                "num_bikes_available": 0,
                "num_docks_available": 10,
                "region_id": "707",
                "rental_uris": {
                    "android": "https://app.nextbike.net/station?id=616569561",
                    "ios": "https://app.nextbike.net/station?id=616569561",
                    "web": "https://nxtb.it/p/616569561"
                },
                "short_name": "47980",
                "station_id": "616569561",
                "vehicle_types_available": []
            },
            "type": "Feature"
        },
        {
            "geometry": {
                "coordinates": [
                    17.712636,
                    50.090776
                ],
                "type": "Point"
            },
            "properties": {
                "is_installed": true,
                "is_renting": true,
                "is_returning": true,
                "is_virtual_station": false,
                "last_reported": 1789302303,
                "name": "Z\u0160 \u017di\u017ekova",
                "num_bikes_available": 2,
                "num_docks_available": 0,
                "region_id": "707",
                "rental_uris": {
                    "android": "https://app.nextbike.net/station?id=620131480",
                    "ios": "https://app.nextbike.net/station?id=620131480",
                    "web": "https://nxtb.it/p/620131480"
                },
                "short_name": "47981",
                "station_id": "620131480",
                "vehicle_types_available": [
                    {
                        "count": 2,
                        "vehicle_type_id": "302"
                    }
                ]
            },
            "type": "Feature"
        },
        {
            "geometry": {
                "coordinates": [
                    17.700707,
                    50.089657
                ],
                "type": "Point"
            },
            "properties": {
                "is_installed": true,
                "is_renting": true,
                "is_returning": true,
                "is_virtual_station": false,
                "last_reported": 1789302303,
                "name": "Z\u00e1meck\u00e9 n\u00e1m\u011bst\u00ed",
                "num_bikes_available": 0,
                "num_docks_available": 0,
                "region_id": "707",
                "rental_uris": {
                    "android": "https://app.nextbike.net/station?id=620132522",
                    "ios": "https://app.nextbike.net/station?id=620132522",
                    "web": "https://nxtb.it/p/620132522"
                },
                "short_name": "47982",
                "station_id": "620132522",
                "vehicle_types_available": []
            },
            "type": "Feature"
        },
        {
            "geometry": {
                "coordinates": [
                    17.672392,
                    50.085781
                ],
                "type": "Point"
            },
            "properties": {
                "is_installed": true,
                "is_renting": true,
                "is_returning": true,
                "is_virtual_station": false,
                "last_reported": 1789302303,
                "name": "Kofola music club",
                "num_bikes_available": 0,
                "num_docks_available": 0,
                "region_id": "707",
                "rental_uris": {
                    "android": "https://app.nextbike.net/station?id=71262016",
                    "ios": "https://app.nextbike.net/station?id=71262016",
                    "web": "https://nxtb.it/p/71262016"
                },
                "short_name": "48379",
                "station_id": "71262016",
                "vehicle_types_available": []
            },
            "type": "Feature"
        },
        {
            "geometry": {
                "coordinates": [
                    17.647581,
                    50.093802
                ],
                "type": "Point"
            },
            "properties": {
                "is_installed": true,
                "is_renting": true,
                "is_returning": true,
                "is_virtual_station": false,
                "last_reported": 1789302303,
                "name": "Je\u017en\u00edk - Hermes",
                "num_bikes_available": 0,
                "num_docks_available": 0,
                "region_id": "707",
                "rental_uris": {
                    "android": "https://app.nextbike.net/station?id=71262152",
                    "ios": "https://app.nextbike.net/station?id=71262152",
                    "web": "https://nxtb.it/p/71262152"
                },
                "short_name": "48380",
                "station_id": "71262152",
                "vehicle_types_available": []
            },
            "type": "Feature"
        },
        {
            "geometry": {
                "coordinates": [
                    17.695397,
                    50.094445
                ],
                "type": "Point"
            },
            "properties": {
                "is_installed": true,
                "is_renting": true,
                "is_returning": true,
                "is_virtual_station": false,
                "last_reported": 1789302303,
                "name": "Domov pro seniory",
                "num_bikes_available": 2,
                "num_docks_available": 0,
                "region_id": "707",
                "rental_uris": {
                    "android": "https://app.nextbike.net/station?id=71262279",
                    "ios": "https://app.nextbike.net/station?id=71262279",
                    "web": "https://nxtb.it/p/71262279"
                },
                "short_name": "48496",
                "station_id": "71262279",
                "vehicle_types_available": [
                    {
                        "count": 2,
                        "vehicle_type_id": "302"
                    }
                ]
            },
            "type": "Feature"
        },
        {
            "geometry": {
                "coordinates": [
                    17.722088,
                    50.088221
                ],
                "type": "Point"
            },
            "properties": {
                "is_installed": true,
                "is_renting": true,
                "is_returning": true,
                "is_virtual_station": false,
                "last_reported": 1789302303,
                "name": "S\u00eddli\u0161t\u011b pod Cvil\u00ednem, H",
                "num_bikes_available": 1,
                "num_docks_available": 0,
                "region_id": "707",
                "rental_uris": {
                    "android": "https://app.nextbike.net/station?id=71262352",
                    "ios": "https://app.nextbike.net/station?id=71262352",
                    "web": "https://nxtb.it/p/71262352"
                },
                "short_name": "48311",
                "station_id": "71262352",
                "vehicle_types_available": [
                    {
                        "count": 1,
                        "vehicle_type_id": "302"
                    }
                ]
            },
            "type": "Feature"
        }
    ],
    "gbfs": {
        "station_information": {
            "last_updated": 1789302303,
            "ttl": 60,
            "version": "2.3"
        },
        "station_status": {
            "last_updated": 1789302303,
            "ttl": 60,
            "version": "2.3"
        }
    },
    "type": "FeatureCollection"
}