{
    "features": [
        {
            "geometry": {
                "coordinates": [
                    15.35444,
                    50.43685
                ],
                "type": "Point"
            },
            "properties": {
                "is_installed": true,
                "is_renting": true,
                "is_returning": true,
                "is_virtual_station": false,
                "last_reported": 1789281440,
                "name": "\u017di\u017ekovo n\u00e1m\u011bst\u00ed",
                "num_bikes_available": 0,
                "num_docks_available": 0,
                "region_id": "1032",
                "rental_uris": {
                    "android": "https://app.nextbike.net/station?id=365043587",
                    "ios": "https://app.nextbike.net/station?id=365043587",
                    "web": "https://nxtb.it/p/365043587"
                },
                "short_name": "45906",
                "station_id": "365043587",
                "vehicle_types_available": []
            },
            "type": "Feature"
        },
        {
            "geometry": {
                "coordinates": [
                    15.3587,
                    50.43585
                ],
                "type": "Point"
            },
            "properties": {
                "is_installed": true,
                "is_renting": true,
                "is_returning": true,
                "is_virtual_station": false,
                "last_reported": 1789281440,
                "name": "Husova/Tyr\u0161ova",
                "num_bikes_available": 0,
                "num_docks_available": 0,
                "region_id": "1032",
                "rental_uris": {
                    "android": "https://app.nextbike.net/station?id=365044208",
                    "ios": "https://app.nextbike.net/station?id=365044208",
                    "web": "https://nxtb.it/p/365044208"
                },
                "short_name": "45907",
                "station_id": "365044208",
                "vehicle_types_available": []
            },
            "type": "Feature"
        },
        {
            "geometry": {
                "coordinates": [
                    15.35487,
                    50.43456
                ],
                "type": "Point"
            },
            "properties": {
                "is_installed": true,
                "is_renting": true,
                "is_returning": true,
                "is_virtual_station": false,
                "last_reported": 1789281440,
                "name": "Autobusov\u00e9 n\u00e1dra\u017e\u00ed",
                "num_bikes_available": 1,
                "num_docks_available": 0,
                "region_id": "1032",
                "rental_uris": {
                    "android": "https://app.nextbike.net/station?id=365045044",
                    "ios": "https://app.nextbike.net/station?id=365045044",
                    "web": "https://nxtb.it/p/365045044"
                },
                "short_name": "45908",
                "station_id": "365045044",
                "vehicle_types_available": [
                    {
                        "count": 1,
                        "vehicle_type_id": "254"
                    }
                ]
            },
            "type": "Feature"
        },
        {
            "geometry": {
                "coordinates": [
                    15.3493,
                    50.43491
                ],
                "type": "Point"
            },
            "properties": {
                "is_installed": true,
                "is_renting": true,
                "is_returning": true,
                "is_virtual_station": false,
                "last_reported": 1789281440,
                "name": "17. listopadu - M\u011bstsk\u00fd \u00fa\u0159ad",
                "num_bikes_available": 0,
                "num_docks_available": 0,
                "region_id": "1032",
                "rental_uris": {
                    "android": "https://app.nextbike.net/station?id=365045722",
                    "ios": "https://app.nextbike.net/station?id=365045722",
                    "web": "https://nxtb.it/p/365045722"
                },
                "short_name": "45909",
                "station_id": "365045722",
                "vehicle_types_available": []
            },
            "type": "Feature"
        },
        {
            "geometry": {
                "coordinates": [
                    15.34864,
                    50.43971
                ],
                "type": "Point"
            },
            "properties": {
                "is_installed": true,
                "is_renting": true,
                "is_returning": true,
                "is_virtual_station": false,
                "last_reported": 1789281440,
                "name": "Zimn\u00ed stadion",
                "num_bikes_available": 6,
                "num_docks_available": 0,
                "region_id": "1032",
                "rental_uris": {
                    "android": "https://app.nextbike.net/station?id=365046180",
                    "ios": "https://app.nextbike.net/station?id=365046180",
                    "web": "https://nxtb.it/p/365046180"
                },
                "short_name": "45910",
                "station_id": "365046180",
                "vehicle_types_available": [
                    {
                        "count": 5,
                        "vehicle_type_id": "254"
                    },
                    {
                        "count": 1,
                        "vehicle_type_id": "258"
                    }
                ]
            },
            "type": "Feature"
        },
        {
            "geometry": {
                "coordinates": [
                    15.35424,
                    50.44011
                ],
                "type": "Point"
            },
            "properties": {
                "is_installed": true,
                "is_renting": true,
                "is_returning": true,
                "is_virtual_station": false,
                "last_reported": 1789281440,
                "name": "\u017deleznick\u00e1",
                "num_bikes_available": 0,
                "num_docks_available": 0,
                "region_id": "1032",
                "rental_uris": {
                    "android": "https://app.nextbike.net/station?id=365047799",
                    "ios": "https://app.nextbike.net/station?id=365047799",
                    "web": "https://nxtb.it/p/365047799"
                },
                "short_name": "45911",
                "station_id": "365047799",
                "vehicle_types_available": []
            },
            "type": "Feature"
        },
        {
            "geometry": {
                "coordinates": [
                    15.35771,
                    50.44271
                ],
                "type": "Point"
            },
            "properties": {
                "is_installed": true,
                "is_renting": true,
                "is_returning": true,
                "is_virtual_station": false,
                "last_reported": 1789281440,
                "name": "\u010ce\u0159ovka",
                "num_bikes_available": 0,
                "num_docks_available": 0,
                "region_id": "1032",
                "rental_uris": {
                    "android": "https://app.nextbike.net/station?id=365049008",
                    "ios": "https://app.nextbike.net/station?id=365049008",
                    "web": "https://nxtb.it/p/365049008"
                },
                "short_name": "45912",
                "station_id": "365049008",
                "vehicle_types_available": []
            },
            "type": "Feature"
        },
        {
            "geometry": {
                "coordinates": [
                    15.36257,
                    50.44055
                ],
                "type": "Point"
            },
            "properties": {
                "is_installed": true,
                "is_renting": true,
                "is_returning": true,
                "is_virtual_station": false,
                "last_reported": 1789281440,
                "name": "Aquacentrum",
                "num_bikes_available": 2,
                "num_docks_available": 0,
                "region_id": "1032",
                "rental_uris": {
                    "android": "https://app.nextbike.net/station?id=365049662",
                    "ios": "https://app.nextbike.net/station?id=365049662",
                    "web": "https://nxtb.it/p/365049662"
                },
                "short_name": "45913",
                "station_id": "365049662",
                "vehicle_types_available": [
                    {
                        "count": 2,
                        "vehicle_type_id": "254"
                    }
                ]
            },
            "type": "Feature"
        },
        {
            "geometry": {
                "coordinates": [
                    15.3646,
                    50.43679
                ],
                "type": "Point"
            },
            "properties": {
                "is_installed": true,
                "is_renting": true,
                "is_returning": true,
                "is_virtual_station": false,
                "last_reported": 1789281440,
                "name": "Sv. \u010cecha",
                "num_bikes_available": 1,
                "num_docks_available": 0,
                "region_id": "1032",
                "rental_uris": {
                    "android": "https://app.nextbike.net/station?id=365050652",
                    "ios": "https://app.nextbike.net/station?id=365050652",
                    "web": "https://nxtb.it/p/365050652"
                },
                "short_name": "45914",
                "station_id": "365050652",
                "vehicle_types_available": [
                    {
                        "count": 1,
                        "vehicle_type_id": "254"
                    }
                ]
            },
            "type": "Feature"
        },
        {
            "geometry": {
                "coordinates": [
                    15.36064,
                    50.43079
                ],
                "type": "Point"
            },
            "properties": {
                "is_installed": true,
                "is_renting": true,
                "is_returning": true,
                "is_virtual_station": false,
                "last_reported": 1789281440,
                "name": "Vlakov\u00e9 n\u00e1dra\u017e\u00ed",
                "num_bikes_available": 0,
                "num_docks_available": 0,
                "region_id": "1032",
                "rental_uris": {
                    "android": "https://app.nextbike.net/station?id=365051701",
                    "ios": "https://app.nextbike.net/station?id=365051701",
                    "web": "https://nxtb.it/p/365051701"
                },
                "short_name": "45915",
                "station_id": "365051701",
                "vehicle_types_available": []
            },
            "type": "Feature"
        },
        {
            "geometry": {
                "coordinates": [
                    15.34897,
                    50.43128
                ],
                "type": "Point"
            },
            "properties": {
                "is_installed": true,
                "is_renting": true,
                "is_returning": true,
                "is_virtual_station": false,
                "last_reported": 1789281440,
                "name": "Lidick\u00e9 n\u00e1m\u011bst\u00ed",
                "num_bikes_available": 0,
                "num_docks_available": 0,
                "region_id": "1032",
                "rental_uris": {
                    "android": "https://app.nextbike.net/station?id=365052426",
                    "ios": "https://app.nextbike.net/station?id=365052426",
                    "web": "https://nxtb.it/p/365052426"
                },
                "short_name": "45916",
                "station_id": "365052426",
                "vehicle_types_available": []
            },
            "type": "Feature"
        },
        {
            "geometry": {
                "coordinates": [
                    15.34447,
                    50.44255
                ],
                "type": "Point"
            },
            "properties": {
                "is_installed": true,
                "is_renting": true,
                "is_returning": true,
                "is_virtual_station": false,
                "last_reported": 1789281440,
                "name": "Hol\u00ednsk\u00e9 P\u0159edm\u011bst\u00ed",
                "num_bikes_available": 3,
                "num_docks_available": 0,
                "region_id": "1032",
                "rental_uris": {
                    "android": "https://app.nextbike.net/station?id=365053386",
                    "ios": "https://app.nextbike.net/station?id=365053386",
                    "web": "https://nxtb.it/p/365053386"
                },
                "short_name": "45917",
                "station_id": "365053386",
                "vehicle_types_available": [
                    {
                        "count": 3,
                        "vehicle_type_id": "254"
                    }
                ]
            },
            "type": "Feature"
        },
        {
            "geometry": {
                "coordinates": [
                    15.37832,
                    50.45015
                ],
                "type": "Point"
            },
            "properties": {
                "is_installed": true,
                "is_renting": true,
                "is_returning": true,
                "is_virtual_station": false,
                "last_reported": 1789281440,
                "name": "Sedli\u010dky",
                "num_bikes_available": 5,
                "num_docks_available": 0,
                "region_id": "1032",
                "rental_uris": {
                    "android": "https://app.nextbike.net/station?id=365054106",
                    "ios": "https://app.nextbike.net/station?id=365054106",
                    "web": "https://nxtb.it/p/365054106"
                },
                "short_name": "45918",
                "station_id": "365054106",
                "vehicle_types_available": [
                    {
                        "count": 5,
                        "vehicle_type_id": "254"
                    }
                ]
            },
            "type": "Feature"
        },
        {
            "geometry": {
                "coordinates": [
                    15.37883,
                    50.43528
                ],
                "type": "Point"
            },
            "properties": {
                "is_installed": true,
                "is_renting": true,
                "is_returning": true,
                "is_virtual_station": false,
                "last_reported": 1789281440,
                "name": "Allanovy sady",
                "num_bikes_available": 8,
                "num_docks_available": 0,
                "region_id": "1032",
                "rental_uris": {
                    "android": "https://app.nextbike.net/station?id=365054539",
                    "ios": "https://app.nextbike.net/station?id=365054539",
                    "web": "https://nxtb.it/p/365054539"
                },
                "short_name": "45919",
                "station_id": "365054539",
                "vehicle_types_available": [
                    {
                        "count": 8,
                        "vehicle_type_id": "254"
                    }
                ]
            },
            "type": "Feature"
        },
        {
            "geometry": {
                "coordinates": [
                    15.39847,
                    50.43274
                ],
                "type": "Point"
            },
            "properties": {
                "is_installed": true,
                "is_renting": true,
                "is_returning": true,
                "is_virtual_station": false,
                "last_reported": 1789281440,
                "name": "Robousy (+15minut zdarma na p\u0159\u00edjezd/odjezd)",
                "num_bikes_available": 10,
                "num_docks_available": 0,
                "region_id": "1032",
                "rental_uris": {
                    "android": "https://app.nextbike.net/station?id=365054908",
                    "ios": "https://app.nextbike.net/station?id=365054908",
                    "web": "https://nxtb.it/p/365054908"
                },
                "short_name": "45920",
                "station_id": "365054908",
                "vehicle_types_available": [
                    {
                        "count": 10,
                        "vehicle_type_id": "254"
                    }
                ]
            },
            "type": "Feature"
        },
        {
            "geometry": {
                "coordinates": [
                    15.373,
                    50.41481
                ],
                "type": "Point"
            },
            "properties": {
                "is_installed": true,
                "is_renting": true,
                "is_returning": true,
                "is_virtual_station": false,
                "last_reported": 1789281440,
                "name": "Popovice (+15minut zdarma na p\u0159\u00edjezd/odjezd)",
                "num_bikes_available": 4,
                "num_docks_available": 0,
                "region_id": "1032",
                "rental_uris": {
                    "android": "https://app.nextbike.net/station?id=365055484",
                    "ios": "https://app.nextbike.net/station?id=365055484",
                    "web": "https://nxtb.it/p/365055484"
                },
                "short_name": "45921",
                "station_id": "365055484",
                "vehicle_types_available": [
                    {
                        "count": 4,
                        "vehicle_type_id": "254"
                    }
                ]
            },
            "type": "Feature"
        },
        {
            "geometry": {
                "coordinates": [
                    15.35346,
                    50.42523
                ],
                "type": "Point"
            },
            "properties": {
                "is_installed": true,
                "is_renting": true,
                "is_returning": true,
                "is_virtual_station": false,
                "last_reported": 1789281440,
                "name": "P\u0159\u00e1telstv\u00ed",
                "num_bikes_available": 12,
                "num_docks_available": 0,
                "region_id": "1032",
                "rental_uris": {
                    "android": "https://app.nextbike.net/station?id=365056094",
                    "ios": "https://app.nextbike.net/station?id=365056094",
                    "web": "https://nxtb.it/p/365056094"
                },
                "short_name": "45922",
                "station_id": "365056094",
                "vehicle_types_available": [
                    {
                        "count": 11,
                        "vehicle_type_id": "254"
                    },
                    {
                        "count": 1,
                        "vehicle_type_id": "258"
                    }
                ]
            },
            "type": "Feature"
        },
        {
            "geometry": {
                "coordinates": [
                    15.35049,
                    50.43879
                ],
                "type": "Point"
            },
            "properties": {
                "is_installed": true,
                "is_renting": true,
                "is_returning": true,
                "is_virtual_station": false,
                "last_reported": 1789281440,
                "name": "Komensk\u00e9ho n\u00e1m\u011bst\u00ed",
                "num_bikes_available": 1,
                "num_docks_available": 0,
                "region_id": "1032",
                "rental_uris": {
                    "android": "https://app.nextbike.net/station?id=365056810",
                    "ios": "https://app.nextbike.net/station?id=365056810",
                    "web": "https://nxtb.it/p/365056810"
                },
                "short_name": "45923",
                "station_id": "365056810",
                "vehicle_types_available": [
                    {
                        "count": 1,
                        "vehicle_type_id": "254"
                    }
                ]
            },
            "type": "Feature"
        },
        {
            "geometry": {
                "coordinates": [
                    15.3689,
                    50.43511
                ],
                "type": "Point"
            },
            "properties": {
                "is_installed": true,
                "is_renting": true,
                "is_returning": true,
                "is_virtual_station": false,
                "last_reported": 1789281440,
                "name": "Hradeck\u00e1 -Tesco",
                "num_bikes_available": 0,
                "num_docks_available": 0,
                "region_id": "1032",
                "rental_uris": {
                    "android": "https://app.nextbike.net/station?id=365057752",
                    "ios": "https://app.nextbike.net/station?id=365057752",
                    "web": "https://nxtb.it/p/365057752"
                },
                "short_name": "45924",
                "station_id": "365057752",
                "vehicle_types_available": []
            },
            "type": "Feature"
        },
        {
            "geometry": {
                "coordinates": [
                    15.35082,
                    50.43709
                ],
                "type": "Point"
            },
            "properties": {
                "is_installed": true,
                "is_renting": true,
                "is_returning": true,
                "is_virtual_station": false,
                "last_reported": 1789281440,
                "name": "Vald\u0161tejnovo n\u00e1m\u011bst\u00ed",
                "num_bikes_available": 1,
                "num_docks_available": 0,
                "region_id": "1032",
                "rental_uris": {
                    "android": "https://app.nextbike.net/station?id=517474704",
                    "ios": "https://app.nextbike.net/station?id=517474704",
                    "web": "https://nxtb.it/p/517474704"
                },
                "short_name": "46445",
                "station_id": "517474704",
                "vehicle_types_available": [
                    {
                        "count": 1,
                        "vehicle_type_id": "254"
                    }
                ]
            },
            "type": "Feature"
        },
        {
            "geometry": {
                "coordinates": [
                    15.35103,
                    50.42818
                ],
                "type": "Point"
            },
            "properties": {
                "is_installed": true,
                "is_renting": true,
                "is_returning": true,
                "is_virtual_station": false,
                "last_reported": 1789281440,
                "name": "Hofmanova",
                "num_bikes_available": 0,
                "num_docks_available": 0,
                "region_id": "1032",
                "rental_uris": {
                    "android": "https://app.nextbike.net/station?id=517474943",
                    "ios": "https://app.nextbike.net/station?id=517474943",
                    "web": "https://nxtb.it/p/517474943"
                },
                "short_name": "46446",
                "station_id": "517474943",
                "vehicle_types_available": []
            },
            "type": "Feature"
        },
        {
            "geometry": {
                "coordinates": [
                    15.36254,
                    50.43539
                ],
                "type": "Point"
            },
            "properties": {
                "is_installed": true,
                "is_renting": true,
                "is_returning": true,
                "is_virtual_station": false,
                "last_reported": 1789281440,
                "name": "Husova, u Billy",
                "num_bikes_available": 0,
                "num_docks_available": 0,
                "region_id": "1032",
                "rental_uris": {
                    "android": "https://app.nextbike.net/station?id=517475175",
                    "ios": "https://app.nextbike.net/station?id=517475175",
                    "web": "https://nxtb.it/p/517475175"
                },
                "short_name": "46447",
                "station_id": "517475175",
                "vehicle_types_available": []
            },
            "type": "Feature"
        },
        {
            "geometry": {
                "coordinates": [
                    15.35739,
                    50.432096
                ],
                "type": "Point"
            },
            "properties": {
                "is_installed": true,
                "is_renting": true,
                "is_returning": true,
                "is_virtual_station": false,
                "last_reported": 1789281440,
                "name": "Lidl, Riegrova",
                "num_bikes_available": 2,
                "num_docks_available": 0,
                "region_id": "1032",
                "rental_uris": {
                    "android": "https://app.nextbike.net/station?id=524166259",
                    "ios": "https://app.nextbike.net/station?id=524166259",
                    "web": "https://nxtb.it/p/524166259"
                },
                "short_name": "46448",
                "station_id": "524166259",
                "vehicle_types_available": [
                    {
                        "count": 2,
                        "vehicle_type_id": "254"
                    }
                ]
            },
            "type": "Feature"
        },
        {
            "geometry": {
                "coordinates": [
                    15.27023,
                    50.33115
                ],
                "type": "Point"
            },
            "properties": {
                "is_installed": true,
                "is_renting": true,
                "is_returning": true,
                "is_virtual_station": false,
                "last_reported": 1789281440,
                "name": "Kopidlno, n\u00e1m\u011bst\u00ed",
                "num_bikes_available": 0,
                "num_docks_available": 0,
                "region_id": "1261",
                "rental_uris": {
                    "android": "https://app.nextbike.net/station?id=600512613",
                    "ios": "https://app.nextbike.net/station?id=600512613",
                    "web": "https://nxtb.it/p/600512613"
                },
                "short_name": "47695",
                "station_id": "600512613",
                "vehicle_types_available": []
            },
            "type": "Feature"
        },
        {
            "geometry": {
                "coordinates": [
                    15.26072,
                    50.33377
                ],
                "type": "Point"
            },
            "properties": {
                "is_installed": true,
                "is_renting": true,
                "is_returning": true,
                "is_virtual_station": false,
                "last_reported": 1789281440,
                "name": "Kopidlno, n\u00e1dra\u017e\u00ed",
                "num_bikes_available": 3,
                "num_docks_available": 0,
                "region_id": "1261",
                "rental_uris": {
                    "android": "https://app.nextbike.net/station?id=600512665",
                    "ios": "https://app.nextbike.net/station?id=600512665",
                    "web": "https://nxtb.it/p/600512665"
                },
                "short_name": "47696",
                "station_id": "600512665",
                "vehicle_types_available": [
                    {
                        "count": 3,
                        "vehicle_type_id": "258"
                    }
                ]
            },
            "type": "Feature"
        },
        {
            "geometry": {
                "coordinates": [
                    15.2722,
                    50.33809
                ],
                "type": "Point"
            },
            "properties": {
                "is_installed": true,
                "is_renting": true,
                "is_returning": true,
                "is_virtual_station": false,
                "last_reported": 1789281440,
                "name": "Kopidlno, bytovky",
                "num_bikes_available": 6,
                "num_docks_available": 0,
                "region_id": "1261",
                "rental_uris": {
                    "android": "https://app.nextbike.net/station?id=600512716",
                    "ios": "https://app.nextbike.net/station?id=600512716",
                    "web": "https://nxtb.it/p/600512716"
                },
                "short_name": "47697",
                "station_id": "600512716",
                "vehicle_types_available": [
                    {
                        "count": 6,
                        "vehicle_type_id": "258"
                    }
                ]
            },
            "type": "Feature"
        },
        {
            "geometry": {
                "coordinates": [
                    15.365067,
                    50.433331
                ],
                "type": "Point"
            },
            "properties": {
                "capacity": 3,
                "is_installed": true,
                "is_renting": true,
                "is_returning": true,
                "is_virtual_station": false,
                "last_reported": 1789281440,
                "name": "Penny - Husova",
                "num_bikes_available": 0,
                "num_docks_available": 3,
                "region_id": "1032",
                "rental_uris": {
                    "android": "https://app.nextbike.net/station?id=627775268",
                    "ios": "https://app.nextbike.net/station?id=627775268",
                    "web": "https://nxtb.it/p/627775268"
                },
                "short_name": "47427",
                "station_id": "627775268",
                "vehicle_types_available": []
            },
            "type": "Feature"
        },
        {
            "geometry": {
                "coordinates": [
                    15.352065,
                    50.43342
                ],
                "type": "Point"
            },
            "properties": {
                "is_installed": true,
                "is_renting": true,
                "is_returning": true,
                "is_virtual_station": false,
                "last_reported": 1789281440,
                "name": "St\u0159edn\u00ed pr\u016fmyslov\u00e1 \u0161kola",
                "num_bikes_available": 0,
                "num_docks_available": 0,
                "region_id": "1032",
                "rental_uris": {
                    "android": "https://app.nextbike.net/station?id=627775424",
                    "ios": "https://app.nextbike.net/station?id=627775424",
                    "web": "https://nxtb.it/p/627775424"
                },
                "short_name": "47428",
                "station_id": "627775424",
                "vehicle_types_available": []
            },
            "type": "Feature"
        },
        {
            "geometry": {
                "coordinates": [
                    15.350444,
                    50.444194
                ],
                "type": "Point"
            },
            "properties": {
                "is_installed": true,
                "is_renting": true,
                "is_returning": true,
                "is_virtual_station": false,
                "last_reported": 1789281440,
                "name": "Koupali\u0161t\u011b",
                "num_bikes_available": 2,
                "num_docks_available": 0,
                "region_id": "1032",
                "rental_uris": {
                    "android": "https://app.nextbike.net/station?id=642373847",
                    "ios": "https://app.nextbike.net/station?id=642373847",
                    "web": "https://nxtb.it/p/642373847"
                },
                "short_name": "47429",
                "station_id": "642373847",
                "vehicle_types_available": [
                    {
                        "count": 2,
                        "vehicle_type_id": "254"
                    }
                ]
            },
            "type": "Feature"
        }
    ],
    "gbfs": {
        "station_information": {
            "last_updated": 1789281440,
            "ttl": 60,
            "version": "2.3"
        },
        "station_status": {
            "last_updated": 1789281440,
            "ttl": 60,
            "version": "2.3"
        }
    },
    "type": "FeatureCollection"
}