{
    "features": [
        {
            "geometry": {
                "coordinates": [
                    17.12264,
                    48.85601
                ],
                "type": "Point"
            },
            "properties": {
                "capacity": 4,
                "is_installed": true,
                "is_renting": true,
                "is_returning": true,
                "is_virtual_station": false,
                "last_reported": 1789138104,
                "name": "Vlakov\u00e9 n\u00e1dra\u017e\u00ed",
                "num_bikes_available": 1,
                "num_docks_available": 3,
                "region_id": "1046",
                "rental_uris": {
                    "android": "https://app.nextbike.net/station?id=390169009",
                    "ios": "https://app.nextbike.net/station?id=390169009",
                    "web": "https://nxtb.it/p/390169009"
                },
                "short_name": "47451",
                "station_id": "390169009",
                "vehicle_types_available": [
                    {
                        "count": 1,
                        "vehicle_type_id": "413"
                    }
                ]
            },
            "type": "Feature"
        },
        {
            "geometry": {
                "coordinates": [
                    17.1223,
                    48.8538
                ],
                "type": "Point"
            },
            "properties": {
                "capacity": 4,
                "is_installed": true,
                "is_renting": true,
                "is_returning": true,
                "is_virtual_station": false,
                "last_reported": 1789138104,
                "name": "Autobusov\u00e9 n\u00e1dra\u017e\u00ed",
                "num_bikes_available": 0,
                "num_docks_available": 4,
                "region_id": "1046",
                "rental_uris": {
                    "android": "https://app.nextbike.net/station?id=390169335",
                    "ios": "https://app.nextbike.net/station?id=390169335",
                    "web": "https://nxtb.it/p/390169335"
                },
                "short_name": "47452",
                "station_id": "390169335",
                "vehicle_types_available": []
            },
            "type": "Feature"
        },
        {
            "geometry": {
                "coordinates": [
                    17.12602,
                    48.85312
                ],
                "type": "Point"
            },
            "properties": {
                "capacity": 4,
                "is_installed": true,
                "is_renting": true,
                "is_returning": true,
                "is_virtual_station": false,
                "last_reported": 1789138104,
                "name": "N\u00e1rodn\u00ed t\u0159\u00edda - IC",
                "num_bikes_available": 4,
                "num_docks_available": 0,
                "region_id": "1046",
                "rental_uris": {
                    "android": "https://app.nextbike.net/station?id=390169791",
                    "ios": "https://app.nextbike.net/station?id=390169791",
                    "web": "https://nxtb.it/p/390169791"
                },
                "short_name": "47453",
                "station_id": "390169791",
                "vehicle_types_available": [
                    {
                        "count": 3,
                        "vehicle_type_id": "413"
                    },
                    {
                        "count": 1,
                        "vehicle_type_id": "198"
                    }
                ]
            },
            "type": "Feature"
        },
        {
            "geometry": {
                "coordinates": [
                    17.12635,
                    48.85143
                ],
                "type": "Point"
            },
            "properties": {
                "capacity": 4,
                "is_installed": true,
                "is_renting": true,
                "is_returning": true,
                "is_virtual_station": false,
                "last_reported": 1789138104,
                "name": "M\u011bstsk\u00fd \u00fa\u0159ad",
                "num_bikes_available": 0,
                "num_docks_available": 4,
                "region_id": "1046",
                "rental_uris": {
                    "android": "https://app.nextbike.net/station?id=390170428",
                    "ios": "https://app.nextbike.net/station?id=390170428",
                    "web": "https://nxtb.it/p/390170428"
                },
                "short_name": "47454",
                "station_id": "390170428",
                "vehicle_types_available": []
            },
            "type": "Feature"
        },
        {
            "geometry": {
                "coordinates": [
                    17.128657,
                    48.848691
                ],
                "type": "Point"
            },
            "properties": {
                "capacity": 4,
                "is_installed": true,
                "is_renting": true,
                "is_returning": true,
                "is_virtual_station": false,
                "last_reported": 1789138104,
                "name": "Masarykovo n\u00e1m\u011bst\u00ed ",
                "num_bikes_available": 0,
                "num_docks_available": 4,
                "region_id": "1046",
                "rental_uris": {
                    "android": "https://app.nextbike.net/station?id=390170843",
                    "ios": "https://app.nextbike.net/station?id=390170843",
                    "web": "https://nxtb.it/p/390170843"
                },
                "short_name": "47455",
                "station_id": "390170843",
                "vehicle_types_available": []
            },
            "type": "Feature"
        },
        {
            "geometry": {
                "coordinates": [
                    17.12715,
                    48.84702
                ],
                "type": "Point"
            },
            "properties": {
                "capacity": 4,
                "is_installed": true,
                "is_renting": true,
                "is_returning": true,
                "is_virtual_station": false,
                "last_reported": 1789138104,
                "name": "Z\u00e1mek",
                "num_bikes_available": 1,
                "num_docks_available": 3,
                "region_id": "1046",
                "rental_uris": {
                    "android": "https://app.nextbike.net/station?id=390171191",
                    "ios": "https://app.nextbike.net/station?id=390171191",
                    "web": "https://nxtb.it/p/390171191"
                },
                "short_name": "47456",
                "station_id": "390171191",
                "vehicle_types_available": [
                    {
                        "count": 1,
                        "vehicle_type_id": "413"
                    }
                ]
            },
            "type": "Feature"
        },
        {
            "geometry": {
                "coordinates": [
                    17.12896,
                    48.84431
                ],
                "type": "Point"
            },
            "properties": {
                "capacity": 4,
                "is_installed": true,
                "is_renting": true,
                "is_returning": true,
                "is_virtual_station": false,
                "last_reported": 1789138104,
                "name": "Plaveck\u00fd baz\u00e9n",
                "num_bikes_available": 1,
                "num_docks_available": 3,
                "region_id": "1046",
                "rental_uris": {
                    "android": "https://app.nextbike.net/station?id=390171575",
                    "ios": "https://app.nextbike.net/station?id=390171575",
                    "web": "https://nxtb.it/p/390171575"
                },
                "short_name": "47457",
                "station_id": "390171575",
                "vehicle_types_available": [
                    {
                        "count": 1,
                        "vehicle_type_id": "413"
                    }
                ]
            },
            "type": "Feature"
        },
        {
            "geometry": {
                "coordinates": [
                    17.13104,
                    48.84649
                ],
                "type": "Point"
            },
            "properties": {
                "capacity": 4,
                "is_installed": true,
                "is_renting": true,
                "is_returning": true,
                "is_virtual_station": false,
                "last_reported": 1789138104,
                "name": "Ryb\u00e1\u0159e",
                "num_bikes_available": 5,
                "num_docks_available": 0,
                "region_id": "1046",
                "rental_uris": {
                    "android": "https://app.nextbike.net/station?id=390172533",
                    "ios": "https://app.nextbike.net/station?id=390172533",
                    "web": "https://nxtb.it/p/390172533"
                },
                "short_name": "47458",
                "station_id": "390172533",
                "vehicle_types_available": [
                    {
                        "count": 5,
                        "vehicle_type_id": "413"
                    }
                ]
            },
            "type": "Feature"
        },
        {
            "geometry": {
                "coordinates": [
                    17.13404,
                    48.85111
                ],
                "type": "Point"
            },
            "properties": {
                "capacity": 4,
                "is_installed": true,
                "is_renting": true,
                "is_returning": true,
                "is_virtual_station": false,
                "last_reported": 1789138104,
                "name": "Kulturn\u00ed d\u016fm",
                "num_bikes_available": 1,
                "num_docks_available": 3,
                "region_id": "1046",
                "rental_uris": {
                    "android": "https://app.nextbike.net/station?id=390172983",
                    "ios": "https://app.nextbike.net/station?id=390172983",
                    "web": "https://nxtb.it/p/390172983"
                },
                "short_name": "47459",
                "station_id": "390172983",
                "vehicle_types_available": [
                    {
                        "count": 1,
                        "vehicle_type_id": "413"
                    }
                ]
            },
            "type": "Feature"
        },
        {
            "geometry": {
                "coordinates": [
                    17.14458,
                    48.86385
                ],
                "type": "Point"
            },
            "properties": {
                "capacity": 4,
                "is_installed": true,
                "is_renting": true,
                "is_returning": true,
                "is_virtual_station": false,
                "last_reported": 1789138104,
                "name": "Nemocnice Tom\u00e1\u0161e Garrigua Masaryka",
                "num_bikes_available": 0,
                "num_docks_available": 4,
                "region_id": "1046",
                "rental_uris": {
                    "android": "https://app.nextbike.net/station?id=390173397",
                    "ios": "https://app.nextbike.net/station?id=390173397",
                    "web": "https://nxtb.it/p/390173397"
                },
                "short_name": "47460",
                "station_id": "390173397",
                "vehicle_types_available": []
            },
            "type": "Feature"
        },
        {
            "geometry": {
                "coordinates": [
                    17.14062,
                    48.86351
                ],
                "type": "Point"
            },
            "properties": {
                "capacity": 4,
                "is_installed": true,
                "is_renting": true,
                "is_returning": true,
                "is_virtual_station": false,
                "last_reported": 1789138104,
                "name": "Brandlova",
                "num_bikes_available": 0,
                "num_docks_available": 4,
                "region_id": "1046",
                "rental_uris": {
                    "android": "https://app.nextbike.net/station?id=390173727",
                    "ios": "https://app.nextbike.net/station?id=390173727",
                    "web": "https://nxtb.it/p/390173727"
                },
                "short_name": "47461",
                "station_id": "390173727",
                "vehicle_types_available": []
            },
            "type": "Feature"
        },
        {
            "geometry": {
                "coordinates": [
                    17.10756,
                    48.86098
                ],
                "type": "Point"
            },
            "properties": {
                "capacity": 4,
                "is_installed": true,
                "is_renting": true,
                "is_returning": true,
                "is_virtual_station": false,
                "last_reported": 1789138104,
                "name": "Stadion U \u010cerven\u00fdch domk\u016f",
                "num_bikes_available": 4,
                "num_docks_available": 0,
                "region_id": "1046",
                "rental_uris": {
                    "android": "https://app.nextbike.net/station?id=390174502",
                    "ios": "https://app.nextbike.net/station?id=390174502",
                    "web": "https://nxtb.it/p/390174502"
                },
                "short_name": "47462",
                "station_id": "390174502",
                "vehicle_types_available": [
                    {
                        "count": 4,
                        "vehicle_type_id": "413"
                    }
                ]
            },
            "type": "Feature"
        },
        {
            "geometry": {
                "coordinates": [
                    17.11286,
                    48.86248
                ],
                "type": "Point"
            },
            "properties": {
                "capacity": 4,
                "is_installed": true,
                "is_renting": true,
                "is_returning": true,
                "is_virtual_station": false,
                "last_reported": 1789138104,
                "name": "Sportovn\u00ed hala",
                "num_bikes_available": 2,
                "num_docks_available": 2,
                "region_id": "1046",
                "rental_uris": {
                    "android": "https://app.nextbike.net/station?id=390208568",
                    "ios": "https://app.nextbike.net/station?id=390208568",
                    "web": "https://nxtb.it/p/390208568"
                },
                "short_name": "47468",
                "station_id": "390208568",
                "vehicle_types_available": [
                    {
                        "count": 2,
                        "vehicle_type_id": "413"
                    }
                ]
            },
            "type": "Feature"
        },
        {
            "geometry": {
                "coordinates": [
                    17.10798,
                    48.86433
                ],
                "type": "Point"
            },
            "properties": {
                "capacity": 4,
                "is_installed": true,
                "is_renting": true,
                "is_returning": true,
                "is_virtual_station": false,
                "last_reported": 1789138104,
                "name": "U Zoo",
                "num_bikes_available": 0,
                "num_docks_available": 4,
                "region_id": "1046",
                "rental_uris": {
                    "android": "https://app.nextbike.net/station?id=390210495",
                    "ios": "https://app.nextbike.net/station?id=390210495",
                    "web": "https://nxtb.it/p/390210495"
                },
                "short_name": "47470",
                "station_id": "390210495",
                "vehicle_types_available": []
            },
            "type": "Feature"
        },
        {
            "geometry": {
                "coordinates": [
                    17.1369,
                    48.85231
                ],
                "type": "Point"
            },
            "properties": {
                "capacity": 4,
                "is_installed": true,
                "is_renting": true,
                "is_returning": true,
                "is_virtual_station": false,
                "last_reported": 1789138104,
                "name": "Moravanka",
                "num_bikes_available": 2,
                "num_docks_available": 2,
                "region_id": "1046",
                "rental_uris": {
                    "android": "https://app.nextbike.net/station?id=390219055",
                    "ios": "https://app.nextbike.net/station?id=390219055",
                    "web": "https://nxtb.it/p/390219055"
                },
                "short_name": "47472",
                "station_id": "390219055",
                "vehicle_types_available": [
                    {
                        "count": 2,
                        "vehicle_type_id": "413"
                    }
                ]
            },
            "type": "Feature"
        },
        {
            "geometry": {
                "coordinates": [
                    17.12246,
                    48.86121
                ],
                "type": "Point"
            },
            "properties": {
                "capacity": 4,
                "is_installed": true,
                "is_renting": true,
                "is_returning": true,
                "is_virtual_station": false,
                "last_reported": 1789138104,
                "name": "\u010cajkovsk\u00e9ho",
                "num_bikes_available": 0,
                "num_docks_available": 4,
                "region_id": "1046",
                "rental_uris": {
                    "android": "https://app.nextbike.net/station?id=390219397",
                    "ios": "https://app.nextbike.net/station?id=390219397",
                    "web": "https://nxtb.it/p/390219397"
                },
                "short_name": "47473",
                "station_id": "390219397",
                "vehicle_types_available": []
            },
            "type": "Feature"
        },
        {
            "geometry": {
                "coordinates": [
                    17.13676,
                    48.86179
                ],
                "type": "Point"
            },
            "properties": {
                "capacity": 4,
                "is_installed": true,
                "is_renting": true,
                "is_returning": true,
                "is_virtual_station": false,
                "last_reported": 1789138104,
                "name": "Van\u010durova, Z\u0160 (do\u010dasn\u00e9 p\u0159em\u00edst\u011bn\u00ed)",
                "num_bikes_available": 5,
                "num_docks_available": 0,
                "region_id": "1046",
                "rental_uris": {
                    "android": "https://app.nextbike.net/station?id=390219678",
                    "ios": "https://app.nextbike.net/station?id=390219678",
                    "web": "https://nxtb.it/p/390219678"
                },
                "short_name": "47474",
                "station_id": "390219678",
                "vehicle_types_available": [
                    {
                        "count": 5,
                        "vehicle_type_id": "413"
                    }
                ]
            },
            "type": "Feature"
        },
        {
            "geometry": {
                "coordinates": [
                    17.10944,
                    48.858
                ],
                "type": "Point"
            },
            "properties": {
                "capacity": 4,
                "is_installed": true,
                "is_renting": true,
                "is_returning": true,
                "is_virtual_station": false,
                "last_reported": 1789138104,
                "name": "N\u00e1m\u011bst\u00ed B. Martin\u016f",
                "num_bikes_available": 2,
                "num_docks_available": 2,
                "region_id": "1046",
                "rental_uris": {
                    "android": "https://app.nextbike.net/station?id=390221076",
                    "ios": "https://app.nextbike.net/station?id=390221076",
                    "web": "https://nxtb.it/p/390221076"
                },
                "short_name": "47475",
                "station_id": "390221076",
                "vehicle_types_available": [
                    {
                        "count": 2,
                        "vehicle_type_id": "413"
                    }
                ]
            },
            "type": "Feature"
        },
        {
            "geometry": {
                "coordinates": [
                    17.11909,
                    48.85311
                ],
                "type": "Point"
            },
            "properties": {
                "capacity": 4,
                "is_installed": true,
                "is_renting": true,
                "is_returning": true,
                "is_virtual_station": false,
                "last_reported": 1789138104,
                "name": "Dvo\u0159\u00e1kova - Kaufland",
                "num_bikes_available": 3,
                "num_docks_available": 1,
                "region_id": "1046",
                "rental_uris": {
                    "android": "https://app.nextbike.net/station?id=390222182",
                    "ios": "https://app.nextbike.net/station?id=390222182",
                    "web": "https://nxtb.it/p/390222182"
                },
                "short_name": "47476",
                "station_id": "390222182",
                "vehicle_types_available": [
                    {
                        "count": 3,
                        "vehicle_type_id": "413"
                    }
                ]
            },
            "type": "Feature"
        },
        {
            "geometry": {
                "coordinates": [
                    17.10814,
                    48.85504
                ],
                "type": "Point"
            },
            "properties": {
                "capacity": 4,
                "is_installed": true,
                "is_renting": true,
                "is_returning": true,
                "is_virtual_station": false,
                "last_reported": 1789138104,
                "name": "Lesanka",
                "num_bikes_available": 6,
                "num_docks_available": 0,
                "region_id": "1046",
                "rental_uris": {
                    "android": "https://app.nextbike.net/station?id=390222814",
                    "ios": "https://app.nextbike.net/station?id=390222814",
                    "web": "https://nxtb.it/p/390222814"
                },
                "short_name": "47477",
                "station_id": "390222814",
                "vehicle_types_available": [
                    {
                        "count": 5,
                        "vehicle_type_id": "413"
                    },
                    {
                        "count": 1,
                        "vehicle_type_id": "198"
                    }
                ]
            },
            "type": "Feature"
        },
        {
            "geometry": {
                "coordinates": [
                    17.13717,
                    48.85698
                ],
                "type": "Point"
            },
            "properties": {
                "capacity": 4,
                "is_installed": true,
                "is_renting": true,
                "is_returning": true,
                "is_virtual_station": false,
                "last_reported": 1789138104,
                "name": "Kone\u010dn\u00e1",
                "num_bikes_available": 6,
                "num_docks_available": 0,
                "region_id": "1046",
                "rental_uris": {
                    "android": "https://app.nextbike.net/station?id=390223253",
                    "ios": "https://app.nextbike.net/station?id=390223253",
                    "web": "https://nxtb.it/p/390223253"
                },
                "short_name": "47478",
                "station_id": "390223253",
                "vehicle_types_available": [
                    {
                        "count": 1,
                        "vehicle_type_id": "199"
                    },
                    {
                        "count": 5,
                        "vehicle_type_id": "413"
                    }
                ]
            },
            "type": "Feature"
        },
        {
            "geometry": {
                "coordinates": [
                    17.129,
                    48.85769
                ],
                "type": "Point"
            },
            "properties": {
                "capacity": 4,
                "is_installed": true,
                "is_renting": true,
                "is_returning": true,
                "is_virtual_station": false,
                "last_reported": 1789138104,
                "name": "SP\u0160 Stavebn\u00ed",
                "num_bikes_available": 0,
                "num_docks_available": 4,
                "region_id": "1046",
                "rental_uris": {
                    "android": "https://app.nextbike.net/station?id=390223731",
                    "ios": "https://app.nextbike.net/station?id=390223731",
                    "web": "https://nxtb.it/p/390223731"
                },
                "short_name": "47479",
                "station_id": "390223731",
                "vehicle_types_available": []
            },
            "type": "Feature"
        },
        {
            "geometry": {
                "coordinates": [
                    17.13467,
                    48.85527
                ],
                "type": "Point"
            },
            "properties": {
                "capacity": 4,
                "is_installed": true,
                "is_renting": true,
                "is_returning": true,
                "is_virtual_station": false,
                "last_reported": 1789138104,
                "name": "Poln\u00ed",
                "num_bikes_available": 3,
                "num_docks_available": 1,
                "region_id": "1046",
                "rental_uris": {
                    "android": "https://app.nextbike.net/station?id=390224364",
                    "ios": "https://app.nextbike.net/station?id=390224364",
                    "web": "https://nxtb.it/p/390224364"
                },
                "short_name": "47480",
                "station_id": "390224364",
                "vehicle_types_available": [
                    {
                        "count": 2,
                        "vehicle_type_id": "413"
                    },
                    {
                        "count": 1,
                        "vehicle_type_id": "333"
                    }
                ]
            },
            "type": "Feature"
        },
        {
            "geometry": {
                "coordinates": [
                    17.14426,
                    48.84392
                ],
                "type": "Point"
            },
            "properties": {
                "capacity": 4,
                "is_installed": true,
                "is_renting": true,
                "is_returning": true,
                "is_virtual_station": false,
                "last_reported": 1789138104,
                "name": "Vesla\u0159sk\u00fd klub",
                "num_bikes_available": 6,
                "num_docks_available": 0,
                "region_id": "1046",
                "rental_uris": {
                    "android": "https://app.nextbike.net/station?id=390224967",
                    "ios": "https://app.nextbike.net/station?id=390224967",
                    "web": "https://nxtb.it/p/390224967"
                },
                "short_name": "47481",
                "station_id": "390224967",
                "vehicle_types_available": [
                    {
                        "count": 3,
                        "vehicle_type_id": "413"
                    },
                    {
                        "count": 3,
                        "vehicle_type_id": "150"
                    }
                ]
            },
            "type": "Feature"
        },
        {
            "geometry": {
                "coordinates": [
                    17.12789,
                    48.85573
                ],
                "type": "Point"
            },
            "properties": {
                "capacity": 4,
                "is_installed": true,
                "is_renting": true,
                "is_returning": true,
                "is_virtual_station": false,
                "last_reported": 1789138104,
                "name": "M\u00edrov\u00e9 n\u00e1m\u011bst\u00ed",
                "num_bikes_available": 0,
                "num_docks_available": 4,
                "region_id": "1046",
                "rental_uris": {
                    "android": "https://app.nextbike.net/station?id=390225460",
                    "ios": "https://app.nextbike.net/station?id=390225460",
                    "web": "https://nxtb.it/p/390225460"
                },
                "short_name": "47482",
                "station_id": "390225460",
                "vehicle_types_available": []
            },
            "type": "Feature"
        },
        {
            "geometry": {
                "coordinates": [
                    17.11719,
                    48.8599
                ],
                "type": "Point"
            },
            "properties": {
                "capacity": 4,
                "is_installed": true,
                "is_renting": true,
                "is_returning": true,
                "is_virtual_station": false,
                "last_reported": 1789138104,
                "name": "OC Marina",
                "num_bikes_available": 1,
                "num_docks_available": 3,
                "region_id": "1046",
                "rental_uris": {
                    "android": "https://app.nextbike.net/station?id=390226268",
                    "ios": "https://app.nextbike.net/station?id=390226268",
                    "web": "https://nxtb.it/p/390226268"
                },
                "short_name": "47483",
                "station_id": "390226268",
                "vehicle_types_available": [
                    {
                        "count": 1,
                        "vehicle_type_id": "413"
                    }
                ]
            },
            "type": "Feature"
        },
        {
            "geometry": {
                "coordinates": [
                    17.11278,
                    48.85739
                ],
                "type": "Point"
            },
            "properties": {
                "capacity": 4,
                "is_installed": true,
                "is_renting": true,
                "is_returning": true,
                "is_virtual_station": false,
                "last_reported": 1789138104,
                "name": "IS\u0160",
                "num_bikes_available": 14,
                "num_docks_available": 0,
                "region_id": "1046",
                "rental_uris": {
                    "android": "https://app.nextbike.net/station?id=390226573",
                    "ios": "https://app.nextbike.net/station?id=390226573",
                    "web": "https://nxtb.it/p/390226573"
                },
                "short_name": "47484",
                "station_id": "390226573",
                "vehicle_types_available": [
                    {
                        "count": 1,
                        "vehicle_type_id": "199"
                    },
                    {
                        "count": 12,
                        "vehicle_type_id": "413"
                    },
                    {
                        "count": 1,
                        "vehicle_type_id": "198"
                    }
                ]
            },
            "type": "Feature"
        },
        {
            "geometry": {
                "coordinates": [
                    17.13012,
                    48.85134
                ],
                "type": "Point"
            },
            "properties": {
                "capacity": 4,
                "is_installed": true,
                "is_renting": true,
                "is_returning": true,
                "is_virtual_station": false,
                "last_reported": 1789138104,
                "name": "Doln\u00ed Valy - P\u011b\u0161\u00ed z\u00f3na",
                "num_bikes_available": 1,
                "num_docks_available": 2,
                "region_id": "1046",
                "rental_uris": {
                    "android": "https://app.nextbike.net/station?id=390227081",
                    "ios": "https://app.nextbike.net/station?id=390227081",
                    "web": "https://nxtb.it/p/390227081"
                },
                "short_name": "47485",
                "station_id": "390227081",
                "vehicle_types_available": [
                    {
                        "count": 1,
                        "vehicle_type_id": "413"
                    }
                ]
            },
            "type": "Feature"
        },
        {
            "geometry": {
                "coordinates": [
                    17.15297,
                    48.8633
                ],
                "type": "Point"
            },
            "properties": {
                "capacity": 4,
                "is_installed": true,
                "is_renting": true,
                "is_returning": true,
                "is_virtual_station": false,
                "last_reported": 1789138104,
                "name": "H\u0159bitov",
                "num_bikes_available": 0,
                "num_docks_available": 4,
                "region_id": "1046",
                "rental_uris": {
                    "android": "https://app.nextbike.net/station?id=390227522",
                    "ios": "https://app.nextbike.net/station?id=390227522",
                    "web": "https://nxtb.it/p/390227522"
                },
                "short_name": "47471",
                "station_id": "390227522",
                "vehicle_types_available": []
            },
            "type": "Feature"
        },
        {
            "geometry": {
                "coordinates": [
                    17.14094,
                    48.86095
                ],
                "type": "Point"
            },
            "properties": {
                "capacity": 4,
                "is_installed": true,
                "is_renting": true,
                "is_returning": true,
                "is_virtual_station": false,
                "last_reported": 1789138104,
                "name": "VaK",
                "num_bikes_available": 1,
                "num_docks_available": 3,
                "region_id": "1046",
                "rental_uris": {
                    "android": "https://app.nextbike.net/station?id=390228514",
                    "ios": "https://app.nextbike.net/station?id=390228514",
                    "web": "https://nxtb.it/p/390228514"
                },
                "short_name": "47469",
                "station_id": "390228514",
                "vehicle_types_available": [
                    {
                        "count": 1,
                        "vehicle_type_id": "413"
                    }
                ]
            },
            "type": "Feature"
        },
        {
            "geometry": {
                "coordinates": [
                    17.125382,
                    48.85636
                ],
                "type": "Point"
            },
            "properties": {
                "capacity": 4,
                "is_installed": true,
                "is_renting": true,
                "is_returning": true,
                "is_virtual_station": false,
                "last_reported": 1789138104,
                "name": "Moravsk\u00e9 naftov\u00e9 doly",
                "num_bikes_available": 0,
                "num_docks_available": 4,
                "region_id": "1046",
                "rental_uris": {
                    "android": "https://app.nextbike.net/station?id=522154758",
                    "ios": "https://app.nextbike.net/station?id=522154758",
                    "web": "https://nxtb.it/p/522154758"
                },
                "short_name": "47486",
                "station_id": "522154758",
                "vehicle_types_available": []
            },
            "type": "Feature"
        },
        {
            "geometry": {
                "coordinates": [
                    17.10413,
                    48.8393
                ],
                "type": "Point"
            },
            "properties": {
                "capacity": 4,
                "is_installed": true,
                "is_renting": true,
                "is_returning": true,
                "is_virtual_station": false,
                "last_reported": 1789138104,
                "name": "Nesyt",
                "num_bikes_available": 2,
                "num_docks_available": 2,
                "region_id": "1046",
                "rental_uris": {
                    "android": "https://app.nextbike.net/station?id=535873575",
                    "ios": "https://app.nextbike.net/station?id=535873575",
                    "web": "https://nxtb.it/p/535873575"
                },
                "short_name": "47487",
                "station_id": "535873575",
                "vehicle_types_available": [
                    {
                        "count": 2,
                        "vehicle_type_id": "413"
                    }
                ]
            },
            "type": "Feature"
        },
        {
            "geometry": {
                "coordinates": [
                    17.12999,
                    48.86082
                ],
                "type": "Point"
            },
            "properties": {
                "is_installed": true,
                "is_renting": true,
                "is_returning": true,
                "is_virtual_station": false,
                "last_reported": 1789138104,
                "name": "Sacharovova",
                "num_bikes_available": 0,
                "num_docks_available": 0,
                "region_id": "1046",
                "rental_uris": {
                    "android": "https://app.nextbike.net/station?id=573745225",
                    "ios": "https://app.nextbike.net/station?id=573745225",
                    "web": "https://nxtb.it/p/573745225"
                },
                "short_name": "47488",
                "station_id": "573745225",
                "vehicle_types_available": []
            },
            "type": "Feature"
        },
        {
            "geometry": {
                "coordinates": [
                    17.08731,
                    48.84231
                ],
                "type": "Point"
            },
            "properties": {
                "is_installed": true,
                "is_renting": true,
                "is_returning": true,
                "is_virtual_station": false,
                "last_reported": 1789138104,
                "name": "Plo\u0161tiny - Lu\u017e\u00e1k",
                "num_bikes_available": 0,
                "num_docks_available": 0,
                "region_id": "1046",
                "rental_uris": {
                    "android": "https://app.nextbike.net/station?id=573745328",
                    "ios": "https://app.nextbike.net/station?id=573745328",
                    "web": "https://nxtb.it/p/573745328"
                },
                "short_name": "47489",
                "station_id": "573745328",
                "vehicle_types_available": []
            },
            "type": "Feature"
        },
        {
            "geometry": {
                "coordinates": [
                    17.094,
                    48.84953
                ],
                "type": "Point"
            },
            "properties": {
                "is_installed": true,
                "is_renting": true,
                "is_returning": true,
                "is_virtual_station": false,
                "last_reported": 1789138104,
                "name": "Cyklostezka Velkomoravsk\u00e1",
                "num_bikes_available": 0,
                "num_docks_available": 0,
                "region_id": "1046",
                "rental_uris": {
                    "android": "https://app.nextbike.net/station?id=573745407",
                    "ios": "https://app.nextbike.net/station?id=573745407",
                    "web": "https://nxtb.it/p/573745407"
                },
                "short_name": "47490",
                "station_id": "573745407",
                "vehicle_types_available": []
            },
            "type": "Feature"
        },
        {
            "geometry": {
                "coordinates": [
                    17.1195,
                    48.85664
                ],
                "type": "Point"
            },
            "properties": {
                "is_installed": true,
                "is_renting": true,
                "is_returning": true,
                "is_virtual_station": false,
                "last_reported": 1789138104,
                "name": "Za drahou",
                "num_bikes_available": 0,
                "num_docks_available": 0,
                "region_id": "1046",
                "rental_uris": {
                    "android": "https://app.nextbike.net/station?id=573745484",
                    "ios": "https://app.nextbike.net/station?id=573745484",
                    "web": "https://nxtb.it/p/573745484"
                },
                "short_name": "47491",
                "station_id": "573745484",
                "vehicle_types_available": []
            },
            "type": "Feature"
        },
        {
            "geometry": {
                "coordinates": [
                    17.1223,
                    48.84551
                ],
                "type": "Point"
            },
            "properties": {
                "is_installed": true,
                "is_renting": true,
                "is_returning": true,
                "is_virtual_station": false,
                "last_reported": 1789138104,
                "name": "Elektr\u00e1rna Hodon\u00edn",
                "num_bikes_available": 3,
                "num_docks_available": 0,
                "region_id": "1046",
                "rental_uris": {
                    "android": "https://app.nextbike.net/station?id=573745550",
                    "ios": "https://app.nextbike.net/station?id=573745550",
                    "web": "https://nxtb.it/p/573745550"
                },
                "short_name": "47492",
                "station_id": "573745550",
                "vehicle_types_available": [
                    {
                        "count": 3,
                        "vehicle_type_id": "413"
                    }
                ]
            },
            "type": "Feature"
        },
        {
            "geometry": {
                "coordinates": [
                    17.11418,
                    48.85115
                ],
                "type": "Point"
            },
            "properties": {
                "is_installed": true,
                "is_renting": true,
                "is_returning": true,
                "is_virtual_station": false,
                "last_reported": 1789138104,
                "name": "U podjezdu",
                "num_bikes_available": 0,
                "num_docks_available": 0,
                "region_id": "1046",
                "rental_uris": {
                    "android": "https://app.nextbike.net/station?id=573745694",
                    "ios": "https://app.nextbike.net/station?id=573745694",
                    "web": "https://nxtb.it/p/573745694"
                },
                "short_name": "47493",
                "station_id": "573745694",
                "vehicle_types_available": []
            },
            "type": "Feature"
        },
        {
            "geometry": {
                "coordinates": [
                    17.14521,
                    48.86004
                ],
                "type": "Point"
            },
            "properties": {
                "is_installed": true,
                "is_renting": true,
                "is_returning": true,
                "is_virtual_station": false,
                "last_reported": 1789138104,
                "name": "Perunsk\u00e1 luka",
                "num_bikes_available": 0,
                "num_docks_available": 0,
                "region_id": "1046",
                "rental_uris": {
                    "android": "https://app.nextbike.net/station?id=573745797",
                    "ios": "https://app.nextbike.net/station?id=573745797",
                    "web": "https://nxtb.it/p/573745797"
                },
                "short_name": "47494",
                "station_id": "573745797",
                "vehicle_types_available": []
            },
            "type": "Feature"
        },
        {
            "geometry": {
                "coordinates": [
                    17.1351,
                    48.84873
                ],
                "type": "Point"
            },
            "properties": {
                "is_installed": true,
                "is_renting": true,
                "is_returning": true,
                "is_virtual_station": false,
                "last_reported": 1789138104,
                "name": "Ji\u017en\u00ed",
                "num_bikes_available": 1,
                "num_docks_available": 0,
                "region_id": "1046",
                "rental_uris": {
                    "android": "https://app.nextbike.net/station?id=573746008",
                    "ios": "https://app.nextbike.net/station?id=573746008",
                    "web": "https://nxtb.it/p/573746008"
                },
                "short_name": "47951",
                "station_id": "573746008",
                "vehicle_types_available": [
                    {
                        "count": 1,
                        "vehicle_type_id": "413"
                    }
                ]
            },
            "type": "Feature"
        },
        {
            "geometry": {
                "coordinates": [
                    17.1193,
                    48.86213
                ],
                "type": "Point"
            },
            "properties": {
                "is_installed": true,
                "is_renting": true,
                "is_returning": true,
                "is_virtual_station": false,
                "last_reported": 1789138104,
                "name": "Brn\u011bnsk\u00e1",
                "num_bikes_available": 1,
                "num_docks_available": 0,
                "region_id": "1046",
                "rental_uris": {
                    "android": "https://app.nextbike.net/station?id=573746148",
                    "ios": "https://app.nextbike.net/station?id=573746148",
                    "web": "https://nxtb.it/p/573746148"
                },
                "short_name": "47952",
                "station_id": "573746148",
                "vehicle_types_available": [
                    {
                        "count": 1,
                        "vehicle_type_id": "413"
                    }
                ]
            },
            "type": "Feature"
        },
        {
            "geometry": {
                "coordinates": [
                    17.13012,
                    48.86263
                ],
                "type": "Point"
            },
            "properties": {
                "is_installed": true,
                "is_renting": true,
                "is_returning": true,
                "is_virtual_station": false,
                "last_reported": 1789138104,
                "name": "Na V\u00fdhon\u011b",
                "num_bikes_available": 0,
                "num_docks_available": 0,
                "region_id": "1046",
                "rental_uris": {
                    "android": "https://app.nextbike.net/station?id=573746239",
                    "ios": "https://app.nextbike.net/station?id=573746239",
                    "web": "https://nxtb.it/p/573746239"
                },
                "short_name": "47953",
                "station_id": "573746239",
                "vehicle_types_available": []
            },
            "type": "Feature"
        },
        {
            "geometry": {
                "coordinates": [
                    17.12984,
                    48.84973
                ],
                "type": "Point"
            },
            "properties": {
                "is_installed": true,
                "is_renting": true,
                "is_returning": true,
                "is_virtual_station": false,
                "last_reported": 1789138104,
                "name": "Gymn\u00e1zium a Obchodn\u00ed akademie",
                "num_bikes_available": 7,
                "num_docks_available": 0,
                "region_id": "1046",
                "rental_uris": {
                    "android": "https://app.nextbike.net/station?id=574399596",
                    "ios": "https://app.nextbike.net/station?id=574399596",
                    "web": "https://nxtb.it/p/574399596"
                },
                "short_name": "47954",
                "station_id": "574399596",
                "vehicle_types_available": [
                    {
                        "count": 7,
                        "vehicle_type_id": "413"
                    }
                ]
            },
            "type": "Feature"
        },
        {
            "geometry": {
                "coordinates": [
                    17.12196,
                    48.8507
                ],
                "type": "Point"
            },
            "properties": {
                "is_installed": true,
                "is_renting": true,
                "is_returning": true,
                "is_virtual_station": false,
                "last_reported": 1789138104,
                "name": "Hotel Krystal",
                "num_bikes_available": 1,
                "num_docks_available": 0,
                "region_id": "1046",
                "rental_uris": {
                    "android": "https://app.nextbike.net/station?id=590652146",
                    "ios": "https://app.nextbike.net/station?id=590652146",
                    "web": "https://nxtb.it/p/590652146"
                },
                "short_name": "47496",
                "station_id": "590652146",
                "vehicle_types_available": [
                    {
                        "count": 1,
                        "vehicle_type_id": "150"
                    }
                ]
            },
            "type": "Feature"
        },
        {
            "geometry": {
                "coordinates": [
                    17.138744,
                    48.86554
                ],
                "type": "Point"
            },
            "properties": {
                "is_installed": true,
                "is_renting": true,
                "is_returning": true,
                "is_virtual_station": false,
                "last_reported": 1789138104,
                "name": "\u0160vabinsk\u00e9ho",
                "num_bikes_available": 3,
                "num_docks_available": 0,
                "region_id": "1046",
                "rental_uris": {
                    "android": "https://app.nextbike.net/station?id=599765089",
                    "ios": "https://app.nextbike.net/station?id=599765089",
                    "web": "https://nxtb.it/p/599765089"
                },
                "short_name": "47497",
                "station_id": "599765089",
                "vehicle_types_available": [
                    {
                        "count": 1,
                        "vehicle_type_id": "199"
                    },
                    {
                        "count": 2,
                        "vehicle_type_id": "413"
                    }
                ]
            },
            "type": "Feature"
        }
    ],
    "gbfs": {
        "station_information": {
            "last_updated": 1789138104,
            "ttl": 60,
            "version": "2.3"
        },
        "station_status": {
            "last_updated": 1789138104,
            "ttl": 60,
            "version": "2.3"
        }
    },
    "type": "FeatureCollection"
}