{
    "features": [
        {
            "geometry": {
                "coordinates": [
                    -2.758775,
                    48.511264
                ],
                "type": "Point"
            },
            "properties": {
                "capacity": 15,
                "is_charging_station": true,
                "is_installed": true,
                "is_renting": true,
                "is_returning": true,
                "is_valet_station": false,
                "is_virtual_station": false,
                "last_reported": 1789134560,
                "name": "Place Duguesclin",
                "num_bikes_available": 13,
                "num_docks_available": 4,
                "rental_uris": {
                    "android": "velobaie://app?sid=c89rum7ui9nq2a60ua80",
                    "ios": "velobaie://app?sid=c89rum7ui9nq2a60ua80"
                },
                "station_id": "c89rum7ui9nq2a60ua80",
                "vehicle_type_capacity": {
                    "1": 4,
                    "10": 0,
                    "14": 0,
                    "15": 0,
                    "2": 4,
                    "4": 4,
                    "5": 0,
                    "6": 0,
                    "7": 4
                },
                "vehicle_types_available": [
                    {
                        "count": 13,
                        "vehicle_type_id": "4"
                    },
                    {
                        "count": 0,
                        "vehicle_type_id": "1"
                    },
                    {
                        "count": 0,
                        "vehicle_type_id": "2"
                    },
                    {
                        "count": 0,
                        "vehicle_type_id": "7"
                    }
                ]
            },
            "type": "Feature"
        },
        {
            "geometry": {
                "coordinates": [
                    -2.750325,
                    48.523102
                ],
                "type": "Point"
            },
            "properties": {
                "capacity": 15,
                "is_charging_station": true,
                "is_installed": true,
                "is_renting": true,
                "is_returning": true,
                "is_valet_station": false,
                "is_virtual_station": false,
                "last_reported": 1789134560,
                "name": "Port du L\u00e9gu\u00e9",
                "num_bikes_available": 8,
                "num_docks_available": 7,
                "rental_uris": {
                    "android": "velobaie://app?sid=c89sj4fui9nq2a60v110",
                    "ios": "velobaie://app?sid=c89sj4fui9nq2a60v110"
                },
                "station_id": "c89sj4fui9nq2a60v110",
                "vehicle_type_capacity": {
                    "1": 8,
                    "10": 0,
                    "14": 0,
                    "15": 0,
                    "2": 8,
                    "4": 8,
                    "5": 0,
                    "6": 0,
                    "7": 8
                },
                "vehicle_types_available": [
                    {
                        "count": 0,
                        "vehicle_type_id": "1"
                    },
                    {
                        "count": 0,
                        "vehicle_type_id": "2"
                    },
                    {
                        "count": 0,
                        "vehicle_type_id": "7"
                    },
                    {
                        "count": 8,
                        "vehicle_type_id": "4"
                    }
                ]
            },
            "type": "Feature"
        },
        {
            "geometry": {
                "coordinates": [
                    -2.76577,
                    48.50781
                ],
                "type": "Point"
            },
            "properties": {
                "capacity": 15,
                "is_charging_station": true,
                "is_installed": true,
                "is_renting": true,
                "is_returning": true,
                "is_valet_station": false,
                "is_virtual_station": false,
                "last_reported": 1789134560,
                "name": "Gare",
                "num_bikes_available": 13,
                "num_docks_available": 2,
                "rental_uris": {
                    "android": "velobaie://app?sid=c89sm4nui9nq2a60v5tg",
                    "ios": "velobaie://app?sid=c89sm4nui9nq2a60v5tg"
                },
                "station_id": "c89sm4nui9nq2a60v5tg",
                "vehicle_type_capacity": {
                    "1": 2,
                    "10": 0,
                    "14": 0,
                    "15": 0,
                    "2": 2,
                    "4": 2,
                    "5": 0,
                    "6": 0,
                    "7": 2
                },
                "vehicle_types_available": [
                    {
                        "count": 0,
                        "vehicle_type_id": "2"
                    },
                    {
                        "count": 0,
                        "vehicle_type_id": "1"
                    },
                    {
                        "count": 13,
                        "vehicle_type_id": "4"
                    },
                    {
                        "count": 0,
                        "vehicle_type_id": "7"
                    }
                ]
            },
            "type": "Feature"
        },
        {
            "geometry": {
                "coordinates": [
                    -2.7405,
                    48.5121
                ],
                "type": "Point"
            },
            "properties": {
                "capacity": 15,
                "is_charging_station": true,
                "is_installed": true,
                "is_renting": true,
                "is_returning": true,
                "is_valet_station": false,
                "is_virtual_station": false,
                "last_reported": 1789134560,
                "name": "Campus Universitaire",
                "num_bikes_available": 8,
                "num_docks_available": 9,
                "rental_uris": {
                    "android": "velobaie://app?sid=c89smk7ui9nq2a60v6c0",
                    "ios": "velobaie://app?sid=c89smk7ui9nq2a60v6c0"
                },
                "station_id": "c89smk7ui9nq2a60v6c0",
                "vehicle_type_capacity": {
                    "1": 9,
                    "10": 0,
                    "14": 0,
                    "15": 0,
                    "2": 9,
                    "4": 9,
                    "5": 0,
                    "6": 0,
                    "7": 9
                },
                "vehicle_types_available": [
                    {
                        "count": 0,
                        "vehicle_type_id": "1"
                    },
                    {
                        "count": 0,
                        "vehicle_type_id": "2"
                    },
                    {
                        "count": 8,
                        "vehicle_type_id": "4"
                    },
                    {
                        "count": 0,
                        "vehicle_type_id": "7"
                    }
                ]
            },
            "type": "Feature"
        },
        {
            "geometry": {
                "coordinates": [
                    -2.76305,
                    48.514935
                ],
                "type": "Point"
            },
            "properties": {
                "capacity": 10,
                "is_charging_station": true,
                "is_installed": true,
                "is_renting": true,
                "is_returning": true,
                "is_valet_station": false,
                "is_virtual_station": false,
                "last_reported": 1789134560,
                "name": "La Grille",
                "num_bikes_available": 3,
                "num_docks_available": 7,
                "rental_uris": {
                    "android": "velobaie://app?sid=st_d40t5vn2bg4c73fuh15g",
                    "ios": "velobaie://app?sid=st_d40t5vn2bg4c73fuh15g"
                },
                "station_id": "st_d40t5vn2bg4c73fuh15g",
                "vehicle_type_capacity": {
                    "1": 7,
                    "10": 0,
                    "14": 0,
                    "15": 0,
                    "2": 7,
                    "4": 7,
                    "5": 0,
                    "6": 0,
                    "7": 7
                },
                "vehicle_types_available": [
                    {
                        "count": 3,
                        "vehicle_type_id": "4"
                    },
                    {
                        "count": 0,
                        "vehicle_type_id": "2"
                    },
                    {
                        "count": 0,
                        "vehicle_type_id": "7"
                    },
                    {
                        "count": 0,
                        "vehicle_type_id": "1"
                    },
                    {
                        "count": 0,
                        "vehicle_type_id": "10"
                    }
                ]
            },
            "type": "Feature"
        },
        {
            "geometry": {
                "coordinates": [
                    -2.766023,
                    48.506739
                ],
                "type": "Point"
            },
            "properties": {
                "capacity": 10,
                "is_charging_station": true,
                "is_installed": true,
                "is_renting": true,
                "is_returning": true,
                "is_valet_station": false,
                "is_virtual_station": false,
                "last_reported": 1789134560,
                "name": "Gare Routi\u00e8re Robien",
                "num_bikes_available": 2,
                "num_docks_available": 8,
                "rental_uris": {
                    "android": "velobaie://app?sid=st_d40t7niq22rs738m3su0",
                    "ios": "velobaie://app?sid=st_d40t7niq22rs738m3su0"
                },
                "station_id": "st_d40t7niq22rs738m3su0",
                "vehicle_type_capacity": {
                    "1": 8,
                    "10": 0,
                    "14": 0,
                    "15": 0,
                    "2": 8,
                    "4": 8,
                    "5": 0,
                    "6": 0,
                    "7": 8
                },
                "vehicle_types_available": [
                    {
                        "count": 2,
                        "vehicle_type_id": "4"
                    },
                    {
                        "count": 0,
                        "vehicle_type_id": "1"
                    },
                    {
                        "count": 0,
                        "vehicle_type_id": "2"
                    },
                    {
                        "count": 0,
                        "vehicle_type_id": "7"
                    }
                ]
            },
            "type": "Feature"
        },
        {
            "geometry": {
                "coordinates": [
                    -2.74921,
                    48.49255
                ],
                "type": "Point"
            },
            "properties": {
                "capacity": 10,
                "is_charging_station": true,
                "is_installed": true,
                "is_renting": true,
                "is_returning": true,
                "is_valet_station": false,
                "is_virtual_station": false,
                "last_reported": 1789134560,
                "name": "H\u00f4pital Yves Le Foll",
                "num_bikes_available": 13,
                "num_docks_available": 0,
                "rental_uris": {
                    "android": "velobaie://app?sid=st_d40ta4qq22rs73f14u3g",
                    "ios": "velobaie://app?sid=st_d40ta4qq22rs73f14u3g"
                },
                "station_id": "st_d40ta4qq22rs73f14u3g",
                "vehicle_type_capacity": {
                    "1": 8,
                    "10": 0,
                    "14": 0,
                    "15": 0,
                    "2": 8,
                    "4": 8,
                    "5": 0,
                    "6": 0,
                    "7": 8
                },
                "vehicle_types_available": [
                    {
                        "count": 13,
                        "vehicle_type_id": "4"
                    },
                    {
                        "count": 0,
                        "vehicle_type_id": "2"
                    },
                    {
                        "count": 0,
                        "vehicle_type_id": "7"
                    },
                    {
                        "count": 0,
                        "vehicle_type_id": "1"
                    }
                ]
            },
            "type": "Feature"
        },
        {
            "geometry": {
                "coordinates": [
                    -2.76436,
                    48.49919
                ],
                "type": "Point"
            },
            "properties": {
                "capacity": 10,
                "is_charging_station": true,
                "is_installed": true,
                "is_renting": true,
                "is_returning": true,
                "is_valet_station": false,
                "is_virtual_station": false,
                "last_reported": 1789134560,
                "name": "Palais des Congr\u00e8s",
                "num_bikes_available": 4,
                "num_docks_available": 6,
                "rental_uris": {
                    "android": "velobaie://app?sid=st_d40taof2bg4c73fuh51g",
                    "ios": "velobaie://app?sid=st_d40taof2bg4c73fuh51g"
                },
                "station_id": "st_d40taof2bg4c73fuh51g",
                "vehicle_type_capacity": {
                    "1": 6,
                    "10": 0,
                    "14": 0,
                    "15": 0,
                    "2": 6,
                    "4": 6,
                    "5": 0,
                    "6": 0,
                    "7": 6
                },
                "vehicle_types_available": [
                    {
                        "count": 0,
                        "vehicle_type_id": "2"
                    },
                    {
                        "count": 0,
                        "vehicle_type_id": "7"
                    },
                    {
                        "count": 4,
                        "vehicle_type_id": "4"
                    },
                    {
                        "count": 0,
                        "vehicle_type_id": "1"
                    }
                ]
            },
            "type": "Feature"
        },
        {
            "geometry": {
                "coordinates": [
                    -2.7903,
                    48.51962
                ],
                "type": "Point"
            },
            "properties": {
                "capacity": 10,
                "is_charging_station": true,
                "is_installed": true,
                "is_renting": true,
                "is_returning": true,
                "is_valet_station": false,
                "is_virtual_station": false,
                "last_reported": 1789134560,
                "name": "Les Villages",
                "num_bikes_available": 3,
                "num_docks_available": 7,
                "rental_uris": {
                    "android": "velobaie://app?sid=st_d40tbeiq22rs73f14uu0",
                    "ios": "velobaie://app?sid=st_d40tbeiq22rs73f14uu0"
                },
                "station_id": "st_d40tbeiq22rs73f14uu0",
                "vehicle_type_capacity": {
                    "1": 7,
                    "10": 0,
                    "14": 0,
                    "15": 0,
                    "2": 7,
                    "4": 7,
                    "5": 0,
                    "6": 0,
                    "7": 7
                },
                "vehicle_types_available": [
                    {
                        "count": 0,
                        "vehicle_type_id": "2"
                    },
                    {
                        "count": 3,
                        "vehicle_type_id": "4"
                    },
                    {
                        "count": 0,
                        "vehicle_type_id": "7"
                    },
                    {
                        "count": 0,
                        "vehicle_type_id": "1"
                    }
                ]
            },
            "type": "Feature"
        },
        {
            "geometry": {
                "coordinates": [
                    -2.74319,
                    48.50508
                ],
                "type": "Point"
            },
            "properties": {
                "capacity": 10,
                "is_charging_station": true,
                "is_installed": true,
                "is_renting": true,
                "is_returning": true,
                "is_valet_station": false,
                "is_virtual_station": false,
                "last_reported": 1789134560,
                "name": "Rabelais",
                "num_bikes_available": 4,
                "num_docks_available": 5,
                "rental_uris": {
                    "android": "velobaie://app?sid=st_d40tca1ju2ac73ej8450",
                    "ios": "velobaie://app?sid=st_d40tca1ju2ac73ej8450"
                },
                "station_id": "st_d40tca1ju2ac73ej8450",
                "vehicle_type_capacity": {
                    "1": 5,
                    "10": 0,
                    "14": 0,
                    "15": 0,
                    "2": 5,
                    "4": 5,
                    "5": 0,
                    "6": 0,
                    "7": 5
                },
                "vehicle_types_available": [
                    {
                        "count": 0,
                        "vehicle_type_id": "2"
                    },
                    {
                        "count": 0,
                        "vehicle_type_id": "1"
                    },
                    {
                        "count": 4,
                        "vehicle_type_id": "4"
                    },
                    {
                        "count": 0,
                        "vehicle_type_id": "7"
                    }
                ]
            },
            "type": "Feature"
        },
        {
            "geometry": {
                "coordinates": [
                    -2.73739,
                    48.49007
                ],
                "type": "Point"
            },
            "properties": {
                "capacity": 10,
                "is_charging_station": true,
                "is_installed": true,
                "is_renting": true,
                "is_returning": true,
                "is_valet_station": false,
                "is_virtual_station": false,
                "last_reported": 1789134560,
                "name": "Tr\u00e9gueux Centre",
                "num_bikes_available": 7,
                "num_docks_available": 3,
                "rental_uris": {
                    "android": "velobaie://app?sid=st_d4imjn64mi3s73dbh740",
                    "ios": "velobaie://app?sid=st_d4imjn64mi3s73dbh740"
                },
                "station_id": "st_d4imjn64mi3s73dbh740",
                "vehicle_type_capacity": {
                    "1": 3,
                    "10": 0,
                    "14": 0,
                    "15": 0,
                    "2": 3,
                    "4": 3,
                    "5": 0,
                    "6": 0,
                    "7": 3
                },
                "vehicle_types_available": [
                    {
                        "count": 7,
                        "vehicle_type_id": "4"
                    },
                    {
                        "count": 0,
                        "vehicle_type_id": "7"
                    },
                    {
                        "count": 0,
                        "vehicle_type_id": "1"
                    },
                    {
                        "count": 0,
                        "vehicle_type_id": "2"
                    }
                ]
            },
            "type": "Feature"
        },
        {
            "geometry": {
                "coordinates": [
                    -2.731588,
                    48.49773
                ],
                "type": "Point"
            },
            "properties": {
                "capacity": 10,
                "is_charging_station": true,
                "is_installed": true,
                "is_renting": true,
                "is_returning": true,
                "is_valet_station": false,
                "is_virtual_station": false,
                "last_reported": 1789134560,
                "name": "Langueux Espace Commercial",
                "num_bikes_available": 4,
                "num_docks_available": 7,
                "rental_uris": {
                    "android": "velobaie://app?sid=st_d4inobe4mi3s73dbi270",
                    "ios": "velobaie://app?sid=st_d4inobe4mi3s73dbi270"
                },
                "station_id": "st_d4inobe4mi3s73dbi270",
                "vehicle_type_capacity": {
                    "1": 7,
                    "10": 0,
                    "14": 0,
                    "15": 0,
                    "2": 7,
                    "4": 7,
                    "5": 0,
                    "6": 0,
                    "7": 7
                },
                "vehicle_types_available": [
                    {
                        "count": 4,
                        "vehicle_type_id": "4"
                    },
                    {
                        "count": 0,
                        "vehicle_type_id": "1"
                    },
                    {
                        "count": 0,
                        "vehicle_type_id": "2"
                    },
                    {
                        "count": 0,
                        "vehicle_type_id": "7"
                    }
                ]
            },
            "type": "Feature"
        }
    ],
    "gbfs": {
        "station_information": {
            "last_updated": 1789134590,
            "ttl": 60,
            "version": "2.2"
        },
        "station_status": {
            "last_updated": 1789134560,
            "ttl": 60,
            "version": "2.2"
        }
    },
    "type": "FeatureCollection"
}