{
    "features": [
        {
            "geometry": {
                "coordinates": [
                    23.38703,
                    51.14949
                ],
                "type": "Point"
            },
            "properties": {
                "capacity": 15,
                "is_installed": true,
                "is_renting": true,
                "is_returning": true,
                "is_virtual_station": false,
                "last_reported": 1789326820,
                "name": "Amfiteatr Jan\u00f3w",
                "num_bikes_available": 14,
                "num_docks_available": 1,
                "region_id": "776",
                "rental_uris": {
                    "android": "https://app.nextbike.net/station?id=85048574",
                    "ios": "https://app.nextbike.net/station?id=85048574",
                    "web": "https://nxtb.it/p/85048574"
                },
                "short_name": "60261",
                "station_id": "85048574",
                "vehicle_types_available": [
                    {
                        "count": 7,
                        "vehicle_type_id": "71"
                    },
                    {
                        "count": 1,
                        "vehicle_type_id": "219"
                    },
                    {
                        "count": 5,
                        "vehicle_type_id": "205"
                    },
                    {
                        "count": 1,
                        "vehicle_type_id": "218"
                    }
                ]
            },
            "type": "Feature"
        },
        {
            "geometry": {
                "coordinates": [
                    23.43807,
                    51.14592
                ],
                "type": "Point"
            },
            "properties": {
                "capacity": 15,
                "is_installed": true,
                "is_renting": true,
                "is_returning": true,
                "is_virtual_station": false,
                "last_reported": 1789326820,
                "name": "Lubelska/Rondo Dmowskiego",
                "num_bikes_available": 11,
                "num_docks_available": 4,
                "region_id": "776",
                "rental_uris": {
                    "android": "https://app.nextbike.net/station?id=85050807",
                    "ios": "https://app.nextbike.net/station?id=85050807",
                    "web": "https://nxtb.it/p/85050807"
                },
                "short_name": "60262",
                "station_id": "85050807",
                "vehicle_types_available": [
                    {
                        "count": 10,
                        "vehicle_type_id": "71"
                    },
                    {
                        "count": 1,
                        "vehicle_type_id": "219"
                    }
                ]
            },
            "type": "Feature"
        },
        {
            "geometry": {
                "coordinates": [
                    23.45458,
                    51.1401
                ],
                "type": "Point"
            },
            "properties": {
                "capacity": 15,
                "is_installed": true,
                "is_renting": true,
                "is_returning": true,
                "is_virtual_station": false,
                "last_reported": 1789326820,
                "name": "Park Wodny",
                "num_bikes_available": 4,
                "num_docks_available": 11,
                "region_id": "776",
                "rental_uris": {
                    "android": "https://app.nextbike.net/station?id=85050970",
                    "ios": "https://app.nextbike.net/station?id=85050970",
                    "web": "https://nxtb.it/p/85050970"
                },
                "short_name": "60263",
                "station_id": "85050970",
                "vehicle_types_available": [
                    {
                        "count": 4,
                        "vehicle_type_id": "71"
                    }
                ]
            },
            "type": "Feature"
        },
        {
            "geometry": {
                "coordinates": [
                    23.46488,
                    51.1353
                ],
                "type": "Point"
            },
            "properties": {
                "capacity": 15,
                "is_installed": true,
                "is_renting": true,
                "is_returning": true,
                "is_virtual_station": false,
                "last_reported": 1789326820,
                "name": "Armii Krajowej/Park Miejski",
                "num_bikes_available": 11,
                "num_docks_available": 3,
                "region_id": "776",
                "rental_uris": {
                    "android": "https://app.nextbike.net/station?id=85051267",
                    "ios": "https://app.nextbike.net/station?id=85051267",
                    "web": "https://nxtb.it/p/85051267"
                },
                "short_name": "60264",
                "station_id": "85051267",
                "vehicle_types_available": [
                    {
                        "count": 8,
                        "vehicle_type_id": "71"
                    },
                    {
                        "count": 3,
                        "vehicle_type_id": "219"
                    }
                ]
            },
            "type": "Feature"
        },
        {
            "geometry": {
                "coordinates": [
                    23.46747,
                    51.13067
                ],
                "type": "Point"
            },
            "properties": {
                "capacity": 15,
                "is_installed": true,
                "is_renting": true,
                "is_returning": true,
                "is_virtual_station": false,
                "last_reported": 1789326820,
                "name": "Armii Krajowej/Busy",
                "num_bikes_available": 4,
                "num_docks_available": 11,
                "region_id": "776",
                "rental_uris": {
                    "android": "https://app.nextbike.net/station?id=85051450",
                    "ios": "https://app.nextbike.net/station?id=85051450",
                    "web": "https://nxtb.it/p/85051450"
                },
                "short_name": "60265",
                "station_id": "85051450",
                "vehicle_types_available": [
                    {
                        "count": 4,
                        "vehicle_type_id": "71"
                    }
                ]
            },
            "type": "Feature"
        },
        {
            "geometry": {
                "coordinates": [
                    23.46735,
                    51.12395
                ],
                "type": "Point"
            },
            "properties": {
                "capacity": 15,
                "is_installed": true,
                "is_renting": true,
                "is_returning": true,
                "is_virtual_station": false,
                "last_reported": 1789326820,
                "name": "Lwowska/Wirskiego",
                "num_bikes_available": 10,
                "num_docks_available": 5,
                "region_id": "776",
                "rental_uris": {
                    "android": "https://app.nextbike.net/station?id=85051640",
                    "ios": "https://app.nextbike.net/station?id=85051640",
                    "web": "https://nxtb.it/p/85051640"
                },
                "short_name": "60266",
                "station_id": "85051640",
                "vehicle_types_available": [
                    {
                        "count": 10,
                        "vehicle_type_id": "71"
                    }
                ]
            },
            "type": "Feature"
        },
        {
            "geometry": {
                "coordinates": [
                    23.44142,
                    51.09909
                ],
                "type": "Point"
            },
            "properties": {
                "capacity": 15,
                "is_installed": true,
                "is_renting": true,
                "is_returning": true,
                "is_virtual_station": false,
                "last_reported": 1789326820,
                "name": "Przysta\u0144 \u017b\u00f3\u0142ta\u0144ce",
                "num_bikes_available": 9,
                "num_docks_available": 6,
                "region_id": "776",
                "rental_uris": {
                    "android": "https://app.nextbike.net/station?id=85051882",
                    "ios": "https://app.nextbike.net/station?id=85051882",
                    "web": "https://nxtb.it/p/85051882"
                },
                "short_name": "60267",
                "station_id": "85051882",
                "vehicle_types_available": [
                    {
                        "count": 8,
                        "vehicle_type_id": "71"
                    },
                    {
                        "count": 1,
                        "vehicle_type_id": "219"
                    }
                ]
            },
            "type": "Feature"
        },
        {
            "geometry": {
                "coordinates": [
                    23.46794,
                    51.12151
                ],
                "type": "Point"
            },
            "properties": {
                "capacity": 15,
                "is_installed": true,
                "is_renting": true,
                "is_returning": true,
                "is_virtual_station": false,
                "last_reported": 1789326820,
                "name": "Rondo WO\u015aP",
                "num_bikes_available": 6,
                "num_docks_available": 9,
                "region_id": "776",
                "rental_uris": {
                    "android": "https://app.nextbike.net/station?id=85052049",
                    "ios": "https://app.nextbike.net/station?id=85052049",
                    "web": "https://nxtb.it/p/85052049"
                },
                "short_name": "60268",
                "station_id": "85052049",
                "vehicle_types_available": [
                    {
                        "count": 5,
                        "vehicle_type_id": "71"
                    },
                    {
                        "count": 1,
                        "vehicle_type_id": "219"
                    }
                ]
            },
            "type": "Feature"
        },
        {
            "geometry": {
                "coordinates": [
                    23.49869,
                    51.12377
                ],
                "type": "Point"
            },
            "properties": {
                "capacity": 15,
                "is_installed": true,
                "is_renting": true,
                "is_returning": true,
                "is_virtual_station": false,
                "last_reported": 1789326820,
                "name": "Hrubieszowska/Szko\u0142a Muzyczna",
                "num_bikes_available": 1,
                "num_docks_available": 14,
                "region_id": "776",
                "rental_uris": {
                    "android": "https://app.nextbike.net/station?id=85052217",
                    "ios": "https://app.nextbike.net/station?id=85052217",
                    "web": "https://nxtb.it/p/85052217"
                },
                "short_name": "60269",
                "station_id": "85052217",
                "vehicle_types_available": [
                    {
                        "count": 1,
                        "vehicle_type_id": "71"
                    }
                ]
            },
            "type": "Feature"
        },
        {
            "geometry": {
                "coordinates": [
                    23.48277,
                    51.12556
                ],
                "type": "Point"
            },
            "properties": {
                "capacity": 15,
                "is_installed": true,
                "is_renting": true,
                "is_returning": true,
                "is_virtual_station": false,
                "last_reported": 1789326820,
                "name": "Wojs\u0142awicka",
                "num_bikes_available": 6,
                "num_docks_available": 9,
                "region_id": "776",
                "rental_uris": {
                    "android": "https://app.nextbike.net/station?id=85052344",
                    "ios": "https://app.nextbike.net/station?id=85052344",
                    "web": "https://nxtb.it/p/85052344"
                },
                "short_name": "60270",
                "station_id": "85052344",
                "vehicle_types_available": [
                    {
                        "count": 6,
                        "vehicle_type_id": "71"
                    }
                ]
            },
            "type": "Feature"
        },
        {
            "geometry": {
                "coordinates": [
                    23.582261,
                    51.094009
                ],
                "type": "Point"
            },
            "properties": {
                "capacity": 15,
                "is_installed": true,
                "is_renting": true,
                "is_returning": true,
                "is_virtual_station": false,
                "last_reported": 1789326820,
                "name": "Kamie\u0144",
                "num_bikes_available": 12,
                "num_docks_available": 3,
                "region_id": "776",
                "rental_uris": {
                    "android": "https://app.nextbike.net/station?id=85052548",
                    "ios": "https://app.nextbike.net/station?id=85052548",
                    "web": "https://nxtb.it/p/85052548"
                },
                "short_name": "60271",
                "station_id": "85052548",
                "vehicle_types_available": [
                    {
                        "count": 8,
                        "vehicle_type_id": "71"
                    },
                    {
                        "count": 4,
                        "vehicle_type_id": "205"
                    }
                ]
            },
            "type": "Feature"
        },
        {
            "geometry": {
                "coordinates": [
                    23.50779,
                    51.13587
                ],
                "type": "Point"
            },
            "properties": {
                "capacity": 15,
                "is_installed": true,
                "is_renting": true,
                "is_returning": true,
                "is_virtual_station": false,
                "last_reported": 1789326820,
                "name": "Wo\u0142y\u0144ska/MPGK",
                "num_bikes_available": 8,
                "num_docks_available": 7,
                "region_id": "776",
                "rental_uris": {
                    "android": "https://app.nextbike.net/station?id=85052698",
                    "ios": "https://app.nextbike.net/station?id=85052698",
                    "web": "https://nxtb.it/p/85052698"
                },
                "short_name": "60272",
                "station_id": "85052698",
                "vehicle_types_available": [
                    {
                        "count": 5,
                        "vehicle_type_id": "71"
                    },
                    {
                        "count": 3,
                        "vehicle_type_id": "219"
                    }
                ]
            },
            "type": "Feature"
        },
        {
            "geometry": {
                "coordinates": [
                    23.49366,
                    51.14008
                ],
                "type": "Point"
            },
            "properties": {
                "capacity": 15,
                "is_installed": true,
                "is_renting": true,
                "is_returning": true,
                "is_virtual_station": false,
                "last_reported": 1789326820,
                "name": "Dworzec PKP",
                "num_bikes_available": 12,
                "num_docks_available": 3,
                "region_id": "776",
                "rental_uris": {
                    "android": "https://app.nextbike.net/station?id=85052858",
                    "ios": "https://app.nextbike.net/station?id=85052858",
                    "web": "https://nxtb.it/p/85052858"
                },
                "short_name": "60273",
                "station_id": "85052858",
                "vehicle_types_available": [
                    {
                        "count": 10,
                        "vehicle_type_id": "71"
                    },
                    {
                        "count": 2,
                        "vehicle_type_id": "219"
                    }
                ]
            },
            "type": "Feature"
        },
        {
            "geometry": {
                "coordinates": [
                    23.49405,
                    51.13467
                ],
                "type": "Point"
            },
            "properties": {
                "capacity": 15,
                "is_installed": true,
                "is_renting": true,
                "is_returning": true,
                "is_virtual_station": false,
                "last_reported": 1789326820,
                "name": "Pi\u0142sudskiego/ Szwole\u017cer\u00f3w",
                "num_bikes_available": 7,
                "num_docks_available": 8,
                "region_id": "776",
                "rental_uris": {
                    "android": "https://app.nextbike.net/station?id=85053031",
                    "ios": "https://app.nextbike.net/station?id=85053031",
                    "web": "https://nxtb.it/p/85053031"
                },
                "short_name": "60274",
                "station_id": "85053031",
                "vehicle_types_available": [
                    {
                        "count": 6,
                        "vehicle_type_id": "71"
                    },
                    {
                        "count": 1,
                        "vehicle_type_id": "219"
                    }
                ]
            },
            "type": "Feature"
        },
        {
            "geometry": {
                "coordinates": [
                    23.48928,
                    51.13195
                ],
                "type": "Point"
            },
            "properties": {
                "capacity": 15,
                "is_installed": true,
                "is_renting": true,
                "is_returning": true,
                "is_virtual_station": false,
                "last_reported": 1789326820,
                "name": "CHDK",
                "num_bikes_available": 12,
                "num_docks_available": 3,
                "region_id": "776",
                "rental_uris": {
                    "android": "https://app.nextbike.net/station?id=85053180",
                    "ios": "https://app.nextbike.net/station?id=85053180",
                    "web": "https://nxtb.it/p/85053180"
                },
                "short_name": "60275",
                "station_id": "85053180",
                "vehicle_types_available": [
                    {
                        "count": 12,
                        "vehicle_type_id": "71"
                    }
                ]
            },
            "type": "Feature"
        },
        {
            "geometry": {
                "coordinates": [
                    23.47183,
                    51.13131
                ],
                "type": "Point"
            },
            "properties": {
                "capacity": 15,
                "is_installed": true,
                "is_renting": true,
                "is_returning": true,
                "is_virtual_station": false,
                "last_reported": 1789326820,
                "name": "Lwowska/Deptak",
                "num_bikes_available": 2,
                "num_docks_available": 13,
                "region_id": "776",
                "rental_uris": {
                    "android": "https://app.nextbike.net/station?id=85053408",
                    "ios": "https://app.nextbike.net/station?id=85053408",
                    "web": "https://nxtb.it/p/85053408"
                },
                "short_name": "60276",
                "station_id": "85053408",
                "vehicle_types_available": [
                    {
                        "count": 2,
                        "vehicle_type_id": "71"
                    }
                ]
            },
            "type": "Feature"
        },
        {
            "geometry": {
                "coordinates": [
                    23.4716,
                    51.13396
                ],
                "type": "Point"
            },
            "properties": {
                "capacity": 15,
                "is_installed": true,
                "is_renting": true,
                "is_returning": true,
                "is_virtual_station": false,
                "last_reported": 1789326820,
                "name": "Plac Gda\u0144ski",
                "num_bikes_available": 12,
                "num_docks_available": 3,
                "region_id": "776",
                "rental_uris": {
                    "android": "https://app.nextbike.net/station?id=85053571",
                    "ios": "https://app.nextbike.net/station?id=85053571",
                    "web": "https://nxtb.it/p/85053571"
                },
                "short_name": "60277",
                "station_id": "85053571",
                "vehicle_types_available": [
                    {
                        "count": 10,
                        "vehicle_type_id": "71"
                    },
                    {
                        "count": 2,
                        "vehicle_type_id": "219"
                    }
                ]
            },
            "type": "Feature"
        }
    ],
    "gbfs": {
        "station_information": {
            "last_updated": 1789326820,
            "ttl": 60,
            "version": "2.3"
        },
        "station_status": {
            "last_updated": 1789326820,
            "ttl": 60,
            "version": "2.3"
        }
    },
    "type": "FeatureCollection"
}