{
    "features": [
        {
            "geometry": {
                "coordinates": [
                    0.16549,
                    45.6536
                ],
                "type": "Point"
            },
            "properties": {
                "capacity": 10,
                "is_charging_station": true,
                "is_installed": true,
                "is_renting": true,
                "is_returning": true,
                "is_valet_station": false,
                "is_virtual_station": false,
                "last_reported": 1789251203,
                "name": "Gare SNCF Angoul\u00eame",
                "num_bikes_available": 1,
                "num_docks_available": 8,
                "rental_uris": {
                    "android": "%!(EXTRA string=ciaq8dgk59geca2m80g0)",
                    "ios": "%!(EXTRA string=ciaq8dgk59geca2m80g0)"
                },
                "station_id": "ciaq8dgk59geca2m80g0",
                "vehicle_type_capacity": {
                    "1": 10
                },
                "vehicle_types_available": [
                    {
                        "count": 1,
                        "vehicle_type_id": "1"
                    }
                ]
            },
            "type": "Feature"
        },
        {
            "geometry": {
                "coordinates": [
                    0.15585,
                    45.64889
                ],
                "type": "Point"
            },
            "properties": {
                "capacity": 10,
                "is_charging_station": true,
                "is_installed": true,
                "is_renting": true,
                "is_returning": true,
                "is_valet_station": false,
                "is_virtual_station": false,
                "last_reported": 1789251203,
                "name": "Angoul\u00eame Hotel de Ville",
                "num_bikes_available": 2,
                "num_docks_available": 4,
                "rental_uris": {
                    "android": "%!(EXTRA string=ciaq8e0k59geca2m8180)",
                    "ios": "%!(EXTRA string=ciaq8e0k59geca2m8180)"
                },
                "station_id": "ciaq8e0k59geca2m8180",
                "vehicle_type_capacity": {
                    "1": 9
                },
                "vehicle_types_available": [
                    {
                        "count": 0,
                        "vehicle_type_id": "1"
                    }
                ]
            },
            "type": "Feature"
        },
        {
            "geometry": {
                "coordinates": [
                    0.14817,
                    45.65716
                ],
                "type": "Point"
            },
            "properties": {
                "capacity": 10,
                "is_charging_station": true,
                "is_installed": true,
                "is_renting": true,
                "is_returning": true,
                "is_valet_station": false,
                "is_virtual_station": false,
                "last_reported": 1789251203,
                "name": "Angoul\u00eame Mulac",
                "num_bikes_available": 2,
                "num_docks_available": 7,
                "rental_uris": {
                    "android": "%!(EXTRA string=ciaq8eok59geca2m828g)",
                    "ios": "%!(EXTRA string=ciaq8eok59geca2m828g)"
                },
                "station_id": "ciaq8eok59geca2m828g",
                "vehicle_type_capacity": {
                    "1": 7
                },
                "vehicle_types_available": [
                    {
                        "count": 1,
                        "vehicle_type_id": "1"
                    }
                ]
            },
            "type": "Feature"
        },
        {
            "geometry": {
                "coordinates": [
                    0.15378,
                    45.63282
                ],
                "type": "Point"
            },
            "properties": {
                "capacity": 10,
                "is_charging_station": true,
                "is_installed": true,
                "is_renting": true,
                "is_returning": true,
                "is_valet_station": false,
                "is_virtual_station": false,
                "last_reported": 1789251203,
                "name": "Angoul\u00eame Lisa",
                "num_bikes_available": 3,
                "num_docks_available": 7,
                "rental_uris": {
                    "android": "%!(EXTRA string=ciaq8f8k59geca2m82r0)",
                    "ios": "%!(EXTRA string=ciaq8f8k59geca2m82r0)"
                },
                "station_id": "ciaq8f8k59geca2m82r0",
                "vehicle_type_capacity": {
                    "1": 10
                },
                "vehicle_types_available": [
                    {
                        "count": 1,
                        "vehicle_type_id": "1"
                    }
                ]
            },
            "type": "Feature"
        },
        {
            "geometry": {
                "coordinates": [
                    0.1362,
                    45.643
                ],
                "type": "Point"
            },
            "properties": {
                "capacity": 10,
                "is_charging_station": true,
                "is_installed": true,
                "is_renting": true,
                "is_returning": true,
                "is_valet_station": false,
                "is_virtual_station": false,
                "last_reported": 1789251203,
                "name": "Angoul\u00eame Jean Monnet",
                "num_bikes_available": 0,
                "num_docks_available": 9,
                "rental_uris": {
                    "android": "%!(EXTRA string=ciaq8fok59geca2m83cg)",
                    "ios": "%!(EXTRA string=ciaq8fok59geca2m83cg)"
                },
                "station_id": "ciaq8fok59geca2m83cg",
                "vehicle_type_capacity": {
                    "1": 9
                },
                "vehicle_types_available": [
                    {
                        "count": 0,
                        "vehicle_type_id": "1"
                    }
                ]
            },
            "type": "Feature"
        },
        {
            "geometry": {
                "coordinates": [
                    0.20785,
                    45.67037
                ],
                "type": "Point"
            },
            "properties": {
                "capacity": 10,
                "is_charging_station": true,
                "is_installed": true,
                "is_renting": true,
                "is_returning": true,
                "is_valet_station": false,
                "is_virtual_station": false,
                "last_reported": 1789251203,
                "name": "Angoul\u00eame Parc Expo Carat",
                "num_bikes_available": 1,
                "num_docks_available": 9,
                "rental_uris": {
                    "android": "%!(EXTRA string=ciaq8h0k59geca2m84l0)",
                    "ios": "%!(EXTRA string=ciaq8h0k59geca2m84l0)"
                },
                "station_id": "ciaq8h0k59geca2m84l0",
                "vehicle_type_capacity": {
                    "1": 10
                },
                "vehicle_types_available": [
                    {
                        "count": 0,
                        "vehicle_type_id": "1"
                    }
                ]
            },
            "type": "Feature"
        },
        {
            "geometry": {
                "coordinates": [
                    0.14717,
                    45.68584
                ],
                "type": "Point"
            },
            "properties": {
                "capacity": 10,
                "is_charging_station": true,
                "is_installed": true,
                "is_renting": true,
                "is_returning": true,
                "is_valet_station": false,
                "is_virtual_station": false,
                "last_reported": 1789251203,
                "name": "Angoul\u00eame Plan d'eau",
                "num_bikes_available": 7,
                "num_docks_available": 3,
                "rental_uris": {
                    "android": "%!(EXTRA string=ciaq8i0k59geca2m85cg)",
                    "ios": "%!(EXTRA string=ciaq8i0k59geca2m85cg)"
                },
                "station_id": "ciaq8i0k59geca2m85cg",
                "vehicle_type_capacity": {
                    "1": 4
                },
                "vehicle_types_available": [
                    {
                        "count": 6,
                        "vehicle_type_id": "1"
                    }
                ]
            },
            "type": "Feature"
        },
        {
            "geometry": {
                "coordinates": [
                    0.101083,
                    45.605155
                ],
                "type": "Point"
            },
            "properties": {
                "capacity": 10,
                "is_charging_station": true,
                "is_installed": true,
                "is_renting": true,
                "is_returning": true,
                "is_valet_station": false,
                "is_virtual_station": false,
                "last_reported": 1789251203,
                "name": "Angoul\u00eame La Couronne Gare",
                "num_bikes_available": 0,
                "num_docks_available": 10,
                "rental_uris": {
                    "android": "%!(EXTRA string=ciaq8iok59geca2m8620)",
                    "ios": "%!(EXTRA string=ciaq8iok59geca2m8620)"
                },
                "station_id": "ciaq8iok59geca2m8620",
                "vehicle_type_capacity": {
                    "1": 10
                },
                "vehicle_types_available": [
                    {
                        "count": 0,
                        "vehicle_type_id": "1"
                    }
                ]
            },
            "type": "Feature"
        },
        {
            "geometry": {
                "coordinates": [
                    0.11767,
                    45.65154
                ],
                "type": "Point"
            },
            "properties": {
                "capacity": 10,
                "is_charging_station": true,
                "is_installed": true,
                "is_renting": true,
                "is_returning": true,
                "is_valet_station": false,
                "is_virtual_station": false,
                "last_reported": 1789251203,
                "name": "Angoul\u00eame - 3 Ch\u00eanes",
                "num_bikes_available": 2,
                "num_docks_available": 5,
                "rental_uris": {
                    "android": "%!(EXTRA string=st_d0lkt8kmemg60qg04img)",
                    "ios": "%!(EXTRA string=st_d0lkt8kmemg60qg04img)"
                },
                "station_id": "st_d0lkt8kmemg60qg04img",
                "vehicle_type_capacity": {
                    "1": 7
                },
                "vehicle_types_available": [
                    {
                        "count": 2,
                        "vehicle_type_id": "1"
                    }
                ]
            },
            "type": "Feature"
        },
        {
            "geometry": {
                "coordinates": [
                    0.162629,
                    45.64954
                ],
                "type": "Point"
            },
            "properties": {
                "capacity": 10,
                "is_charging_station": true,
                "is_installed": true,
                "is_renting": true,
                "is_returning": true,
                "is_valet_station": false,
                "is_virtual_station": false,
                "last_reported": 1789251203,
                "name": "Angoul\u00eame - Champ de Mars",
                "num_bikes_available": 0,
                "num_docks_available": 10,
                "rental_uris": {
                    "android": "%!(EXTRA string=st_d0lkt8p24m7ivabeofp0)",
                    "ios": "%!(EXTRA string=st_d0lkt8p24m7ivabeofp0)"
                },
                "station_id": "st_d0lkt8p24m7ivabeofp0",
                "vehicle_type_capacity": {
                    "1": 10
                },
                "vehicle_types_available": [
                    {
                        "count": 0,
                        "vehicle_type_id": "1"
                    }
                ]
            },
            "type": "Feature"
        },
        {
            "geometry": {
                "coordinates": [
                    0.31755,
                    45.61622
                ],
                "type": "Point"
            },
            "properties": {
                "capacity": 10,
                "is_charging_station": true,
                "is_installed": true,
                "is_renting": true,
                "is_returning": true,
                "is_valet_station": false,
                "is_virtual_station": false,
                "last_reported": 1789251203,
                "name": "Bou\u00ebx - Mairie",
                "num_bikes_available": 1,
                "num_docks_available": 9,
                "rental_uris": {
                    "android": "%!(EXTRA string=st_d0lkt8p24m7ivabeofsg)",
                    "ios": "%!(EXTRA string=st_d0lkt8p24m7ivabeofsg)"
                },
                "station_id": "st_d0lkt8p24m7ivabeofsg",
                "vehicle_type_capacity": {
                    "1": 9
                },
                "vehicle_types_available": [
                    {
                        "count": 1,
                        "vehicle_type_id": "1"
                    }
                ]
            },
            "type": "Feature"
        },
        {
            "geometry": {
                "coordinates": [
                    0.17429,
                    45.64932
                ],
                "type": "Point"
            },
            "properties": {
                "capacity": 10,
                "is_charging_station": true,
                "is_installed": true,
                "is_renting": true,
                "is_returning": true,
                "is_valet_station": false,
                "is_virtual_station": false,
                "last_reported": 1789251203,
                "name": "Angoul\u00eame - Place Victor Hugo",
                "num_bikes_available": 3,
                "num_docks_available": 0,
                "rental_uris": {
                    "android": "%!(EXTRA string=st_d0lkt8smemg60qg04is0)",
                    "ios": "%!(EXTRA string=st_d0lkt8smemg60qg04is0)"
                },
                "station_id": "st_d0lkt8smemg60qg04is0",
                "vehicle_type_capacity": {
                    "1": 9
                },
                "vehicle_types_available": [
                    {
                        "count": 3,
                        "vehicle_type_id": "1"
                    }
                ]
            },
            "type": "Feature"
        },
        {
            "geometry": {
                "coordinates": [
                    0.13764,
                    45.71167
                ],
                "type": "Point"
            },
            "properties": {
                "capacity": 10,
                "is_charging_station": true,
                "is_installed": true,
                "is_renting": true,
                "is_returning": true,
                "is_valet_station": false,
                "is_virtual_station": false,
                "last_reported": 1789251203,
                "name": "Balzac - Mairie",
                "num_bikes_available": 12,
                "num_docks_available": 0,
                "rental_uris": {
                    "android": "%!(EXTRA string=st_d0lkt8smemg60qg04ivg)",
                    "ios": "%!(EXTRA string=st_d0lkt8smemg60qg04ivg)"
                },
                "station_id": "st_d0lkt8smemg60qg04ivg",
                "vehicle_type_capacity": {
                    "1": 7
                },
                "vehicle_types_available": [
                    {
                        "count": 9,
                        "vehicle_type_id": "1"
                    }
                ]
            },
            "type": "Feature"
        },
        {
            "geometry": {
                "coordinates": [
                    0.241015,
                    45.739852
                ],
                "type": "Point"
            },
            "properties": {
                "capacity": 10,
                "is_charging_station": true,
                "is_installed": true,
                "is_renting": true,
                "is_returning": true,
                "is_valet_station": false,
                "is_virtual_station": false,
                "last_reported": 1789251203,
                "name": "Brie - Mairie",
                "num_bikes_available": 7,
                "num_docks_available": 3,
                "rental_uris": {
                    "android": "%!(EXTRA string=st_d0lkt9124m7ivabeofv0)",
                    "ios": "%!(EXTRA string=st_d0lkt9124m7ivabeofv0)"
                },
                "station_id": "st_d0lkt9124m7ivabeofv0",
                "vehicle_type_capacity": {
                    "1": 10
                },
                "vehicle_types_available": [
                    {
                        "count": 7,
                        "vehicle_type_id": "1"
                    }
                ]
            },
            "type": "Feature"
        },
        {
            "geometry": {
                "coordinates": [
                    0.2056,
                    45.71442
                ],
                "type": "Point"
            },
            "properties": {
                "capacity": 10,
                "is_charging_station": true,
                "is_installed": true,
                "is_renting": true,
                "is_returning": true,
                "is_valet_station": false,
                "is_virtual_station": false,
                "last_reported": 1789251203,
                "name": "Champniers - Bourg M\u00e9diath\u00e8que",
                "num_bikes_available": 4,
                "num_docks_available": 5,
                "rental_uris": {
                    "android": "%!(EXTRA string=st_d0lkt9124m7ivabeog2g)",
                    "ios": "%!(EXTRA string=st_d0lkt9124m7ivabeog2g)"
                },
                "station_id": "st_d0lkt9124m7ivabeog2g",
                "vehicle_type_capacity": {
                    "1": 6
                },
                "vehicle_types_available": [
                    {
                        "count": 3,
                        "vehicle_type_id": "1"
                    }
                ]
            },
            "type": "Feature"
        },
        {
            "geometry": {
                "coordinates": [
                    0.23577,
                    45.70472
                ],
                "type": "Point"
            },
            "properties": {
                "capacity": 10,
                "is_charging_station": true,
                "is_installed": true,
                "is_renting": true,
                "is_returning": true,
                "is_valet_station": false,
                "is_virtual_station": false,
                "last_reported": 1789251203,
                "name": "Champniers - Viville",
                "num_bikes_available": 9,
                "num_docks_available": 1,
                "rental_uris": {
                    "android": "%!(EXTRA string=st_d0lkt9124m7ivabeog50)",
                    "ios": "%!(EXTRA string=st_d0lkt9124m7ivabeog50)"
                },
                "station_id": "st_d0lkt9124m7ivabeog50",
                "vehicle_type_capacity": {
                    "1": 2
                },
                "vehicle_types_available": [
                    {
                        "count": 8,
                        "vehicle_type_id": "1"
                    }
                ]
            },
            "type": "Feature"
        },
        {
            "geometry": {
                "coordinates": [
                    0.04323,
                    45.55463
                ],
                "type": "Point"
            },
            "properties": {
                "capacity": 10,
                "is_charging_station": true,
                "is_installed": true,
                "is_renting": true,
                "is_returning": true,
                "is_valet_station": false,
                "is_virtual_station": false,
                "last_reported": 1789251203,
                "name": "Claix - \u00c9cole",
                "num_bikes_available": 2,
                "num_docks_available": 8,
                "rental_uris": {
                    "android": "%!(EXTRA string=st_d0lkt9124m7ivabeog7g)",
                    "ios": "%!(EXTRA string=st_d0lkt9124m7ivabeog7g)"
                },
                "station_id": "st_d0lkt9124m7ivabeog7g",
                "vehicle_type_capacity": {
                    "1": 8
                },
                "vehicle_types_available": [
                    {
                        "count": 2,
                        "vehicle_type_id": "1"
                    }
                ]
            },
            "type": "Feature"
        },
        {
            "geometry": {
                "coordinates": [
                    0.27689,
                    45.555
                ],
                "type": "Point"
            },
            "properties": {
                "capacity": 10,
                "is_charging_station": true,
                "is_installed": true,
                "is_renting": true,
                "is_returning": true,
                "is_valet_station": false,
                "is_virtual_station": false,
                "last_reported": 1789251203,
                "name": "Dignac - Clef d'Or",
                "num_bikes_available": 4,
                "num_docks_available": 6,
                "rental_uris": {
                    "android": "%!(EXTRA string=st_d0lkt9124m7ivabeoga0)",
                    "ios": "%!(EXTRA string=st_d0lkt9124m7ivabeoga0)"
                },
                "station_id": "st_d0lkt9124m7ivabeoga0",
                "vehicle_type_capacity": {
                    "1": 6
                },
                "vehicle_types_available": [
                    {
                        "count": 4,
                        "vehicle_type_id": "1"
                    }
                ]
            },
            "type": "Feature"
        },
        {
            "geometry": {
                "coordinates": [
                    0.08947,
                    45.66194
                ],
                "type": "Point"
            },
            "properties": {
                "capacity": 10,
                "is_charging_station": true,
                "is_installed": true,
                "is_renting": true,
                "is_returning": true,
                "is_valet_station": false,
                "is_virtual_station": false,
                "last_reported": 1789251203,
                "name": "Fl\u00e9ac - Gymnase",
                "num_bikes_available": 8,
                "num_docks_available": 0,
                "rental_uris": {
                    "android": "%!(EXTRA string=st_d0lkt9124m7ivabeogbg)",
                    "ios": "%!(EXTRA string=st_d0lkt9124m7ivabeogbg)"
                },
                "station_id": "st_d0lkt9124m7ivabeogbg",
                "vehicle_type_capacity": {
                    "1": 0
                },
                "vehicle_types_available": [
                    {
                        "count": 5,
                        "vehicle_type_id": "1"
                    }
                ]
            },
            "type": "Feature"
        },
        {
            "geometry": {
                "coordinates": [
                    0.0928,
                    45.68129
                ],
                "type": "Point"
            },
            "properties": {
                "capacity": 10,
                "is_charging_station": true,
                "is_installed": true,
                "is_renting": true,
                "is_returning": true,
                "is_valet_station": false,
                "is_virtual_station": false,
                "last_reported": 1789251203,
                "name": "Fl\u00e9ac \u2013 Bois Renaud",
                "num_bikes_available": 4,
                "num_docks_available": 6,
                "rental_uris": {
                    "android": "%!(EXTRA string=st_d0lkt94memg60qg04jb0)",
                    "ios": "%!(EXTRA string=st_d0lkt94memg60qg04jb0)"
                },
                "station_id": "st_d0lkt94memg60qg04jb0",
                "vehicle_type_capacity": {
                    "1": 8
                },
                "vehicle_types_available": [
                    {
                        "count": 4,
                        "vehicle_type_id": "1"
                    }
                ]
            },
            "type": "Feature"
        },
        {
            "geometry": {
                "coordinates": [
                    0.251,
                    45.62296
                ],
                "type": "Point"
            },
            "properties": {
                "capacity": 10,
                "is_charging_station": true,
                "is_installed": true,
                "is_renting": true,
                "is_returning": true,
                "is_valet_station": false,
                "is_virtual_station": false,
                "last_reported": 1789251203,
                "name": "Garat - Ste Catherine",
                "num_bikes_available": 2,
                "num_docks_available": 8,
                "rental_uris": {
                    "android": "%!(EXTRA string=st_d0lkt94memg60qg04jcg)",
                    "ios": "%!(EXTRA string=st_d0lkt94memg60qg04jcg)"
                },
                "station_id": "st_d0lkt94memg60qg04jcg",
                "vehicle_type_capacity": {
                    "1": 10
                },
                "vehicle_types_available": [
                    {
                        "count": 1,
                        "vehicle_type_id": "1"
                    }
                ]
            },
            "type": "Feature"
        },
        {
            "geometry": {
                "coordinates": [
                    0.16611,
                    45.66858
                ],
                "type": "Point"
            },
            "properties": {
                "capacity": 10,
                "is_charging_station": true,
                "is_installed": true,
                "is_renting": true,
                "is_returning": true,
                "is_valet_station": false,
                "is_virtual_station": false,
                "last_reported": 1789251203,
                "name": "Gond-Pontouvre - Mairie",
                "num_bikes_available": 1,
                "num_docks_available": 4,
                "rental_uris": {
                    "android": "%!(EXTRA string=st_d0lkt94memg60qg04jg0)",
                    "ios": "%!(EXTRA string=st_d0lkt94memg60qg04jg0)"
                },
                "station_id": "st_d0lkt94memg60qg04jg0",
                "vehicle_type_capacity": {
                    "1": 10
                },
                "vehicle_types_available": [
                    {
                        "count": 1,
                        "vehicle_type_id": "1"
                    }
                ]
            },
            "type": "Feature"
        },
        {
            "geometry": {
                "coordinates": [
                    0.25724,
                    45.7851
                ],
                "type": "Point"
            },
            "properties": {
                "capacity": 10,
                "is_charging_station": true,
                "is_installed": true,
                "is_renting": true,
                "is_returning": true,
                "is_valet_station": false,
                "is_virtual_station": false,
                "last_reported": 1789251203,
                "name": "Jauldes - Mairie",
                "num_bikes_available": 5,
                "num_docks_available": 5,
                "rental_uris": {
                    "android": "%!(EXTRA string=st_d0lkt9924m7ivabeogg0)",
                    "ios": "%!(EXTRA string=st_d0lkt9924m7ivabeogg0)"
                },
                "station_id": "st_d0lkt9924m7ivabeogg0",
                "vehicle_type_capacity": {
                    "1": 5
                },
                "vehicle_types_available": [
                    {
                        "count": 5,
                        "vehicle_type_id": "1"
                    }
                ]
            },
            "type": "Feature"
        },
        {
            "geometry": {
                "coordinates": [
                    0.12276,
                    45.62542
                ],
                "type": "Point"
            },
            "properties": {
                "capacity": 10,
                "is_charging_station": true,
                "is_installed": true,
                "is_renting": true,
                "is_returning": true,
                "is_valet_station": false,
                "is_virtual_station": false,
                "last_reported": 1789251203,
                "name": "La Couronne - Campus",
                "num_bikes_available": 1,
                "num_docks_available": 8,
                "rental_uris": {
                    "android": "%!(EXTRA string=st_d0lkt9p24m7ivabeogjg)",
                    "ios": "%!(EXTRA string=st_d0lkt9p24m7ivabeogjg)"
                },
                "station_id": "st_d0lkt9p24m7ivabeogjg",
                "vehicle_type_capacity": {
                    "1": 8
                },
                "vehicle_types_available": [
                    {
                        "count": 1,
                        "vehicle_type_id": "1"
                    }
                ]
            },
            "type": "Feature"
        },
        {
            "geometry": {
                "coordinates": [
                    0.23642,
                    45.66551
                ],
                "type": "Point"
            },
            "properties": {
                "capacity": 10,
                "is_charging_station": true,
                "is_installed": true,
                "is_renting": true,
                "is_returning": true,
                "is_valet_station": false,
                "is_virtual_station": false,
                "last_reported": 1789251203,
                "name": "Magnac - Mairie",
                "num_bikes_available": 6,
                "num_docks_available": 4,
                "rental_uris": {
                    "android": "%!(EXTRA string=st_d0lkt9p24m7ivabeogo0)",
                    "ios": "%!(EXTRA string=st_d0lkt9p24m7ivabeogo0)"
                },
                "station_id": "st_d0lkt9p24m7ivabeogo0",
                "vehicle_type_capacity": {
                    "1": 4
                },
                "vehicle_types_available": [
                    {
                        "count": 6,
                        "vehicle_type_id": "1"
                    }
                ]
            },
            "type": "Feature"
        },
        {
            "geometry": {
                "coordinates": [
                    0.07633,
                    45.74635
                ],
                "type": "Point"
            },
            "properties": {
                "capacity": 10,
                "is_charging_station": true,
                "is_installed": true,
                "is_renting": true,
                "is_returning": true,
                "is_valet_station": false,
                "is_virtual_station": false,
                "last_reported": 1789251203,
                "name": "Marsac - Mairie",
                "num_bikes_available": 6,
                "num_docks_available": 4,
                "rental_uris": {
                    "android": "%!(EXTRA string=st_d0lkt9p24m7ivabeogpg)",
                    "ios": "%!(EXTRA string=st_d0lkt9p24m7ivabeogpg)"
                },
                "station_id": "st_d0lkt9p24m7ivabeogpg",
                "vehicle_type_capacity": {
                    "1": 4
                },
                "vehicle_types_available": [
                    {
                        "count": 4,
                        "vehicle_type_id": "1"
                    }
                ]
            },
            "type": "Feature"
        },
        {
            "geometry": {
                "coordinates": [
                    0.26996,
                    45.67784
                ],
                "type": "Point"
            },
            "properties": {
                "capacity": 10,
                "is_charging_station": true,
                "is_installed": true,
                "is_renting": true,
                "is_returning": true,
                "is_valet_station": false,
                "is_virtual_station": false,
                "last_reported": 1789251203,
                "name": "Mornac - Bourg",
                "num_bikes_available": 8,
                "num_docks_available": 2,
                "rental_uris": {
                    "android": "%!(EXTRA string=st_d0lkt9p24m7ivabeogr0)",
                    "ios": "%!(EXTRA string=st_d0lkt9p24m7ivabeogr0)"
                },
                "station_id": "st_d0lkt9p24m7ivabeogr0",
                "vehicle_type_capacity": {
                    "1": 2
                },
                "vehicle_types_available": [
                    {
                        "count": 3,
                        "vehicle_type_id": "1"
                    }
                ]
            },
            "type": "Feature"
        },
        {
            "geometry": {
                "coordinates": [
                    0.08417,
                    45.6557
                ],
                "type": "Point"
            },
            "properties": {
                "capacity": 10,
                "is_charging_station": true,
                "is_installed": true,
                "is_renting": true,
                "is_returning": true,
                "is_valet_station": false,
                "is_virtual_station": false,
                "last_reported": 1789251203,
                "name": "Linars - 4 routes",
                "num_bikes_available": 8,
                "num_docks_available": 0,
                "rental_uris": {
                    "android": "%!(EXTRA string=st_d0lkt9smemg60qg04jog)",
                    "ios": "%!(EXTRA string=st_d0lkt9smemg60qg04jog)"
                },
                "station_id": "st_d0lkt9smemg60qg04jog",
                "vehicle_type_capacity": {
                    "1": 6
                },
                "vehicle_types_available": [
                    {
                        "count": 6,
                        "vehicle_type_id": "1"
                    }
                ]
            },
            "type": "Feature"
        },
        {
            "geometry": {
                "coordinates": [
                    0.12359,
                    45.55374
                ],
                "type": "Point"
            },
            "properties": {
                "capacity": 10,
                "is_charging_station": true,
                "is_installed": true,
                "is_renting": true,
                "is_returning": true,
                "is_valet_station": false,
                "is_virtual_station": false,
                "last_reported": 1789251203,
                "name": "Mouthiers - Mairie",
                "num_bikes_available": 3,
                "num_docks_available": 7,
                "rental_uris": {
                    "android": "%!(EXTRA string=st_d0lkta124m7ivabeogtg)",
                    "ios": "%!(EXTRA string=st_d0lkta124m7ivabeogtg)"
                },
                "station_id": "st_d0lkta124m7ivabeogtg",
                "vehicle_type_capacity": {
                    "1": 7
                },
                "vehicle_types_available": [
                    {
                        "count": 2,
                        "vehicle_type_id": "1"
                    }
                ]
            },
            "type": "Feature"
        },
        {
            "geometry": {
                "coordinates": [
                    0.1803,
                    45.61468
                ],
                "type": "Point"
            },
            "properties": {
                "capacity": 10,
                "is_charging_station": true,
                "is_installed": true,
                "is_renting": true,
                "is_returning": true,
                "is_valet_station": false,
                "is_virtual_station": false,
                "last_reported": 1789251203,
                "name": "Puymoyen - Mairie",
                "num_bikes_available": 8,
                "num_docks_available": 2,
                "rental_uris": {
                    "android": "%!(EXTRA string=st_d0lkta124m7ivabeoh30)",
                    "ios": "%!(EXTRA string=st_d0lkta124m7ivabeoh30)"
                },
                "station_id": "st_d0lkta124m7ivabeoh30",
                "vehicle_type_capacity": {
                    "1": 4
                },
                "vehicle_types_available": [
                    {
                        "count": 7,
                        "vehicle_type_id": "1"
                    }
                ]
            },
            "type": "Feature"
        },
        {
            "geometry": {
                "coordinates": [
                    0.01284,
                    45.58007
                ],
                "type": "Point"
            },
            "properties": {
                "capacity": 10,
                "is_charging_station": true,
                "is_installed": true,
                "is_renting": true,
                "is_returning": true,
                "is_valet_station": false,
                "is_virtual_station": false,
                "last_reported": 1789251203,
                "name": "Roullet - \u00c9cole St-Est\u00e8phe",
                "num_bikes_available": 5,
                "num_docks_available": 5,
                "rental_uris": {
                    "android": "%!(EXTRA string=st_d0lkta124m7ivabeoh4g)",
                    "ios": "%!(EXTRA string=st_d0lkta124m7ivabeoh4g)"
                },
                "station_id": "st_d0lkta124m7ivabeoh4g",
                "vehicle_type_capacity": {
                    "1": 5
                },
                "vehicle_types_available": [
                    {
                        "count": 5,
                        "vehicle_type_id": "1"
                    }
                ]
            },
            "type": "Feature"
        },
        {
            "geometry": {
                "coordinates": [
                    0.23554,
                    45.6777
                ],
                "type": "Point"
            },
            "properties": {
                "capacity": 10,
                "is_charging_station": true,
                "is_installed": true,
                "is_renting": true,
                "is_returning": true,
                "is_valet_station": false,
                "is_virtual_station": false,
                "last_reported": 1789251203,
                "name": "Ruelle - Mme Curie",
                "num_bikes_available": 3,
                "num_docks_available": 7,
                "rental_uris": {
                    "android": "%!(EXTRA string=st_d0lkta124m7ivabeoh70)",
                    "ios": "%!(EXTRA string=st_d0lkta124m7ivabeoh70)"
                },
                "station_id": "st_d0lkta124m7ivabeoh70",
                "vehicle_type_capacity": {
                    "1": 7
                },
                "vehicle_types_available": [
                    {
                        "count": 3,
                        "vehicle_type_id": "1"
                    }
                ]
            },
            "type": "Feature"
        },
        {
            "geometry": {
                "coordinates": [
                    0.05132,
                    45.62563
                ],
                "type": "Point"
            },
            "properties": {
                "capacity": 10,
                "is_charging_station": true,
                "is_installed": true,
                "is_renting": true,
                "is_returning": true,
                "is_valet_station": false,
                "is_virtual_station": false,
                "last_reported": 1789251203,
                "name": "Nersac - Mairie",
                "num_bikes_available": 7,
                "num_docks_available": 0,
                "rental_uris": {
                    "android": "%!(EXTRA string=st_d0lkta4memg60qg04k10)",
                    "ios": "%!(EXTRA string=st_d0lkta4memg60qg04k10)"
                },
                "station_id": "st_d0lkta4memg60qg04k10",
                "vehicle_type_capacity": {
                    "1": 10
                },
                "vehicle_types_available": [
                    {
                        "count": 4,
                        "vehicle_type_id": "1"
                    }
                ]
            },
            "type": "Feature"
        },
        {
            "geometry": {
                "coordinates": [
                    0.06401,
                    45.52651
                ],
                "type": "Point"
            },
            "properties": {
                "capacity": 10,
                "is_charging_station": true,
                "is_installed": true,
                "is_renting": true,
                "is_returning": true,
                "is_valet_station": false,
                "is_virtual_station": false,
                "last_reported": 1789251203,
                "name": "Plassac-Rouffiac - Plassac",
                "num_bikes_available": 6,
                "num_docks_available": 4,
                "rental_uris": {
                    "android": "%!(EXTRA string=st_d0lkta4memg60qg04k2g)",
                    "ios": "%!(EXTRA string=st_d0lkta4memg60qg04k2g)"
                },
                "station_id": "st_d0lkta4memg60qg04k2g",
                "vehicle_type_capacity": {
                    "1": 8
                },
                "vehicle_types_available": [
                    {
                        "count": 5,
                        "vehicle_type_id": "1"
                    }
                ]
            },
            "type": "Feature"
        },
        {
            "geometry": {
                "coordinates": [
                    0.04711,
                    45.58327
                ],
                "type": "Point"
            },
            "properties": {
                "capacity": 10,
                "is_charging_station": true,
                "is_installed": true,
                "is_renting": true,
                "is_returning": true,
                "is_valet_station": false,
                "is_virtual_station": false,
                "last_reported": 1789251203,
                "name": "Roullet - \u00c9glise de Roullet",
                "num_bikes_available": 3,
                "num_docks_available": 7,
                "rental_uris": {
                    "android": "%!(EXTRA string=st_d0lkta4memg60qg04k90)",
                    "ios": "%!(EXTRA string=st_d0lkta4memg60qg04k90)"
                },
                "station_id": "st_d0lkta4memg60qg04k90",
                "vehicle_type_capacity": {
                    "1": 7
                },
                "vehicle_types_available": [
                    {
                        "count": 3,
                        "vehicle_type_id": "1"
                    }
                ]
            },
            "type": "Feature"
        },
        {
            "geometry": {
                "coordinates": [
                    0.22477,
                    45.67831
                ],
                "type": "Point"
            },
            "properties": {
                "capacity": 10,
                "is_charging_station": true,
                "is_installed": true,
                "is_renting": true,
                "is_returning": true,
                "is_valet_station": false,
                "is_virtual_station": false,
                "last_reported": 1789251203,
                "name": "Ruelle - Fonderie",
                "num_bikes_available": 3,
                "num_docks_available": 7,
                "rental_uris": {
                    "android": "%!(EXTRA string=st_d0lkta4memg60qg04kbg)",
                    "ios": "%!(EXTRA string=st_d0lkta4memg60qg04kbg)"
                },
                "station_id": "st_d0lkta4memg60qg04kbg",
                "vehicle_type_capacity": {
                    "1": 7
                },
                "vehicle_types_available": [
                    {
                        "count": 3,
                        "vehicle_type_id": "1"
                    }
                ]
            },
            "type": "Feature"
        },
        {
            "geometry": {
                "coordinates": [
                    0.11163,
                    45.63755
                ],
                "type": "Point"
            },
            "properties": {
                "capacity": 10,
                "is_charging_station": true,
                "is_installed": true,
                "is_renting": true,
                "is_returning": true,
                "is_valet_station": false,
                "is_virtual_station": false,
                "last_reported": 1789251203,
                "name": "Saint-Michel - Espace commercial",
                "num_bikes_available": 5,
                "num_docks_available": 5,
                "rental_uris": {
                    "android": "%!(EXTRA string=st_d0lkta4memg60qg04kg0)",
                    "ios": "%!(EXTRA string=st_d0lkta4memg60qg04kg0)"
                },
                "station_id": "st_d0lkta4memg60qg04kg0",
                "vehicle_type_capacity": {
                    "1": 9
                },
                "vehicle_types_available": [
                    {
                        "count": 4,
                        "vehicle_type_id": "1"
                    }
                ]
            },
            "type": "Feature"
        },
        {
            "geometry": {
                "coordinates": [
                    0.12388,
                    45.63544
                ],
                "type": "Point"
            },
            "properties": {
                "capacity": 10,
                "is_charging_station": true,
                "is_installed": true,
                "is_renting": true,
                "is_returning": true,
                "is_valet_station": false,
                "is_virtual_station": false,
                "last_reported": 1789251203,
                "name": "Saint-Michel - Girac",
                "num_bikes_available": 0,
                "num_docks_available": 4,
                "rental_uris": {
                    "android": "%!(EXTRA string=st_d0lkta924m7ivabeohbg)",
                    "ios": "%!(EXTRA string=st_d0lkta924m7ivabeohbg)"
                },
                "station_id": "st_d0lkta924m7ivabeohbg",
                "vehicle_type_capacity": {
                    "1": 10
                },
                "vehicle_types_available": [
                    {
                        "count": 0,
                        "vehicle_type_id": "1"
                    }
                ]
            },
            "type": "Feature"
        },
        {
            "geometry": {
                "coordinates": [
                    0.12679,
                    45.67542
                ],
                "type": "Point"
            },
            "properties": {
                "capacity": 10,
                "is_charging_station": true,
                "is_installed": true,
                "is_renting": true,
                "is_returning": true,
                "is_valet_station": false,
                "is_virtual_station": false,
                "last_reported": 1789251203,
                "name": "Saint-Yrieix - Mairie",
                "num_bikes_available": 8,
                "num_docks_available": 0,
                "rental_uris": {
                    "android": "%!(EXTRA string=st_d0lkta924m7ivabeohf0)",
                    "ios": "%!(EXTRA string=st_d0lkta924m7ivabeohf0)"
                },
                "station_id": "st_d0lkta924m7ivabeohf0",
                "vehicle_type_capacity": {
                    "1": 4
                },
                "vehicle_types_available": [
                    {
                        "count": 7,
                        "vehicle_type_id": "1"
                    }
                ]
            },
            "type": "Feature"
        },
        {
            "geometry": {
                "coordinates": [
                    0.18993,
                    45.64216
                ],
                "type": "Point"
            },
            "properties": {
                "capacity": 10,
                "is_charging_station": true,
                "is_installed": true,
                "is_renting": true,
                "is_returning": true,
                "is_valet_station": false,
                "is_virtual_station": false,
                "last_reported": 1789251203,
                "name": "Soyaux - March\u00e9 Petit",
                "num_bikes_available": 7,
                "num_docks_available": 3,
                "rental_uris": {
                    "android": "%!(EXTRA string=st_d0lkta924m7ivabeohlg)",
                    "ios": "%!(EXTRA string=st_d0lkta924m7ivabeohlg)"
                },
                "station_id": "st_d0lkta924m7ivabeohlg",
                "vehicle_type_capacity": {
                    "1": 7
                },
                "vehicle_types_available": [
                    {
                        "count": 4,
                        "vehicle_type_id": "1"
                    }
                ]
            },
            "type": "Feature"
        },
        {
            "geometry": {
                "coordinates": [
                    0.21387,
                    45.56458
                ],
                "type": "Point"
            },
            "properties": {
                "capacity": 10,
                "is_charging_station": true,
                "is_installed": true,
                "is_renting": true,
                "is_returning": true,
                "is_valet_station": false,
                "is_virtual_station": false,
                "last_reported": 1789251203,
                "name": "Torsac - Place Blanche",
                "num_bikes_available": 5,
                "num_docks_available": 5,
                "rental_uris": {
                    "android": "%!(EXTRA string=st_d0lkta924m7ivabeohq0)",
                    "ios": "%!(EXTRA string=st_d0lkta924m7ivabeohq0)"
                },
                "station_id": "st_d0lkta924m7ivabeohq0",
                "vehicle_type_capacity": {
                    "1": 5
                },
                "vehicle_types_available": [
                    {
                        "count": 5,
                        "vehicle_type_id": "1"
                    }
                ]
            },
            "type": "Feature"
        },
        {
            "geometry": {
                "coordinates": [
                    0.32212,
                    45.59668
                ],
                "type": "Point"
            },
            "properties": {
                "capacity": 10,
                "is_charging_station": true,
                "is_installed": true,
                "is_renting": true,
                "is_returning": true,
                "is_valet_station": false,
                "is_virtual_station": false,
                "last_reported": 1789251203,
                "name": "Sers - Bourg",
                "num_bikes_available": 3,
                "num_docks_available": 7,
                "rental_uris": {
                    "android": "%!(EXTRA string=st_d0lktacmemg60qg04kkg)",
                    "ios": "%!(EXTRA string=st_d0lktacmemg60qg04kkg)"
                },
                "station_id": "st_d0lktacmemg60qg04kkg",
                "vehicle_type_capacity": {
                    "1": 7
                },
                "vehicle_types_available": [
                    {
                        "count": 2,
                        "vehicle_type_id": "1"
                    }
                ]
            },
            "type": "Feature"
        },
        {
            "geometry": {
                "coordinates": [
                    0.0114,
                    45.61318
                ],
                "type": "Point"
            },
            "properties": {
                "capacity": 10,
                "is_charging_station": true,
                "is_installed": true,
                "is_renting": true,
                "is_returning": true,
                "is_valet_station": false,
                "is_virtual_station": false,
                "last_reported": 1789251203,
                "name": "Sireuil - Place des sports",
                "num_bikes_available": 8,
                "num_docks_available": 2,
                "rental_uris": {
                    "android": "%!(EXTRA string=st_d0lktacmemg60qg04km0)",
                    "ios": "%!(EXTRA string=st_d0lktacmemg60qg04km0)"
                },
                "station_id": "st_d0lktacmemg60qg04km0",
                "vehicle_type_capacity": {
                    "1": 2
                },
                "vehicle_types_available": [
                    {
                        "count": 6,
                        "vehicle_type_id": "1"
                    }
                ]
            },
            "type": "Feature"
        },
        {
            "geometry": {
                "coordinates": [
                    0.20476,
                    45.63709
                ],
                "type": "Point"
            },
            "properties": {
                "capacity": 10,
                "is_charging_station": true,
                "is_installed": true,
                "is_renting": true,
                "is_returning": true,
                "is_valet_station": false,
                "is_virtual_station": false,
                "last_reported": 1789251203,
                "name": "Soyaux - Jaufertie",
                "num_bikes_available": 0,
                "num_docks_available": 7,
                "rental_uris": {
                    "android": "%!(EXTRA string=st_d0lktacmemg60qg04kog)",
                    "ios": "%!(EXTRA string=st_d0lktacmemg60qg04kog)"
                },
                "station_id": "st_d0lktacmemg60qg04kog",
                "vehicle_type_capacity": {
                    "1": 9
                },
                "vehicle_types_available": [
                    {
                        "count": 0,
                        "vehicle_type_id": "1"
                    }
                ]
            },
            "type": "Feature"
        },
        {
            "geometry": {
                "coordinates": [
                    0.20365,
                    45.64578
                ],
                "type": "Point"
            },
            "properties": {
                "capacity": 10,
                "is_charging_station": true,
                "is_installed": true,
                "is_renting": true,
                "is_returning": true,
                "is_valet_station": false,
                "is_virtual_station": false,
                "last_reported": 1789251203,
                "name": "Soyaux - Place du Lac",
                "num_bikes_available": 2,
                "num_docks_available": 6,
                "rental_uris": {
                    "android": "%!(EXTRA string=st_d0lktacmemg60qg04ks0)",
                    "ios": "%!(EXTRA string=st_d0lktacmemg60qg04ks0)"
                },
                "station_id": "st_d0lktacmemg60qg04ks0",
                "vehicle_type_capacity": {
                    "1": 8
                },
                "vehicle_types_available": [
                    {
                        "count": 1,
                        "vehicle_type_id": "1"
                    }
                ]
            },
            "type": "Feature"
        },
        {
            "geometry": {
                "coordinates": [
                    0.05411,
                    45.64274
                ],
                "type": "Point"
            },
            "properties": {
                "capacity": 10,
                "is_charging_station": true,
                "is_installed": true,
                "is_renting": true,
                "is_returning": true,
                "is_valet_station": false,
                "is_virtual_station": false,
                "last_reported": 1789251203,
                "name": "Trois-Palis - Mairie",
                "num_bikes_available": 3,
                "num_docks_available": 7,
                "rental_uris": {
                    "android": "%!(EXTRA string=st_d0lktah24m7ivabeohug)",
                    "ios": "%!(EXTRA string=st_d0lktah24m7ivabeohug)"
                },
                "station_id": "st_d0lktah24m7ivabeohug",
                "vehicle_type_capacity": {
                    "1": 8
                },
                "vehicle_types_available": [
                    {
                        "count": 3,
                        "vehicle_type_id": "1"
                    }
                ]
            },
            "type": "Feature"
        },
        {
            "geometry": {
                "coordinates": [
                    0.122076,
                    45.719128
                ],
                "type": "Point"
            },
            "properties": {
                "capacity": 10,
                "is_charging_station": true,
                "is_installed": true,
                "is_renting": true,
                "is_returning": true,
                "is_valet_station": false,
                "is_virtual_station": false,
                "last_reported": 1789251203,
                "name": "Vindelle - Baignade",
                "num_bikes_available": 10,
                "num_docks_available": 0,
                "rental_uris": {
                    "android": "%!(EXTRA string=st_d0lktah24m7ivabeoi20)",
                    "ios": "%!(EXTRA string=st_d0lktah24m7ivabeoi20)"
                },
                "station_id": "st_d0lktah24m7ivabeoi20",
                "vehicle_type_capacity": {
                    "1": 5
                },
                "vehicle_types_available": [
                    {
                        "count": 9,
                        "vehicle_type_id": "1"
                    }
                ]
            },
            "type": "Feature"
        },
        {
            "geometry": {
                "coordinates": [
                    0.14812,
                    45.59246
                ],
                "type": "Point"
            },
            "properties": {
                "capacity": 10,
                "is_charging_station": true,
                "is_installed": true,
                "is_renting": true,
                "is_returning": true,
                "is_valet_station": false,
                "is_virtual_station": false,
                "last_reported": 1789251203,
                "name": "V\u0153uil-et-Giget - Centre Sportif",
                "num_bikes_available": 3,
                "num_docks_available": 6,
                "rental_uris": {
                    "android": "%!(EXTRA string=st_d0lktah24m7ivabeoi5g)",
                    "ios": "%!(EXTRA string=st_d0lktah24m7ivabeoi5g)"
                },
                "station_id": "st_d0lktah24m7ivabeoi5g",
                "vehicle_type_capacity": {
                    "1": 8
                },
                "vehicle_types_available": [
                    {
                        "count": 3,
                        "vehicle_type_id": "1"
                    }
                ]
            },
            "type": "Feature"
        },
        {
            "geometry": {
                "coordinates": [
                    0.35613,
                    45.60255
                ],
                "type": "Point"
            },
            "properties": {
                "capacity": 10,
                "is_charging_station": true,
                "is_installed": true,
                "is_renting": true,
                "is_returning": true,
                "is_valet_station": false,
                "is_virtual_station": false,
                "last_reported": 1789251203,
                "name": "Vouzan - \u00c9glise",
                "num_bikes_available": 5,
                "num_docks_available": 5,
                "rental_uris": {
                    "android": "%!(EXTRA string=st_d0lktah24m7ivabeoi70)",
                    "ios": "%!(EXTRA string=st_d0lktah24m7ivabeoi70)"
                },
                "station_id": "st_d0lktah24m7ivabeoi70",
                "vehicle_type_capacity": {
                    "1": 10
                },
                "vehicle_types_available": [
                    {
                        "count": 4,
                        "vehicle_type_id": "1"
                    }
                ]
            },
            "type": "Feature"
        },
        {
            "geometry": {
                "coordinates": [
                    0.24793,
                    45.65844
                ],
                "type": "Point"
            },
            "properties": {
                "capacity": 10,
                "is_charging_station": true,
                "is_installed": true,
                "is_renting": true,
                "is_returning": true,
                "is_valet_station": false,
                "is_virtual_station": false,
                "last_reported": 1789251203,
                "name": "Touvre - Quai 55",
                "num_bikes_available": 8,
                "num_docks_available": 2,
                "rental_uris": {
                    "android": "%!(EXTRA string=st_d0lktakmemg60qg04kvg)",
                    "ios": "%!(EXTRA string=st_d0lktakmemg60qg04kvg)"
                },
                "station_id": "st_d0lktakmemg60qg04kvg",
                "vehicle_type_capacity": {
                    "1": 2
                },
                "vehicle_types_available": [
                    {
                        "count": 5,
                        "vehicle_type_id": "1"
                    }
                ]
            },
            "type": "Feature"
        },
        {
            "geometry": {
                "coordinates": [
                    0.12013,
                    45.51197
                ],
                "type": "Point"
            },
            "properties": {
                "capacity": 10,
                "is_charging_station": true,
                "is_installed": true,
                "is_renting": true,
                "is_returning": true,
                "is_valet_station": false,
                "is_virtual_station": false,
                "last_reported": 1789251203,
                "name": "Voulg\u00e9zac - Marie",
                "num_bikes_available": 4,
                "num_docks_available": 6,
                "rental_uris": {
                    "android": "%!(EXTRA string=st_d0lktakmemg60qg04l80)",
                    "ios": "%!(EXTRA string=st_d0lktakmemg60qg04l80)"
                },
                "station_id": "st_d0lktakmemg60qg04l80",
                "vehicle_type_capacity": {
                    "1": 6
                },
                "vehicle_types_available": [
                    {
                        "count": 3,
                        "vehicle_type_id": "1"
                    }
                ]
            },
            "type": "Feature"
        },
        {
            "geometry": {
                "coordinates": [
                    0.18399,
                    45.67047
                ],
                "type": "Point"
            },
            "properties": {
                "capacity": 10,
                "is_charging_station": false,
                "is_installed": true,
                "is_renting": true,
                "is_returning": true,
                "is_valet_station": false,
                "is_virtual_station": false,
                "last_reported": 1789251203,
                "name": "L\u2019Isle-d\u2019Espagnac - Z.I. 3 Basti\u00e9",
                "num_bikes_available": 0,
                "num_docks_available": 10,
                "rental_uris": {
                    "android": "%!(EXTRA string=st_d1cllqkdlg9eg0lk83ag)",
                    "ios": "%!(EXTRA string=st_d1cllqkdlg9eg0lk83ag)"
                },
                "station_id": "st_d1cllqkdlg9eg0lk83ag",
                "vehicle_type_capacity": {
                    "1": 10
                },
                "vehicle_types_available": [
                    {
                        "count": 0,
                        "vehicle_type_id": "1"
                    }
                ]
            },
            "type": "Feature"
        },
        {
            "geometry": {
                "coordinates": [
                    0.04745,
                    45.71059
                ],
                "type": "Point"
            },
            "properties": {
                "capacity": 10,
                "is_charging_station": false,
                "is_installed": true,
                "is_renting": true,
                "is_returning": true,
                "is_valet_station": false,
                "is_virtual_station": false,
                "last_reported": 1789251203,
                "name": "Asni\u00e8res - \u00c9glise",
                "num_bikes_available": 5,
                "num_docks_available": 5,
                "rental_uris": {
                    "android": "%!(EXTRA string=st_d1clmjmrumbh8rh51clg)",
                    "ios": "%!(EXTRA string=st_d1clmjmrumbh8rh51clg)"
                },
                "station_id": "st_d1clmjmrumbh8rh51clg",
                "vehicle_type_capacity": {
                    "1": 5
                },
                "vehicle_types_available": [
                    {
                        "count": 4,
                        "vehicle_type_id": "1"
                    }
                ]
            },
            "type": "Feature"
        },
        {
            "geometry": {
                "coordinates": [
                    0.20001,
                    45.66476
                ],
                "type": "Point"
            },
            "properties": {
                "capacity": 10,
                "is_charging_station": false,
                "is_installed": true,
                "is_renting": true,
                "is_returning": true,
                "is_valet_station": false,
                "is_virtual_station": false,
                "last_reported": 1789251203,
                "name": "L'Isle-d\u2019Espagnac - Espace Brassens",
                "num_bikes_available": 6,
                "num_docks_available": 2,
                "rental_uris": {
                    "android": "%!(EXTRA string=st_d1clnlerumbh8rh51e4g)",
                    "ios": "%!(EXTRA string=st_d1clnlerumbh8rh51e4g)"
                },
                "station_id": "st_d1clnlerumbh8rh51e4g",
                "vehicle_type_capacity": {
                    "1": 10
                },
                "vehicle_types_available": [
                    {
                        "count": 5,
                        "vehicle_type_id": "1"
                    }
                ]
            },
            "type": "Feature"
        },
        {
            "geometry": {
                "coordinates": [
                    0.04232,
                    45.66147
                ],
                "type": "Point"
            },
            "properties": {
                "capacity": 10,
                "is_charging_station": true,
                "is_installed": true,
                "is_renting": true,
                "is_returning": true,
                "is_valet_station": false,
                "is_virtual_station": false,
                "last_reported": 1789251203,
                "name": "Saint-Saturnin - Salle de Sports",
                "num_bikes_available": 9,
                "num_docks_available": 1,
                "rental_uris": {
                    "android": "%!(EXTRA string=st_d1r2d5i2iilll6d8ill0)",
                    "ios": "%!(EXTRA string=st_d1r2d5i2iilll6d8ill0)"
                },
                "station_id": "st_d1r2d5i2iilll6d8ill0",
                "vehicle_type_capacity": {
                    "1": 1
                },
                "vehicle_types_available": [
                    {
                        "count": 5,
                        "vehicle_type_id": "1"
                    }
                ]
            },
            "type": "Feature"
        },
        {
            "geometry": {
                "coordinates": [
                    0.12801,
                    45.64849
                ],
                "type": "Point"
            },
            "properties": {
                "capacity": 10,
                "is_charging_station": true,
                "is_installed": true,
                "is_renting": true,
                "is_returning": true,
                "is_valet_station": false,
                "is_virtual_station": false,
                "last_reported": 1789251203,
                "name": "Angoul\u00eame - Grande Garenne",
                "num_bikes_available": 0,
                "num_docks_available": 10,
                "rental_uris": {
                    "android": "%!(EXTRA string=st_d21jste7b8vulu3cplf0)",
                    "ios": "%!(EXTRA string=st_d21jste7b8vulu3cplf0)"
                },
                "station_id": "st_d21jste7b8vulu3cplf0",
                "vehicle_type_capacity": {
                    "1": 10
                },
                "vehicle_types_available": [
                    {
                        "count": 0,
                        "vehicle_type_id": "1"
                    }
                ]
            },
            "type": "Feature"
        },
        {
            "geometry": {
                "coordinates": [
                    0.2483,
                    45.6027
                ],
                "type": "Point"
            },
            "properties": {
                "capacity": 11,
                "is_charging_station": false,
                "is_installed": true,
                "is_renting": true,
                "is_returning": true,
                "is_valet_station": false,
                "is_virtual_station": false,
                "last_reported": 1789251203,
                "name": "Dirac - L\u2019\u00e9cole des saveurs",
                "num_bikes_available": 0,
                "num_docks_available": 11,
                "rental_uris": {
                    "android": "%!(EXTRA string=st_d2okggl92fgkec8kacu0)",
                    "ios": "%!(EXTRA string=st_d2okggl92fgkec8kacu0)"
                },
                "station_id": "st_d2okggl92fgkec8kacu0",
                "vehicle_type_capacity": {
                    "1": 10
                },
                "vehicle_types_available": [
                    {
                        "count": 0,
                        "vehicle_type_id": "1"
                    }
                ]
            },
            "type": "Feature"
        }
    ],
    "gbfs": {
        "station_information": {
            "last_updated": 1789251172,
            "ttl": 60,
            "version": "2.2"
        },
        "station_status": {
            "last_updated": 1789251202,
            "ttl": 60,
            "version": "2.2"
        }
    },
    "type": "FeatureCollection"
}