{
    "features": [
        {
            "geometry": {
                "coordinates": [
                    13.1874185800552,
                    55.7065202995297
                ],
                "type": "Point"
            },
            "properties": {
                "address": "",
                "available_bike_stands": 13,
                "available_bikes": 27,
                "banking": true,
                "bike_stands": 40,
                "bonus": false,
                "contract_name": "lund",
                "last_update": 1789247857000,
                "name": "LUNDS CENTRAL",
                "number": 1,
                "status": "OPEN"
            },
            "type": "Feature"
        },
        {
            "geometry": {
                "coordinates": [
                    13.1876116991043,
                    55.7042412794077
                ],
                "type": "Point"
            },
            "properties": {
                "address": "",
                "available_bike_stands": 13,
                "available_bikes": 12,
                "banking": false,
                "bike_stands": 25,
                "bonus": false,
                "contract_name": "lund",
                "last_update": 1789247817000,
                "name": "BANTORGET",
                "number": 2,
                "status": "OPEN"
            },
            "type": "Feature"
        },
        {
            "geometry": {
                "coordinates": [
                    13.1856563687325,
                    55.7013726686025
                ],
                "type": "Point"
            },
            "properties": {
                "address": "",
                "available_bike_stands": 12,
                "available_bikes": 6,
                "banking": true,
                "bike_stands": 20,
                "bonus": false,
                "contract_name": "lund",
                "last_update": 1789247809000,
                "name": "STADSPARKEN NORR",
                "number": 3,
                "status": "OPEN"
            },
            "type": "Feature"
        },
        {
            "geometry": {
                "coordinates": [
                    13.1933650374413,
                    55.7029777865809
                ],
                "type": "Point"
            },
            "properties": {
                "address": "",
                "available_bike_stands": 7,
                "available_bikes": 14,
                "banking": true,
                "bike_stands": 21,
                "bonus": false,
                "contract_name": "lund",
                "last_update": 1789247816000,
                "name": "STORTORGET",
                "number": 4,
                "status": "OPEN"
            },
            "type": "Feature"
        },
        {
            "geometry": {
                "coordinates": [
                    13.196025788784,
                    55.7019107380952
                ],
                "type": "Point"
            },
            "properties": {
                "address": "",
                "available_bike_stands": 13,
                "available_bikes": 20,
                "banking": false,
                "bike_stands": 33,
                "bonus": false,
                "contract_name": "lund",
                "last_update": 1789247815000,
                "name": "M\u00c5RTENSTORGET",
                "number": 5,
                "status": "OPEN"
            },
            "type": "Feature"
        },
        {
            "geometry": {
                "coordinates": [
                    13.1956234574318,
                    55.7008134312229
                ],
                "type": "Point"
            },
            "properties": {
                "address": "",
                "available_bike_stands": 10,
                "available_bikes": 10,
                "banking": false,
                "bike_stands": 20,
                "bonus": false,
                "contract_name": "lund",
                "last_update": 1789247817000,
                "name": "GALTEN",
                "number": 6,
                "status": "OPEN"
            },
            "type": "Feature"
        },
        {
            "geometry": {
                "coordinates": [
                    13.201240003109,
                    55.7059732259213
                ],
                "type": "Point"
            },
            "properties": {
                "address": "",
                "available_bike_stands": 11,
                "available_bikes": 9,
                "banking": false,
                "bike_stands": 20,
                "bonus": false,
                "contract_name": "lund",
                "last_update": 1789247830000,
                "name": "BOTANISKA TR\u00c4DG\u00c5RDEN",
                "number": 7,
                "status": "OPEN"
            },
            "type": "Feature"
        },
        {
            "geometry": {
                "coordinates": [
                    13.1963047385216,
                    55.7080949824667
                ],
                "type": "Point"
            },
            "properties": {
                "address": "",
                "available_bike_stands": 16,
                "available_bikes": 5,
                "banking": false,
                "bike_stands": 21,
                "bonus": false,
                "contract_name": "lund",
                "last_update": 1789247813000,
                "name": "UNIVERSITETSBIBLIOTEKET",
                "number": 8,
                "status": "OPEN"
            },
            "type": "Feature"
        },
        {
            "geometry": {
                "coordinates": [
                    13.1988589,
                    55.7140482
                ],
                "type": "Point"
            },
            "properties": {
                "address": "",
                "available_bike_stands": 11,
                "available_bikes": 18,
                "banking": false,
                "bike_stands": 30,
                "bonus": false,
                "contract_name": "lund",
                "last_update": 1789247814000,
                "name": "UNIVERSITETSSJUKHUSET",
                "number": 9,
                "status": "OPEN"
            },
            "type": "Feature"
        },
        {
            "geometry": {
                "coordinates": [
                    13.2074149131058,
                    55.7167933353397
                ],
                "type": "Point"
            },
            "properties": {
                "address": "",
                "available_bike_stands": 4,
                "available_bikes": 19,
                "banking": false,
                "bike_stands": 23,
                "bonus": false,
                "contract_name": "lund",
                "last_update": 1789247827000,
                "name": "RIDHUSET",
                "number": 10,
                "status": "OPEN"
            },
            "type": "Feature"
        },
        {
            "geometry": {
                "coordinates": [
                    13.208109,
                    55.712382
                ],
                "type": "Point"
            },
            "properties": {
                "address": "",
                "available_bike_stands": 12,
                "available_bikes": 12,
                "banking": false,
                "bike_stands": 24,
                "bonus": false,
                "contract_name": "lund",
                "last_update": 1789247809000,
                "name": "LTH",
                "number": 11,
                "status": "OPEN"
            },
            "type": "Feature"
        },
        {
            "geometry": {
                "coordinates": [
                    13.192236,
                    55.710366
                ],
                "type": "Point"
            },
            "properties": {
                "address": "",
                "available_bike_stands": 8,
                "available_bikes": 13,
                "banking": false,
                "bike_stands": 21,
                "bonus": false,
                "contract_name": "lund",
                "last_update": 1789247804000,
                "name": "ALLHELGONAKYRKAN",
                "number": 12,
                "status": "OPEN"
            },
            "type": "Feature"
        },
        {
            "geometry": {
                "coordinates": [
                    13.214801,
                    55.715504
                ],
                "type": "Point"
            },
            "properties": {
                "address": "",
                "available_bike_stands": 2,
                "available_bikes": 19,
                "banking": false,
                "bike_stands": 21,
                "bonus": false,
                "contract_name": "lund",
                "last_update": 1789247811000,
                "name": "IDEON NORR",
                "number": 13,
                "status": "OPEN"
            },
            "type": "Feature"
        },
        {
            "geometry": {
                "coordinates": [
                    13.213704,
                    55.712961
                ],
                "type": "Point"
            },
            "properties": {
                "address": "",
                "available_bike_stands": 11,
                "available_bikes": 10,
                "banking": false,
                "bike_stands": 21,
                "bonus": false,
                "contract_name": "lund",
                "last_update": 1789247808000,
                "name": "IDEON S\u00d6DER",
                "number": 14,
                "status": "OPEN"
            },
            "type": "Feature"
        },
        {
            "geometry": {
                "coordinates": [
                    13.214571,
                    55.709257
                ],
                "type": "Point"
            },
            "properties": {
                "address": "",
                "available_bike_stands": 33,
                "available_bikes": 6,
                "banking": true,
                "bike_stands": 39,
                "bonus": false,
                "contract_name": "lund",
                "last_update": 1789248231000,
                "name": "SPARTA",
                "number": 15,
                "status": "OPEN"
            },
            "type": "Feature"
        },
        {
            "geometry": {
                "coordinates": [
                    13.20595,
                    55.709632
                ],
                "type": "Point"
            },
            "properties": {
                "address": "",
                "available_bike_stands": 14,
                "available_bikes": 9,
                "banking": false,
                "bike_stands": 23,
                "bonus": false,
                "contract_name": "lund",
                "last_update": 1789248160000,
                "name": "PROFESSORSGATAN",
                "number": 16,
                "status": "OPEN"
            },
            "type": "Feature"
        },
        {
            "geometry": {
                "coordinates": [
                    13.202782,
                    55.710874
                ],
                "type": "Point"
            },
            "properties": {
                "address": "",
                "available_bike_stands": 10,
                "available_bikes": 11,
                "banking": false,
                "bike_stands": 23,
                "bonus": false,
                "contract_name": "lund",
                "last_update": 1789247805000,
                "name": "FYSIOLOGEN",
                "number": 17,
                "status": "OPEN"
            },
            "type": "Feature"
        },
        {
            "geometry": {
                "coordinates": [
                    13.1818443,
                    55.7111514
                ],
                "type": "Point"
            },
            "properties": {
                "address": "",
                "available_bike_stands": 8,
                "available_bikes": 10,
                "banking": false,
                "bike_stands": 18,
                "bonus": false,
                "contract_name": "lund",
                "last_update": 1789247804000,
                "name": "FABRIKSGATAN",
                "number": 18,
                "status": "OPEN"
            },
            "type": "Feature"
        },
        {
            "geometry": {
                "coordinates": [
                    13.189228,
                    55.696025
                ],
                "type": "Point"
            },
            "properties": {
                "address": "",
                "available_bike_stands": 1,
                "available_bikes": 23,
                "banking": false,
                "bike_stands": 24,
                "bonus": false,
                "contract_name": "lund",
                "last_update": 1789247810000,
                "name": "MEJERIET",
                "number": 19,
                "status": "OPEN"
            },
            "type": "Feature"
        },
        {
            "geometry": {
                "coordinates": [
                    13.190452,
                    55.690354
                ],
                "type": "Point"
            },
            "properties": {
                "address": "",
                "available_bike_stands": 13,
                "available_bikes": 21,
                "banking": false,
                "bike_stands": 35,
                "bonus": false,
                "contract_name": "lund",
                "last_update": 1789247802000,
                "name": "TETRA PAK",
                "number": 20,
                "status": "OPEN"
            },
            "type": "Feature"
        },
        {
            "geometry": {
                "coordinates": [
                    13.185722,
                    55.705728
                ],
                "type": "Point"
            },
            "properties": {
                "address": "",
                "available_bike_stands": 17,
                "available_bikes": 13,
                "banking": false,
                "bike_stands": 30,
                "bonus": false,
                "contract_name": "lund",
                "last_update": 1789247831000,
                "name": "V\u00c4STRA STATIONSTORGET",
                "number": 23,
                "status": "OPEN"
            },
            "type": "Feature"
        },
        {
            "geometry": {
                "coordinates": [
                    13.207068,
                    55.700019
                ],
                "type": "Point"
            },
            "properties": {
                "address": "",
                "available_bike_stands": 20,
                "available_bikes": 4,
                "banking": false,
                "bike_stands": 24,
                "bonus": false,
                "contract_name": "lund",
                "last_update": 1789247826000,
                "name": "DALBYV\u00c4GEN",
                "number": 25,
                "status": "OPEN"
            },
            "type": "Feature"
        }
    ],
    "type": "FeatureCollection"
}