{
    "features": [
        {
            "geometry": {
                "coordinates": [
                    17.115837,
                    49.77893
                ],
                "type": "Point"
            },
            "properties": {
                "is_installed": true,
                "is_renting": true,
                "is_returning": true,
                "is_virtual_station": false,
                "last_reported": 1789336157,
                "name": "Vlakov\u00e9 n\u00e1dra\u017e\u00ed",
                "num_bikes_available": 0,
                "num_docks_available": 0,
                "region_id": "1316",
                "rental_uris": {
                    "android": "https://app.nextbike.net/station?id=614883854",
                    "ios": "https://app.nextbike.net/station?id=614883854",
                    "web": "https://nxtb.it/p/614883854"
                },
                "short_name": "495761",
                "station_id": "614883854",
                "vehicle_types_available": []
            },
            "type": "Feature"
        },
        {
            "geometry": {
                "coordinates": [
                    17.120713,
                    49.771383
                ],
                "type": "Point"
            },
            "properties": {
                "is_installed": true,
                "is_renting": true,
                "is_returning": true,
                "is_virtual_station": false,
                "last_reported": 1789336157,
                "name": "Masarykovo n\u00e1m\u011bst\u00ed",
                "num_bikes_available": 1,
                "num_docks_available": 0,
                "region_id": "1316",
                "rental_uris": {
                    "android": "https://app.nextbike.net/station?id=614884068",
                    "ios": "https://app.nextbike.net/station?id=614884068",
                    "web": "https://nxtb.it/p/614884068"
                },
                "short_name": "495762",
                "station_id": "614884068",
                "vehicle_types_available": [
                    {
                        "count": 1,
                        "vehicle_type_id": "184"
                    }
                ]
            },
            "type": "Feature"
        },
        {
            "geometry": {
                "coordinates": [
                    17.091645,
                    49.749525
                ],
                "type": "Point"
            },
            "properties": {
                "is_installed": true,
                "is_renting": true,
                "is_returning": true,
                "is_virtual_station": false,
                "last_reported": 1789336157,
                "name": "St\u0159elice",
                "num_bikes_available": 2,
                "num_docks_available": 0,
                "region_id": "1316",
                "rental_uris": {
                    "android": "https://app.nextbike.net/station?id=614884113",
                    "ios": "https://app.nextbike.net/station?id=614884113",
                    "web": "https://nxtb.it/p/614884113"
                },
                "short_name": "495775",
                "station_id": "614884113",
                "vehicle_types_available": [
                    {
                        "count": 2,
                        "vehicle_type_id": "184"
                    }
                ]
            },
            "type": "Feature"
        },
        {
            "geometry": {
                "coordinates": [
                    17.112497,
                    49.770055
                ],
                "type": "Point"
            },
            "properties": {
                "is_installed": true,
                "is_renting": true,
                "is_returning": true,
                "is_virtual_station": false,
                "last_reported": 1789336157,
                "name": "Kino",
                "num_bikes_available": 1,
                "num_docks_available": 0,
                "region_id": "1316",
                "rental_uris": {
                    "android": "https://app.nextbike.net/station?id=614884147",
                    "ios": "https://app.nextbike.net/station?id=614884147",
                    "web": "https://nxtb.it/p/614884147"
                },
                "short_name": "495763",
                "station_id": "614884147",
                "vehicle_types_available": [
                    {
                        "count": 1,
                        "vehicle_type_id": "184"
                    }
                ]
            },
            "type": "Feature"
        },
        {
            "geometry": {
                "coordinates": [
                    17.119186,
                    49.766532
                ],
                "type": "Point"
            },
            "properties": {
                "is_installed": true,
                "is_renting": true,
                "is_returning": true,
                "is_virtual_station": false,
                "last_reported": 1789336157,
                "name": "Kryt\u00fd baz\u00e9n",
                "num_bikes_available": 2,
                "num_docks_available": 0,
                "region_id": "1316",
                "rental_uris": {
                    "android": "https://app.nextbike.net/station?id=614884268",
                    "ios": "https://app.nextbike.net/station?id=614884268",
                    "web": "https://nxtb.it/p/614884268"
                },
                "short_name": "495764",
                "station_id": "614884268",
                "vehicle_types_available": [
                    {
                        "count": 2,
                        "vehicle_type_id": "184"
                    }
                ]
            },
            "type": "Feature"
        },
        {
            "geometry": {
                "coordinates": [
                    17.123378,
                    49.798659
                ],
                "type": "Point"
            },
            "properties": {
                "is_installed": true,
                "is_renting": true,
                "is_returning": true,
                "is_virtual_station": false,
                "last_reported": 1789336157,
                "name": "Nov\u00e1 D\u011bdina",
                "num_bikes_available": 3,
                "num_docks_available": 0,
                "region_id": "1316",
                "rental_uris": {
                    "android": "https://app.nextbike.net/station?id=614884306",
                    "ios": "https://app.nextbike.net/station?id=614884306",
                    "web": "https://nxtb.it/p/614884306"
                },
                "short_name": "495774",
                "station_id": "614884306",
                "vehicle_types_available": [
                    {
                        "count": 3,
                        "vehicle_type_id": "184"
                    }
                ]
            },
            "type": "Feature"
        },
        {
            "geometry": {
                "coordinates": [
                    17.114215,
                    49.775016
                ],
                "type": "Point"
            },
            "properties": {
                "is_installed": true,
                "is_renting": true,
                "is_returning": true,
                "is_virtual_station": false,
                "last_reported": 1789336157,
                "name": "Stadion TJ Uni\u010dov",
                "num_bikes_available": 0,
                "num_docks_available": 0,
                "region_id": "1316",
                "rental_uris": {
                    "android": "https://app.nextbike.net/station?id=614884386",
                    "ios": "https://app.nextbike.net/station?id=614884386",
                    "web": "https://nxtb.it/p/614884386"
                },
                "short_name": "495765",
                "station_id": "614884386",
                "vehicle_types_available": []
            },
            "type": "Feature"
        },
        {
            "geometry": {
                "coordinates": [
                    17.134329,
                    49.789314
                ],
                "type": "Point"
            },
            "properties": {
                "is_installed": true,
                "is_renting": true,
                "is_returning": true,
                "is_virtual_station": false,
                "last_reported": 1789336157,
                "name": "Doln\u00ed Sukolom",
                "num_bikes_available": 2,
                "num_docks_available": 0,
                "region_id": "1316",
                "rental_uris": {
                    "android": "https://app.nextbike.net/station?id=614884405",
                    "ios": "https://app.nextbike.net/station?id=614884405",
                    "web": "https://nxtb.it/p/614884405"
                },
                "short_name": "495773",
                "station_id": "614884405",
                "vehicle_types_available": [
                    {
                        "count": 2,
                        "vehicle_type_id": "184"
                    }
                ]
            },
            "type": "Feature"
        },
        {
            "geometry": {
                "coordinates": [
                    17.121657,
                    49.767338
                ],
                "type": "Point"
            },
            "properties": {
                "is_installed": true,
                "is_renting": true,
                "is_returning": true,
                "is_virtual_station": false,
                "last_reported": 1789336157,
                "name": "Gymn\u00e1zium",
                "num_bikes_available": 3,
                "num_docks_available": 0,
                "region_id": "1316",
                "rental_uris": {
                    "android": "https://app.nextbike.net/station?id=614884479",
                    "ios": "https://app.nextbike.net/station?id=614884479",
                    "web": "https://nxtb.it/p/614884479"
                },
                "short_name": "495766",
                "station_id": "614884479",
                "vehicle_types_available": [
                    {
                        "count": 3,
                        "vehicle_type_id": "184"
                    }
                ]
            },
            "type": "Feature"
        },
        {
            "geometry": {
                "coordinates": [
                    17.141296,
                    49.772094
                ],
                "type": "Point"
            },
            "properties": {
                "is_installed": true,
                "is_renting": true,
                "is_returning": true,
                "is_virtual_station": false,
                "last_reported": 1789336157,
                "name": "Brn\u00ed\u010dko",
                "num_bikes_available": 4,
                "num_docks_available": 0,
                "region_id": "1316",
                "rental_uris": {
                    "android": "https://app.nextbike.net/station?id=614884484",
                    "ios": "https://app.nextbike.net/station?id=614884484",
                    "web": "https://nxtb.it/p/614884484"
                },
                "short_name": "495772",
                "station_id": "614884484",
                "vehicle_types_available": [
                    {
                        "count": 4,
                        "vehicle_type_id": "184"
                    }
                ]
            },
            "type": "Feature"
        },
        {
            "geometry": {
                "coordinates": [
                    17.122373,
                    49.775755
                ],
                "type": "Point"
            },
            "properties": {
                "is_installed": true,
                "is_renting": true,
                "is_returning": true,
                "is_virtual_station": false,
                "last_reported": 1789336157,
                "name": "\u0160umpersk\u00e1",
                "num_bikes_available": 11,
                "num_docks_available": 0,
                "region_id": "1316",
                "rental_uris": {
                    "android": "https://app.nextbike.net/station?id=614884662",
                    "ios": "https://app.nextbike.net/station?id=614884662",
                    "web": "https://nxtb.it/p/614884662"
                },
                "short_name": "495767",
                "station_id": "614884662",
                "vehicle_types_available": [
                    {
                        "count": 11,
                        "vehicle_type_id": "184"
                    }
                ]
            },
            "type": "Feature"
        },
        {
            "geometry": {
                "coordinates": [
                    17.11792,
                    49.77328
                ],
                "type": "Point"
            },
            "properties": {
                "is_installed": true,
                "is_renting": true,
                "is_returning": true,
                "is_virtual_station": false,
                "last_reported": 1789336157,
                "name": "Autobusov\u00e9 n\u00e1dra\u017e\u00ed",
                "num_bikes_available": 0,
                "num_docks_available": 0,
                "region_id": "1316",
                "rental_uris": {
                    "android": "https://app.nextbike.net/station?id=614884665",
                    "ios": "https://app.nextbike.net/station?id=614884665",
                    "web": "https://nxtb.it/p/614884665"
                },
                "short_name": "495771",
                "station_id": "614884665",
                "vehicle_types_available": []
            },
            "type": "Feature"
        },
        {
            "geometry": {
                "coordinates": [
                    17.122062,
                    49.781768
                ],
                "type": "Point"
            },
            "properties": {
                "is_installed": true,
                "is_renting": true,
                "is_returning": true,
                "is_virtual_station": false,
                "last_reported": 1789336157,
                "name": "Technick\u00e9 slu\u017eby",
                "num_bikes_available": 2,
                "num_docks_available": 0,
                "region_id": "1316",
                "rental_uris": {
                    "android": "https://app.nextbike.net/station?id=614884762",
                    "ios": "https://app.nextbike.net/station?id=614884762",
                    "web": "https://nxtb.it/p/614884762"
                },
                "short_name": "495770",
                "station_id": "614884762",
                "vehicle_types_available": [
                    {
                        "count": 2,
                        "vehicle_type_id": "184"
                    }
                ]
            },
            "type": "Feature"
        },
        {
            "geometry": {
                "coordinates": [
                    17.116241,
                    49.769252
                ],
                "type": "Point"
            },
            "properties": {
                "is_installed": true,
                "is_renting": true,
                "is_returning": true,
                "is_virtual_station": false,
                "last_reported": 1789336157,
                "name": "Havl\u00ed\u010dkova",
                "num_bikes_available": 2,
                "num_docks_available": 0,
                "region_id": "1316",
                "rental_uris": {
                    "android": "https://app.nextbike.net/station?id=614884776",
                    "ios": "https://app.nextbike.net/station?id=614884776",
                    "web": "https://nxtb.it/p/614884776"
                },
                "short_name": "495768",
                "station_id": "614884776",
                "vehicle_types_available": [
                    {
                        "count": 2,
                        "vehicle_type_id": "184"
                    }
                ]
            },
            "type": "Feature"
        },
        {
            "geometry": {
                "coordinates": [
                    17.11645,
                    49.766798
                ],
                "type": "Point"
            },
            "properties": {
                "is_installed": true,
                "is_renting": true,
                "is_returning": true,
                "is_virtual_station": false,
                "last_reported": 1789336157,
                "name": "Litovelsk\u00e1",
                "num_bikes_available": 1,
                "num_docks_available": 0,
                "region_id": "1316",
                "rental_uris": {
                    "android": "https://app.nextbike.net/station?id=614884884",
                    "ios": "https://app.nextbike.net/station?id=614884884",
                    "web": "https://nxtb.it/p/614884884"
                },
                "short_name": "495769",
                "station_id": "614884884",
                "vehicle_types_available": [
                    {
                        "count": 1,
                        "vehicle_type_id": "184"
                    }
                ]
            },
            "type": "Feature"
        },
        {
            "geometry": {
                "coordinates": [
                    17.07428,
                    49.7672
                ],
                "type": "Point"
            },
            "properties": {
                "is_installed": true,
                "is_renting": true,
                "is_returning": true,
                "is_virtual_station": false,
                "last_reported": 1789336157,
                "name": "Benkov",
                "num_bikes_available": 2,
                "num_docks_available": 0,
                "region_id": "1316",
                "rental_uris": {
                    "android": "https://app.nextbike.net/station?id=618393288",
                    "ios": "https://app.nextbike.net/station?id=618393288",
                    "web": "https://nxtb.it/p/618393288"
                },
                "short_name": "495776",
                "station_id": "618393288",
                "vehicle_types_available": [
                    {
                        "count": 2,
                        "vehicle_type_id": "184"
                    }
                ]
            },
            "type": "Feature"
        },
        {
            "geometry": {
                "coordinates": [
                    17.126979,
                    49.77552
                ],
                "type": "Point"
            },
            "properties": {
                "is_installed": true,
                "is_renting": true,
                "is_returning": true,
                "is_virtual_station": true,
                "last_reported": 1789336157,
                "name": "Na st\u0159elnici",
                "num_bikes_available": 2,
                "num_docks_available": 0,
                "region_id": "1316",
                "rental_uris": {
                    "android": "https://app.nextbike.net/station?id=625067716",
                    "ios": "https://app.nextbike.net/station?id=625067716",
                    "web": "https://nxtb.it/p/625067716"
                },
                "short_name": "495778",
                "station_area": {
                    "coordinates": [
                        [
                            [
                                [
                                    17.126979,
                                    49.775745
                                ],
                                [
                                    17.12728,
                                    49.775632
                                ],
                                [
                                    17.12728,
                                    49.775408
                                ],
                                [
                                    17.126979,
                                    49.775295
                                ],
                                [
                                    17.126678,
                                    49.775408
                                ],
                                [
                                    17.126678,
                                    49.775632
                                ],
                                [
                                    17.126979,
                                    49.775745
                                ]
                            ]
                        ]
                    ],
                    "type": "MultiPolygon"
                },
                "station_id": "625067716",
                "vehicle_types_available": [
                    {
                        "count": 2,
                        "vehicle_type_id": "254"
                    }
                ]
            },
            "type": "Feature"
        },
        {
            "geometry": {
                "coordinates": [
                    17.128134,
                    49.771797
                ],
                "type": "Point"
            },
            "properties": {
                "is_installed": true,
                "is_renting": true,
                "is_returning": true,
                "is_virtual_station": false,
                "last_reported": 1789336157,
                "name": "Sad m\u00edru",
                "num_bikes_available": 2,
                "num_docks_available": 0,
                "region_id": "1316",
                "rental_uris": {
                    "android": "https://app.nextbike.net/station?id=642874537",
                    "ios": "https://app.nextbike.net/station?id=642874537",
                    "web": "https://nxtb.it/p/642874537"
                },
                "short_name": "495779",
                "station_id": "642874537",
                "vehicle_types_available": [
                    {
                        "count": 2,
                        "vehicle_type_id": "184"
                    }
                ]
            },
            "type": "Feature"
        }
    ],
    "gbfs": {
        "station_information": {
            "last_updated": 1789336157,
            "ttl": 60,
            "version": "2.3"
        },
        "station_status": {
            "last_updated": 1789336157,
            "ttl": 60,
            "version": "2.3"
        }
    },
    "type": "FeatureCollection"
}