{
    "features": [
        {
            "geometry": {
                "coordinates": [
                    18.947738,
                    49.985638
                ],
                "type": "Point"
            },
            "properties": {
                "capacity": 12,
                "is_installed": true,
                "is_renting": true,
                "is_returning": true,
                "is_virtual_station": false,
                "last_reported": 1789135292,
                "name": "Osiedle Powsta\u0144c\u00f3w \u015al\u0105skich",
                "num_bikes_available": 8,
                "num_docks_available": 4,
                "region_id": "411",
                "rental_uris": {
                    "android": "https://app.nextbike.net/station?id=371982962",
                    "ios": "https://app.nextbike.net/station?id=371982962",
                    "web": "https://nxtb.it/p/371982962"
                },
                "short_name": "6469",
                "station_id": "371982962",
                "vehicle_types_available": [
                    {
                        "count": 8,
                        "vehicle_type_id": "71"
                    }
                ]
            },
            "type": "Feature"
        },
        {
            "geometry": {
                "coordinates": [
                    18.941129,
                    49.977683
                ],
                "type": "Point"
            },
            "properties": {
                "capacity": 12,
                "is_installed": true,
                "is_renting": true,
                "is_returning": true,
                "is_virtual_station": false,
                "last_reported": 1789135292,
                "name": "Rynek",
                "num_bikes_available": 11,
                "num_docks_available": 1,
                "region_id": "411",
                "rental_uris": {
                    "android": "https://app.nextbike.net/station?id=42478485",
                    "ios": "https://app.nextbike.net/station?id=42478485",
                    "web": "https://nxtb.it/p/42478485"
                },
                "short_name": "6461",
                "station_id": "42478485",
                "vehicle_types_available": [
                    {
                        "count": 1,
                        "vehicle_type_id": "159"
                    },
                    {
                        "count": 10,
                        "vehicle_type_id": "71"
                    }
                ]
            },
            "type": "Feature"
        },
        {
            "geometry": {
                "coordinates": [
                    18.943697,
                    49.96915
                ],
                "type": "Point"
            },
            "properties": {
                "capacity": 12,
                "is_installed": true,
                "is_renting": true,
                "is_returning": true,
                "is_virtual_station": false,
                "last_reported": 1789135292,
                "name": "Osiedle Piast\u00f3w",
                "num_bikes_available": 7,
                "num_docks_available": 5,
                "region_id": "411",
                "rental_uris": {
                    "android": "https://app.nextbike.net/station?id=42478500",
                    "ios": "https://app.nextbike.net/station?id=42478500",
                    "web": "https://nxtb.it/p/42478500"
                },
                "short_name": "6462",
                "station_id": "42478500",
                "vehicle_types_available": [
                    {
                        "count": 1,
                        "vehicle_type_id": "159"
                    },
                    {
                        "count": 6,
                        "vehicle_type_id": "71"
                    }
                ]
            },
            "type": "Feature"
        },
        {
            "geometry": {
                "coordinates": [
                    18.889003,
                    49.966098
                ],
                "type": "Point"
            },
            "properties": {
                "capacity": 12,
                "is_installed": true,
                "is_renting": true,
                "is_returning": true,
                "is_virtual_station": false,
                "last_reported": 1789135292,
                "name": "O\u015brodek Sport\u00f3w Wodnych",
                "num_bikes_available": 13,
                "num_docks_available": 0,
                "region_id": "411",
                "rental_uris": {
                    "android": "https://app.nextbike.net/station?id=42478508",
                    "ios": "https://app.nextbike.net/station?id=42478508",
                    "web": "https://nxtb.it/p/42478508"
                },
                "short_name": "6463",
                "station_id": "42478508",
                "vehicle_types_available": [
                    {
                        "count": 1,
                        "vehicle_type_id": "159"
                    },
                    {
                        "count": 12,
                        "vehicle_type_id": "71"
                    }
                ]
            },
            "type": "Feature"
        },
        {
            "geometry": {
                "coordinates": [
                    18.950421,
                    49.974743
                ],
                "type": "Point"
            },
            "properties": {
                "capacity": 12,
                "is_installed": true,
                "is_renting": true,
                "is_returning": true,
                "is_virtual_station": false,
                "last_reported": 1789135292,
                "name": "Pszczyna \u2013 Dworzec PKP",
                "num_bikes_available": 11,
                "num_docks_available": 1,
                "region_id": "411",
                "rental_uris": {
                    "android": "https://app.nextbike.net/station?id=42478516",
                    "ios": "https://app.nextbike.net/station?id=42478516",
                    "web": "https://nxtb.it/p/42478516"
                },
                "short_name": "6464",
                "station_id": "42478516",
                "vehicle_types_available": [
                    {
                        "count": 11,
                        "vehicle_type_id": "71"
                    }
                ]
            },
            "type": "Feature"
        },
        {
            "geometry": {
                "coordinates": [
                    18.929763,
                    49.988056
                ],
                "type": "Point"
            },
            "properties": {
                "capacity": 12,
                "is_installed": true,
                "is_renting": true,
                "is_returning": true,
                "is_virtual_station": false,
                "last_reported": 1789135292,
                "name": "Osiedle Stara Wie\u015b ",
                "num_bikes_available": 11,
                "num_docks_available": 1,
                "region_id": "411",
                "rental_uris": {
                    "android": "https://app.nextbike.net/station?id=42478536",
                    "ios": "https://app.nextbike.net/station?id=42478536",
                    "web": "https://nxtb.it/p/42478536"
                },
                "short_name": "6465",
                "station_id": "42478536",
                "vehicle_types_available": [
                    {
                        "count": 1,
                        "vehicle_type_id": "171"
                    },
                    {
                        "count": 10,
                        "vehicle_type_id": "71"
                    }
                ]
            },
            "type": "Feature"
        },
        {
            "geometry": {
                "coordinates": [
                    18.961086,
                    49.970662
                ],
                "type": "Point"
            },
            "properties": {
                "capacity": 12,
                "is_installed": true,
                "is_renting": true,
                "is_returning": true,
                "is_virtual_station": false,
                "last_reported": 1789135292,
                "name": "Osiedle Daszy\u0144skiego",
                "num_bikes_available": 8,
                "num_docks_available": 4,
                "region_id": "411",
                "rental_uris": {
                    "android": "https://app.nextbike.net/station?id=42478551",
                    "ios": "https://app.nextbike.net/station?id=42478551",
                    "web": "https://nxtb.it/p/42478551"
                },
                "short_name": "6467",
                "station_id": "42478551",
                "vehicle_types_available": [
                    {
                        "count": 1,
                        "vehicle_type_id": "171"
                    },
                    {
                        "count": 7,
                        "vehicle_type_id": "71"
                    }
                ]
            },
            "type": "Feature"
        },
        {
            "geometry": {
                "coordinates": [
                    18.934978,
                    49.938299
                ],
                "type": "Point"
            },
            "properties": {
                "capacity": 12,
                "is_installed": true,
                "is_renting": true,
                "is_returning": true,
                "is_virtual_station": false,
                "last_reported": 1789135292,
                "name": "Gocza\u0142kowice \u2013 Zdr\u00f3j Korona zapory",
                "num_bikes_available": 7,
                "num_docks_available": 5,
                "region_id": "411",
                "rental_uris": {
                    "android": "https://app.nextbike.net/station?id=42478592",
                    "ios": "https://app.nextbike.net/station?id=42478592",
                    "web": "https://nxtb.it/p/42478592"
                },
                "short_name": "6466",
                "station_id": "42478592",
                "vehicle_types_available": [
                    {
                        "count": 7,
                        "vehicle_type_id": "71"
                    }
                ]
            },
            "type": "Feature"
        },
        {
            "geometry": {
                "coordinates": [
                    18.975569,
                    49.937195
                ],
                "type": "Point"
            },
            "properties": {
                "capacity": 12,
                "is_installed": true,
                "is_renting": true,
                "is_returning": true,
                "is_virtual_station": false,
                "last_reported": 1789135292,
                "name": "Centrum Przesiadkowe ul. Parkowa",
                "num_bikes_available": 5,
                "num_docks_available": 7,
                "region_id": "411",
                "rental_uris": {
                    "android": "https://app.nextbike.net/station?id=42478605",
                    "ios": "https://app.nextbike.net/station?id=42478605",
                    "web": "https://nxtb.it/p/42478605"
                },
                "short_name": "6468",
                "station_id": "42478605",
                "vehicle_types_available": [
                    {
                        "count": 1,
                        "vehicle_type_id": "159"
                    },
                    {
                        "count": 4,
                        "vehicle_type_id": "71"
                    }
                ]
            },
            "type": "Feature"
        }
    ],
    "gbfs": {
        "station_information": {
            "last_updated": 1789135292,
            "ttl": 60,
            "version": "2.3"
        },
        "station_status": {
            "last_updated": 1789135292,
            "ttl": 60,
            "version": "2.3"
        }
    },
    "type": "FeatureCollection"
}