{
    "features": [
        {
            "geometry": {
                "coordinates": [
                    14.154484,
                    49.280712
                ],
                "type": "Point"
            },
            "properties": {
                "capacity": 4,
                "is_installed": true,
                "is_renting": true,
                "is_returning": true,
                "is_virtual_station": false,
                "last_reported": 1789136703,
                "name": "Smrkovice - Na N\u00e1vsi",
                "num_bikes_available": 2,
                "num_docks_available": 2,
                "region_id": "709",
                "rental_uris": {
                    "android": "https://app.nextbike.net/station?id=227315049",
                    "ios": "https://app.nextbike.net/station?id=227315049",
                    "web": "https://nxtb.it/p/227315049"
                },
                "short_name": "45367",
                "station_id": "227315049",
                "vehicle_types_available": [
                    {
                        "count": 1,
                        "vehicle_type_id": "421"
                    },
                    {
                        "count": 1,
                        "vehicle_type_id": "183"
                    }
                ]
            },
            "type": "Feature"
        },
        {
            "geometry": {
                "coordinates": [
                    14.11969,
                    49.30018
                ],
                "type": "Point"
            },
            "properties": {
                "is_installed": true,
                "is_renting": true,
                "is_returning": true,
                "is_virtual_station": false,
                "last_reported": 1789136703,
                "name": "s\u00eddli\u0161t\u011b Hradi\u0161t\u011b",
                "num_bikes_available": 2,
                "num_docks_available": 0,
                "region_id": "709",
                "rental_uris": {
                    "android": "https://app.nextbike.net/station?id=367495989",
                    "ios": "https://app.nextbike.net/station?id=367495989",
                    "web": "https://nxtb.it/p/367495989"
                },
                "short_name": "47378",
                "station_id": "367495989",
                "vehicle_types_available": [
                    {
                        "count": 2,
                        "vehicle_type_id": "421"
                    }
                ]
            },
            "type": "Feature"
        },
        {
            "geometry": {
                "coordinates": [
                    14.150348,
                    49.313139
                ],
                "type": "Point"
            },
            "properties": {
                "is_installed": true,
                "is_renting": true,
                "is_returning": true,
                "is_virtual_station": false,
                "last_reported": 1789136703,
                "name": "Tyr\u0161ova - zp\u011bvn\u011bn\u00e1 plocha u st\u00e1nku",
                "num_bikes_available": 0,
                "num_docks_available": 0,
                "region_id": "709",
                "rental_uris": {
                    "android": "https://app.nextbike.net/station?id=44242208",
                    "ios": "https://app.nextbike.net/station?id=44242208",
                    "web": "https://nxtb.it/p/44242208"
                },
                "short_name": "48123",
                "station_id": "44242208",
                "vehicle_types_available": []
            },
            "type": "Feature"
        },
        {
            "geometry": {
                "coordinates": [
                    14.147679,
                    49.308919
                ],
                "type": "Point"
            },
            "properties": {
                "is_installed": true,
                "is_renting": true,
                "is_returning": true,
                "is_virtual_station": false,
                "last_reported": 1789136703,
                "name": "Velk\u00e9 n\u00e1m\u011bst\u00ed - radnice",
                "num_bikes_available": 2,
                "num_docks_available": 0,
                "region_id": "709",
                "rental_uris": {
                    "android": "https://app.nextbike.net/station?id=44242227",
                    "ios": "https://app.nextbike.net/station?id=44242227",
                    "web": "https://nxtb.it/p/44242227"
                },
                "short_name": "48124",
                "station_id": "44242227",
                "vehicle_types_available": [
                    {
                        "count": 2,
                        "vehicle_type_id": "333"
                    }
                ]
            },
            "type": "Feature"
        },
        {
            "geometry": {
                "coordinates": [
                    14.149448,
                    49.307627
                ],
                "type": "Point"
            },
            "properties": {
                "is_installed": true,
                "is_renting": true,
                "is_returning": true,
                "is_virtual_station": false,
                "last_reported": 1789136703,
                "name": "Knihovna",
                "num_bikes_available": 0,
                "num_docks_available": 0,
                "region_id": "709",
                "rental_uris": {
                    "android": "https://app.nextbike.net/station?id=44242257",
                    "ios": "https://app.nextbike.net/station?id=44242257",
                    "web": "https://nxtb.it/p/44242257"
                },
                "short_name": "48125",
                "station_id": "44242257",
                "vehicle_types_available": []
            },
            "type": "Feature"
        },
        {
            "geometry": {
                "coordinates": [
                    14.148281,
                    49.306279
                ],
                "type": "Point"
            },
            "properties": {
                "is_installed": true,
                "is_renting": true,
                "is_returning": true,
                "is_virtual_station": false,
                "last_reported": 1789136703,
                "name": "Bakal\u00e1\u0159e",
                "num_bikes_available": 0,
                "num_docks_available": 0,
                "region_id": "709",
                "rental_uris": {
                    "android": "https://app.nextbike.net/station?id=44242282",
                    "ios": "https://app.nextbike.net/station?id=44242282",
                    "web": "https://nxtb.it/p/44242282"
                },
                "short_name": "48126",
                "station_id": "44242282",
                "vehicle_types_available": []
            },
            "type": "Feature"
        },
        {
            "geometry": {
                "coordinates": [
                    14.145691,
                    49.305479
                ],
                "type": "Point"
            },
            "properties": {
                "is_installed": true,
                "is_renting": true,
                "is_returning": true,
                "is_virtual_station": false,
                "last_reported": 1789136703,
                "name": "Plaveck\u00fd baz\u00e9n - stojan vstup",
                "num_bikes_available": 2,
                "num_docks_available": 0,
                "region_id": "709",
                "rental_uris": {
                    "android": "https://app.nextbike.net/station?id=44242331",
                    "ios": "https://app.nextbike.net/station?id=44242331",
                    "web": "https://nxtb.it/p/44242331"
                },
                "short_name": "48127",
                "station_id": "44242331",
                "vehicle_types_available": [
                    {
                        "count": 2,
                        "vehicle_type_id": "333"
                    }
                ]
            },
            "type": "Feature"
        },
        {
            "geometry": {
                "coordinates": [
                    14.149067,
                    49.30933
                ],
                "type": "Point"
            },
            "properties": {
                "is_installed": true,
                "is_renting": true,
                "is_returning": true,
                "is_virtual_station": false,
                "last_reported": 1789136703,
                "name": "U Reiner\u016f",
                "num_bikes_available": 0,
                "num_docks_available": 0,
                "region_id": "709",
                "rental_uris": {
                    "android": "https://app.nextbike.net/station?id=44242362",
                    "ios": "https://app.nextbike.net/station?id=44242362",
                    "web": "https://nxtb.it/p/44242362"
                },
                "short_name": "48128",
                "station_id": "44242362",
                "vehicle_types_available": []
            },
            "type": "Feature"
        },
        {
            "geometry": {
                "coordinates": [
                    14.151551,
                    49.308778
                ],
                "type": "Point"
            },
            "properties": {
                "is_installed": true,
                "is_renting": true,
                "is_returning": true,
                "is_virtual_station": false,
                "last_reported": 1789136703,
                "name": "Po\u0161ta",
                "num_bikes_available": 0,
                "num_docks_available": 0,
                "region_id": "709",
                "rental_uris": {
                    "android": "https://app.nextbike.net/station?id=44242381",
                    "ios": "https://app.nextbike.net/station?id=44242381",
                    "web": "https://nxtb.it/p/44242381"
                },
                "short_name": "48129",
                "station_id": "44242381",
                "vehicle_types_available": []
            },
            "type": "Feature"
        },
        {
            "geometry": {
                "coordinates": [
                    14.14999,
                    49.305605
                ],
                "type": "Point"
            },
            "properties": {
                "is_installed": true,
                "is_renting": true,
                "is_returning": true,
                "is_virtual_station": false,
                "last_reported": 1789136703,
                "name": "\u00da\u0159ady",
                "num_bikes_available": 1,
                "num_docks_available": 0,
                "region_id": "709",
                "rental_uris": {
                    "android": "https://app.nextbike.net/station?id=44242409",
                    "ios": "https://app.nextbike.net/station?id=44242409",
                    "web": "https://nxtb.it/p/44242409"
                },
                "short_name": "48130",
                "station_id": "44242409",
                "vehicle_types_available": [
                    {
                        "count": 1,
                        "vehicle_type_id": "421"
                    }
                ]
            },
            "type": "Feature"
        },
        {
            "geometry": {
                "coordinates": [
                    14.144768,
                    49.309859
                ],
                "type": "Point"
            },
            "properties": {
                "is_installed": true,
                "is_renting": true,
                "is_returning": true,
                "is_virtual_station": false,
                "last_reported": 1789136703,
                "name": "Star\u00fd most - U Mozarta",
                "num_bikes_available": 4,
                "num_docks_available": 0,
                "region_id": "709",
                "rental_uris": {
                    "android": "https://app.nextbike.net/station?id=44242485",
                    "ios": "https://app.nextbike.net/station?id=44242485",
                    "web": "https://nxtb.it/p/44242485"
                },
                "short_name": "48132",
                "station_id": "44242485",
                "vehicle_types_available": [
                    {
                        "count": 4,
                        "vehicle_type_id": "333"
                    }
                ]
            },
            "type": "Feature"
        },
        {
            "geometry": {
                "coordinates": [
                    14.140154,
                    49.308236
                ],
                "type": "Point"
            },
            "properties": {
                "is_installed": true,
                "is_renting": true,
                "is_returning": true,
                "is_virtual_station": false,
                "last_reported": 1789136703,
                "name": "V\u00fdstavi\u0161t\u011b",
                "num_bikes_available": 2,
                "num_docks_available": 0,
                "region_id": "709",
                "rental_uris": {
                    "android": "https://app.nextbike.net/station?id=44242536",
                    "ios": "https://app.nextbike.net/station?id=44242536",
                    "web": "https://nxtb.it/p/44242536"
                },
                "short_name": "48134",
                "station_id": "44242536",
                "vehicle_types_available": [
                    {
                        "count": 1,
                        "vehicle_type_id": "421"
                    },
                    {
                        "count": 1,
                        "vehicle_type_id": "333"
                    }
                ]
            },
            "type": "Feature"
        },
        {
            "geometry": {
                "coordinates": [
                    14.143437,
                    49.312684
                ],
                "type": "Point"
            },
            "properties": {
                "is_installed": true,
                "is_renting": true,
                "is_returning": true,
                "is_virtual_station": false,
                "last_reported": 1789136703,
                "name": "U Platana",
                "num_bikes_available": 0,
                "num_docks_available": 0,
                "region_id": "709",
                "rental_uris": {
                    "android": "https://app.nextbike.net/station?id=44242571",
                    "ios": "https://app.nextbike.net/station?id=44242571",
                    "web": "https://nxtb.it/p/44242571"
                },
                "short_name": "48135",
                "station_id": "44242571",
                "vehicle_types_available": []
            },
            "type": "Feature"
        },
        {
            "geometry": {
                "coordinates": [
                    14.156757,
                    49.311829
                ],
                "type": "Point"
            },
            "properties": {
                "is_installed": true,
                "is_renting": true,
                "is_returning": true,
                "is_virtual_station": false,
                "last_reported": 1789136703,
                "name": "M\u00edrov\u00e9 n\u00e1m\u011bst\u00ed",
                "num_bikes_available": 1,
                "num_docks_available": 0,
                "region_id": "709",
                "rental_uris": {
                    "android": "https://app.nextbike.net/station?id=44242624",
                    "ios": "https://app.nextbike.net/station?id=44242624",
                    "web": "https://nxtb.it/p/44242624"
                },
                "short_name": "48137",
                "station_id": "44242624",
                "vehicle_types_available": [
                    {
                        "count": 1,
                        "vehicle_type_id": "333"
                    }
                ]
            },
            "type": "Feature"
        },
        {
            "geometry": {
                "coordinates": [
                    14.155123,
                    49.306574
                ],
                "type": "Point"
            },
            "properties": {
                "is_installed": true,
                "is_renting": true,
                "is_returning": true,
                "is_virtual_station": false,
                "last_reported": 1789136703,
                "name": "Olympie",
                "num_bikes_available": 0,
                "num_docks_available": 0,
                "region_id": "709",
                "rental_uris": {
                    "android": "https://app.nextbike.net/station?id=44242699",
                    "ios": "https://app.nextbike.net/station?id=44242699",
                    "web": "https://nxtb.it/p/44242699"
                },
                "short_name": "48140",
                "station_id": "44242699",
                "vehicle_types_available": []
            },
            "type": "Feature"
        },
        {
            "geometry": {
                "coordinates": [
                    14.151635,
                    49.303657
                ],
                "type": "Point"
            },
            "properties": {
                "is_installed": true,
                "is_renting": true,
                "is_returning": true,
                "is_virtual_station": false,
                "last_reported": 1789136703,
                "name": "Husovo n\u00e1m\u011bst\u00ed",
                "num_bikes_available": 0,
                "num_docks_available": 0,
                "region_id": "709",
                "rental_uris": {
                    "android": "https://app.nextbike.net/station?id=44242731",
                    "ios": "https://app.nextbike.net/station?id=44242731",
                    "web": "https://nxtb.it/p/44242731"
                },
                "short_name": "48141",
                "station_id": "44242731",
                "vehicle_types_available": []
            },
            "type": "Feature"
        },
        {
            "geometry": {
                "coordinates": [
                    14.148658,
                    49.302863
                ],
                "type": "Point"
            },
            "properties": {
                "is_installed": true,
                "is_renting": true,
                "is_returning": true,
                "is_virtual_station": false,
                "last_reported": 1789136703,
                "name": "Sady - plocha vedle trafostanice",
                "num_bikes_available": 0,
                "num_docks_available": 0,
                "region_id": "709",
                "rental_uris": {
                    "android": "https://app.nextbike.net/station?id=44242750",
                    "ios": "https://app.nextbike.net/station?id=44242750",
                    "web": "https://nxtb.it/p/44242750"
                },
                "short_name": "48142",
                "station_id": "44242750",
                "vehicle_types_available": []
            },
            "type": "Feature"
        },
        {
            "geometry": {
                "coordinates": [
                    14.154232,
                    49.315338
                ],
                "type": "Point"
            },
            "properties": {
                "is_installed": true,
                "is_renting": true,
                "is_returning": true,
                "is_virtual_station": false,
                "last_reported": 1789136703,
                "name": "Smetanovo n\u00e1m\u011bst\u00ed/Jeron\u00fdmova",
                "num_bikes_available": 1,
                "num_docks_available": 0,
                "region_id": "709",
                "rental_uris": {
                    "android": "https://app.nextbike.net/station?id=44242804",
                    "ios": "https://app.nextbike.net/station?id=44242804",
                    "web": "https://nxtb.it/p/44242804"
                },
                "short_name": "48145",
                "station_id": "44242804",
                "vehicle_types_available": [
                    {
                        "count": 1,
                        "vehicle_type_id": "421"
                    }
                ]
            },
            "type": "Feature"
        },
        {
            "geometry": {
                "coordinates": [
                    14.139522,
                    49.303639
                ],
                "type": "Point"
            },
            "properties": {
                "is_installed": true,
                "is_renting": true,
                "is_returning": true,
                "is_virtual_station": false,
                "last_reported": 1789136703,
                "name": "Galerie - stojan u Benu",
                "num_bikes_available": 12,
                "num_docks_available": 0,
                "region_id": "709",
                "rental_uris": {
                    "android": "https://app.nextbike.net/station?id=44242825",
                    "ios": "https://app.nextbike.net/station?id=44242825",
                    "web": "https://nxtb.it/p/44242825"
                },
                "short_name": "48146",
                "station_id": "44242825",
                "vehicle_types_available": [
                    {
                        "count": 12,
                        "vehicle_type_id": "333"
                    }
                ]
            },
            "type": "Feature"
        },
        {
            "geometry": {
                "coordinates": [
                    14.141053,
                    49.310254
                ],
                "type": "Point"
            },
            "properties": {
                "is_installed": true,
                "is_renting": true,
                "is_returning": true,
                "is_virtual_station": false,
                "last_reported": 1789136703,
                "name": "Tom\u00e1\u0161e Garrigua Masaryka",
                "num_bikes_available": 1,
                "num_docks_available": 0,
                "region_id": "709",
                "rental_uris": {
                    "android": "https://app.nextbike.net/station?id=44242857",
                    "ios": "https://app.nextbike.net/station?id=44242857",
                    "web": "https://nxtb.it/p/44242857"
                },
                "short_name": "48147",
                "station_id": "44242857",
                "vehicle_types_available": [
                    {
                        "count": 1,
                        "vehicle_type_id": "333"
                    }
                ]
            },
            "type": "Feature"
        },
        {
            "geometry": {
                "coordinates": [
                    14.142355,
                    49.306889
                ],
                "type": "Point"
            },
            "properties": {
                "is_installed": true,
                "is_renting": true,
                "is_returning": true,
                "is_virtual_station": false,
                "last_reported": 1789136703,
                "name": "Zimn\u00ed stadion",
                "num_bikes_available": 13,
                "num_docks_available": 0,
                "region_id": "709",
                "rental_uris": {
                    "android": "https://app.nextbike.net/station?id=44242920",
                    "ios": "https://app.nextbike.net/station?id=44242920",
                    "web": "https://nxtb.it/p/44242920"
                },
                "short_name": "48148",
                "station_id": "44242920",
                "vehicle_types_available": [
                    {
                        "count": 1,
                        "vehicle_type_id": "254"
                    },
                    {
                        "count": 12,
                        "vehicle_type_id": "333"
                    }
                ]
            },
            "type": "Feature"
        },
        {
            "geometry": {
                "coordinates": [
                    14.146534,
                    49.309641
                ],
                "type": "Point"
            },
            "properties": {
                "is_installed": true,
                "is_renting": true,
                "is_returning": true,
                "is_virtual_station": false,
                "last_reported": 1789136703,
                "name": "Star\u00fd most - Johanka",
                "num_bikes_available": 1,
                "num_docks_available": 0,
                "region_id": "709",
                "rental_uris": {
                    "android": "https://app.nextbike.net/station?id=44242934",
                    "ios": "https://app.nextbike.net/station?id=44242934",
                    "web": "https://nxtb.it/p/44242934"
                },
                "short_name": "48149",
                "station_id": "44242934",
                "vehicle_types_available": [
                    {
                        "count": 1,
                        "vehicle_type_id": "333"
                    }
                ]
            },
            "type": "Feature"
        },
        {
            "geometry": {
                "coordinates": [
                    14.112781,
                    49.328013
                ],
                "type": "Point"
            },
            "properties": {
                "is_installed": true,
                "is_renting": true,
                "is_returning": true,
                "is_virtual_station": false,
                "last_reported": 1789136703,
                "name": "Dobe\u0161ice ubytovna",
                "num_bikes_available": 0,
                "num_docks_available": 0,
                "region_id": "709",
                "rental_uris": {
                    "android": "https://app.nextbike.net/station?id=44543931",
                    "ios": "https://app.nextbike.net/station?id=44543931",
                    "web": "https://nxtb.it/p/44543931"
                },
                "short_name": "48150",
                "station_id": "44543931",
                "vehicle_types_available": []
            },
            "type": "Feature"
        },
        {
            "geometry": {
                "coordinates": [
                    14.161259,
                    49.313828
                ],
                "type": "Point"
            },
            "properties": {
                "is_installed": true,
                "is_renting": true,
                "is_returning": true,
                "is_virtual_station": false,
                "last_reported": 1789136703,
                "name": "M\u011bsto - vlak",
                "num_bikes_available": 0,
                "num_docks_available": 0,
                "region_id": "709",
                "rental_uris": {
                    "android": "https://app.nextbike.net/station?id=44544039",
                    "ios": "https://app.nextbike.net/station?id=44544039",
                    "web": "https://nxtb.it/p/44544039"
                },
                "short_name": "48151",
                "station_id": "44544039",
                "vehicle_types_available": []
            },
            "type": "Feature"
        },
        {
            "geometry": {
                "coordinates": [
                    14.119197,
                    49.324776
                ],
                "type": "Point"
            },
            "properties": {
                "is_installed": true,
                "is_renting": true,
                "is_returning": true,
                "is_virtual_station": false,
                "last_reported": 1789136703,
                "name": "Pr\u016fmyslov\u00e1 - bus",
                "num_bikes_available": 0,
                "num_docks_available": 0,
                "region_id": "709",
                "rental_uris": {
                    "android": "https://app.nextbike.net/station?id=44544150",
                    "ios": "https://app.nextbike.net/station?id=44544150",
                    "web": "https://nxtb.it/p/44544150"
                },
                "short_name": "48153",
                "station_id": "44544150",
                "vehicle_types_available": []
            },
            "type": "Feature"
        },
        {
            "geometry": {
                "coordinates": [
                    14.1576,
                    49.315996
                ],
                "type": "Point"
            },
            "properties": {
                "capacity": 2,
                "is_installed": true,
                "is_renting": true,
                "is_returning": true,
                "is_virtual_station": false,
                "last_reported": 1789136703,
                "name": "Za Pazdernou - parking",
                "num_bikes_available": 0,
                "num_docks_available": 2,
                "region_id": "709",
                "rental_uris": {
                    "android": "https://app.nextbike.net/station?id=44544177",
                    "ios": "https://app.nextbike.net/station?id=44544177",
                    "web": "https://nxtb.it/p/44544177"
                },
                "short_name": "48154",
                "station_id": "44544177",
                "vehicle_types_available": []
            },
            "type": "Feature"
        },
        {
            "geometry": {
                "coordinates": [
                    14.138208,
                    49.313862
                ],
                "type": "Point"
            },
            "properties": {
                "is_installed": true,
                "is_renting": true,
                "is_returning": true,
                "is_virtual_station": false,
                "last_reported": 1789136703,
                "name": "Technologick\u00fd park CLB",
                "num_bikes_available": 0,
                "num_docks_available": 0,
                "region_id": "709",
                "rental_uris": {
                    "android": "https://app.nextbike.net/station?id=44544218",
                    "ios": "https://app.nextbike.net/station?id=44544218",
                    "web": "https://nxtb.it/p/44544218"
                },
                "short_name": "48155",
                "station_id": "44544218",
                "vehicle_types_available": []
            },
            "type": "Feature"
        },
        {
            "geometry": {
                "coordinates": [
                    14.142135,
                    49.316954
                ],
                "type": "Point"
            },
            "properties": {
                "is_installed": true,
                "is_renting": true,
                "is_returning": true,
                "is_virtual_station": false,
                "last_reported": 1789136703,
                "name": "Roh Na P\u011bn\u00edku/Jablonsk\u00e9ho",
                "num_bikes_available": 9,
                "num_docks_available": 0,
                "region_id": "709",
                "rental_uris": {
                    "android": "https://app.nextbike.net/station?id=44544255",
                    "ios": "https://app.nextbike.net/station?id=44544255",
                    "web": "https://nxtb.it/p/44544255"
                },
                "short_name": "48156",
                "station_id": "44544255",
                "vehicle_types_available": [
                    {
                        "count": 1,
                        "vehicle_type_id": "198"
                    },
                    {
                        "count": 8,
                        "vehicle_type_id": "333"
                    }
                ]
            },
            "type": "Feature"
        },
        {
            "geometry": {
                "coordinates": [
                    14.142945,
                    49.315125
                ],
                "type": "Point"
            },
            "properties": {
                "is_installed": true,
                "is_renting": true,
                "is_returning": true,
                "is_virtual_station": false,
                "last_reported": 1789136703,
                "name": "COOP",
                "num_bikes_available": 2,
                "num_docks_available": 0,
                "region_id": "709",
                "rental_uris": {
                    "android": "https://app.nextbike.net/station?id=44544396",
                    "ios": "https://app.nextbike.net/station?id=44544396",
                    "web": "https://nxtb.it/p/44544396"
                },
                "short_name": "48157",
                "station_id": "44544396",
                "vehicle_types_available": [
                    {
                        "count": 2,
                        "vehicle_type_id": "333"
                    }
                ]
            },
            "type": "Feature"
        },
        {
            "geometry": {
                "coordinates": [
                    14.14052,
                    49.315373
                ],
                "type": "Point"
            },
            "properties": {
                "is_installed": true,
                "is_renting": true,
                "is_returning": true,
                "is_virtual_station": false,
                "last_reported": 1789136703,
                "name": "Vina\u0159ick\u00e9ho/Na St\u00ednadlech - vedle kontejneru na textil",
                "num_bikes_available": 3,
                "num_docks_available": 0,
                "region_id": "709",
                "rental_uris": {
                    "android": "https://app.nextbike.net/station?id=44544513",
                    "ios": "https://app.nextbike.net/station?id=44544513",
                    "web": "https://nxtb.it/p/44544513"
                },
                "short_name": "48158",
                "station_id": "44544513",
                "vehicle_types_available": [
                    {
                        "count": 3,
                        "vehicle_type_id": "333"
                    }
                ]
            },
            "type": "Feature"
        },
        {
            "geometry": {
                "coordinates": [
                    14.131315,
                    49.307973
                ],
                "type": "Point"
            },
            "properties": {
                "is_installed": true,
                "is_renting": true,
                "is_returning": true,
                "is_virtual_station": false,
                "last_reported": 1789136703,
                "name": "Z\u00e1tavsk\u00e9 n\u00e1b\u0159e\u017e\u00ed - stojany",
                "num_bikes_available": 1,
                "num_docks_available": 0,
                "region_id": "709",
                "rental_uris": {
                    "android": "https://app.nextbike.net/station?id=44544533",
                    "ios": "https://app.nextbike.net/station?id=44544533",
                    "web": "https://nxtb.it/p/44544533"
                },
                "short_name": "48159",
                "station_id": "44544533",
                "vehicle_types_available": [
                    {
                        "count": 1,
                        "vehicle_type_id": "333"
                    }
                ]
            },
            "type": "Feature"
        },
        {
            "geometry": {
                "coordinates": [
                    14.12852,
                    49.313667
                ],
                "type": "Point"
            },
            "properties": {
                "is_installed": true,
                "is_renting": true,
                "is_returning": true,
                "is_virtual_station": false,
                "last_reported": 1789136703,
                "name": "Libu\u0161ina - u kruh\u00e1\u010de",
                "num_bikes_available": 2,
                "num_docks_available": 0,
                "region_id": "709",
                "rental_uris": {
                    "android": "https://app.nextbike.net/station?id=44544575",
                    "ios": "https://app.nextbike.net/station?id=44544575",
                    "web": "https://nxtb.it/p/44544575"
                },
                "short_name": "48160",
                "station_id": "44544575",
                "vehicle_types_available": [
                    {
                        "count": 2,
                        "vehicle_type_id": "333"
                    }
                ]
            },
            "type": "Feature"
        },
        {
            "geometry": {
                "coordinates": [
                    14.124877,
                    49.300103
                ],
                "type": "Point"
            },
            "properties": {
                "is_installed": true,
                "is_renting": true,
                "is_returning": true,
                "is_virtual_station": false,
                "last_reported": 1789136703,
                "name": "Ke st\u0159elnici - bus (+15 minut na p\u0159\u00edjezd)",
                "num_bikes_available": 2,
                "num_docks_available": 0,
                "region_id": "709",
                "rental_uris": {
                    "android": "https://app.nextbike.net/station?id=44544640",
                    "ios": "https://app.nextbike.net/station?id=44544640",
                    "web": "https://nxtb.it/p/44544640"
                },
                "short_name": "48161",
                "station_id": "44544640",
                "vehicle_types_available": [
                    {
                        "count": 2,
                        "vehicle_type_id": "333"
                    }
                ]
            },
            "type": "Feature"
        },
        {
            "geometry": {
                "coordinates": [
                    14.131771,
                    49.309631
                ],
                "type": "Point"
            },
            "properties": {
                "is_installed": true,
                "is_renting": true,
                "is_returning": true,
                "is_virtual_station": false,
                "last_reported": 1789136703,
                "name": "V\u00e1clavsk\u00e9 n\u00e1m\u011bst\u00ed - park",
                "num_bikes_available": 1,
                "num_docks_available": 0,
                "region_id": "709",
                "rental_uris": {
                    "android": "https://app.nextbike.net/station?id=44544679",
                    "ios": "https://app.nextbike.net/station?id=44544679",
                    "web": "https://nxtb.it/p/44544679"
                },
                "short_name": "48162",
                "station_id": "44544679",
                "vehicle_types_available": [
                    {
                        "count": 1,
                        "vehicle_type_id": "254"
                    }
                ]
            },
            "type": "Feature"
        },
        {
            "geometry": {
                "coordinates": [
                    14.143454,
                    49.296898
                ],
                "type": "Point"
            },
            "properties": {
                "is_installed": true,
                "is_renting": true,
                "is_returning": true,
                "is_virtual_station": false,
                "last_reported": 1789136703,
                "name": "Hlavn\u00ed n\u00e1dra\u017e\u00ed",
                "num_bikes_available": 3,
                "num_docks_available": 0,
                "region_id": "709",
                "rental_uris": {
                    "android": "https://app.nextbike.net/station?id=44544775",
                    "ios": "https://app.nextbike.net/station?id=44544775",
                    "web": "https://nxtb.it/p/44544775"
                },
                "short_name": "48164",
                "station_id": "44544775",
                "vehicle_types_available": [
                    {
                        "count": 3,
                        "vehicle_type_id": "333"
                    }
                ]
            },
            "type": "Feature"
        },
        {
            "geometry": {
                "coordinates": [
                    14.135896,
                    49.304286
                ],
                "type": "Point"
            },
            "properties": {
                "is_installed": true,
                "is_renting": true,
                "is_returning": true,
                "is_virtual_station": false,
                "last_reported": 1789136703,
                "name": "U Vod\u00e1rny - parkovi\u0161t\u011b",
                "num_bikes_available": 13,
                "num_docks_available": 0,
                "region_id": "709",
                "rental_uris": {
                    "android": "https://app.nextbike.net/station?id=44544860",
                    "ios": "https://app.nextbike.net/station?id=44544860",
                    "web": "https://nxtb.it/p/44544860"
                },
                "short_name": "48167",
                "station_id": "44544860",
                "vehicle_types_available": [
                    {
                        "count": 1,
                        "vehicle_type_id": "254"
                    },
                    {
                        "count": 1,
                        "vehicle_type_id": "421"
                    },
                    {
                        "count": 11,
                        "vehicle_type_id": "333"
                    }
                ]
            },
            "type": "Feature"
        },
        {
            "geometry": {
                "coordinates": [
                    14.147494,
                    49.317401
                ],
                "type": "Point"
            },
            "properties": {
                "is_installed": true,
                "is_renting": true,
                "is_returning": true,
                "is_virtual_station": false,
                "last_reported": 1789136703,
                "name": "Workout h\u0159i\u0161t\u011b",
                "num_bikes_available": 2,
                "num_docks_available": 0,
                "region_id": "709",
                "rental_uris": {
                    "android": "https://app.nextbike.net/station?id=44545073",
                    "ios": "https://app.nextbike.net/station?id=44545073",
                    "web": "https://nxtb.it/p/44545073"
                },
                "short_name": "45080",
                "station_id": "44545073",
                "vehicle_types_available": [
                    {
                        "count": 2,
                        "vehicle_type_id": "333"
                    }
                ]
            },
            "type": "Feature"
        },
        {
            "geometry": {
                "coordinates": [
                    14.143186,
                    49.291972
                ],
                "type": "Point"
            },
            "properties": {
                "is_installed": true,
                "is_renting": true,
                "is_returning": true,
                "is_virtual_station": false,
                "last_reported": 1789136703,
                "name": "Roh Vysok\u00e1 Putimsk\u00e1/Doln\u00ed",
                "num_bikes_available": 0,
                "num_docks_available": 0,
                "region_id": "709",
                "rental_uris": {
                    "android": "https://app.nextbike.net/station?id=44545164",
                    "ios": "https://app.nextbike.net/station?id=44545164",
                    "web": "https://nxtb.it/p/44545164"
                },
                "short_name": "48172",
                "station_id": "44545164",
                "vehicle_types_available": []
            },
            "type": "Feature"
        },
        {
            "geometry": {
                "coordinates": [
                    14.177159,
                    49.286154
                ],
                "type": "Point"
            },
            "properties": {
                "is_installed": true,
                "is_renting": true,
                "is_returning": true,
                "is_virtual_station": false,
                "last_reported": 1789136703,
                "name": "Semice - bus",
                "num_bikes_available": 2,
                "num_docks_available": 0,
                "region_id": "709",
                "rental_uris": {
                    "android": "https://app.nextbike.net/station?id=44545294",
                    "ios": "https://app.nextbike.net/station?id=44545294",
                    "web": "https://nxtb.it/p/44545294"
                },
                "short_name": "48173",
                "station_id": "44545294",
                "vehicle_types_available": [
                    {
                        "count": 2,
                        "vehicle_type_id": "333"
                    }
                ]
            },
            "type": "Feature"
        },
        {
            "geometry": {
                "coordinates": [
                    14.153609,
                    49.283918
                ],
                "type": "Point"
            },
            "properties": {
                "is_installed": true,
                "is_renting": true,
                "is_returning": true,
                "is_virtual_station": false,
                "last_reported": 1789136703,
                "name": "Smrkovice - Na Nov\u00e9",
                "num_bikes_available": 4,
                "num_docks_available": 0,
                "region_id": "709",
                "rental_uris": {
                    "android": "https://app.nextbike.net/station?id=44545481",
                    "ios": "https://app.nextbike.net/station?id=44545481",
                    "web": "https://nxtb.it/p/44545481"
                },
                "short_name": "48175",
                "station_id": "44545481",
                "vehicle_types_available": [
                    {
                        "count": 1,
                        "vehicle_type_id": "421"
                    },
                    {
                        "count": 3,
                        "vehicle_type_id": "333"
                    }
                ]
            },
            "type": "Feature"
        },
        {
            "geometry": {
                "coordinates": [
                    14.194336,
                    49.270675
                ],
                "type": "Point"
            },
            "properties": {
                "is_installed": true,
                "is_renting": true,
                "is_returning": true,
                "is_virtual_station": false,
                "last_reported": 1789136703,
                "name": "Topolov\u00e1 bus",
                "num_bikes_available": 0,
                "num_docks_available": 0,
                "region_id": "709",
                "rental_uris": {
                    "android": "https://app.nextbike.net/station?id=44545559",
                    "ios": "https://app.nextbike.net/station?id=44545559",
                    "web": "https://nxtb.it/p/44545559"
                },
                "short_name": "48176",
                "station_id": "44545559",
                "vehicle_types_available": []
            },
            "type": "Feature"
        },
        {
            "geometry": {
                "coordinates": [
                    14.130038,
                    49.30691
                ],
                "type": "Point"
            },
            "properties": {
                "is_installed": true,
                "is_renting": true,
                "is_returning": true,
                "is_virtual_station": false,
                "last_reported": 1789136703,
                "name": "U Vod\u00e1rny",
                "num_bikes_available": 0,
                "num_docks_available": 0,
                "region_id": "709",
                "rental_uris": {
                    "android": "https://app.nextbike.net/station?id=44548847",
                    "ios": "https://app.nextbike.net/station?id=44548847",
                    "web": "https://nxtb.it/p/44548847"
                },
                "short_name": "48177",
                "station_id": "44548847",
                "vehicle_types_available": []
            },
            "type": "Feature"
        },
        {
            "geometry": {
                "coordinates": [
                    14.156983,
                    49.320737
                ],
                "type": "Point"
            },
            "properties": {
                "is_installed": true,
                "is_renting": true,
                "is_returning": true,
                "is_virtual_station": false,
                "last_reported": 1789136703,
                "name": "U Sulana",
                "num_bikes_available": 1,
                "num_docks_available": 0,
                "region_id": "709",
                "rental_uris": {
                    "android": "https://app.nextbike.net/station?id=44714749",
                    "ios": "https://app.nextbike.net/station?id=44714749",
                    "web": "https://nxtb.it/p/44714749"
                },
                "short_name": "48178",
                "station_id": "44714749",
                "vehicle_types_available": [
                    {
                        "count": 1,
                        "vehicle_type_id": "333"
                    }
                ]
            },
            "type": "Feature"
        },
        {
            "geometry": {
                "coordinates": [
                    14.144688,
                    49.316136
                ],
                "type": "Point"
            },
            "properties": {
                "is_installed": true,
                "is_renting": true,
                "is_returning": true,
                "is_virtual_station": false,
                "last_reported": 1789136703,
                "name": "N\u00e1b\u0159e\u017e\u00ed 1. m\u00e1je - u l\u00e1vky",
                "num_bikes_available": 0,
                "num_docks_available": 0,
                "region_id": "709",
                "rental_uris": {
                    "android": "https://app.nextbike.net/station?id=44721606",
                    "ios": "https://app.nextbike.net/station?id=44721606",
                    "web": "https://nxtb.it/p/44721606"
                },
                "short_name": "48179",
                "station_id": "44721606",
                "vehicle_types_available": []
            },
            "type": "Feature"
        },
        {
            "geometry": {
                "coordinates": [
                    14.126996,
                    49.308984
                ],
                "type": "Point"
            },
            "properties": {
                "is_installed": true,
                "is_renting": true,
                "is_returning": true,
                "is_virtual_station": false,
                "last_reported": 1789136703,
                "name": "Letn\u00ed plov\u00e1rna u V\u00e1clava - vstup",
                "num_bikes_available": 1,
                "num_docks_available": 0,
                "region_id": "709",
                "rental_uris": {
                    "android": "https://app.nextbike.net/station?id=45113795",
                    "ios": "https://app.nextbike.net/station?id=45113795",
                    "web": "https://nxtb.it/p/45113795"
                },
                "short_name": "48180",
                "station_id": "45113795",
                "vehicle_types_available": [
                    {
                        "count": 1,
                        "vehicle_type_id": "333"
                    }
                ]
            },
            "type": "Feature"
        },
        {
            "geometry": {
                "coordinates": [
                    14.145775,
                    49.313049
                ],
                "type": "Point"
            },
            "properties": {
                "is_installed": true,
                "is_renting": true,
                "is_returning": true,
                "is_virtual_station": false,
                "last_reported": 1789136703,
                "name": "U Racka",
                "num_bikes_available": 0,
                "num_docks_available": 0,
                "region_id": "709",
                "rental_uris": {
                    "android": "https://app.nextbike.net/station?id=45392398",
                    "ios": "https://app.nextbike.net/station?id=45392398",
                    "web": "https://nxtb.it/p/45392398"
                },
                "short_name": "48181",
                "station_id": "45392398",
                "vehicle_types_available": []
            },
            "type": "Feature"
        },
        {
            "geometry": {
                "coordinates": [
                    14.144441,
                    49.300474
                ],
                "type": "Point"
            },
            "properties": {
                "is_installed": true,
                "is_renting": true,
                "is_returning": true,
                "is_virtual_station": false,
                "last_reported": 1789136703,
                "name": "Lip.alej u Filmov\u00e9 akademie - roz\u0161\u00ed\u0159en\u00fd chodn\u00edk",
                "num_bikes_available": 0,
                "num_docks_available": 0,
                "region_id": "709",
                "rental_uris": {
                    "android": "https://app.nextbike.net/station?id=66094005",
                    "ios": "https://app.nextbike.net/station?id=66094005",
                    "web": "https://nxtb.it/p/66094005"
                },
                "short_name": "48392",
                "station_id": "66094005",
                "vehicle_types_available": []
            },
            "type": "Feature"
        },
        {
            "geometry": {
                "coordinates": [
                    14.16098,
                    49.309683
                ],
                "type": "Point"
            },
            "properties": {
                "is_installed": true,
                "is_renting": true,
                "is_returning": true,
                "is_virtual_station": false,
                "last_reported": 1789136703,
                "name": "Rokycanova/Legion\u00e1\u0159sk\u00e1",
                "num_bikes_available": 0,
                "num_docks_available": 0,
                "region_id": "709",
                "rental_uris": {
                    "android": "https://app.nextbike.net/station?id=66096353",
                    "ios": "https://app.nextbike.net/station?id=66096353",
                    "web": "https://nxtb.it/p/66096353"
                },
                "short_name": "48394",
                "station_id": "66096353",
                "vehicle_types_available": []
            },
            "type": "Feature"
        },
        {
            "geometry": {
                "coordinates": [
                    14.16312,
                    49.309718
                ],
                "type": "Point"
            },
            "properties": {
                "is_installed": true,
                "is_renting": true,
                "is_returning": true,
                "is_virtual_station": false,
                "last_reported": 1789136703,
                "name": "Lesopark II",
                "num_bikes_available": 0,
                "num_docks_available": 0,
                "region_id": "709",
                "rental_uris": {
                    "android": "https://app.nextbike.net/station?id=66096550",
                    "ios": "https://app.nextbike.net/station?id=66096550",
                    "web": "https://nxtb.it/p/66096550"
                },
                "short_name": "48395",
                "station_id": "66096550",
                "vehicle_types_available": []
            },
            "type": "Feature"
        },
        {
            "geometry": {
                "coordinates": [
                    14.159049,
                    49.305892
                ],
                "type": "Point"
            },
            "properties": {
                "is_installed": true,
                "is_renting": true,
                "is_returning": true,
                "is_virtual_station": false,
                "last_reported": 1789136703,
                "name": "Pap\u00edrnictv\u00ed Lou\u017eensk\u00e1 - v\u00fdklenek",
                "num_bikes_available": 0,
                "num_docks_available": 0,
                "region_id": "709",
                "rental_uris": {
                    "android": "https://app.nextbike.net/station?id=66096738",
                    "ios": "https://app.nextbike.net/station?id=66096738",
                    "web": "https://nxtb.it/p/66096738"
                },
                "short_name": "48397",
                "station_id": "66096738",
                "vehicle_types_available": []
            },
            "type": "Feature"
        },
        {
            "geometry": {
                "coordinates": [
                    14.162042,
                    49.303594
                ],
                "type": "Point"
            },
            "properties": {
                "is_installed": true,
                "is_renting": true,
                "is_returning": true,
                "is_virtual_station": false,
                "last_reported": 1789136703,
                "name": "\u0160obrova/Budovatelsk\u00e1",
                "num_bikes_available": 1,
                "num_docks_available": 0,
                "region_id": "709",
                "rental_uris": {
                    "android": "https://app.nextbike.net/station?id=66097215",
                    "ios": "https://app.nextbike.net/station?id=66097215",
                    "web": "https://nxtb.it/p/66097215"
                },
                "short_name": "48399",
                "station_id": "66097215",
                "vehicle_types_available": [
                    {
                        "count": 1,
                        "vehicle_type_id": "333"
                    }
                ]
            },
            "type": "Feature"
        },
        {
            "geometry": {
                "coordinates": [
                    14.158931,
                    49.303769
                ],
                "type": "Point"
            },
            "properties": {
                "is_installed": true,
                "is_renting": true,
                "is_returning": true,
                "is_virtual_station": false,
                "last_reported": 1789136703,
                "name": "\u0160obrova - roz\u0161\u00ed\u0159en\u00e9 m\u00edsto u trafiky",
                "num_bikes_available": 0,
                "num_docks_available": 0,
                "region_id": "709",
                "rental_uris": {
                    "android": "https://app.nextbike.net/station?id=66097412",
                    "ios": "https://app.nextbike.net/station?id=66097412",
                    "web": "https://nxtb.it/p/66097412"
                },
                "short_name": "48400",
                "station_id": "66097412",
                "vehicle_types_available": []
            },
            "type": "Feature"
        },
        {
            "geometry": {
                "coordinates": [
                    14.163029,
                    49.301359
                ],
                "type": "Point"
            },
            "properties": {
                "is_installed": true,
                "is_renting": true,
                "is_returning": true,
                "is_virtual_station": false,
                "last_reported": 1789136703,
                "name": "Pa\u017eoutova/Pod \u0160obrovnou",
                "num_bikes_available": 0,
                "num_docks_available": 0,
                "region_id": "709",
                "rental_uris": {
                    "android": "https://app.nextbike.net/station?id=66098011",
                    "ios": "https://app.nextbike.net/station?id=66098011",
                    "web": "https://nxtb.it/p/66098011"
                },
                "short_name": "48402",
                "station_id": "66098011",
                "vehicle_types_available": []
            },
            "type": "Feature"
        },
        {
            "geometry": {
                "coordinates": [
                    14.154875,
                    49.303321
                ],
                "type": "Point"
            },
            "properties": {
                "is_installed": true,
                "is_renting": true,
                "is_returning": true,
                "is_virtual_station": false,
                "last_reported": 1789136703,
                "name": "K.\u010capka/U Obory",
                "num_bikes_available": 0,
                "num_docks_available": 0,
                "region_id": "709",
                "rental_uris": {
                    "android": "https://app.nextbike.net/station?id=66098120",
                    "ios": "https://app.nextbike.net/station?id=66098120",
                    "web": "https://nxtb.it/p/66098120"
                },
                "short_name": "48403",
                "station_id": "66098120",
                "vehicle_types_available": []
            },
            "type": "Feature"
        },
        {
            "geometry": {
                "coordinates": [
                    14.151909,
                    49.302174
                ],
                "type": "Point"
            },
            "properties": {
                "is_installed": true,
                "is_renting": true,
                "is_returning": true,
                "is_virtual_station": false,
                "last_reported": 1789136703,
                "name": "Jih",
                "num_bikes_available": 0,
                "num_docks_available": 0,
                "region_id": "709",
                "rental_uris": {
                    "android": "https://app.nextbike.net/station?id=66098328",
                    "ios": "https://app.nextbike.net/station?id=66098328",
                    "web": "https://nxtb.it/p/66098328"
                },
                "short_name": "48404",
                "station_id": "66098328",
                "vehicle_types_available": []
            },
            "type": "Feature"
        },
        {
            "geometry": {
                "coordinates": [
                    14.153137,
                    49.300208
                ],
                "type": "Point"
            },
            "properties": {
                "is_installed": true,
                "is_renting": true,
                "is_returning": true,
                "is_virtual_station": false,
                "last_reported": 1789136703,
                "name": "T.P\u0159\u00e1telstv\u00ed/Smrkovick\u00e1",
                "num_bikes_available": 1,
                "num_docks_available": 0,
                "region_id": "709",
                "rental_uris": {
                    "android": "https://app.nextbike.net/station?id=66098817",
                    "ios": "https://app.nextbike.net/station?id=66098817",
                    "web": "https://nxtb.it/p/66098817"
                },
                "short_name": "48406",
                "station_id": "66098817",
                "vehicle_types_available": [
                    {
                        "count": 1,
                        "vehicle_type_id": "254"
                    }
                ]
            },
            "type": "Feature"
        },
        {
            "geometry": {
                "coordinates": [
                    14.148191,
                    49.300778
                ],
                "type": "Point"
            },
            "properties": {
                "is_installed": true,
                "is_renting": true,
                "is_returning": true,
                "is_virtual_station": false,
                "last_reported": 1789136703,
                "name": "N\u00e1dra\u017en\u00ed - bus u z\u00eddky",
                "num_bikes_available": 1,
                "num_docks_available": 0,
                "region_id": "709",
                "rental_uris": {
                    "android": "https://app.nextbike.net/station?id=66099096",
                    "ios": "https://app.nextbike.net/station?id=66099096",
                    "web": "https://nxtb.it/p/66099096"
                },
                "short_name": "48407",
                "station_id": "66099096",
                "vehicle_types_available": [
                    {
                        "count": 1,
                        "vehicle_type_id": "421"
                    }
                ]
            },
            "type": "Feature"
        },
        {
            "geometry": {
                "coordinates": [
                    14.145906,
                    49.298868
                ],
                "type": "Point"
            },
            "properties": {
                "is_installed": true,
                "is_renting": true,
                "is_returning": true,
                "is_virtual_station": false,
                "last_reported": 1789136703,
                "name": "Lidl - bus",
                "num_bikes_available": 3,
                "num_docks_available": 0,
                "region_id": "709",
                "rental_uris": {
                    "android": "https://app.nextbike.net/station?id=66100823",
                    "ios": "https://app.nextbike.net/station?id=66100823",
                    "web": "https://nxtb.it/p/66100823"
                },
                "short_name": "48410",
                "station_id": "66100823",
                "vehicle_types_available": [
                    {
                        "count": 1,
                        "vehicle_type_id": "421"
                    },
                    {
                        "count": 1,
                        "vehicle_type_id": "333"
                    },
                    {
                        "count": 1,
                        "vehicle_type_id": "183"
                    }
                ]
            },
            "type": "Feature"
        },
        {
            "geometry": {
                "coordinates": [
                    14.142575,
                    49.298371
                ],
                "type": "Point"
            },
            "properties": {
                "is_installed": true,
                "is_renting": true,
                "is_returning": true,
                "is_virtual_station": false,
                "last_reported": 1789136703,
                "name": "Kaufland",
                "num_bikes_available": 6,
                "num_docks_available": 0,
                "region_id": "709",
                "rental_uris": {
                    "android": "https://app.nextbike.net/station?id=66101041",
                    "ios": "https://app.nextbike.net/station?id=66101041",
                    "web": "https://nxtb.it/p/66101041"
                },
                "short_name": "48411",
                "station_id": "66101041",
                "vehicle_types_available": [
                    {
                        "count": 1,
                        "vehicle_type_id": "421"
                    },
                    {
                        "count": 5,
                        "vehicle_type_id": "333"
                    }
                ]
            },
            "type": "Feature"
        },
        {
            "geometry": {
                "coordinates": [
                    14.136143,
                    49.301869
                ],
                "type": "Point"
            },
            "properties": {
                "is_installed": true,
                "is_renting": true,
                "is_returning": true,
                "is_virtual_station": false,
                "last_reported": 1789136703,
                "name": "Na Rozhledn\u011b - nad trat\u00ed",
                "num_bikes_available": 3,
                "num_docks_available": 0,
                "region_id": "709",
                "rental_uris": {
                    "android": "https://app.nextbike.net/station?id=66101198",
                    "ios": "https://app.nextbike.net/station?id=66101198",
                    "web": "https://nxtb.it/p/66101198"
                },
                "short_name": "48412",
                "station_id": "66101198",
                "vehicle_types_available": [
                    {
                        "count": 3,
                        "vehicle_type_id": "333"
                    }
                ]
            },
            "type": "Feature"
        },
        {
            "geometry": {
                "coordinates": [
                    14.15974,
                    49.297126
                ],
                "type": "Point"
            },
            "properties": {
                "is_installed": true,
                "is_renting": true,
                "is_returning": true,
                "is_virtual_station": false,
                "last_reported": 1789136703,
                "name": "Obchodn\u00ed z\u00f3na - chodn\u00edk vedle Sportisima",
                "num_bikes_available": 1,
                "num_docks_available": 0,
                "region_id": "709",
                "rental_uris": {
                    "android": "https://app.nextbike.net/station?id=66101409",
                    "ios": "https://app.nextbike.net/station?id=66101409",
                    "web": "https://nxtb.it/p/66101409"
                },
                "short_name": "48413",
                "station_id": "66101409",
                "vehicle_types_available": [
                    {
                        "count": 1,
                        "vehicle_type_id": "333"
                    }
                ]
            },
            "type": "Feature"
        }
    ],
    "gbfs": {
        "station_information": {
            "last_updated": 1789136703,
            "ttl": 60,
            "version": "2.3"
        },
        "station_status": {
            "last_updated": 1789136703,
            "ttl": 60,
            "version": "2.3"
        }
    },
    "type": "FeatureCollection"
}