{
    "features": [
        {
            "geometry": {
                "coordinates": [
                    14.059905,
                    50.510342
                ],
                "type": "Point"
            },
            "properties": {
                "capacity": 4,
                "is_installed": true,
                "is_renting": true,
                "is_returning": true,
                "is_virtual_station": false,
                "last_reported": 1789324626,
                "name": "Hlavn\u00ed n\u00e1dra\u017e\u00ed",
                "num_bikes_available": 4,
                "num_docks_available": 0,
                "region_id": "1151",
                "rental_uris": {
                    "android": "https://app.nextbike.net/station?id=533329686",
                    "ios": "https://app.nextbike.net/station?id=533329686",
                    "web": "https://nxtb.it/p/533329686"
                },
                "short_name": "49779",
                "station_id": "533329686",
                "vehicle_types_available": [
                    {
                        "count": 4,
                        "vehicle_type_id": "254"
                    }
                ]
            },
            "type": "Feature"
        },
        {
            "geometry": {
                "coordinates": [
                    14.0569,
                    50.5138
                ],
                "type": "Point"
            },
            "properties": {
                "capacity": 4,
                "is_installed": true,
                "is_renting": true,
                "is_returning": true,
                "is_virtual_station": false,
                "last_reported": 1789324626,
                "name": "Kryt\u00fd baz\u00e9n",
                "num_bikes_available": 0,
                "num_docks_available": 4,
                "region_id": "1151",
                "rental_uris": {
                    "android": "https://app.nextbike.net/station?id=533329882",
                    "ios": "https://app.nextbike.net/station?id=533329882",
                    "web": "https://nxtb.it/p/533329882"
                },
                "short_name": "49780",
                "station_id": "533329882",
                "vehicle_types_available": []
            },
            "type": "Feature"
        },
        {
            "geometry": {
                "coordinates": [
                    14.057672,
                    50.515825
                ],
                "type": "Point"
            },
            "properties": {
                "capacity": 4,
                "is_installed": true,
                "is_renting": true,
                "is_returning": true,
                "is_virtual_station": false,
                "last_reported": 1789324626,
                "name": "Hotel Active Stadium",
                "num_bikes_available": 9,
                "num_docks_available": 0,
                "region_id": "1151",
                "rental_uris": {
                    "android": "https://app.nextbike.net/station?id=533330008",
                    "ios": "https://app.nextbike.net/station?id=533330008",
                    "web": "https://nxtb.it/p/533330008"
                },
                "short_name": "49781",
                "station_id": "533330008",
                "vehicle_types_available": [
                    {
                        "count": 9,
                        "vehicle_type_id": "254"
                    }
                ]
            },
            "type": "Feature"
        },
        {
            "geometry": {
                "coordinates": [
                    14.052023,
                    50.515013
                ],
                "type": "Point"
            },
            "properties": {
                "capacity": 4,
                "is_installed": true,
                "is_renting": true,
                "is_returning": true,
                "is_virtual_station": false,
                "last_reported": 1789324626,
                "name": "V\u00e1clavsk\u00e9 n\u00e1m\u011bst\u00ed",
                "num_bikes_available": 0,
                "num_docks_available": 4,
                "region_id": "1151",
                "rental_uris": {
                    "android": "https://app.nextbike.net/station?id=533330131",
                    "ios": "https://app.nextbike.net/station?id=533330131",
                    "web": "https://nxtb.it/p/533330131"
                },
                "short_name": "49782",
                "station_id": "533330131",
                "vehicle_types_available": []
            },
            "type": "Feature"
        },
        {
            "geometry": {
                "coordinates": [
                    14.049393,
                    50.515013
                ],
                "type": "Point"
            },
            "properties": {
                "capacity": 4,
                "is_installed": true,
                "is_renting": true,
                "is_returning": true,
                "is_virtual_station": false,
                "last_reported": 1789324626,
                "name": "28. \u0159\u00edjna",
                "num_bikes_available": 4,
                "num_docks_available": 0,
                "region_id": "1151",
                "rental_uris": {
                    "android": "https://app.nextbike.net/station?id=533330333",
                    "ios": "https://app.nextbike.net/station?id=533330333",
                    "web": "https://nxtb.it/p/533330333"
                },
                "short_name": "49783",
                "station_id": "533330333",
                "vehicle_types_available": [
                    {
                        "count": 4,
                        "vehicle_type_id": "254"
                    }
                ]
            },
            "type": "Feature"
        },
        {
            "geometry": {
                "coordinates": [
                    14.050555,
                    50.513788
                ],
                "type": "Point"
            },
            "properties": {
                "capacity": 4,
                "is_installed": true,
                "is_renting": true,
                "is_returning": true,
                "is_virtual_station": false,
                "last_reported": 1789324626,
                "name": "Sady Pion\u00fdr\u016f",
                "num_bikes_available": 0,
                "num_docks_available": 4,
                "region_id": "1151",
                "rental_uris": {
                    "android": "https://app.nextbike.net/station?id=533330537",
                    "ios": "https://app.nextbike.net/station?id=533330537",
                    "web": "https://nxtb.it/p/533330537"
                },
                "short_name": "49784",
                "station_id": "533330537",
                "vehicle_types_available": []
            },
            "type": "Feature"
        },
        {
            "geometry": {
                "coordinates": [
                    14.047,
                    50.51668
                ],
                "type": "Point"
            },
            "properties": {
                "capacity": 4,
                "is_installed": true,
                "is_renting": true,
                "is_returning": true,
                "is_virtual_station": false,
                "last_reported": 1789324626,
                "name": "Kr\u00e1tk\u00e1",
                "num_bikes_available": 2,
                "num_docks_available": 2,
                "region_id": "1151",
                "rental_uris": {
                    "android": "https://app.nextbike.net/station?id=533340743",
                    "ios": "https://app.nextbike.net/station?id=533340743",
                    "web": "https://nxtb.it/p/533340743"
                },
                "short_name": "49785",
                "station_id": "533340743",
                "vehicle_types_available": [
                    {
                        "count": 2,
                        "vehicle_type_id": "254"
                    }
                ]
            },
            "type": "Feature"
        },
        {
            "geometry": {
                "coordinates": [
                    14.0455,
                    50.51955
                ],
                "type": "Point"
            },
            "properties": {
                "capacity": 4,
                "is_installed": true,
                "is_renting": true,
                "is_returning": true,
                "is_virtual_station": false,
                "last_reported": 1789324626,
                "name": "Dlouh\u00e1",
                "num_bikes_available": 4,
                "num_docks_available": 0,
                "region_id": "1151",
                "rental_uris": {
                    "android": "https://app.nextbike.net/station?id=533341895",
                    "ios": "https://app.nextbike.net/station?id=533341895",
                    "web": "https://nxtb.it/p/533341895"
                },
                "short_name": "49786",
                "station_id": "533341895",
                "vehicle_types_available": [
                    {
                        "count": 4,
                        "vehicle_type_id": "254"
                    }
                ]
            },
            "type": "Feature"
        },
        {
            "geometry": {
                "coordinates": [
                    14.043065,
                    50.514095
                ],
                "type": "Point"
            },
            "properties": {
                "capacity": 4,
                "is_installed": true,
                "is_renting": true,
                "is_returning": true,
                "is_virtual_station": false,
                "last_reported": 1789324626,
                "name": "Kmochova",
                "num_bikes_available": 3,
                "num_docks_available": 1,
                "region_id": "1151",
                "rental_uris": {
                    "android": "https://app.nextbike.net/station?id=533342155",
                    "ios": "https://app.nextbike.net/station?id=533342155",
                    "web": "https://nxtb.it/p/533342155"
                },
                "short_name": "49787",
                "station_id": "533342155",
                "vehicle_types_available": [
                    {
                        "count": 3,
                        "vehicle_type_id": "254"
                    }
                ]
            },
            "type": "Feature"
        },
        {
            "geometry": {
                "coordinates": [
                    14.042142,
                    50.509945
                ],
                "type": "Point"
            },
            "properties": {
                "capacity": 4,
                "is_installed": true,
                "is_renting": true,
                "is_returning": true,
                "is_virtual_station": false,
                "last_reported": 1789324626,
                "name": "TRCZ",
                "num_bikes_available": 0,
                "num_docks_available": 4,
                "region_id": "1151",
                "rental_uris": {
                    "android": "https://app.nextbike.net/station?id=533342363",
                    "ios": "https://app.nextbike.net/station?id=533342363",
                    "web": "https://nxtb.it/p/533342363"
                },
                "short_name": "49788",
                "station_id": "533342363",
                "vehicle_types_available": []
            },
            "type": "Feature"
        },
        {
            "geometry": {
                "coordinates": [
                    14.062477,
                    50.507239
                ],
                "type": "Point"
            },
            "properties": {
                "capacity": 4,
                "is_installed": true,
                "is_renting": true,
                "is_returning": true,
                "is_virtual_station": false,
                "last_reported": 1789324626,
                "name": "Nov\u00e9 Klap\u00fd",
                "num_bikes_available": 1,
                "num_docks_available": 3,
                "region_id": "1151",
                "rental_uris": {
                    "android": "https://app.nextbike.net/station?id=533342777",
                    "ios": "https://app.nextbike.net/station?id=533342777",
                    "web": "https://nxtb.it/p/533342777"
                },
                "short_name": "49790",
                "station_id": "533342777",
                "vehicle_types_available": [
                    {
                        "count": 1,
                        "vehicle_type_id": "254"
                    }
                ]
            },
            "type": "Feature"
        },
        {
            "geometry": {
                "coordinates": [
                    14.039,
                    50.51567
                ],
                "type": "Point"
            },
            "properties": {
                "capacity": 4,
                "is_installed": true,
                "is_renting": true,
                "is_returning": true,
                "is_virtual_station": false,
                "last_reported": 1789324626,
                "name": "H\u0159bitov",
                "num_bikes_available": 0,
                "num_docks_available": 4,
                "region_id": "1151",
                "rental_uris": {
                    "android": "https://app.nextbike.net/station?id=533342914",
                    "ios": "https://app.nextbike.net/station?id=533342914",
                    "web": "https://nxtb.it/p/533342914"
                },
                "short_name": "49791",
                "station_id": "533342914",
                "vehicle_types_available": []
            },
            "type": "Feature"
        },
        {
            "geometry": {
                "coordinates": [
                    14.05321,
                    50.51201
                ],
                "type": "Point"
            },
            "properties": {
                "capacity": 4,
                "is_installed": true,
                "is_renting": true,
                "is_returning": true,
                "is_virtual_station": false,
                "last_reported": 1789324626,
                "name": "Centrum kultury",
                "num_bikes_available": 0,
                "num_docks_available": 3,
                "region_id": "1151",
                "rental_uris": {
                    "android": "https://app.nextbike.net/station?id=533350953",
                    "ios": "https://app.nextbike.net/station?id=533350953",
                    "web": "https://nxtb.it/p/533350953"
                },
                "short_name": "49793",
                "station_id": "533350953",
                "vehicle_types_available": []
            },
            "type": "Feature"
        },
        {
            "geometry": {
                "coordinates": [
                    14.05235,
                    50.5179
                ],
                "type": "Point"
            },
            "properties": {
                "capacity": 4,
                "is_installed": true,
                "is_renting": true,
                "is_returning": true,
                "is_virtual_station": false,
                "last_reported": 1789324626,
                "name": "Osmi\u010dka",
                "num_bikes_available": 11,
                "num_docks_available": 0,
                "region_id": "1151",
                "rental_uris": {
                    "android": "https://app.nextbike.net/station?id=545141774",
                    "ios": "https://app.nextbike.net/station?id=545141774",
                    "web": "https://nxtb.it/p/545141774"
                },
                "short_name": "49794",
                "station_id": "545141774",
                "vehicle_types_available": [
                    {
                        "count": 11,
                        "vehicle_type_id": "254"
                    }
                ]
            },
            "type": "Feature"
        },
        {
            "geometry": {
                "coordinates": [
                    14.073551,
                    50.509742
                ],
                "type": "Point"
            },
            "properties": {
                "capacity": 4,
                "is_installed": true,
                "is_renting": true,
                "is_returning": true,
                "is_virtual_station": false,
                "last_reported": 1789324626,
                "name": "Lovochemie",
                "num_bikes_available": 2,
                "num_docks_available": 2,
                "region_id": "1151",
                "rental_uris": {
                    "android": "https://app.nextbike.net/station?id=563912957",
                    "ios": "https://app.nextbike.net/station?id=563912957",
                    "web": "https://nxtb.it/p/563912957"
                },
                "short_name": "49795",
                "station_id": "563912957",
                "vehicle_types_available": [
                    {
                        "count": 2,
                        "vehicle_type_id": "254"
                    }
                ]
            },
            "type": "Feature"
        },
        {
            "geometry": {
                "coordinates": [
                    14.03629,
                    50.49899
                ],
                "type": "Point"
            },
            "properties": {
                "capacity": 4,
                "is_installed": true,
                "is_renting": true,
                "is_returning": true,
                "is_virtual_station": false,
                "last_reported": 1789324626,
                "name": "Sulejovice",
                "num_bikes_available": 3,
                "num_docks_available": 1,
                "region_id": "1151",
                "rental_uris": {
                    "android": "https://app.nextbike.net/station?id=600620098",
                    "ios": "https://app.nextbike.net/station?id=600620098",
                    "web": "https://nxtb.it/p/600620098"
                },
                "short_name": "49796",
                "station_id": "600620098",
                "vehicle_types_available": [
                    {
                        "count": 3,
                        "vehicle_type_id": "254"
                    }
                ]
            },
            "type": "Feature"
        },
        {
            "geometry": {
                "coordinates": [
                    14.046644,
                    50.524672
                ],
                "type": "Point"
            },
            "properties": {
                "capacity": 4,
                "is_installed": true,
                "is_renting": true,
                "is_returning": true,
                "is_virtual_station": false,
                "last_reported": 1789324626,
                "name": "Lhotka nad Labem",
                "num_bikes_available": 3,
                "num_docks_available": 1,
                "region_id": "1151",
                "rental_uris": {
                    "android": "https://app.nextbike.net/station?id=613010418",
                    "ios": "https://app.nextbike.net/station?id=613010418",
                    "web": "https://nxtb.it/p/613010418"
                },
                "short_name": "49792",
                "station_id": "613010418",
                "vehicle_types_available": [
                    {
                        "count": 2,
                        "vehicle_type_id": "254"
                    },
                    {
                        "count": 1,
                        "vehicle_type_id": "196"
                    }
                ]
            },
            "type": "Feature"
        }
    ],
    "gbfs": {
        "station_information": {
            "last_updated": 1789324626,
            "ttl": 60,
            "version": "2.3"
        },
        "station_status": {
            "last_updated": 1789324626,
            "ttl": 60,
            "version": "2.3"
        }
    },
    "type": "FeatureCollection"
}