{
    "features": [
        {
            "geometry": {
                "coordinates": [
                    -3.94723,
                    56.15297
                ],
                "type": "Point"
            },
            "properties": {
                "capacity": 8,
                "is_installed": true,
                "is_renting": true,
                "is_returning": true,
                "is_virtual_station": false,
                "last_reported": 1789321763,
                "name": "Bridge of Allan ",
                "num_bikes_available": 10,
                "num_docks_available": 0,
                "region_id": "243",
                "rental_uris": {
                    "android": "https://app.nextbike.net/station?id=1112287",
                    "ios": "https://app.nextbike.net/station?id=1112287",
                    "web": "https://nxtb.it/p/1112287"
                },
                "short_name": "8479",
                "station_id": "1112287",
                "vehicle_types_available": [
                    {
                        "count": 10,
                        "vehicle_type_id": "150"
                    }
                ]
            },
            "type": "Feature"
        },
        {
            "geometry": {
                "coordinates": [
                    -3.92392,
                    56.13829
                ],
                "type": "Point"
            },
            "properties": {
                "capacity": 8,
                "is_installed": true,
                "is_renting": true,
                "is_returning": true,
                "is_virtual_station": false,
                "last_reported": 1789321763,
                "name": "Causewayhead Roundabout",
                "num_bikes_available": 1,
                "num_docks_available": 7,
                "region_id": "243",
                "rental_uris": {
                    "android": "https://app.nextbike.net/station?id=1112320",
                    "ios": "https://app.nextbike.net/station?id=1112320",
                    "web": "https://nxtb.it/p/1112320"
                },
                "short_name": "8476",
                "station_id": "1112320",
                "vehicle_types_available": [
                    {
                        "count": 1,
                        "vehicle_type_id": "150"
                    }
                ]
            },
            "type": "Feature"
        },
        {
            "geometry": {
                "coordinates": [
                    -3.93506,
                    56.12954
                ],
                "type": "Point"
            },
            "properties": {
                "capacity": 9,
                "is_installed": true,
                "is_renting": true,
                "is_returning": true,
                "is_virtual_station": false,
                "last_reported": 1789321763,
                "name": "Old Stirling Bridge",
                "num_bikes_available": 3,
                "num_docks_available": 5,
                "region_id": "243",
                "rental_uris": {
                    "android": "https://app.nextbike.net/station?id=1112500",
                    "ios": "https://app.nextbike.net/station?id=1112500",
                    "web": "https://nxtb.it/p/1112500"
                },
                "short_name": "8475",
                "station_id": "1112500",
                "vehicle_types_available": [
                    {
                        "count": 3,
                        "vehicle_type_id": "150"
                    }
                ]
            },
            "type": "Feature"
        },
        {
            "geometry": {
                "coordinates": [
                    -3.928825,
                    56.147635
                ],
                "type": "Point"
            },
            "properties": {
                "capacity": 20,
                "is_installed": true,
                "is_renting": true,
                "is_returning": true,
                "is_virtual_station": false,
                "last_reported": 1789321763,
                "name": "Main Entrance Stirling Uni",
                "num_bikes_available": 15,
                "num_docks_available": 5,
                "region_id": "243",
                "rental_uris": {
                    "android": "https://app.nextbike.net/station?id=114366676",
                    "ios": "https://app.nextbike.net/station?id=114366676",
                    "web": "https://nxtb.it/p/114366676"
                },
                "short_name": "8299",
                "station_id": "114366676",
                "vehicle_types_available": [
                    {
                        "count": 15,
                        "vehicle_type_id": "150"
                    }
                ]
            },
            "type": "Feature"
        },
        {
            "geometry": {
                "coordinates": [
                    -3.926938,
                    56.140105
                ],
                "type": "Point"
            },
            "properties": {
                "capacity": 15,
                "is_installed": true,
                "is_renting": true,
                "is_returning": true,
                "is_virtual_station": false,
                "last_reported": 1789321763,
                "name": "Wallace High School",
                "num_bikes_available": 3,
                "num_docks_available": 12,
                "region_id": "243",
                "rental_uris": {
                    "android": "https://app.nextbike.net/station?id=19501876",
                    "ios": "https://app.nextbike.net/station?id=19501876",
                    "web": "https://nxtb.it/p/19501876"
                },
                "short_name": "8471",
                "station_id": "19501876",
                "vehicle_types_available": [
                    {
                        "count": 3,
                        "vehicle_type_id": "150"
                    }
                ]
            },
            "type": "Feature"
        },
        {
            "geometry": {
                "coordinates": [
                    -3.920836,
                    56.143968
                ],
                "type": "Point"
            },
            "properties": {
                "capacity": 20,
                "is_installed": true,
                "is_renting": true,
                "is_returning": true,
                "is_virtual_station": false,
                "last_reported": 1789321763,
                "name": "Cottrell Building (Logie Entrance), University of Stirling",
                "num_bikes_available": 1,
                "num_docks_available": 19,
                "region_id": "243",
                "rental_uris": {
                    "android": "https://app.nextbike.net/station?id=278898",
                    "ios": "https://app.nextbike.net/station?id=278898",
                    "web": "https://nxtb.it/p/278898"
                },
                "short_name": "8486",
                "station_id": "278898",
                "vehicle_types_available": [
                    {
                        "count": 1,
                        "vehicle_type_id": "150"
                    }
                ]
            },
            "type": "Feature"
        },
        {
            "geometry": {
                "coordinates": [
                    -3.921513,
                    56.149165
                ],
                "type": "Point"
            },
            "properties": {
                "capacity": 8,
                "is_installed": true,
                "is_renting": true,
                "is_returning": true,
                "is_virtual_station": false,
                "last_reported": 1789321763,
                "name": "Willow Court Residences, University of Stirling",
                "num_bikes_available": 0,
                "num_docks_available": 8,
                "region_id": "243",
                "rental_uris": {
                    "android": "https://app.nextbike.net/station?id=278899",
                    "ios": "https://app.nextbike.net/station?id=278899",
                    "web": "https://nxtb.it/p/278899"
                },
                "short_name": "8487",
                "station_id": "278899",
                "vehicle_types_available": []
            },
            "type": "Feature"
        },
        {
            "geometry": {
                "coordinates": [
                    -3.936571,
                    56.118994
                ],
                "type": "Point"
            },
            "properties": {
                "capacity": 8,
                "is_installed": true,
                "is_renting": true,
                "is_returning": true,
                "is_virtual_station": false,
                "last_reported": 1789321763,
                "name": "Train Station",
                "num_bikes_available": 1,
                "num_docks_available": 7,
                "region_id": "243",
                "rental_uris": {
                    "android": "https://app.nextbike.net/station?id=278900",
                    "ios": "https://app.nextbike.net/station?id=278900",
                    "web": "https://nxtb.it/p/278900"
                },
                "short_name": "8488",
                "station_id": "278900",
                "vehicle_types_available": [
                    {
                        "count": 1,
                        "vehicle_type_id": "150"
                    }
                ]
            },
            "type": "Feature"
        },
        {
            "geometry": {
                "coordinates": [
                    -3.9066,
                    56.148932
                ],
                "type": "Point"
            },
            "properties": {
                "capacity": 12,
                "is_installed": true,
                "is_renting": true,
                "is_returning": true,
                "is_virtual_station": false,
                "last_reported": 1789321763,
                "name": "Alexander Court Residences, University of Stirling",
                "num_bikes_available": 4,
                "num_docks_available": 8,
                "region_id": "243",
                "rental_uris": {
                    "android": "https://app.nextbike.net/station?id=312488",
                    "ios": "https://app.nextbike.net/station?id=312488",
                    "web": "https://nxtb.it/p/312488"
                },
                "short_name": "8490",
                "station_id": "312488",
                "vehicle_types_available": [
                    {
                        "count": 4,
                        "vehicle_type_id": "150"
                    }
                ]
            },
            "type": "Feature"
        },
        {
            "geometry": {
                "coordinates": [
                    -3.957213,
                    56.156707
                ],
                "type": "Point"
            },
            "properties": {
                "is_installed": true,
                "is_renting": true,
                "is_returning": true,
                "is_virtual_station": false,
                "last_reported": 1789321763,
                "name": "Bridge of Allan Rail Station",
                "num_bikes_available": 8,
                "num_docks_available": 0,
                "region_id": "243",
                "rental_uris": {
                    "android": "https://app.nextbike.net/station?id=324383",
                    "ios": "https://app.nextbike.net/station?id=324383",
                    "web": "https://nxtb.it/p/324383"
                },
                "short_name": "8478",
                "station_id": "324383",
                "vehicle_types_available": [
                    {
                        "count": 8,
                        "vehicle_type_id": "150"
                    }
                ]
            },
            "type": "Feature"
        }
    ],
    "gbfs": {
        "station_information": {
            "last_updated": 1789321763,
            "ttl": 60,
            "version": "2.3"
        },
        "station_status": {
            "last_updated": 1789321763,
            "ttl": 60,
            "version": "2.3"
        }
    },
    "type": "FeatureCollection"
}