{
    "features": [
        {
            "geometry": {
                "coordinates": [
                    7.075067,
                    51.446291
                ],
                "type": "Point"
            },
            "properties": {
                "is_installed": true,
                "is_renting": true,
                "is_returning": true,
                "is_virtual_station": false,
                "last_reported": 1789133834,
                "name": "Grendplatz StadtLastenRad",
                "num_bikes_available": 1,
                "num_docks_available": 0,
                "region_id": "133",
                "rental_uris": {
                    "android": "https://app.nextbike.net/station?id=113462",
                    "ios": "https://app.nextbike.net/station?id=113462",
                    "web": "https://nxtb.it/p/113462"
                },
                "short_name": "7541",
                "station_id": "113462",
                "vehicle_types_available": [
                    {
                        "count": 1,
                        "vehicle_type_id": "318"
                    }
                ]
            },
            "type": "Feature"
        },
        {
            "geometry": {
                "coordinates": [
                    6.949319,
                    51.472883
                ],
                "type": "Point"
            },
            "properties": {
                "is_installed": true,
                "is_renting": true,
                "is_returning": true,
                "is_virtual_station": false,
                "last_reported": 1789133834,
                "name": "Essen Borbeck Bahnhof StadtLastenRad",
                "num_bikes_available": 1,
                "num_docks_available": 0,
                "region_id": "133",
                "rental_uris": {
                    "android": "https://app.nextbike.net/station?id=113463",
                    "ios": "https://app.nextbike.net/station?id=113463",
                    "web": "https://nxtb.it/p/113463"
                },
                "short_name": "7557",
                "station_id": "113463",
                "vehicle_types_available": [
                    {
                        "count": 1,
                        "vehicle_type_id": "318"
                    }
                ]
            },
            "type": "Feature"
        },
        {
            "geometry": {
                "coordinates": [
                    6.972992,
                    51.449527
                ],
                "type": "Point"
            },
            "properties": {
                "is_installed": true,
                "is_renting": true,
                "is_returning": true,
                "is_virtual_station": false,
                "last_reported": 1789133834,
                "name": "Gervinusstra\u00dfe StadtLastenRad",
                "num_bikes_available": 1,
                "num_docks_available": 0,
                "region_id": "133",
                "rental_uris": {
                    "android": "https://app.nextbike.net/station?id=115216",
                    "ios": "https://app.nextbike.net/station?id=115216",
                    "web": "https://nxtb.it/p/115216"
                },
                "short_name": "7531",
                "station_id": "115216",
                "vehicle_types_available": [
                    {
                        "count": 1,
                        "vehicle_type_id": "318"
                    }
                ]
            },
            "type": "Feature"
        },
        {
            "geometry": {
                "coordinates": [
                    6.997787,
                    51.441771
                ],
                "type": "Point"
            },
            "properties": {
                "is_installed": true,
                "is_renting": true,
                "is_returning": true,
                "is_virtual_station": false,
                "last_reported": 1789133834,
                "name": "Gemarkenplatz StadtLastenRad",
                "num_bikes_available": 1,
                "num_docks_available": 0,
                "region_id": "133",
                "rental_uris": {
                    "android": "https://app.nextbike.net/station?id=121674",
                    "ios": "https://app.nextbike.net/station?id=121674",
                    "web": "https://nxtb.it/p/121674"
                },
                "short_name": "7588",
                "station_id": "121674",
                "vehicle_types_available": [
                    {
                        "count": 1,
                        "vehicle_type_id": "318"
                    }
                ]
            },
            "type": "Feature"
        },
        {
            "geometry": {
                "coordinates": [
                    7.001703,
                    51.464973
                ],
                "type": "Point"
            },
            "properties": {
                "is_installed": true,
                "is_renting": true,
                "is_returning": true,
                "is_virtual_station": false,
                "last_reported": 1789133834,
                "name": "Universit\u00e4t StadtLastenRad",
                "num_bikes_available": 1,
                "num_docks_available": 0,
                "region_id": "133",
                "rental_uris": {
                    "android": "https://app.nextbike.net/station?id=146999",
                    "ios": "https://app.nextbike.net/station?id=146999",
                    "web": "https://nxtb.it/p/146999"
                },
                "short_name": "7561",
                "station_id": "146999",
                "vehicle_types_available": [
                    {
                        "count": 1,
                        "vehicle_type_id": "318"
                    }
                ]
            },
            "type": "Feature"
        },
        {
            "geometry": {
                "coordinates": [
                    7.044082,
                    51.447384
                ],
                "type": "Point"
            },
            "properties": {
                "is_installed": true,
                "is_renting": true,
                "is_returning": true,
                "is_virtual_station": false,
                "last_reported": 1789133834,
                "name": "Mobilstation Parkfriedhof StadtLastenRad",
                "num_bikes_available": 1,
                "num_docks_available": 0,
                "region_id": "133",
                "rental_uris": {
                    "android": "https://app.nextbike.net/station?id=147004",
                    "ios": "https://app.nextbike.net/station?id=147004",
                    "web": "https://nxtb.it/p/147004"
                },
                "short_name": "7564",
                "station_id": "147004",
                "vehicle_types_available": [
                    {
                        "count": 1,
                        "vehicle_type_id": "318"
                    }
                ]
            },
            "type": "Feature"
        },
        {
            "geometry": {
                "coordinates": [
                    7.002749,
                    51.426604
                ],
                "type": "Point"
            },
            "properties": {
                "is_installed": true,
                "is_renting": true,
                "is_returning": true,
                "is_virtual_station": false,
                "last_reported": 1789133834,
                "name": "Mobilstation Florastra\u00dfe StadtLastenRad",
                "num_bikes_available": 1,
                "num_docks_available": 0,
                "region_id": "133",
                "rental_uris": {
                    "android": "https://app.nextbike.net/station?id=147012",
                    "ios": "https://app.nextbike.net/station?id=147012",
                    "web": "https://nxtb.it/p/147012"
                },
                "short_name": "7569",
                "station_id": "147012",
                "vehicle_types_available": [
                    {
                        "count": 1,
                        "vehicle_type_id": "318"
                    }
                ]
            },
            "type": "Feature"
        },
        {
            "geometry": {
                "coordinates": [
                    7.080125,
                    51.391658
                ],
                "type": "Point"
            },
            "properties": {
                "is_installed": true,
                "is_renting": true,
                "is_returning": true,
                "is_virtual_station": false,
                "last_reported": 1789133834,
                "name": "Mobilstation Kupferdreh StadtLastenRad",
                "num_bikes_available": 0,
                "num_docks_available": 0,
                "region_id": "133",
                "rental_uris": {
                    "android": "https://app.nextbike.net/station?id=31364543",
                    "ios": "https://app.nextbike.net/station?id=31364543",
                    "web": "https://nxtb.it/p/31364543"
                },
                "short_name": "7518",
                "station_id": "31364543",
                "vehicle_types_available": []
            },
            "type": "Feature"
        },
        {
            "geometry": {
                "coordinates": [
                    7.013751,
                    51.466384
                ],
                "type": "Point"
            },
            "properties": {
                "is_installed": true,
                "is_renting": true,
                "is_returning": true,
                "is_virtual_station": false,
                "last_reported": 1789133834,
                "name": "Eltingstra\u00dfe StadtLastenRad",
                "num_bikes_available": 1,
                "num_docks_available": 0,
                "region_id": "133",
                "rental_uris": {
                    "android": "https://app.nextbike.net/station?id=397909001",
                    "ios": "https://app.nextbike.net/station?id=397909001",
                    "web": "https://nxtb.it/p/397909001"
                },
                "short_name": "71038",
                "station_id": "397909001",
                "vehicle_types_available": [
                    {
                        "count": 1,
                        "vehicle_type_id": "318"
                    }
                ]
            },
            "type": "Feature"
        },
        {
            "geometry": {
                "coordinates": [
                    7.032763,
                    51.437134
                ],
                "type": "Point"
            },
            "properties": {
                "is_installed": true,
                "is_renting": true,
                "is_returning": true,
                "is_virtual_station": false,
                "last_reported": 1789133834,
                "name": "Weserstra\u00dfe StadtLastenRad",
                "num_bikes_available": 1,
                "num_docks_available": 0,
                "region_id": "133",
                "rental_uris": {
                    "android": "https://app.nextbike.net/station?id=474985643",
                    "ios": "https://app.nextbike.net/station?id=474985643",
                    "web": "https://nxtb.it/p/474985643"
                },
                "short_name": "71074",
                "station_id": "474985643",
                "vehicle_types_available": [
                    {
                        "count": 1,
                        "vehicle_type_id": "318"
                    }
                ]
            },
            "type": "Feature"
        },
        {
            "geometry": {
                "coordinates": [
                    7.048187,
                    51.497417
                ],
                "type": "Point"
            },
            "properties": {
                "is_installed": true,
                "is_renting": true,
                "is_returning": true,
                "is_virtual_station": false,
                "last_reported": 1789133834,
                "name": "Katernberger Markt StadtLastenRad",
                "num_bikes_available": 0,
                "num_docks_available": 0,
                "region_id": "133",
                "rental_uris": {
                    "android": "https://app.nextbike.net/station?id=499068852",
                    "ios": "https://app.nextbike.net/station?id=499068852",
                    "web": "https://nxtb.it/p/499068852"
                },
                "short_name": "71075",
                "station_id": "499068852",
                "vehicle_types_available": []
            },
            "type": "Feature"
        },
        {
            "geometry": {
                "coordinates": [
                    7.016203,
                    51.441517
                ],
                "type": "Point"
            },
            "properties": {
                "is_installed": true,
                "is_renting": true,
                "is_returning": true,
                "is_virtual_station": false,
                "last_reported": 1789133834,
                "name": "Isenbergstra\u00dfe / Witteringstra\u00dfe StadtLastenRad",
                "num_bikes_available": 1,
                "num_docks_available": 0,
                "region_id": "133",
                "rental_uris": {
                    "android": "https://app.nextbike.net/station?id=499069127",
                    "ios": "https://app.nextbike.net/station?id=499069127",
                    "web": "https://nxtb.it/p/499069127"
                },
                "short_name": "71077",
                "station_id": "499069127",
                "vehicle_types_available": [
                    {
                        "count": 1,
                        "vehicle_type_id": "318"
                    }
                ]
            },
            "type": "Feature"
        },
        {
            "geometry": {
                "coordinates": [
                    7.007189,
                    51.494972
                ],
                "type": "Point"
            },
            "properties": {
                "is_installed": true,
                "is_renting": true,
                "is_returning": true,
                "is_virtual_station": false,
                "last_reported": 1789133834,
                "name": "Altenessen Mitte StadtLastenRad",
                "num_bikes_available": 0,
                "num_docks_available": 0,
                "region_id": "133",
                "rental_uris": {
                    "android": "https://app.nextbike.net/station?id=499941260",
                    "ios": "https://app.nextbike.net/station?id=499941260",
                    "web": "https://nxtb.it/p/499941260"
                },
                "short_name": "71079",
                "station_id": "499941260",
                "vehicle_types_available": []
            },
            "type": "Feature"
        },
        {
            "geometry": {
                "coordinates": [
                    7.004194,
                    51.458744
                ],
                "type": "Point"
            },
            "properties": {
                "is_installed": true,
                "is_renting": true,
                "is_returning": true,
                "is_virtual_station": false,
                "last_reported": 1789133834,
                "name": "Berliner Platz StadtLastenRad",
                "num_bikes_available": 1,
                "num_docks_available": 0,
                "region_id": "133",
                "rental_uris": {
                    "android": "https://app.nextbike.net/station?id=50419",
                    "ios": "https://app.nextbike.net/station?id=50419",
                    "web": "https://nxtb.it/p/50419"
                },
                "short_name": "7501",
                "station_id": "50419",
                "vehicle_types_available": [
                    {
                        "count": 1,
                        "vehicle_type_id": "318"
                    }
                ]
            },
            "type": "Feature"
        },
        {
            "geometry": {
                "coordinates": [
                    7.005667,
                    51.438193
                ],
                "type": "Point"
            },
            "properties": {
                "is_installed": true,
                "is_renting": true,
                "is_returning": true,
                "is_virtual_station": false,
                "last_reported": 1789133834,
                "name": "R\u00fcttenscheider Stern StadtLastenRad",
                "num_bikes_available": 1,
                "num_docks_available": 0,
                "region_id": "133",
                "rental_uris": {
                    "android": "https://app.nextbike.net/station?id=50425",
                    "ios": "https://app.nextbike.net/station?id=50425",
                    "web": "https://nxtb.it/p/50425"
                },
                "short_name": "7528",
                "station_id": "50425",
                "vehicle_types_available": [
                    {
                        "count": 1,
                        "vehicle_type_id": "318"
                    }
                ]
            },
            "type": "Feature"
        },
        {
            "geometry": {
                "coordinates": [
                    6.958525,
                    51.419958
                ],
                "type": "Point"
            },
            "properties": {
                "is_installed": true,
                "is_renting": true,
                "is_returning": true,
                "is_virtual_station": false,
                "last_reported": 1789133834,
                "name": " Haarzopf/Erbach StadtLastenRad",
                "num_bikes_available": 1,
                "num_docks_available": 0,
                "region_id": "133",
                "rental_uris": {
                    "android": "https://app.nextbike.net/station?id=555065328",
                    "ios": "https://app.nextbike.net/station?id=555065328",
                    "web": "https://nxtb.it/p/555065328"
                },
                "short_name": "71081",
                "station_id": "555065328",
                "vehicle_types_available": [
                    {
                        "count": 1,
                        "vehicle_type_id": "318"
                    }
                ]
            },
            "type": "Feature"
        },
        {
            "geometry": {
                "coordinates": [
                    7.04529,
                    51.467618
                ],
                "type": "Point"
            },
            "properties": {
                "is_installed": true,
                "is_renting": true,
                "is_returning": true,
                "is_virtual_station": false,
                "last_reported": 1789133834,
                "name": "Ernestinenstr. StadtLastenRad",
                "num_bikes_available": 0,
                "num_docks_available": 0,
                "region_id": "133",
                "rental_uris": {
                    "android": "https://app.nextbike.net/station?id=607620114",
                    "ios": "https://app.nextbike.net/station?id=607620114",
                    "web": "https://nxtb.it/p/607620114"
                },
                "short_name": "71076",
                "station_id": "607620114",
                "vehicle_types_available": []
            },
            "type": "Feature"
        }
    ],
    "gbfs": {
        "station_information": {
            "last_updated": 1789133834,
            "ttl": 60,
            "version": "2.3"
        },
        "station_status": {
            "last_updated": 1789133834,
            "ttl": 60,
            "version": "2.3"
        }
    },
    "type": "FeatureCollection"
}