{
    "features": [
        {
            "geometry": {
                "coordinates": [
                    14.506542,
                    46.051367
                ],
                "type": "Point"
            },
            "properties": {
                "address": "Pre\u0161ernov trg 6",
                "available_bike_stands": 7,
                "available_bikes": 13,
                "banking": false,
                "bike_stands": 20,
                "bonus": false,
                "contract_name": "ljubljana",
                "last_update": 1789326614000,
                "name": "PRE\u0160ERNOV TRG-PETKOV\u0160KOVO NABRE\u017dJE",
                "number": 1,
                "status": "OPEN"
            },
            "type": "Feature"
        },
        {
            "geometry": {
                "coordinates": [
                    14.507186,
                    46.051093
                ],
                "type": "Point"
            },
            "properties": {
                "address": "Poga\u010darjev trg 3",
                "available_bike_stands": 1,
                "available_bikes": 16,
                "banking": false,
                "bike_stands": 18,
                "bonus": false,
                "contract_name": "ljubljana",
                "last_update": 1789326469000,
                "name": "POGA\u010cARJEV TRG-TR\u017dNICA",
                "number": 2,
                "status": "OPEN"
            },
            "type": "Feature"
        },
        {
            "geometry": {
                "coordinates": [
                    14.504623,
                    46.050388
                ],
                "type": "Point"
            },
            "properties": {
                "address": "Kongresni trg 3",
                "available_bike_stands": 16,
                "available_bikes": 3,
                "banking": false,
                "bike_stands": 20,
                "bonus": false,
                "contract_name": "ljubljana",
                "last_update": 1789326730000,
                "name": "KONGRESNI TRG-\u0160UBI\u010cEVA ULICA",
                "number": 3,
                "status": "OPEN"
            },
            "type": "Feature"
        },
        {
            "geometry": {
                "coordinates": [
                    14.503257,
                    46.052431
                ],
                "type": "Point"
            },
            "properties": {
                "address": "Cankarjeva cesta 1",
                "available_bike_stands": 25,
                "available_bikes": 1,
                "banking": false,
                "bike_stands": 26,
                "bonus": false,
                "contract_name": "ljubljana",
                "last_update": 1789326741000,
                "name": "CANKARJEVA UL.-NAMA",
                "number": 4,
                "status": "OPEN"
            },
            "type": "Feature"
        },
        {
            "geometry": {
                "coordinates": [
                    14.505148,
                    46.046498
                ],
                "type": "Point"
            },
            "properties": {
                "address": "Breg 20",
                "available_bike_stands": 8,
                "available_bikes": 12,
                "banking": false,
                "bike_stands": 20,
                "bonus": false,
                "contract_name": "ljubljana",
                "last_update": 1789326406000,
                "name": "BREG",
                "number": 5,
                "status": "OPEN"
            },
            "type": "Feature"
        },
        {
            "geometry": {
                "coordinates": [
                    14.506196,
                    46.045748
                ],
                "type": "Point"
            },
            "properties": {
                "address": "Grudnovo nabre\u017eje 3",
                "available_bike_stands": 12,
                "available_bikes": 6,
                "banking": false,
                "bike_stands": 18,
                "bonus": false,
                "contract_name": "ljubljana",
                "last_update": 1789326450000,
                "name": "GRUDNOVO NABRE\u017dJE-KARLOV\u0160KA C.",
                "number": 6,
                "status": "OPEN"
            },
            "type": "Feature"
        },
        {
            "geometry": {
                "coordinates": [
                    14.50706,
                    46.054168
                ],
                "type": "Point"
            },
            "properties": {
                "address": "Miklo\u0161i\u010deva cesta 20",
                "available_bike_stands": 14,
                "available_bikes": 4,
                "banking": false,
                "bike_stands": 18,
                "bonus": false,
                "contract_name": "ljubljana",
                "last_update": 1789326428000,
                "name": "MIKLO\u0160I\u010cEV PARK",
                "number": 7,
                "status": "OPEN"
            },
            "type": "Feature"
        },
        {
            "geometry": {
                "coordinates": [
                    14.50551,
                    46.05682
                ],
                "type": "Point"
            },
            "properties": {
                "address": "Slovenska cesta 55c",
                "available_bike_stands": 19,
                "available_bikes": 1,
                "banking": false,
                "bike_stands": 20,
                "bonus": false,
                "contract_name": "ljubljana",
                "last_update": 1789326633000,
                "name": "BAVARSKI DVOR",
                "number": 8,
                "status": "OPEN"
            },
            "type": "Feature"
        },
        {
            "geometry": {
                "coordinates": [
                    14.510265,
                    46.057421
                ],
                "type": "Point"
            },
            "properties": {
                "address": "Trg OF 12",
                "available_bike_stands": 18,
                "available_bikes": 0,
                "banking": false,
                "bike_stands": 26,
                "bonus": false,
                "contract_name": "ljubljana",
                "last_update": 1789326478000,
                "name": "TRG OF-KOLODVORSKA UL.",
                "number": 9,
                "status": "OPEN"
            },
            "type": "Feature"
        },
        {
            "geometry": {
                "coordinates": [
                    14.514264,
                    46.05763
                ],
                "type": "Point"
            },
            "properties": {
                "address": "Masarykova cesta 14",
                "available_bike_stands": 17,
                "available_bikes": 0,
                "banking": false,
                "bike_stands": 18,
                "bonus": false,
                "contract_name": "ljubljana",
                "last_update": 1789326462000,
                "name": "MASARYKOVA DDC",
                "number": 10,
                "status": "OPEN"
            },
            "type": "Feature"
        },
        {
            "geometry": {
                "coordinates": [
                    14.51302,
                    46.06005
                ],
                "type": "Point"
            },
            "properties": {
                "address": "Vilharjeva cesta 23",
                "available_bike_stands": 20,
                "available_bikes": 0,
                "banking": false,
                "bike_stands": 20,
                "bonus": false,
                "contract_name": "ljubljana",
                "last_update": 1789326456000,
                "name": "VILHARJEVA CESTA",
                "number": 11,
                "status": "OPEN"
            },
            "type": "Feature"
        },
        {
            "geometry": {
                "coordinates": [
                    14.51315,
                    46.06361
                ],
                "type": "Point"
            },
            "properties": {
                "address": "\u017delezna cesta 18",
                "available_bike_stands": 20,
                "available_bikes": 0,
                "banking": false,
                "bike_stands": 20,
                "bonus": false,
                "contract_name": "ljubljana",
                "last_update": 1789326417000,
                "name": "PARK NAVJE-\u017dELEZNA CESTA",
                "number": 12,
                "status": "OPEN"
            },
            "type": "Feature"
        },
        {
            "geometry": {
                "coordinates": [
                    14.495687,
                    46.047565
                ],
                "type": "Point"
            },
            "properties": {
                "address": "Trg MDB 9",
                "available_bike_stands": 17,
                "available_bikes": 3,
                "banking": false,
                "bike_stands": 20,
                "bonus": false,
                "contract_name": "ljubljana",
                "last_update": 1789326546000,
                "name": "TRG MDB",
                "number": 13,
                "status": "OPEN"
            },
            "type": "Feature"
        },
        {
            "geometry": {
                "coordinates": [
                    14.501256,
                    46.046377
                ],
                "type": "Point"
            },
            "properties": {
                "address": "Zoisova cesta 2",
                "available_bike_stands": 17,
                "available_bikes": 3,
                "banking": false,
                "bike_stands": 20,
                "bonus": false,
                "contract_name": "ljubljana",
                "last_update": 1789326674000,
                "name": "PARKIRI\u0160\u010cE NUK 2-FF",
                "number": 14,
                "status": "OPEN"
            },
            "type": "Feature"
        },
        {
            "geometry": {
                "coordinates": [
                    14.516308,
                    46.049877
                ],
                "type": "Point"
            },
            "properties": {
                "address": "Poljanska cesta 20c",
                "available_bike_stands": 13,
                "available_bikes": 5,
                "banking": false,
                "bike_stands": 18,
                "bonus": false,
                "contract_name": "ljubljana",
                "last_update": 1789326508000,
                "name": "AMBRO\u017dEV TRG",
                "number": 15,
                "status": "OPEN"
            },
            "type": "Feature"
        },
        {
            "geometry": {
                "coordinates": [
                    14.51928,
                    46.05257
                ],
                "type": "Point"
            },
            "properties": {
                "address": "Zalo\u0161ka cesta 1",
                "available_bike_stands": 19,
                "available_bikes": 5,
                "banking": false,
                "bike_stands": 24,
                "bonus": false,
                "contract_name": "ljubljana",
                "last_update": 1789326410000,
                "name": "GH \u0160ENTPETER-NJEGO\u0160EVA C.",
                "number": 16,
                "status": "OPEN"
            },
            "type": "Feature"
        },
        {
            "geometry": {
                "coordinates": [
                    14.513479,
                    46.053144
                ],
                "type": "Point"
            },
            "properties": {
                "address": "Ilirska ulica 1",
                "available_bike_stands": 11,
                "available_bikes": 7,
                "banking": false,
                "bike_stands": 18,
                "bonus": false,
                "contract_name": "ljubljana",
                "last_update": 1789326466000,
                "name": "ILIRSKA ULICA",
                "number": 17,
                "status": "OPEN"
            },
            "type": "Feature"
        },
        {
            "geometry": {
                "coordinates": [
                    14.486699,
                    46.044629
                ],
                "type": "Point"
            },
            "properties": {
                "address": "Tr\u017ea\u0161ka cesta 37",
                "available_bike_stands": 15,
                "available_bikes": 5,
                "banking": false,
                "bike_stands": 20,
                "bonus": false,
                "contract_name": "ljubljana",
                "last_update": 1789326442000,
                "name": "TR\u017dA\u0160KA C.-ILIRIJA",
                "number": 18,
                "status": "OPEN"
            },
            "type": "Feature"
        },
        {
            "geometry": {
                "coordinates": [
                    14.4982,
                    46.05952
                ],
                "type": "Point"
            },
            "properties": {
                "address": "Celov\u0161ka cesta 26",
                "available_bike_stands": 19,
                "available_bikes": 0,
                "banking": false,
                "bike_stands": 20,
                "bonus": false,
                "contract_name": "ljubljana",
                "last_update": 1789326537000,
                "name": "TIVOLI",
                "number": 19,
                "status": "OPEN"
            },
            "type": "Feature"
        },
        {
            "geometry": {
                "coordinates": [
                    14.494588,
                    46.06342
                ],
                "type": "Point"
            },
            "properties": {
                "address": "Celov\u0161ka cesta 69",
                "available_bike_stands": 7,
                "available_bikes": 7,
                "banking": false,
                "bike_stands": 14,
                "bonus": false,
                "contract_name": "ljubljana",
                "last_update": 1789326436000,
                "name": "STARA CERKEV",
                "number": 20,
                "status": "OPEN"
            },
            "type": "Feature"
        },
        {
            "geometry": {
                "coordinates": [
                    14.48971,
                    46.06928
                ],
                "type": "Point"
            },
            "properties": {
                "address": "Celov\u0161ka cesta 111c",
                "available_bike_stands": 22,
                "available_bikes": 3,
                "banking": false,
                "bike_stands": 26,
                "bonus": false,
                "contract_name": "ljubljana",
                "last_update": 1789326491000,
                "name": "KINO \u0160I\u0160KA",
                "number": 21,
                "status": "OPEN"
            },
            "type": "Feature"
        },
        {
            "geometry": {
                "coordinates": [
                    14.512044,
                    46.040213
                ],
                "type": "Point"
            },
            "properties": {
                "address": "Prule 8",
                "available_bike_stands": 14,
                "available_bikes": 4,
                "banking": false,
                "bike_stands": 18,
                "bonus": false,
                "contract_name": "ljubljana",
                "last_update": 1789326458000,
                "name": "\u0160PICA",
                "number": 22,
                "status": "OPEN"
            },
            "type": "Feature"
        },
        {
            "geometry": {
                "coordinates": [
                    14.49951,
                    46.04081
                ],
                "type": "Point"
            },
            "properties": {
                "address": "Devinska ulica 1a",
                "available_bike_stands": 10,
                "available_bikes": 10,
                "banking": false,
                "bike_stands": 20,
                "bonus": false,
                "contract_name": "ljubljana",
                "last_update": 1789326794000,
                "name": "BARJANSKA C.-CENTER STAREJ\u0160IH TRNOVO",
                "number": 23,
                "status": "OPEN"
            },
            "type": "Feature"
        },
        {
            "geometry": {
                "coordinates": [
                    14.52978,
                    46.05441
                ],
                "type": "Point"
            },
            "properties": {
                "address": "Zalo\u0161ka cesta 16",
                "available_bike_stands": 13,
                "available_bikes": 3,
                "banking": false,
                "bike_stands": 16,
                "bonus": false,
                "contract_name": "ljubljana",
                "last_update": 1789326652000,
                "name": "ZALO\u0160KA C.-GRABLOVI\u010cEVA C.",
                "number": 24,
                "status": "OPEN"
            },
            "type": "Feature"
        },
        {
            "geometry": {
                "coordinates": [
                    14.534156,
                    46.055801
                ],
                "type": "Point"
            },
            "properties": {
                "address": "Zalo\u0161ka cesta 54",
                "available_bike_stands": 0,
                "available_bikes": 21,
                "banking": false,
                "bike_stands": 21,
                "bonus": false,
                "contract_name": "ljubljana",
                "last_update": 1789326405000,
                "name": "TR\u017dNICA MOSTE",
                "number": 25,
                "status": "OPEN"
            },
            "type": "Feature"
        },
        {
            "geometry": {
                "coordinates": [
                    14.49273,
                    46.051439
                ],
                "type": "Point"
            },
            "properties": {
                "address": "\u0160krab\u010deva ulica 2",
                "available_bike_stands": 10,
                "available_bikes": 8,
                "banking": false,
                "bike_stands": 18,
                "bonus": false,
                "contract_name": "ljubljana",
                "last_update": 1789326439000,
                "name": "RO\u017dNA DOLINA-\u0160KRAB\u010cEVA UL.",
                "number": 26,
                "status": "OPEN"
            },
            "type": "Feature"
        },
        {
            "geometry": {
                "coordinates": [
                    14.509112,
                    46.065136
                ],
                "type": "Point"
            },
            "properties": {
                "address": "Dunajska cesta 50",
                "available_bike_stands": 20,
                "available_bikes": 0,
                "banking": false,
                "bike_stands": 20,
                "bonus": false,
                "contract_name": "ljubljana",
                "last_update": 1789326666000,
                "name": "DUNAJSKA C.-PS PETROL",
                "number": 27,
                "status": "OPEN"
            },
            "type": "Feature"
        },
        {
            "geometry": {
                "coordinates": [
                    14.51052,
                    46.06942
                ],
                "type": "Point"
            },
            "properties": {
                "address": "Dunajska cesta 70",
                "available_bike_stands": 15,
                "available_bikes": 3,
                "banking": false,
                "bike_stands": 18,
                "bonus": false,
                "contract_name": "ljubljana",
                "last_update": 1789326403000,
                "name": "PLE\u010cNIKOV STADION",
                "number": 28,
                "status": "OPEN"
            },
            "type": "Feature"
        },
        {
            "geometry": {
                "coordinates": [
                    14.511134,
                    46.074193
                ],
                "type": "Point"
            },
            "properties": {
                "address": "Dunajska cesta 105",
                "available_bike_stands": 7,
                "available_bikes": 11,
                "banking": false,
                "bike_stands": 18,
                "bonus": false,
                "contract_name": "ljubljana",
                "last_update": 1789326458000,
                "name": "DUNAJSKA C.-PS MERCATOR",
                "number": 29,
                "status": "OPEN"
            },
            "type": "Feature"
        },
        {
            "geometry": {
                "coordinates": [
                    14.52011,
                    46.07589
                ],
                "type": "Point"
            },
            "properties": {
                "address": "",
                "available_bike_stands": 12,
                "available_bikes": 7,
                "banking": false,
                "bike_stands": 20,
                "bonus": false,
                "contract_name": "ljubljana",
                "last_update": 1789326416000,
                "name": "LIDL - VOJKOVA CESTA",
                "number": 30,
                "status": "OPEN"
            },
            "type": "Feature"
        },
        {
            "geometry": {
                "coordinates": [
                    14.52016,
                    46.08259
                ],
                "type": "Point"
            },
            "properties": {
                "address": "Vojkova cesta 91",
                "available_bike_stands": 10,
                "available_bikes": 16,
                "banking": false,
                "bike_stands": 26,
                "bonus": false,
                "contract_name": "ljubljana",
                "last_update": 1789326428000,
                "name": "\u0160PORTNI CENTER STO\u017dICE",
                "number": 31,
                "status": "OPEN"
            },
            "type": "Feature"
        },
        {
            "geometry": {
                "coordinates": [
                    14.482468,
                    46.033408
                ],
                "type": "Point"
            },
            "properties": {
                "address": "Koprska ulica 98",
                "available_bike_stands": 4,
                "available_bikes": 4,
                "banking": false,
                "bike_stands": 8,
                "bonus": false,
                "contract_name": "ljubljana",
                "last_update": 1789326577000,
                "name": "KOPRSKA ULICA",
                "number": 32,
                "status": "OPEN"
            },
            "type": "Feature"
        },
        {
            "geometry": {
                "coordinates": [
                    14.475439,
                    46.087079
                ],
                "type": "Point"
            },
            "properties": {
                "address": "Cesta Ljubljanske brigade 33",
                "available_bike_stands": 2,
                "available_bikes": 20,
                "banking": false,
                "bike_stands": 22,
                "bonus": false,
                "contract_name": "ljubljana",
                "last_update": 1789326389000,
                "name": "MERCATOR CENTER \u0160I\u0160KA",
                "number": 33,
                "status": "OPEN"
            },
            "type": "Feature"
        },
        {
            "geometry": {
                "coordinates": [
                    14.546257,
                    46.068805
                ],
                "type": "Point"
            },
            "properties": {
                "address": "Citypark - \u0160martinska 152 g",
                "available_bike_stands": 5,
                "available_bikes": 15,
                "banking": false,
                "bike_stands": 20,
                "bonus": false,
                "contract_name": "ljubljana",
                "last_update": 1789326327000,
                "name": "CITYPARK",
                "number": 34,
                "status": "OPEN"
            },
            "type": "Feature"
        },
        {
            "geometry": {
                "coordinates": [
                    14.543996,
                    46.065297
                ],
                "type": "Point"
            },
            "properties": {
                "address": "BTC City/Dvorana A",
                "available_bike_stands": 15,
                "available_bikes": 5,
                "banking": false,
                "bike_stands": 20,
                "bonus": false,
                "contract_name": "ljubljana",
                "last_update": 1789326371000,
                "name": "BTC CITY/DVORANA A",
                "number": 35,
                "status": "OPEN"
            },
            "type": "Feature"
        },
        {
            "geometry": {
                "coordinates": [
                    14.547851,
                    46.063081
                ],
                "type": "Point"
            },
            "properties": {
                "address": "BTC City Atlantis",
                "available_bike_stands": 12,
                "available_bikes": 8,
                "banking": false,
                "bike_stands": 20,
                "bonus": false,
                "contract_name": "ljubljana",
                "last_update": 1789326368000,
                "name": "BTC CITY ATLANTIS",
                "number": 36,
                "status": "OPEN"
            },
            "type": "Feature"
        },
        {
            "geometry": {
                "coordinates": [
                    14.50001,
                    46.03784
                ],
                "type": "Point"
            },
            "properties": {
                "address": "TRNOVO",
                "available_bike_stands": 1,
                "available_bikes": 0,
                "banking": false,
                "bike_stands": 20,
                "bonus": false,
                "contract_name": "ljubljana",
                "last_update": 1789326796000,
                "name": "TRNOVO",
                "number": 37,
                "status": "OPEN"
            },
            "type": "Feature"
        },
        {
            "geometry": {
                "coordinates": [
                    14.465229,
                    46.037003
                ],
                "type": "Point"
            },
            "properties": {
                "address": "P+R Dolgi most",
                "available_bike_stands": 3,
                "available_bikes": 16,
                "banking": false,
                "bike_stands": 20,
                "bonus": false,
                "contract_name": "ljubljana",
                "last_update": 1789326582000,
                "name": "P + R DOLGI MOST",
                "number": 39,
                "status": "OPEN"
            },
            "type": "Feature"
        },
        {
            "geometry": {
                "coordinates": [
                    14.472664,
                    46.039641
                ],
                "type": "Point"
            },
            "properties": {
                "address": "Tr\u017ea\u0161ka 123",
                "available_bike_stands": 9,
                "available_bikes": 12,
                "banking": false,
                "bike_stands": 21,
                "bonus": false,
                "contract_name": "ljubljana",
                "last_update": 1789326391000,
                "name": "BONIFACIJA",
                "number": 40,
                "status": "OPEN"
            },
            "type": "Feature"
        },
        {
            "geometry": {
                "coordinates": [
                    14.477016,
                    46.041753
                ],
                "type": "Point"
            },
            "properties": {
                "address": "Tr\u017ea\u0161ka 91",
                "available_bike_stands": 6,
                "available_bikes": 14,
                "banking": false,
                "bike_stands": 20,
                "bonus": false,
                "contract_name": "ljubljana",
                "last_update": 1789326390000,
                "name": "ANTONOV TRG",
                "number": 41,
                "status": "OPEN"
            },
            "type": "Feature"
        },
        {
            "geometry": {
                "coordinates": [
                    14.513751,
                    46.08929
                ],
                "type": "Point"
            },
            "properties": {
                "address": "Dunajska 211",
                "available_bike_stands": 7,
                "available_bikes": 12,
                "banking": false,
                "bike_stands": 20,
                "bonus": false,
                "contract_name": "ljubljana",
                "last_update": 1789326786000,
                "name": "BRATOV\u0160EVA PLO\u0160\u010cAD",
                "number": 42,
                "status": "OPEN"
            },
            "type": "Feature"
        },
        {
            "geometry": {
                "coordinates": [
                    14.514151,
                    46.086761
                ],
                "type": "Point"
            },
            "properties": {
                "address": "Dunajska 186",
                "available_bike_stands": 0,
                "available_bikes": 20,
                "banking": false,
                "bike_stands": 20,
                "bonus": false,
                "contract_name": "ljubljana",
                "last_update": 1789326368000,
                "name": "BS4-STO\u017dICE",
                "number": 43,
                "status": "OPEN"
            },
            "type": "Feature"
        },
        {
            "geometry": {
                "coordinates": [
                    14.518013,
                    46.064546
                ],
                "type": "Point"
            },
            "properties": {
                "address": "Topni\u0161ka 54",
                "available_bike_stands": 7,
                "available_bikes": 13,
                "banking": false,
                "bike_stands": 20,
                "bonus": false,
                "contract_name": "ljubljana",
                "last_update": 1789326595000,
                "name": "SAVSKO NASELJE 2-LINHARTOVA CESTA",
                "number": 44,
                "status": "OPEN"
            },
            "type": "Feature"
        },
        {
            "geometry": {
                "coordinates": [
                    14.524321,
                    46.062475
                ],
                "type": "Point"
            },
            "properties": {
                "address": "Savska cesta 1",
                "available_bike_stands": 14,
                "available_bikes": 6,
                "banking": false,
                "bike_stands": 20,
                "bonus": false,
                "contract_name": "ljubljana",
                "last_update": 1789326418000,
                "name": "SAVSKO NASELJE 1-\u0160MARTINSKA CESTA",
                "number": 45,
                "status": "OPEN"
            },
            "type": "Feature"
        },
        {
            "geometry": {
                "coordinates": [
                    14.52051,
                    46.059433
                ],
                "type": "Point"
            },
            "properties": {
                "address": "Vilharjeva cesta 44",
                "available_bike_stands": 9,
                "available_bikes": 11,
                "banking": false,
                "bike_stands": 20,
                "bonus": false,
                "contract_name": "ljubljana",
                "last_update": 1789326577000,
                "name": "SITULA",
                "number": 46,
                "status": "OPEN"
            },
            "type": "Feature"
        },
        {
            "geometry": {
                "coordinates": [
                    14.545125,
                    46.053047
                ],
                "type": "Point"
            },
            "properties": {
                "address": "Jak\u010deva ulica 37",
                "available_bike_stands": 3,
                "available_bikes": 16,
                "banking": false,
                "bike_stands": 19,
                "bonus": false,
                "contract_name": "ljubljana",
                "last_update": 1789326404000,
                "name": "\u0160TEPANJSKO NASELJE 1-JAK\u010cEVA ULICA",
                "number": 47,
                "status": "OPEN"
            },
            "type": "Feature"
        },
        {
            "geometry": {
                "coordinates": [
                    14.540901,
                    46.056405
                ],
                "type": "Point"
            },
            "properties": {
                "address": "Kajuhova ulica 42",
                "available_bike_stands": 1,
                "available_bikes": 19,
                "banking": false,
                "bike_stands": 20,
                "bonus": false,
                "contract_name": "ljubljana",
                "last_update": 1789326382000,
                "name": "HOFER-KAJUHOVA",
                "number": 48,
                "status": "OPEN"
            },
            "type": "Feature"
        },
        {
            "geometry": {
                "coordinates": [
                    14.553319,
                    46.054398
                ],
                "type": "Point"
            },
            "properties": {
                "address": "Nove Fuzine 8",
                "available_bike_stands": 0,
                "available_bikes": 20,
                "banking": false,
                "bike_stands": 20,
                "bonus": false,
                "contract_name": "ljubljana",
                "last_update": 1789326395000,
                "name": "BRODARJEV TRG",
                "number": 49,
                "status": "OPEN"
            },
            "type": "Feature"
        },
        {
            "geometry": {
                "coordinates": [
                    14.55908,
                    46.054554
                ],
                "type": "Point"
            },
            "properties": {
                "address": "Nove Fuzine 33",
                "available_bike_stands": 0,
                "available_bikes": 20,
                "banking": false,
                "bike_stands": 20,
                "bonus": false,
                "contract_name": "ljubljana",
                "last_update": 1789326396000,
                "name": "PREGLOV TRG",
                "number": 50,
                "status": "OPEN"
            },
            "type": "Feature"
        },
        {
            "geometry": {
                "coordinates": [
                    14.547416,
                    46.047689
                ],
                "type": "Point"
            },
            "properties": {
                "address": "Litijska cesta 53",
                "available_bike_stands": 1,
                "available_bikes": 19,
                "banking": false,
                "bike_stands": 20,
                "bonus": false,
                "contract_name": "ljubljana",
                "last_update": 1789326380000,
                "name": "LIDL-LITIJSKA CESTA",
                "number": 51,
                "status": "OPEN"
            },
            "type": "Feature"
        },
        {
            "geometry": {
                "coordinates": [
                    14.472149,
                    46.052454
                ],
                "type": "Point"
            },
            "properties": {
                "address": "Ve\u010dna pot 70",
                "available_bike_stands": 19,
                "available_bikes": 1,
                "banking": false,
                "bike_stands": 20,
                "bonus": false,
                "contract_name": "ljubljana",
                "last_update": 1789326486000,
                "name": "\u017dIVALSKI VRT",
                "number": 52,
                "status": "OPEN"
            },
            "type": "Feature"
        },
        {
            "geometry": {
                "coordinates": [
                    14.486206,
                    46.053241
                ],
                "type": "Point"
            },
            "properties": {
                "address": "Cesta na Ro\u017enik 1",
                "available_bike_stands": 20,
                "available_bikes": 0,
                "banking": false,
                "bike_stands": 20,
                "bonus": false,
                "contract_name": "ljubljana",
                "last_update": 1789326518000,
                "name": "CESTA NA RO\u017dNIK",
                "number": 53,
                "status": "OPEN"
            },
            "type": "Feature"
        },
        {
            "geometry": {
                "coordinates": [
                    14.529911,
                    46.065206
                ],
                "type": "Point"
            },
            "properties": {
                "address": "Smartinska cesta 58",
                "available_bike_stands": 6,
                "available_bikes": 14,
                "banking": false,
                "bike_stands": 20,
                "bonus": false,
                "contract_name": "ljubljana",
                "last_update": 1789326466000,
                "name": "\u0160MARTINSKI PARK",
                "number": 54,
                "status": "OPEN"
            },
            "type": "Feature"
        },
        {
            "geometry": {
                "coordinates": [
                    14.522709,
                    46.048982
                ],
                "type": "Point"
            },
            "properties": {
                "address": "Poljanska cesta 50",
                "available_bike_stands": 5,
                "available_bikes": 14,
                "banking": false,
                "bike_stands": 20,
                "bonus": false,
                "contract_name": "ljubljana",
                "last_update": 1789326420000,
                "name": "POLJANSKA-POTO\u010cNIKOVA",
                "number": 55,
                "status": "OPEN"
            },
            "type": "Feature"
        },
        {
            "geometry": {
                "coordinates": [
                    14.491439,
                    46.080522
                ],
                "type": "Point"
            },
            "properties": {
                "address": "Litostrojska cesta 53",
                "available_bike_stands": 9,
                "available_bikes": 11,
                "banking": false,
                "bike_stands": 20,
                "bonus": false,
                "contract_name": "ljubljana",
                "last_update": 1789326673000,
                "name": "SREDNJA FRIZERSKA \u0160OLA",
                "number": 56,
                "status": "OPEN"
            },
            "type": "Feature"
        },
        {
            "geometry": {
                "coordinates": [
                    14.530349,
                    46.051863
                ],
                "type": "Point"
            },
            "properties": {
                "address": "Grabloviceva ulica 60",
                "available_bike_stands": 0,
                "available_bikes": 19,
                "banking": false,
                "bike_stands": 19,
                "bonus": false,
                "contract_name": "ljubljana",
                "last_update": 1789326645000,
                "name": "POV\u0160ETOVA-GRABLOVI\u010cEVA",
                "number": 57,
                "status": "OPEN"
            },
            "type": "Feature"
        },
        {
            "geometry": {
                "coordinates": [
                    14.475483,
                    46.074315
                ],
                "type": "Point"
            },
            "properties": {
                "address": "Vodnikova cesta 187",
                "available_bike_stands": 11,
                "available_bikes": 7,
                "banking": false,
                "bike_stands": 18,
                "bonus": false,
                "contract_name": "ljubljana",
                "last_update": 1789326406000,
                "name": "TR\u017dNICA KOSEZE",
                "number": 58,
                "status": "OPEN"
            },
            "type": "Feature"
        },
        {
            "geometry": {
                "coordinates": [
                    14.506854,
                    46.063797
                ],
                "type": "Point"
            },
            "properties": {
                "address": "Be\u017eigrad 11",
                "available_bike_stands": 13,
                "available_bikes": 7,
                "banking": false,
                "bike_stands": 20,
                "bonus": false,
                "contract_name": "ljubljana",
                "last_update": 1789326482000,
                "name": "LIDL BE\u017dIGRAD",
                "number": 59,
                "status": "OPEN"
            },
            "type": "Feature"
        },
        {
            "geometry": {
                "coordinates": [
                    14.485942,
                    46.073264
                ],
                "type": "Point"
            },
            "properties": {
                "address": "Celov\u0161ka 163",
                "available_bike_stands": 13,
                "available_bikes": 7,
                "banking": false,
                "bike_stands": 20,
                "bonus": false,
                "contract_name": "ljubljana",
                "last_update": 1789326673000,
                "name": "MERCATOR MARKET - CELOV\u0160KA C. 163",
                "number": 60,
                "status": "OPEN"
            },
            "type": "Feature"
        },
        {
            "geometry": {
                "coordinates": [
                    14.522948,
                    46.036284
                ],
                "type": "Point"
            },
            "properties": {
                "address": "Rakovnik",
                "available_bike_stands": 14,
                "available_bikes": 6,
                "banking": false,
                "bike_stands": 20,
                "bonus": false,
                "contract_name": "ljubljana",
                "last_update": 1789326761000,
                "name": "RAKOVNIK",
                "number": 61,
                "status": "OPEN"
            },
            "type": "Feature"
        },
        {
            "geometry": {
                "coordinates": [
                    14.482581,
                    46.077302
                ],
                "type": "Point"
            },
            "properties": {
                "address": "Aleja - Celov\u0161ka Cesta",
                "available_bike_stands": 8,
                "available_bikes": 12,
                "banking": false,
                "bike_stands": 20,
                "bonus": false,
                "contract_name": "ljubljana",
                "last_update": 1789326436000,
                "name": "ALEJA - CELOV\u0160KA CESTA",
                "number": 62,
                "status": "OPEN"
            },
            "type": "Feature"
        },
        {
            "geometry": {
                "coordinates": [
                    14.53833,
                    46.06488
                ],
                "type": "Point"
            },
            "properties": {
                "address": "\u0160vedska ulica 6",
                "available_bike_stands": 11,
                "available_bikes": 9,
                "banking": false,
                "bike_stands": 20,
                "bonus": false,
                "contract_name": "ljubljana",
                "last_update": 1789326367000,
                "name": "IKEA",
                "number": 63,
                "status": "OPEN"
            },
            "type": "Feature"
        },
        {
            "geometry": {
                "coordinates": [
                    14.495239,
                    46.042867
                ],
                "type": "Point"
            },
            "properties": {
                "address": "Gunduli\u010deva ulica",
                "available_bike_stands": 14,
                "available_bikes": 6,
                "banking": false,
                "bike_stands": 20,
                "bonus": false,
                "contract_name": "ljubljana",
                "last_update": 1789326385000,
                "name": "KOPALI\u0160\u010cE KOLEZIJA",
                "number": 64,
                "status": "OPEN"
            },
            "type": "Feature"
        },
        {
            "geometry": {
                "coordinates": [
                    14.469037,
                    46.046189
                ],
                "type": "Point"
            },
            "properties": {
                "address": "Cesta na Brdo",
                "available_bike_stands": 15,
                "available_bikes": 4,
                "banking": false,
                "bike_stands": 20,
                "bonus": false,
                "contract_name": "ljubljana",
                "last_update": 1789326415000,
                "name": "VI\u0160KO POLJE",
                "number": 65,
                "status": "OPEN"
            },
            "type": "Feature"
        },
        {
            "geometry": {
                "coordinates": [
                    14.470913,
                    46.068443
                ],
                "type": "Point"
            },
            "properties": {
                "address": "Kose\u0161ka cesta",
                "available_bike_stands": 19,
                "available_bikes": 1,
                "banking": false,
                "bike_stands": 20,
                "bonus": false,
                "contract_name": "ljubljana",
                "last_update": 1789326432000,
                "name": "KOSE\u0160KI BAJER",
                "number": 66,
                "status": "OPEN"
            },
            "type": "Feature"
        },
        {
            "geometry": {
                "coordinates": [
                    14.479952,
                    46.07984
                ],
                "type": "Point"
            },
            "properties": {
                "address": "Celov\u0161ka cesta",
                "available_bike_stands": 4,
                "available_bikes": 16,
                "banking": false,
                "bike_stands": 20,
                "bonus": false,
                "contract_name": "ljubljana",
                "last_update": 1789326396000,
                "name": "DRAVLJE",
                "number": 67,
                "status": "OPEN"
            },
            "type": "Feature"
        },
        {
            "geometry": {
                "coordinates": [
                    14.530213,
                    46.102446
                ],
                "type": "Point"
            },
            "properties": {
                "address": "Dunajska cesta",
                "available_bike_stands": 5,
                "available_bikes": 15,
                "banking": false,
                "bike_stands": 20,
                "bonus": false,
                "contract_name": "ljubljana",
                "last_update": 1789326367000,
                "name": "\u010cRNU\u010cE",
                "number": 68,
                "status": "OPEN"
            },
            "type": "Feature"
        },
        {
            "geometry": {
                "coordinates": [
                    14.576031,
                    46.054615
                ],
                "type": "Point"
            },
            "properties": {
                "address": "Zalo\u0161ka cesta",
                "available_bike_stands": 0,
                "available_bikes": 20,
                "banking": false,
                "bike_stands": 20,
                "bonus": false,
                "contract_name": "ljubljana",
                "last_update": 1789326365000,
                "name": "STUDENEC",
                "number": 69,
                "status": "OPEN"
            },
            "type": "Feature"
        },
        {
            "geometry": {
                "coordinates": [
                    14.583537,
                    46.05722
                ],
                "type": "Point"
            },
            "properties": {
                "address": "Zadobrov\u0161ka cesta",
                "available_bike_stands": 1,
                "available_bikes": 19,
                "banking": false,
                "bike_stands": 20,
                "bonus": false,
                "contract_name": "ljubljana",
                "last_update": 1789326366000,
                "name": "POLJE",
                "number": 70,
                "status": "OPEN"
            },
            "type": "Feature"
        },
        {
            "geometry": {
                "coordinates": [
                    14.613797,
                    46.06043
                ],
                "type": "Point"
            },
            "properties": {
                "address": "Zalo\u0161ka cesta",
                "available_bike_stands": 0,
                "available_bikes": 20,
                "banking": false,
                "bike_stands": 20,
                "bonus": false,
                "contract_name": "ljubljana",
                "last_update": 1789326351000,
                "name": "ZALOG",
                "number": 71,
                "status": "OPEN"
            },
            "type": "Feature"
        },
        {
            "geometry": {
                "coordinates": [
                    14.532479,
                    46.020012
                ],
                "type": "Point"
            },
            "properties": {
                "address": "Betettova cesta",
                "available_bike_stands": 17,
                "available_bikes": 3,
                "banking": false,
                "bike_stands": 20,
                "bonus": false,
                "contract_name": "ljubljana",
                "last_update": 1789326360000,
                "name": "LIDL - RUDNIK",
                "number": 72,
                "status": "OPEN"
            },
            "type": "Feature"
        },
        {
            "geometry": {
                "coordinates": [
                    14.471637,
                    46.090608
                ],
                "type": "Point"
            },
            "properties": {
                "address": "Pru\u0161nikova ulica",
                "available_bike_stands": 3,
                "available_bikes": 17,
                "banking": false,
                "bike_stands": 20,
                "bonus": false,
                "contract_name": "ljubljana",
                "last_update": 1789326382000,
                "name": "PRU\u0160NIKOVA",
                "number": 73,
                "status": "OPEN"
            },
            "type": "Feature"
        },
        {
            "geometry": {
                "coordinates": [
                    14.539272,
                    46.051512
                ],
                "type": "Point"
            },
            "properties": {
                "address": "Pov\u0161etova - Kajuhova",
                "available_bike_stands": 3,
                "available_bikes": 17,
                "banking": false,
                "bike_stands": 20,
                "bonus": false,
                "contract_name": "ljubljana",
                "last_update": 1789326382000,
                "name": "POV\u0160ETOVA - KAJUHOVA",
                "number": 74,
                "status": "OPEN"
            },
            "type": "Feature"
        },
        {
            "geometry": {
                "coordinates": [
                    14.462281,
                    46.045617
                ],
                "type": "Point"
            },
            "properties": {
                "address": "Pot rde\u010dega kri\u017ea",
                "available_bike_stands": 8,
                "available_bikes": 12,
                "banking": false,
                "bike_stands": 20,
                "bonus": false,
                "contract_name": "ljubljana",
                "last_update": 1789326409000,
                "name": "SOSESKA NOVO BRDO",
                "number": 75,
                "status": "OPEN"
            },
            "type": "Feature"
        },
        {
            "geometry": {
                "coordinates": [
                    14.461086,
                    46.04843
                ],
                "type": "Point"
            },
            "properties": {
                "address": "Tehnolo\u0161ki park",
                "available_bike_stands": 14,
                "available_bikes": 6,
                "banking": false,
                "bike_stands": 20,
                "bonus": false,
                "contract_name": "ljubljana",
                "last_update": 1789326375000,
                "name": "TEHNOLO\u0160KI PARK",
                "number": 76,
                "status": "OPEN"
            },
            "type": "Feature"
        },
        {
            "geometry": {
                "coordinates": [
                    14.516858,
                    46.068727
                ],
                "type": "Point"
            },
            "properties": {
                "address": "Vojkova cesta",
                "available_bike_stands": 19,
                "available_bikes": 1,
                "banking": false,
                "bike_stands": 20,
                "bonus": false,
                "contract_name": "ljubljana",
                "last_update": 1789326417000,
                "name": "VOJKOVA - GASILSKA BRIGADA",
                "number": 77,
                "status": "OPEN"
            },
            "type": "Feature"
        },
        {
            "geometry": {
                "coordinates": [
                    14.485458,
                    46.039384
                ],
                "type": "Point"
            },
            "properties": {
                "address": "Gerbi\u010deva ulica 61",
                "available_bike_stands": 8,
                "available_bikes": 12,
                "banking": false,
                "bike_stands": 20,
                "bonus": false,
                "contract_name": "ljubljana",
                "last_update": 1789326588000,
                "name": "GERBI\u010cEVA - \u0160PORTNI PARK SVOBODA",
                "number": 78,
                "status": "OPEN"
            },
            "type": "Feature"
        },
        {
            "geometry": {
                "coordinates": [
                    14.517605,
                    46.038866
                ],
                "type": "Point"
            },
            "properties": {
                "address": "Dolenjska c. 11",
                "available_bike_stands": 6,
                "available_bikes": 14,
                "banking": false,
                "bike_stands": 20,
                "bonus": false,
                "contract_name": "ljubljana",
                "last_update": 1789326388000,
                "name": "DOLENJSKA C. - STRELI\u0160\u010cE",
                "number": 79,
                "status": "OPEN"
            },
            "type": "Feature"
        },
        {
            "geometry": {
                "coordinates": [
                    14.51846,
                    46.045
                ],
                "type": "Point"
            },
            "properties": {
                "address": "Ro\u0161ka cesta",
                "available_bike_stands": 6,
                "available_bikes": 14,
                "banking": false,
                "bike_stands": 20,
                "bonus": false,
                "contract_name": "ljubljana",
                "last_update": 1789326566000,
                "name": "RO\u0160KA - STRELI\u0160KA",
                "number": 80,
                "status": "OPEN"
            },
            "type": "Feature"
        },
        {
            "geometry": {
                "coordinates": [
                    14.500222,
                    46.076856
                ],
                "type": "Point"
            },
            "properties": {
                "address": "Verov\u0161kova 57",
                "available_bike_stands": 18,
                "available_bikes": 2,
                "banking": false,
                "bike_stands": 20,
                "bonus": false,
                "contract_name": "ljubljana",
                "last_update": 1789326357000,
                "name": "LEK - VEROV\u0160KOVA",
                "number": 81,
                "status": "OPEN"
            },
            "type": "Feature"
        },
        {
            "geometry": {
                "coordinates": [
                    14.504734,
                    46.075207
                ],
                "type": "Point"
            },
            "properties": {
                "address": "Vodovodna cesta 90",
                "available_bike_stands": 12,
                "available_bikes": 8,
                "banking": false,
                "bike_stands": 20,
                "bonus": false,
                "contract_name": "ljubljana",
                "last_update": 1789326393000,
                "name": "VOKA - SLOVEN\u010cEVA",
                "number": 82,
                "status": "OPEN"
            },
            "type": "Feature"
        },
        {
            "geometry": {
                "coordinates": [
                    14.536745,
                    46.021586
                ],
                "type": "Point"
            },
            "properties": {
                "address": "Jur\u010dkova 223",
                "available_bike_stands": 13,
                "available_bikes": 7,
                "banking": false,
                "bike_stands": 20,
                "bonus": false,
                "contract_name": "ljubljana",
                "last_update": 1789326359000,
                "name": "SUPERNOVA LJUBLJANA - RUDNIK",
                "number": 83,
                "status": "OPEN"
            },
            "type": "Feature"
        },
        {
            "geometry": {
                "coordinates": [
                    14.589284,
                    46.053718
                ],
                "type": "Point"
            },
            "properties": {
                "address": "Polje 51",
                "available_bike_stands": 1,
                "available_bikes": 19,
                "banking": false,
                "bike_stands": 20,
                "bonus": false,
                "contract_name": "ljubljana",
                "last_update": 1789326358000,
                "name": "HOFER - POLJE",
                "number": 84,
                "status": "OPEN"
            },
            "type": "Feature"
        },
        {
            "geometry": {
                "coordinates": [
                    14.541228,
                    46.069408
                ],
                "type": "Point"
            },
            "properties": {
                "address": "\u0160martinska cesta 147",
                "available_bike_stands": 3,
                "available_bikes": 17,
                "banking": false,
                "bike_stands": 20,
                "bonus": false,
                "contract_name": "ljubljana",
                "last_update": 1789326461000,
                "name": "MCDONALD'S - \u0160MARTINSKA",
                "number": 85,
                "status": "OPEN"
            },
            "type": "Feature"
        },
        {
            "geometry": {
                "coordinates": [
                    14.500927,
                    46.056404
                ],
                "type": "Point"
            },
            "properties": {
                "address": "Bleiweisova cesta 25",
                "available_bike_stands": 19,
                "available_bikes": 1,
                "banking": false,
                "bike_stands": 20,
                "bonus": false,
                "contract_name": "ljubljana",
                "last_update": 1789326465000,
                "name": "KOPALI\u0160\u010cE ILIRIJA",
                "number": 86,
                "status": "OPEN"
            },
            "type": "Feature"
        },
        {
            "geometry": {
                "coordinates": [
                    14.525238,
                    46.027403
                ],
                "type": "Point"
            },
            "properties": {
                "address": "Ulica Alojza Kajina 1",
                "available_bike_stands": 1,
                "available_bikes": 13,
                "banking": false,
                "bike_stands": 20,
                "bonus": false,
                "contract_name": "ljubljana",
                "last_update": 1789326245000,
                "name": "PRVA HI\u0160A - JUR\u010cKOVO NASELJE",
                "number": 87,
                "status": "OPEN"
            },
            "type": "Feature"
        },
        {
            "geometry": {
                "coordinates": [
                    14.475729,
                    46.038591
                ],
                "type": "Point"
            },
            "properties": {
                "address": "Jamova cesta 105",
                "available_bike_stands": 16,
                "available_bikes": 4,
                "banking": false,
                "bike_stands": 20,
                "bonus": false,
                "contract_name": "ljubljana",
                "last_update": 1789326379000,
                "name": "CENTER VI\u010c - TBILISIJSKA ULICA",
                "number": 88,
                "status": "OPEN"
            },
            "type": "Feature"
        }
    ],
    "type": "FeatureCollection"
}