{
    "features": [
        {
            "geometry": {
                "coordinates": [
                    9.142247,
                    53.111178
                ],
                "type": "Point"
            },
            "properties": {
                "capacity": 3,
                "is_installed": true,
                "is_renting": true,
                "is_returning": true,
                "is_virtual_station": false,
                "last_reported": 1789242562,
                "name": "Rathausparkplatz (Ottersberg)",
                "num_bikes_available": 4,
                "num_docks_available": 0,
                "region_id": "1225",
                "rental_uris": {
                    "android": "https://app.nextbike.net/station?id=600647529",
                    "ios": "https://app.nextbike.net/station?id=600647529",
                    "web": "https://nxtb.it/p/600647529"
                },
                "short_name": "29601",
                "station_id": "600647529",
                "vehicle_types_available": [
                    {
                        "count": 3,
                        "vehicle_type_id": "345"
                    },
                    {
                        "count": 1,
                        "vehicle_type_id": "349"
                    }
                ]
            },
            "type": "Feature"
        },
        {
            "geometry": {
                "coordinates": [
                    9.140276,
                    53.111068
                ],
                "type": "Point"
            },
            "properties": {
                "capacity": 4,
                "is_installed": true,
                "is_renting": true,
                "is_returning": true,
                "is_virtual_station": false,
                "last_reported": 1789242562,
                "name": "Busbahnhof (Ottersberg)",
                "num_bikes_available": 3,
                "num_docks_available": 1,
                "region_id": "1225",
                "rental_uris": {
                    "android": "https://app.nextbike.net/station?id=600647762",
                    "ios": "https://app.nextbike.net/station?id=600647762",
                    "web": "https://nxtb.it/p/600647762"
                },
                "short_name": "29602",
                "station_id": "600647762",
                "vehicle_types_available": [
                    {
                        "count": 1,
                        "vehicle_type_id": "318"
                    },
                    {
                        "count": 1,
                        "vehicle_type_id": "345"
                    },
                    {
                        "count": 1,
                        "vehicle_type_id": "349"
                    }
                ]
            },
            "type": "Feature"
        },
        {
            "geometry": {
                "coordinates": [
                    9.136178,
                    53.107252
                ],
                "type": "Point"
            },
            "properties": {
                "capacity": 3,
                "is_installed": true,
                "is_renting": true,
                "is_returning": true,
                "is_virtual_station": false,
                "last_reported": 1789242562,
                "name": "Otterbad",
                "num_bikes_available": 0,
                "num_docks_available": 3,
                "region_id": "1225",
                "rental_uris": {
                    "android": "https://app.nextbike.net/station?id=600648033",
                    "ios": "https://app.nextbike.net/station?id=600648033",
                    "web": "https://nxtb.it/p/600648033"
                },
                "short_name": "29603",
                "station_id": "600648033",
                "vehicle_types_available": []
            },
            "type": "Feature"
        },
        {
            "geometry": {
                "coordinates": [
                    9.151501,
                    53.108358
                ],
                "type": "Point"
            },
            "properties": {
                "capacity": 4,
                "is_installed": true,
                "is_renting": true,
                "is_returning": true,
                "is_virtual_station": false,
                "last_reported": 1789242562,
                "name": "Alter Weg (Ottersberg)",
                "num_bikes_available": 4,
                "num_docks_available": 0,
                "region_id": "1225",
                "rental_uris": {
                    "android": "https://app.nextbike.net/station?id=600648354",
                    "ios": "https://app.nextbike.net/station?id=600648354",
                    "web": "https://nxtb.it/p/600648354"
                },
                "short_name": "29605",
                "station_id": "600648354",
                "vehicle_types_available": [
                    {
                        "count": 1,
                        "vehicle_type_id": "273"
                    },
                    {
                        "count": 3,
                        "vehicle_type_id": "345"
                    }
                ]
            },
            "type": "Feature"
        },
        {
            "geometry": {
                "coordinates": [
                    9.162796,
                    53.106291
                ],
                "type": "Point"
            },
            "properties": {
                "capacity": 3,
                "is_installed": true,
                "is_renting": true,
                "is_returning": true,
                "is_virtual_station": false,
                "last_reported": 1789242562,
                "name": "HKS (Ottersberg)",
                "num_bikes_available": 2,
                "num_docks_available": 1,
                "region_id": "1225",
                "rental_uris": {
                    "android": "https://app.nextbike.net/station?id=600648710",
                    "ios": "https://app.nextbike.net/station?id=600648710",
                    "web": "https://nxtb.it/p/600648710"
                },
                "short_name": "29606",
                "station_id": "600648710",
                "vehicle_types_available": [
                    {
                        "count": 1,
                        "vehicle_type_id": "345"
                    },
                    {
                        "count": 1,
                        "vehicle_type_id": "349"
                    }
                ]
            },
            "type": "Feature"
        },
        {
            "geometry": {
                "coordinates": [
                    9.132601,
                    53.09709
                ],
                "type": "Point"
            },
            "properties": {
                "capacity": 10,
                "is_installed": true,
                "is_renting": true,
                "is_returning": true,
                "is_virtual_station": false,
                "last_reported": 1789242562,
                "name": "Bahnhof Ottersberg Nordseite",
                "num_bikes_available": 6,
                "num_docks_available": 4,
                "region_id": "1225",
                "rental_uris": {
                    "android": "https://app.nextbike.net/station?id=600648827",
                    "ios": "https://app.nextbike.net/station?id=600648827",
                    "web": "https://nxtb.it/p/600648827"
                },
                "short_name": "29607",
                "station_id": "600648827",
                "vehicle_types_available": [
                    {
                        "count": 1,
                        "vehicle_type_id": "273"
                    },
                    {
                        "count": 2,
                        "vehicle_type_id": "345"
                    },
                    {
                        "count": 2,
                        "vehicle_type_id": "349"
                    },
                    {
                        "count": 1,
                        "vehicle_type_id": "405"
                    }
                ]
            },
            "type": "Feature"
        },
        {
            "geometry": {
                "coordinates": [
                    9.133154,
                    53.096664
                ],
                "type": "Point"
            },
            "properties": {
                "capacity": 8,
                "is_installed": true,
                "is_renting": true,
                "is_returning": true,
                "is_virtual_station": false,
                "last_reported": 1789242562,
                "name": "Bahnhof Ottersberg S\u00fcdseite",
                "num_bikes_available": 8,
                "num_docks_available": 0,
                "region_id": "1225",
                "rental_uris": {
                    "android": "https://app.nextbike.net/station?id=600648920",
                    "ios": "https://app.nextbike.net/station?id=600648920",
                    "web": "https://nxtb.it/p/600648920"
                },
                "short_name": "29608",
                "station_id": "600648920",
                "vehicle_types_available": [
                    {
                        "count": 2,
                        "vehicle_type_id": "345"
                    },
                    {
                        "count": 5,
                        "vehicle_type_id": "349"
                    },
                    {
                        "count": 1,
                        "vehicle_type_id": "405"
                    }
                ]
            },
            "type": "Feature"
        },
        {
            "geometry": {
                "coordinates": [
                    9.143511,
                    53.091542
                ],
                "type": "Point"
            },
            "properties": {
                "capacity": 3,
                "is_installed": true,
                "is_renting": true,
                "is_returning": true,
                "is_virtual_station": false,
                "last_reported": 1789242562,
                "name": "Am Bremschenberg (Ottersberg)",
                "num_bikes_available": 2,
                "num_docks_available": 1,
                "region_id": "1225",
                "rental_uris": {
                    "android": "https://app.nextbike.net/station?id=600649869",
                    "ios": "https://app.nextbike.net/station?id=600649869",
                    "web": "https://nxtb.it/p/600649869"
                },
                "short_name": "29609",
                "station_id": "600649869",
                "vehicle_types_available": [
                    {
                        "count": 2,
                        "vehicle_type_id": "345"
                    }
                ]
            },
            "type": "Feature"
        },
        {
            "geometry": {
                "coordinates": [
                    9.176876,
                    53.070441
                ],
                "type": "Point"
            },
            "properties": {
                "capacity": 4,
                "is_installed": true,
                "is_renting": true,
                "is_returning": true,
                "is_virtual_station": false,
                "last_reported": 1789242562,
                "name": "Am Grenzgraben (Ottersberg)",
                "num_bikes_available": 2,
                "num_docks_available": 2,
                "region_id": "1225",
                "rental_uris": {
                    "android": "https://app.nextbike.net/station?id=600649958",
                    "ios": "https://app.nextbike.net/station?id=600649958",
                    "web": "https://nxtb.it/p/600649958"
                },
                "short_name": "29610",
                "station_id": "600649958",
                "vehicle_types_available": [
                    {
                        "count": 1,
                        "vehicle_type_id": "345"
                    },
                    {
                        "count": 1,
                        "vehicle_type_id": "349"
                    }
                ]
            },
            "type": "Feature"
        },
        {
            "geometry": {
                "coordinates": [
                    9.170052,
                    53.058952
                ],
                "type": "Point"
            },
            "properties": {
                "capacity": 7,
                "is_installed": true,
                "is_renting": true,
                "is_returning": true,
                "is_virtual_station": false,
                "last_reported": 1789242562,
                "name": "Parkplatz Dodenhof (Ottersberg)",
                "num_bikes_available": 4,
                "num_docks_available": 3,
                "region_id": "1225",
                "rental_uris": {
                    "android": "https://app.nextbike.net/station?id=600650070",
                    "ios": "https://app.nextbike.net/station?id=600650070",
                    "web": "https://nxtb.it/p/600650070"
                },
                "short_name": "29611",
                "station_id": "600650070",
                "vehicle_types_available": [
                    {
                        "count": 1,
                        "vehicle_type_id": "232"
                    },
                    {
                        "count": 1,
                        "vehicle_type_id": "345"
                    },
                    {
                        "count": 2,
                        "vehicle_type_id": "349"
                    }
                ]
            },
            "type": "Feature"
        },
        {
            "geometry": {
                "coordinates": [
                    9.146516,
                    53.138841
                ],
                "type": "Point"
            },
            "properties": {
                "capacity": 3,
                "is_installed": true,
                "is_renting": true,
                "is_returning": true,
                "is_virtual_station": false,
                "last_reported": 1789242562,
                "name": "Grundschule Otterstedt (Ottersberg)",
                "num_bikes_available": 2,
                "num_docks_available": 1,
                "region_id": "1225",
                "rental_uris": {
                    "android": "https://app.nextbike.net/station?id=600650279",
                    "ios": "https://app.nextbike.net/station?id=600650279",
                    "web": "https://nxtb.it/p/600650279"
                },
                "short_name": "29613",
                "station_id": "600650279",
                "vehicle_types_available": [
                    {
                        "count": 1,
                        "vehicle_type_id": "345"
                    },
                    {
                        "count": 1,
                        "vehicle_type_id": "349"
                    }
                ]
            },
            "type": "Feature"
        },
        {
            "geometry": {
                "coordinates": [
                    9.161007,
                    53.133491
                ],
                "type": "Point"
            },
            "properties": {
                "capacity": 3,
                "is_installed": true,
                "is_renting": true,
                "is_returning": true,
                "is_virtual_station": false,
                "last_reported": 1789242562,
                "name": "Am See",
                "num_bikes_available": 0,
                "num_docks_available": 3,
                "region_id": "1225",
                "rental_uris": {
                    "android": "https://app.nextbike.net/station?id=600650469",
                    "ios": "https://app.nextbike.net/station?id=600650469",
                    "web": "https://nxtb.it/p/600650469"
                },
                "short_name": "29614",
                "station_id": "600650469",
                "vehicle_types_available": []
            },
            "type": "Feature"
        },
        {
            "geometry": {
                "coordinates": [
                    9.1757,
                    53.151336
                ],
                "type": "Point"
            },
            "properties": {
                "capacity": 3,
                "is_installed": true,
                "is_renting": true,
                "is_returning": true,
                "is_virtual_station": false,
                "last_reported": 1789242562,
                "name": "Brunnenweg (Ottersberg)",
                "num_bikes_available": 2,
                "num_docks_available": 1,
                "region_id": "1225",
                "rental_uris": {
                    "android": "https://app.nextbike.net/station?id=600650559",
                    "ios": "https://app.nextbike.net/station?id=600650559",
                    "web": "https://nxtb.it/p/600650559"
                },
                "short_name": "29615",
                "station_id": "600650559",
                "vehicle_types_available": [
                    {
                        "count": 1,
                        "vehicle_type_id": "345"
                    },
                    {
                        "count": 1,
                        "vehicle_type_id": "349"
                    }
                ]
            },
            "type": "Feature"
        },
        {
            "geometry": {
                "coordinates": [
                    9.079202,
                    53.132743
                ],
                "type": "Point"
            },
            "properties": {
                "capacity": 5,
                "is_installed": true,
                "is_renting": true,
                "is_returning": true,
                "is_virtual_station": false,
                "last_reported": 1789242562,
                "name": "Denkmal Quelkhorn (Ottersberg)",
                "num_bikes_available": 3,
                "num_docks_available": 2,
                "region_id": "1225",
                "rental_uris": {
                    "android": "https://app.nextbike.net/station?id=600650719",
                    "ios": "https://app.nextbike.net/station?id=600650719",
                    "web": "https://nxtb.it/p/600650719"
                },
                "short_name": "29617",
                "station_id": "600650719",
                "vehicle_types_available": [
                    {
                        "count": 3,
                        "vehicle_type_id": "345"
                    }
                ]
            },
            "type": "Feature"
        },
        {
            "geometry": {
                "coordinates": [
                    9.061548,
                    53.124233
                ],
                "type": "Point"
            },
            "properties": {
                "capacity": 3,
                "is_installed": true,
                "is_renting": true,
                "is_returning": true,
                "is_virtual_station": false,
                "last_reported": 1789242562,
                "name": "Grundschule Fischerhude (Ottersberg)",
                "num_bikes_available": 2,
                "num_docks_available": 1,
                "region_id": "1225",
                "rental_uris": {
                    "android": "https://app.nextbike.net/station?id=600650823",
                    "ios": "https://app.nextbike.net/station?id=600650823",
                    "web": "https://nxtb.it/p/600650823"
                },
                "short_name": "29618",
                "station_id": "600650823",
                "vehicle_types_available": [
                    {
                        "count": 1,
                        "vehicle_type_id": "345"
                    },
                    {
                        "count": 1,
                        "vehicle_type_id": "349"
                    }
                ]
            },
            "type": "Feature"
        },
        {
            "geometry": {
                "coordinates": [
                    9.058525,
                    53.120071
                ],
                "type": "Point"
            },
            "properties": {
                "capacity": 5,
                "is_installed": true,
                "is_renting": true,
                "is_returning": true,
                "is_virtual_station": false,
                "last_reported": 1789242562,
                "name": "Parkplatz bei der Feuerwehr (Ottersberg)",
                "num_bikes_available": 3,
                "num_docks_available": 2,
                "region_id": "1225",
                "rental_uris": {
                    "android": "https://app.nextbike.net/station?id=600650952",
                    "ios": "https://app.nextbike.net/station?id=600650952",
                    "web": "https://nxtb.it/p/600650952"
                },
                "short_name": "29619",
                "station_id": "600650952",
                "vehicle_types_available": [
                    {
                        "count": 3,
                        "vehicle_type_id": "345"
                    }
                ]
            },
            "type": "Feature"
        },
        {
            "geometry": {
                "coordinates": [
                    9.055052,
                    53.11666
                ],
                "type": "Point"
            },
            "properties": {
                "capacity": 6,
                "is_installed": true,
                "is_renting": true,
                "is_returning": true,
                "is_virtual_station": false,
                "last_reported": 1789242562,
                "name": "Landstra\u00dfe",
                "num_bikes_available": 3,
                "num_docks_available": 3,
                "region_id": "1225",
                "rental_uris": {
                    "android": "https://app.nextbike.net/station?id=600651140",
                    "ios": "https://app.nextbike.net/station?id=600651140",
                    "web": "https://nxtb.it/p/600651140"
                },
                "short_name": "29621",
                "station_id": "600651140",
                "vehicle_types_available": [
                    {
                        "count": 1,
                        "vehicle_type_id": "345"
                    },
                    {
                        "count": 2,
                        "vehicle_type_id": "349"
                    }
                ]
            },
            "type": "Feature"
        },
        {
            "geometry": {
                "coordinates": [
                    9.037261,
                    53.117042
                ],
                "type": "Point"
            },
            "properties": {
                "capacity": 4,
                "is_installed": true,
                "is_renting": true,
                "is_returning": true,
                "is_virtual_station": false,
                "last_reported": 1789242562,
                "name": "Appelhoff (Ottersberg)",
                "num_bikes_available": 2,
                "num_docks_available": 2,
                "region_id": "1225",
                "rental_uris": {
                    "android": "https://app.nextbike.net/station?id=600651341",
                    "ios": "https://app.nextbike.net/station?id=600651341",
                    "web": "https://nxtb.it/p/600651341"
                },
                "short_name": "29622",
                "station_id": "600651341",
                "vehicle_types_available": [
                    {
                        "count": 1,
                        "vehicle_type_id": "345"
                    },
                    {
                        "count": 1,
                        "vehicle_type_id": "349"
                    }
                ]
            },
            "type": "Feature"
        },
        {
            "geometry": {
                "coordinates": [
                    8.965919,
                    53.030015
                ],
                "type": "Point"
            },
            "properties": {
                "capacity": 2,
                "is_installed": true,
                "is_renting": true,
                "is_returning": true,
                "is_virtual_station": false,
                "last_reported": 1789242562,
                "name": "Uphuser Heerstra\u00dfe / Arenkamp (Achim)",
                "num_bikes_available": 1,
                "num_docks_available": 1,
                "region_id": "937",
                "rental_uris": {
                    "android": "https://app.nextbike.net/station?id=600651557",
                    "ios": "https://app.nextbike.net/station?id=600651557",
                    "web": "https://nxtb.it/p/600651557"
                },
                "short_name": "29623",
                "station_id": "600651557",
                "vehicle_types_available": [
                    {
                        "count": 1,
                        "vehicle_type_id": "345"
                    }
                ]
            },
            "type": "Feature"
        },
        {
            "geometry": {
                "coordinates": [
                    8.977354,
                    53.02653
                ],
                "type": "Point"
            },
            "properties": {
                "capacity": 2,
                "is_installed": true,
                "is_renting": true,
                "is_returning": true,
                "is_virtual_station": false,
                "last_reported": 1789242562,
                "name": "Uphuser Heerstra\u00dfe / Am Weserberg (Achim)",
                "num_bikes_available": 4,
                "num_docks_available": 0,
                "region_id": "937",
                "rental_uris": {
                    "android": "https://app.nextbike.net/station?id=600651653",
                    "ios": "https://app.nextbike.net/station?id=600651653",
                    "web": "https://nxtb.it/p/600651653"
                },
                "short_name": "29624",
                "station_id": "600651653",
                "vehicle_types_available": [
                    {
                        "count": 1,
                        "vehicle_type_id": "345"
                    },
                    {
                        "count": 3,
                        "vehicle_type_id": "349"
                    }
                ]
            },
            "type": "Feature"
        },
        {
            "geometry": {
                "coordinates": [
                    9.007222,
                    53.018616
                ],
                "type": "Point"
            },
            "properties": {
                "capacity": 3,
                "is_installed": true,
                "is_renting": true,
                "is_returning": true,
                "is_virtual_station": false,
                "last_reported": 1789242562,
                "name": "Bremer Stra\u00dfe (Achim)",
                "num_bikes_available": 1,
                "num_docks_available": 2,
                "region_id": "937",
                "rental_uris": {
                    "android": "https://app.nextbike.net/station?id=600651888",
                    "ios": "https://app.nextbike.net/station?id=600651888",
                    "web": "https://nxtb.it/p/600651888"
                },
                "short_name": "29625",
                "station_id": "600651888",
                "vehicle_types_available": [
                    {
                        "count": 1,
                        "vehicle_type_id": "349"
                    }
                ]
            },
            "type": "Feature"
        },
        {
            "geometry": {
                "coordinates": [
                    9.029254,
                    53.0165
                ],
                "type": "Point"
            },
            "properties": {
                "capacity": 10,
                "is_installed": true,
                "is_renting": true,
                "is_returning": true,
                "is_virtual_station": false,
                "last_reported": 1789242562,
                "name": "Bahnhof Achim Gaswerkstra\u00dfe",
                "num_bikes_available": 5,
                "num_docks_available": 5,
                "region_id": "937",
                "rental_uris": {
                    "android": "https://app.nextbike.net/station?id=600651990",
                    "ios": "https://app.nextbike.net/station?id=600651990",
                    "web": "https://nxtb.it/p/600651990"
                },
                "short_name": "29627",
                "station_id": "600651990",
                "vehicle_types_available": [
                    {
                        "count": 5,
                        "vehicle_type_id": "345"
                    }
                ]
            },
            "type": "Feature"
        },
        {
            "geometry": {
                "coordinates": [
                    9.03184,
                    53.015596
                ],
                "type": "Point"
            },
            "properties": {
                "capacity": 1,
                "is_installed": true,
                "is_renting": true,
                "is_returning": true,
                "is_virtual_station": false,
                "last_reported": 1789242562,
                "name": "Radabstellanlage Bahnhof Achim S\u00fcdseite",
                "num_bikes_available": 0,
                "num_docks_available": 1,
                "region_id": "937",
                "rental_uris": {
                    "android": "https://app.nextbike.net/station?id=600652067",
                    "ios": "https://app.nextbike.net/station?id=600652067",
                    "web": "https://nxtb.it/p/600652067"
                },
                "short_name": "29628",
                "station_id": "600652067",
                "vehicle_types_available": []
            },
            "type": "Feature"
        },
        {
            "geometry": {
                "coordinates": [
                    9.03759,
                    53.011973
                ],
                "type": "Point"
            },
            "properties": {
                "capacity": 10,
                "is_installed": true,
                "is_renting": true,
                "is_returning": true,
                "is_virtual_station": false,
                "last_reported": 1789242562,
                "name": "Fahrradabstellanlage Am Marktplatz (Achim)",
                "num_bikes_available": 3,
                "num_docks_available": 7,
                "region_id": "937",
                "rental_uris": {
                    "android": "https://app.nextbike.net/station?id=600653313",
                    "ios": "https://app.nextbike.net/station?id=600653313",
                    "web": "https://nxtb.it/p/600653313"
                },
                "short_name": "29629",
                "station_id": "600653313",
                "vehicle_types_available": [
                    {
                        "count": 3,
                        "vehicle_type_id": "349"
                    }
                ]
            },
            "type": "Feature"
        },
        {
            "geometry": {
                "coordinates": [
                    9.066703,
                    53.008535
                ],
                "type": "Point"
            },
            "properties": {
                "capacity": 2,
                "is_installed": true,
                "is_renting": true,
                "is_returning": true,
                "is_virtual_station": false,
                "last_reported": 1789242562,
                "name": "Steubenallee (Achim)",
                "num_bikes_available": 1,
                "num_docks_available": 1,
                "region_id": "937",
                "rental_uris": {
                    "android": "https://app.nextbike.net/station?id=600653406",
                    "ios": "https://app.nextbike.net/station?id=600653406",
                    "web": "https://nxtb.it/p/600653406"
                },
                "short_name": "29630",
                "station_id": "600653406",
                "vehicle_types_available": [
                    {
                        "count": 1,
                        "vehicle_type_id": "345"
                    }
                ]
            },
            "type": "Feature"
        },
        {
            "geometry": {
                "coordinates": [
                    9.080967,
                    53.008141
                ],
                "type": "Point"
            },
            "properties": {
                "capacity": 5,
                "is_installed": true,
                "is_renting": true,
                "is_returning": true,
                "is_virtual_station": false,
                "last_reported": 1789242562,
                "name": "Bahnhof Baden Nordseite (Achim)",
                "num_bikes_available": 16,
                "num_docks_available": 0,
                "region_id": "937",
                "rental_uris": {
                    "android": "https://app.nextbike.net/station?id=600653999",
                    "ios": "https://app.nextbike.net/station?id=600653999",
                    "web": "https://nxtb.it/p/600653999"
                },
                "short_name": "29633",
                "station_id": "600653999",
                "vehicle_types_available": [
                    {
                        "count": 1,
                        "vehicle_type_id": "232"
                    },
                    {
                        "count": 1,
                        "vehicle_type_id": "318"
                    },
                    {
                        "count": 3,
                        "vehicle_type_id": "345"
                    },
                    {
                        "count": 10,
                        "vehicle_type_id": "349"
                    },
                    {
                        "count": 1,
                        "vehicle_type_id": "405"
                    }
                ]
            },
            "type": "Feature"
        },
        {
            "geometry": {
                "coordinates": [
                    9.081048,
                    53.007631
                ],
                "type": "Point"
            },
            "properties": {
                "capacity": 5,
                "is_installed": true,
                "is_renting": true,
                "is_returning": true,
                "is_virtual_station": false,
                "last_reported": 1789242562,
                "name": "Bahnhof Baden S\u00fcdseite (Achim)",
                "num_bikes_available": 7,
                "num_docks_available": 0,
                "region_id": "937",
                "rental_uris": {
                    "android": "https://app.nextbike.net/station?id=600654074",
                    "ios": "https://app.nextbike.net/station?id=600654074",
                    "web": "https://nxtb.it/p/600654074"
                },
                "short_name": "29634",
                "station_id": "600654074",
                "vehicle_types_available": [
                    {
                        "count": 1,
                        "vehicle_type_id": "345"
                    },
                    {
                        "count": 6,
                        "vehicle_type_id": "349"
                    }
                ]
            },
            "type": "Feature"
        },
        {
            "geometry": {
                "coordinates": [
                    9.08049,
                    52.998424
                ],
                "type": "Point"
            },
            "properties": {
                "capacity": 7,
                "is_installed": true,
                "is_renting": true,
                "is_returning": true,
                "is_virtual_station": false,
                "last_reported": 1789242562,
                "name": "Poststra\u00dfe / Bahnhofstra\u00dfe (Achim)",
                "num_bikes_available": 10,
                "num_docks_available": 0,
                "region_id": "937",
                "rental_uris": {
                    "android": "https://app.nextbike.net/station?id=600654159",
                    "ios": "https://app.nextbike.net/station?id=600654159",
                    "web": "https://nxtb.it/p/600654159"
                },
                "short_name": "29635",
                "station_id": "600654159",
                "vehicle_types_available": [
                    {
                        "count": 1,
                        "vehicle_type_id": "232"
                    },
                    {
                        "count": 4,
                        "vehicle_type_id": "345"
                    },
                    {
                        "count": 4,
                        "vehicle_type_id": "349"
                    },
                    {
                        "count": 1,
                        "vehicle_type_id": "405"
                    }
                ]
            },
            "type": "Feature"
        },
        {
            "geometry": {
                "coordinates": [
                    9.029455,
                    53.016534
                ],
                "type": "Point"
            },
            "properties": {
                "capacity": 1,
                "is_installed": true,
                "is_renting": true,
                "is_returning": true,
                "is_virtual_station": false,
                "last_reported": 1789242562,
                "name": "Radabstellanlage Bahnhof Achim Nordseite",
                "num_bikes_available": 0,
                "num_docks_available": 1,
                "region_id": "937",
                "rental_uris": {
                    "android": "https://app.nextbike.net/station?id=600654303",
                    "ios": "https://app.nextbike.net/station?id=600654303",
                    "web": "https://nxtb.it/p/600654303"
                },
                "short_name": "29637",
                "station_id": "600654303",
                "vehicle_types_available": []
            },
            "type": "Feature"
        },
        {
            "geometry": {
                "coordinates": [
                    9.030654,
                    53.0158
                ],
                "type": "Point"
            },
            "properties": {
                "capacity": 9,
                "is_installed": true,
                "is_renting": true,
                "is_returning": true,
                "is_virtual_station": false,
                "last_reported": 1789242562,
                "name": "Bahnhof Achim S\u00fcdseite",
                "num_bikes_available": 2,
                "num_docks_available": 7,
                "region_id": "937",
                "rental_uris": {
                    "android": "https://app.nextbike.net/station?id=600654377",
                    "ios": "https://app.nextbike.net/station?id=600654377",
                    "web": "https://nxtb.it/p/600654377"
                },
                "short_name": "29638",
                "station_id": "600654377",
                "vehicle_types_available": [
                    {
                        "count": 2,
                        "vehicle_type_id": "345"
                    }
                ]
            },
            "type": "Feature"
        },
        {
            "geometry": {
                "coordinates": [
                    9.036594,
                    53.01215
                ],
                "type": "Point"
            },
            "properties": {
                "capacity": 5,
                "is_installed": true,
                "is_renting": true,
                "is_returning": true,
                "is_virtual_station": false,
                "last_reported": 1789242562,
                "name": "Bibliotheksplatz (Achim)",
                "num_bikes_available": 3,
                "num_docks_available": 2,
                "region_id": "937",
                "rental_uris": {
                    "android": "https://app.nextbike.net/station?id=600654831",
                    "ios": "https://app.nextbike.net/station?id=600654831",
                    "web": "https://nxtb.it/p/600654831"
                },
                "short_name": "29639",
                "station_id": "600654831",
                "vehicle_types_available": [
                    {
                        "count": 3,
                        "vehicle_type_id": "345"
                    }
                ]
            },
            "type": "Feature"
        },
        {
            "geometry": {
                "coordinates": [
                    9.090354,
                    53.001719
                ],
                "type": "Point"
            },
            "properties": {
                "capacity": 3,
                "is_installed": true,
                "is_renting": true,
                "is_returning": true,
                "is_virtual_station": false,
                "last_reported": 1789242562,
                "name": "Holzbaden",
                "num_bikes_available": 5,
                "num_docks_available": 0,
                "region_id": "937",
                "rental_uris": {
                    "android": "https://app.nextbike.net/station?id=600654957",
                    "ios": "https://app.nextbike.net/station?id=600654957",
                    "web": "https://nxtb.it/p/600654957"
                },
                "short_name": "29640",
                "station_id": "600654957",
                "vehicle_types_available": [
                    {
                        "count": 1,
                        "vehicle_type_id": "232"
                    },
                    {
                        "count": 4,
                        "vehicle_type_id": "349"
                    }
                ]
            },
            "type": "Feature"
        },
        {
            "geometry": {
                "coordinates": [
                    9.052831,
                    53.004247
                ],
                "type": "Point"
            },
            "properties": {
                "capacity": 6,
                "is_installed": true,
                "is_renting": true,
                "is_returning": true,
                "is_virtual_station": false,
                "last_reported": 1789242562,
                "name": "REWE Uesen (Achim)",
                "num_bikes_available": 2,
                "num_docks_available": 4,
                "region_id": "937",
                "rental_uris": {
                    "android": "https://app.nextbike.net/station?id=600655093",
                    "ios": "https://app.nextbike.net/station?id=600655093",
                    "web": "https://nxtb.it/p/600655093"
                },
                "short_name": "29641",
                "station_id": "600655093",
                "vehicle_types_available": [
                    {
                        "count": 2,
                        "vehicle_type_id": "349"
                    }
                ]
            },
            "type": "Feature"
        },
        {
            "geometry": {
                "coordinates": [
                    9.010835,
                    53.012823
                ],
                "type": "Point"
            },
            "properties": {
                "capacity": 6,
                "is_installed": true,
                "is_renting": true,
                "is_returning": true,
                "is_virtual_station": false,
                "last_reported": 1789242562,
                "name": "Steinweg Grundschule Bierden (Achim)",
                "num_bikes_available": 5,
                "num_docks_available": 1,
                "region_id": "937",
                "rental_uris": {
                    "android": "https://app.nextbike.net/station?id=600783916",
                    "ios": "https://app.nextbike.net/station?id=600783916",
                    "web": "https://nxtb.it/p/600783916"
                },
                "short_name": "29643",
                "station_id": "600783916",
                "vehicle_types_available": [
                    {
                        "count": 3,
                        "vehicle_type_id": "345"
                    },
                    {
                        "count": 2,
                        "vehicle_type_id": "349"
                    }
                ]
            },
            "type": "Feature"
        },
        {
            "geometry": {
                "coordinates": [
                    7.842522,
                    47.986583
                ],
                "type": "Point"
            },
            "properties": {
                "is_installed": true,
                "is_renting": true,
                "is_returning": true,
                "is_virtual_station": false,
                "last_reported": 1789242562,
                "name": "HighQ Developer",
                "num_bikes_available": 1,
                "num_docks_available": 0,
                "region_id": "937",
                "rental_uris": {
                    "android": "https://app.nextbike.net/station?id=600984715",
                    "ios": "https://app.nextbike.net/station?id=600984715",
                    "web": "https://nxtb.it/p/600984715"
                },
                "short_name": "29698",
                "station_id": "600984715",
                "vehicle_types_available": [
                    {
                        "count": 1,
                        "vehicle_type_id": "196"
                    }
                ]
            },
            "type": "Feature"
        }
    ],
    "gbfs": {
        "station_information": {
            "last_updated": 1789242562,
            "ttl": 60,
            "version": "2.3"
        },
        "station_status": {
            "last_updated": 1789242562,
            "ttl": 60,
            "version": "2.3"
        }
    },
    "type": "FeatureCollection"
}