{
    "features": [
        {
            "geometry": {
                "coordinates": [
                    6.194792,
                    51.119704
                ],
                "type": "Point"
            },
            "properties": {
                "capacity": 6,
                "is_installed": true,
                "is_renting": true,
                "is_returning": true,
                "is_virtual_station": false,
                "last_reported": 1789249702,
                "name": "Wegberg, Wildenrath Haus Wildenrath",
                "num_bikes_available": 3,
                "num_docks_available": 3,
                "region_id": "811",
                "rental_uris": {
                    "android": "https://app.nextbike.net/station?id=110455238",
                    "ios": "https://app.nextbike.net/station?id=110455238",
                    "web": "https://nxtb.it/p/110455238"
                },
                "short_name": "30205",
                "station_id": "110455238",
                "vehicle_types_available": [
                    {
                        "count": 3,
                        "vehicle_type_id": "196"
                    }
                ]
            },
            "type": "Feature"
        },
        {
            "geometry": {
                "coordinates": [
                    6.274744,
                    51.140343
                ],
                "type": "Point"
            },
            "properties": {
                "capacity": 6,
                "is_installed": true,
                "is_renting": true,
                "is_returning": true,
                "is_virtual_station": false,
                "last_reported": 1789249702,
                "name": "Wegberg, Busbahnhof, Schwalmaue",
                "num_bikes_available": 3,
                "num_docks_available": 3,
                "region_id": "811",
                "rental_uris": {
                    "android": "https://app.nextbike.net/station?id=110455357",
                    "ios": "https://app.nextbike.net/station?id=110455357",
                    "web": "https://nxtb.it/p/110455357"
                },
                "short_name": "30206",
                "station_id": "110455357",
                "vehicle_types_available": [
                    {
                        "count": 2,
                        "vehicle_type_id": "196"
                    },
                    {
                        "count": 1,
                        "vehicle_type_id": "150"
                    }
                ]
            },
            "type": "Feature"
        },
        {
            "geometry": {
                "coordinates": [
                    6.27948,
                    51.139674
                ],
                "type": "Point"
            },
            "properties": {
                "capacity": 6,
                "is_installed": true,
                "is_renting": true,
                "is_returning": true,
                "is_virtual_station": false,
                "last_reported": 1789249702,
                "name": "Wegberg, Markusstra\u00dfe",
                "num_bikes_available": 3,
                "num_docks_available": 3,
                "region_id": "811",
                "rental_uris": {
                    "android": "https://app.nextbike.net/station?id=110455621",
                    "ios": "https://app.nextbike.net/station?id=110455621",
                    "web": "https://nxtb.it/p/110455621"
                },
                "short_name": "30207",
                "station_id": "110455621",
                "vehicle_types_available": [
                    {
                        "count": 3,
                        "vehicle_type_id": "196"
                    }
                ]
            },
            "type": "Feature"
        },
        {
            "geometry": {
                "coordinates": [
                    6.218637,
                    51.059301
                ],
                "type": "Point"
            },
            "properties": {
                "capacity": 6,
                "is_installed": true,
                "is_renting": true,
                "is_returning": true,
                "is_virtual_station": false,
                "last_reported": 1789249702,
                "name": "H\u00fcckelhoven, Friedrichplatz",
                "num_bikes_available": 2,
                "num_docks_available": 4,
                "region_id": "810",
                "rental_uris": {
                    "android": "https://app.nextbike.net/station?id=110455775",
                    "ios": "https://app.nextbike.net/station?id=110455775",
                    "web": "https://nxtb.it/p/110455775"
                },
                "short_name": "30208",
                "station_id": "110455775",
                "vehicle_types_available": [
                    {
                        "count": 2,
                        "vehicle_type_id": "196"
                    }
                ]
            },
            "type": "Feature"
        },
        {
            "geometry": {
                "coordinates": [
                    6.22354,
                    51.055074
                ],
                "type": "Point"
            },
            "properties": {
                "capacity": 6,
                "is_installed": true,
                "is_renting": true,
                "is_returning": true,
                "is_virtual_station": false,
                "last_reported": 1789249702,
                "name": "H\u00fcckelhoven, Center/Rathaus",
                "num_bikes_available": 2,
                "num_docks_available": 4,
                "region_id": "810",
                "rental_uris": {
                    "android": "https://app.nextbike.net/station?id=110455865",
                    "ios": "https://app.nextbike.net/station?id=110455865",
                    "web": "https://nxtb.it/p/110455865"
                },
                "short_name": "30209",
                "station_id": "110455865",
                "vehicle_types_available": [
                    {
                        "count": 2,
                        "vehicle_type_id": "196"
                    }
                ]
            },
            "type": "Feature"
        },
        {
            "geometry": {
                "coordinates": [
                    6.273496,
                    51.03335
                ],
                "type": "Point"
            },
            "properties": {
                "capacity": 6,
                "is_installed": true,
                "is_renting": true,
                "is_returning": true,
                "is_virtual_station": false,
                "last_reported": 1789249702,
                "name": "H\u00fcckelhoven, Baal Bahnhof",
                "num_bikes_available": 0,
                "num_docks_available": 5,
                "region_id": "810",
                "rental_uris": {
                    "android": "https://app.nextbike.net/station?id=110456006",
                    "ios": "https://app.nextbike.net/station?id=110456006",
                    "web": "https://nxtb.it/p/110456006"
                },
                "short_name": "30210",
                "station_id": "110456006",
                "vehicle_types_available": []
            },
            "type": "Feature"
        },
        {
            "geometry": {
                "coordinates": [
                    6.096508,
                    51.061371
                ],
                "type": "Point"
            },
            "properties": {
                "capacity": 6,
                "is_installed": true,
                "is_renting": true,
                "is_returning": true,
                "is_virtual_station": false,
                "last_reported": 1789249702,
                "name": "Heinsberg, Ostpromenade",
                "num_bikes_available": 1,
                "num_docks_available": 5,
                "region_id": "809",
                "rental_uris": {
                    "android": "https://app.nextbike.net/station?id=110456140",
                    "ios": "https://app.nextbike.net/station?id=110456140",
                    "web": "https://nxtb.it/p/110456140"
                },
                "short_name": "30211",
                "station_id": "110456140",
                "vehicle_types_available": [
                    {
                        "count": 1,
                        "vehicle_type_id": "196"
                    }
                ]
            },
            "type": "Feature"
        },
        {
            "geometry": {
                "coordinates": [
                    6.091769,
                    51.058687
                ],
                "type": "Point"
            },
            "properties": {
                "capacity": 6,
                "is_installed": true,
                "is_renting": true,
                "is_returning": true,
                "is_virtual_station": false,
                "last_reported": 1789249702,
                "name": "Heinsberg, AOK",
                "num_bikes_available": 4,
                "num_docks_available": 2,
                "region_id": "809",
                "rental_uris": {
                    "android": "https://app.nextbike.net/station?id=110456278",
                    "ios": "https://app.nextbike.net/station?id=110456278",
                    "web": "https://nxtb.it/p/110456278"
                },
                "short_name": "30212",
                "station_id": "110456278",
                "vehicle_types_available": [
                    {
                        "count": 4,
                        "vehicle_type_id": "196"
                    }
                ]
            },
            "type": "Feature"
        },
        {
            "geometry": {
                "coordinates": [
                    6.091664,
                    51.062855
                ],
                "type": "Point"
            },
            "properties": {
                "capacity": 6,
                "is_installed": true,
                "is_renting": true,
                "is_returning": true,
                "is_virtual_station": false,
                "last_reported": 1789249702,
                "name": "Heinsberg, Westpromenade",
                "num_bikes_available": 3,
                "num_docks_available": 3,
                "region_id": "809",
                "rental_uris": {
                    "android": "https://app.nextbike.net/station?id=110456364",
                    "ios": "https://app.nextbike.net/station?id=110456364",
                    "web": "https://nxtb.it/p/110456364"
                },
                "short_name": "30213",
                "station_id": "110456364",
                "vehicle_types_available": [
                    {
                        "count": 3,
                        "vehicle_type_id": "196"
                    }
                ]
            },
            "type": "Feature"
        },
        {
            "geometry": {
                "coordinates": [
                    6.108917,
                    50.973054
                ],
                "type": "Point"
            },
            "properties": {
                "capacity": 6,
                "is_installed": true,
                "is_renting": true,
                "is_returning": true,
                "is_virtual_station": false,
                "last_reported": 1789249702,
                "name": "Geilenkirchen, Schulzentrum Bauchem",
                "num_bikes_available": 2,
                "num_docks_available": 4,
                "region_id": "808",
                "rental_uris": {
                    "android": "https://app.nextbike.net/station?id=110456456",
                    "ios": "https://app.nextbike.net/station?id=110456456",
                    "web": "https://nxtb.it/p/110456456"
                },
                "short_name": "30214",
                "station_id": "110456456",
                "vehicle_types_available": [
                    {
                        "count": 2,
                        "vehicle_type_id": "196"
                    }
                ]
            },
            "type": "Feature"
        },
        {
            "geometry": {
                "coordinates": [
                    6.145869,
                    50.961343
                ],
                "type": "Point"
            },
            "properties": {
                "capacity": 6,
                "is_installed": true,
                "is_renting": true,
                "is_returning": true,
                "is_virtual_station": false,
                "last_reported": 1789249702,
                "name": "Geilenkirchen, Loherhof",
                "num_bikes_available": 3,
                "num_docks_available": 3,
                "region_id": "808",
                "rental_uris": {
                    "android": "https://app.nextbike.net/station?id=110456561",
                    "ios": "https://app.nextbike.net/station?id=110456561",
                    "web": "https://nxtb.it/p/110456561"
                },
                "short_name": "30215",
                "station_id": "110456561",
                "vehicle_types_available": [
                    {
                        "count": 3,
                        "vehicle_type_id": "196"
                    }
                ]
            },
            "type": "Feature"
        },
        {
            "geometry": {
                "coordinates": [
                    6.120886,
                    50.964115
                ],
                "type": "Point"
            },
            "properties": {
                "capacity": 6,
                "is_installed": true,
                "is_renting": true,
                "is_returning": true,
                "is_virtual_station": false,
                "last_reported": 1789249702,
                "name": "Geilenkirchen, Rathaus, Markt",
                "num_bikes_available": 2,
                "num_docks_available": 4,
                "region_id": "808",
                "rental_uris": {
                    "android": "https://app.nextbike.net/station?id=110456728",
                    "ios": "https://app.nextbike.net/station?id=110456728",
                    "web": "https://nxtb.it/p/110456728"
                },
                "short_name": "30216",
                "station_id": "110456728",
                "vehicle_types_available": [
                    {
                        "count": 2,
                        "vehicle_type_id": "196"
                    }
                ]
            },
            "type": "Feature"
        },
        {
            "geometry": {
                "coordinates": [
                    6.298037,
                    51.083202
                ],
                "type": "Point"
            },
            "properties": {
                "capacity": 6,
                "is_installed": true,
                "is_renting": true,
                "is_returning": true,
                "is_virtual_station": false,
                "last_reported": 1789249702,
                "name": "Erkelenz, Oerather M\u00fchlenfeld",
                "num_bikes_available": 0,
                "num_docks_available": 2,
                "region_id": "807",
                "rental_uris": {
                    "android": "https://app.nextbike.net/station?id=110456824",
                    "ios": "https://app.nextbike.net/station?id=110456824",
                    "web": "https://nxtb.it/p/110456824"
                },
                "short_name": "30217",
                "station_id": "110456824",
                "vehicle_types_available": []
            },
            "type": "Feature"
        },
        {
            "geometry": {
                "coordinates": [
                    6.314224,
                    51.074879
                ],
                "type": "Point"
            },
            "properties": {
                "capacity": 6,
                "is_installed": true,
                "is_renting": true,
                "is_returning": true,
                "is_virtual_station": false,
                "last_reported": 1789249702,
                "name": "Erkelenz, Krankenhaus",
                "num_bikes_available": 0,
                "num_docks_available": 1,
                "region_id": "807",
                "rental_uris": {
                    "android": "https://app.nextbike.net/station?id=110456912",
                    "ios": "https://app.nextbike.net/station?id=110456912",
                    "web": "https://nxtb.it/p/110456912"
                },
                "short_name": "30218",
                "station_id": "110456912",
                "vehicle_types_available": []
            },
            "type": "Feature"
        },
        {
            "geometry": {
                "coordinates": [
                    6.314392,
                    51.080387
                ],
                "type": "Point"
            },
            "properties": {
                "capacity": 6,
                "is_installed": true,
                "is_renting": true,
                "is_returning": true,
                "is_virtual_station": false,
                "last_reported": 1789249702,
                "name": "Erkelenz, Rathaus",
                "num_bikes_available": 0,
                "num_docks_available": 2,
                "region_id": "807",
                "rental_uris": {
                    "android": "https://app.nextbike.net/station?id=110457009",
                    "ios": "https://app.nextbike.net/station?id=110457009",
                    "web": "https://nxtb.it/p/110457009"
                },
                "short_name": "30219",
                "station_id": "110457009",
                "vehicle_types_available": []
            },
            "type": "Feature"
        },
        {
            "geometry": {
                "coordinates": [
                    6.321076,
                    51.076351
                ],
                "type": "Point"
            },
            "properties": {
                "capacity": 12,
                "is_installed": true,
                "is_renting": true,
                "is_returning": true,
                "is_virtual_station": false,
                "last_reported": 1789249702,
                "name": "Erkelenz Bahnhof",
                "num_bikes_available": 0,
                "num_docks_available": 9,
                "region_id": "807",
                "rental_uris": {
                    "android": "https://app.nextbike.net/station?id=111073890",
                    "ios": "https://app.nextbike.net/station?id=111073890",
                    "web": "https://nxtb.it/p/111073890"
                },
                "short_name": "30200",
                "station_id": "111073890",
                "vehicle_types_available": []
            },
            "type": "Feature"
        },
        {
            "geometry": {
                "coordinates": [
                    6.123585,
                    50.96066
                ],
                "type": "Point"
            },
            "properties": {
                "capacity": 6,
                "is_installed": true,
                "is_renting": true,
                "is_returning": true,
                "is_virtual_station": false,
                "last_reported": 1789249702,
                "name": "Geilenkirchen Bahnhof",
                "num_bikes_available": 12,
                "num_docks_available": 1,
                "region_id": "808",
                "rental_uris": {
                    "android": "https://app.nextbike.net/station?id=111074138",
                    "ios": "https://app.nextbike.net/station?id=111074138",
                    "web": "https://nxtb.it/p/111074138"
                },
                "short_name": "30201",
                "station_id": "111074138",
                "vehicle_types_available": [
                    {
                        "count": 6,
                        "vehicle_type_id": "196"
                    },
                    {
                        "count": 6,
                        "vehicle_type_id": "204"
                    }
                ]
            },
            "type": "Feature"
        },
        {
            "geometry": {
                "coordinates": [
                    6.108007,
                    51.061597
                ],
                "type": "Point"
            },
            "properties": {
                "capacity": 12,
                "is_installed": true,
                "is_renting": true,
                "is_returning": true,
                "is_virtual_station": false,
                "last_reported": 1789249702,
                "name": "Heinsberg Kreishaus",
                "num_bikes_available": 6,
                "num_docks_available": 6,
                "region_id": "809",
                "rental_uris": {
                    "android": "https://app.nextbike.net/station?id=111074333",
                    "ios": "https://app.nextbike.net/station?id=111074333",
                    "web": "https://nxtb.it/p/111074333"
                },
                "short_name": "30202",
                "station_id": "111074333",
                "vehicle_types_available": [
                    {
                        "count": 4,
                        "vehicle_type_id": "196"
                    },
                    {
                        "count": 2,
                        "vehicle_type_id": "204"
                    }
                ]
            },
            "type": "Feature"
        },
        {
            "geometry": {
                "coordinates": [
                    6.22592,
                    51.05511
                ],
                "type": "Point"
            },
            "properties": {
                "capacity": 12,
                "is_installed": true,
                "is_renting": true,
                "is_returning": true,
                "is_virtual_station": false,
                "last_reported": 1789249702,
                "name": "H\u00fcckelhoven Gymnasium",
                "num_bikes_available": 5,
                "num_docks_available": 7,
                "region_id": "810",
                "rental_uris": {
                    "android": "https://app.nextbike.net/station?id=111074545",
                    "ios": "https://app.nextbike.net/station?id=111074545",
                    "web": "https://nxtb.it/p/111074545"
                },
                "short_name": "30203",
                "station_id": "111074545",
                "vehicle_types_available": [
                    {
                        "count": 3,
                        "vehicle_type_id": "196"
                    },
                    {
                        "count": 2,
                        "vehicle_type_id": "204"
                    }
                ]
            },
            "type": "Feature"
        },
        {
            "geometry": {
                "coordinates": [
                    6.2803,
                    51.14491
                ],
                "type": "Point"
            },
            "properties": {
                "capacity": 6,
                "is_installed": true,
                "is_renting": true,
                "is_returning": true,
                "is_virtual_station": false,
                "last_reported": 1789249702,
                "name": "Wegberg Bahnhof",
                "num_bikes_available": 6,
                "num_docks_available": 3,
                "region_id": "811",
                "rental_uris": {
                    "android": "https://app.nextbike.net/station?id=111074647",
                    "ios": "https://app.nextbike.net/station?id=111074647",
                    "web": "https://nxtb.it/p/111074647"
                },
                "short_name": "30204",
                "station_id": "111074647",
                "vehicle_types_available": [
                    {
                        "count": 2,
                        "vehicle_type_id": "196"
                    },
                    {
                        "count": 1,
                        "vehicle_type_id": "150"
                    },
                    {
                        "count": 3,
                        "vehicle_type_id": "204"
                    }
                ]
            },
            "type": "Feature"
        }
    ],
    "gbfs": {
        "station_information": {
            "last_updated": 1789249702,
            "ttl": 60,
            "version": "2.3"
        },
        "station_status": {
            "last_updated": 1789249702,
            "ttl": 60,
            "version": "2.3"
        }
    },
    "type": "FeatureCollection"
}