{
    "features": [
        {
            "geometry": {
                "coordinates": [
                    16.54222,
                    46.019184
                ],
                "type": "Point"
            },
            "properties": {
                "is_installed": true,
                "is_renting": true,
                "is_returning": true,
                "is_virtual_station": false,
                "last_reported": 1789136699,
                "name": "Razvojni centar i tehnolo\u0161ki park",
                "num_bikes_available": 4,
                "num_docks_available": 0,
                "region_id": "714",
                "rental_uris": {
                    "android": "https://app.nextbike.net/station?id=162966005",
                    "ios": "https://app.nextbike.net/station?id=162966005",
                    "web": "https://nxtb.it/p/162966005"
                },
                "short_name": "31070",
                "station_id": "162966005",
                "vehicle_types_available": [
                    {
                        "count": 4,
                        "vehicle_type_id": "150"
                    }
                ]
            },
            "type": "Feature"
        },
        {
            "geometry": {
                "coordinates": [
                    16.54393,
                    46.007947
                ],
                "type": "Point"
            },
            "properties": {
                "is_installed": true,
                "is_renting": true,
                "is_returning": true,
                "is_virtual_station": false,
                "last_reported": 1789136699,
                "name": "\u017deljezni\u010dki kolodvor Kri\u017eevci",
                "num_bikes_available": 3,
                "num_docks_available": 0,
                "region_id": "714",
                "rental_uris": {
                    "android": "https://app.nextbike.net/station?id=46119246",
                    "ios": "https://app.nextbike.net/station?id=46119246",
                    "web": "https://nxtb.it/p/46119246"
                },
                "short_name": "31060",
                "station_id": "46119246",
                "vehicle_types_available": [
                    {
                        "count": 3,
                        "vehicle_type_id": "150"
                    }
                ]
            },
            "type": "Feature"
        },
        {
            "geometry": {
                "coordinates": [
                    16.545283,
                    46.013437
                ],
                "type": "Point"
            },
            "properties": {
                "is_installed": true,
                "is_renting": true,
                "is_returning": true,
                "is_virtual_station": false,
                "last_reported": 1789136699,
                "name": "\u0160umarija",
                "num_bikes_available": 2,
                "num_docks_available": 0,
                "region_id": "714",
                "rental_uris": {
                    "android": "https://app.nextbike.net/station?id=46244749",
                    "ios": "https://app.nextbike.net/station?id=46244749",
                    "web": "https://nxtb.it/p/46244749"
                },
                "short_name": "31061",
                "station_id": "46244749",
                "vehicle_types_available": [
                    {
                        "count": 2,
                        "vehicle_type_id": "150"
                    }
                ]
            },
            "type": "Feature"
        },
        {
            "geometry": {
                "coordinates": [
                    16.547934,
                    46.021691
                ],
                "type": "Point"
            },
            "properties": {
                "is_installed": true,
                "is_renting": true,
                "is_returning": true,
                "is_virtual_station": false,
                "last_reported": 1789136699,
                "name": "Kineska",
                "num_bikes_available": 8,
                "num_docks_available": 0,
                "region_id": "714",
                "rental_uris": {
                    "android": "https://app.nextbike.net/station?id=46244816",
                    "ios": "https://app.nextbike.net/station?id=46244816",
                    "web": "https://nxtb.it/p/46244816"
                },
                "short_name": "31062",
                "station_id": "46244816",
                "vehicle_types_available": [
                    {
                        "count": 6,
                        "vehicle_type_id": "150"
                    },
                    {
                        "count": 2,
                        "vehicle_type_id": "71"
                    }
                ]
            },
            "type": "Feature"
        },
        {
            "geometry": {
                "coordinates": [
                    16.551053,
                    46.023108
                ],
                "type": "Point"
            },
            "properties": {
                "is_installed": true,
                "is_renting": true,
                "is_returning": true,
                "is_virtual_station": false,
                "last_reported": 1789136699,
                "name": "Koprivni\u010dka",
                "num_bikes_available": 6,
                "num_docks_available": 0,
                "region_id": "714",
                "rental_uris": {
                    "android": "https://app.nextbike.net/station?id=46244862",
                    "ios": "https://app.nextbike.net/station?id=46244862",
                    "web": "https://nxtb.it/p/46244862"
                },
                "short_name": "31063",
                "station_id": "46244862",
                "vehicle_types_available": [
                    {
                        "count": 6,
                        "vehicle_type_id": "150"
                    }
                ]
            },
            "type": "Feature"
        },
        {
            "geometry": {
                "coordinates": [
                    16.548995,
                    46.02899
                ],
                "type": "Point"
            },
            "properties": {
                "is_installed": true,
                "is_renting": true,
                "is_returning": true,
                "is_virtual_station": false,
                "last_reported": 1789136699,
                "name": "Sportska dvorana",
                "num_bikes_available": 4,
                "num_docks_available": 0,
                "region_id": "714",
                "rental_uris": {
                    "android": "https://app.nextbike.net/station?id=46244942",
                    "ios": "https://app.nextbike.net/station?id=46244942",
                    "web": "https://nxtb.it/p/46244942"
                },
                "short_name": "31064",
                "station_id": "46244942",
                "vehicle_types_available": [
                    {
                        "count": 4,
                        "vehicle_type_id": "150"
                    }
                ]
            },
            "type": "Feature"
        },
        {
            "geometry": {
                "coordinates": [
                    16.540148,
                    46.039194
                ],
                "type": "Point"
            },
            "properties": {
                "is_installed": true,
                "is_renting": true,
                "is_returning": true,
                "is_virtual_station": false,
                "last_reported": 1789136699,
                "name": "Groblje",
                "num_bikes_available": 6,
                "num_docks_available": 0,
                "region_id": "714",
                "rental_uris": {
                    "android": "https://app.nextbike.net/station?id=46244986",
                    "ios": "https://app.nextbike.net/station?id=46244986",
                    "web": "https://nxtb.it/p/46244986"
                },
                "short_name": "31065",
                "station_id": "46244986",
                "vehicle_types_available": [
                    {
                        "count": 6,
                        "vehicle_type_id": "150"
                    }
                ]
            },
            "type": "Feature"
        },
        {
            "geometry": {
                "coordinates": [
                    16.541773,
                    46.032847
                ],
                "type": "Point"
            },
            "properties": {
                "is_installed": true,
                "is_renting": true,
                "is_returning": true,
                "is_virtual_station": false,
                "last_reported": 1789136699,
                "name": "Rotor Markovi\u0107eva",
                "num_bikes_available": 2,
                "num_docks_available": 0,
                "region_id": "714",
                "rental_uris": {
                    "android": "https://app.nextbike.net/station?id=46245110",
                    "ios": "https://app.nextbike.net/station?id=46245110",
                    "web": "https://nxtb.it/p/46245110"
                },
                "short_name": "31066",
                "station_id": "46245110",
                "vehicle_types_available": [
                    {
                        "count": 2,
                        "vehicle_type_id": "150"
                    }
                ]
            },
            "type": "Feature"
        },
        {
            "geometry": {
                "coordinates": [
                    16.540498,
                    46.027846
                ],
                "type": "Point"
            },
            "properties": {
                "is_installed": true,
                "is_renting": true,
                "is_returning": true,
                "is_virtual_station": false,
                "last_reported": 1789136699,
                "name": "Wood",
                "num_bikes_available": 1,
                "num_docks_available": 0,
                "region_id": "714",
                "rental_uris": {
                    "android": "https://app.nextbike.net/station?id=46245158",
                    "ios": "https://app.nextbike.net/station?id=46245158",
                    "web": "https://nxtb.it/p/46245158"
                },
                "short_name": "31067",
                "station_id": "46245158",
                "vehicle_types_available": [
                    {
                        "count": 1,
                        "vehicle_type_id": "150"
                    }
                ]
            },
            "type": "Feature"
        },
        {
            "geometry": {
                "coordinates": [
                    16.533421,
                    46.021972
                ],
                "type": "Point"
            },
            "properties": {
                "is_installed": true,
                "is_renting": true,
                "is_returning": true,
                "is_virtual_station": false,
                "last_reported": 1789136699,
                "name": "Koru\u0161ka",
                "num_bikes_available": 5,
                "num_docks_available": 0,
                "region_id": "714",
                "rental_uris": {
                    "android": "https://app.nextbike.net/station?id=46245206",
                    "ios": "https://app.nextbike.net/station?id=46245206",
                    "web": "https://nxtb.it/p/46245206"
                },
                "short_name": "31068",
                "station_id": "46245206",
                "vehicle_types_available": [
                    {
                        "count": 5,
                        "vehicle_type_id": "150"
                    }
                ]
            },
            "type": "Feature"
        },
        {
            "geometry": {
                "coordinates": [
                    16.545282,
                    46.025803
                ],
                "type": "Point"
            },
            "properties": {
                "is_installed": true,
                "is_renting": true,
                "is_returning": true,
                "is_virtual_station": false,
                "last_reported": 1789136699,
                "name": "Centar",
                "num_bikes_available": 0,
                "num_docks_available": 0,
                "region_id": "714",
                "rental_uris": {
                    "android": "https://app.nextbike.net/station?id=46245291",
                    "ios": "https://app.nextbike.net/station?id=46245291",
                    "web": "https://nxtb.it/p/46245291"
                },
                "short_name": "31069",
                "station_id": "46245291",
                "vehicle_types_available": []
            },
            "type": "Feature"
        },
        {
            "geometry": {
                "coordinates": [
                    16.538132,
                    46.022691
                ],
                "type": "Point"
            },
            "properties": {
                "is_installed": true,
                "is_renting": true,
                "is_returning": true,
                "is_virtual_station": false,
                "last_reported": 1789136699,
                "name": "AMK Kri\u017eevci",
                "num_bikes_available": 6,
                "num_docks_available": 0,
                "region_id": "714",
                "rental_uris": {
                    "android": "https://app.nextbike.net/station?id=529546511",
                    "ios": "https://app.nextbike.net/station?id=529546511",
                    "web": "https://nxtb.it/p/529546511"
                },
                "short_name": "31071",
                "station_id": "529546511",
                "vehicle_types_available": [
                    {
                        "count": 6,
                        "vehicle_type_id": "150"
                    }
                ]
            },
            "type": "Feature"
        },
        {
            "geometry": {
                "coordinates": [
                    16.546521,
                    46.024107
                ],
                "type": "Point"
            },
            "properties": {
                "is_installed": true,
                "is_renting": true,
                "is_returning": true,
                "is_virtual_station": false,
                "last_reported": 1789136699,
                "name": "Sinagoga",
                "num_bikes_available": 1,
                "num_docks_available": 0,
                "region_id": "714",
                "rental_uris": {
                    "android": "https://app.nextbike.net/station?id=529547568",
                    "ios": "https://app.nextbike.net/station?id=529547568",
                    "web": "https://nxtb.it/p/529547568"
                },
                "short_name": "31072",
                "station_id": "529547568",
                "vehicle_types_available": [
                    {
                        "count": 1,
                        "vehicle_type_id": "150"
                    }
                ]
            },
            "type": "Feature"
        },
        {
            "geometry": {
                "coordinates": [
                    16.544652,
                    46.022174
                ],
                "type": "Point"
            },
            "properties": {
                "is_installed": true,
                "is_renting": true,
                "is_returning": true,
                "is_virtual_station": false,
                "last_reported": 1789136699,
                "name": "Gradska knji\u017enica",
                "num_bikes_available": 1,
                "num_docks_available": 0,
                "region_id": "714",
                "rental_uris": {
                    "android": "https://app.nextbike.net/station?id=529549608",
                    "ios": "https://app.nextbike.net/station?id=529549608",
                    "web": "https://nxtb.it/p/529549608"
                },
                "short_name": "31073",
                "station_id": "529549608",
                "vehicle_types_available": [
                    {
                        "count": 1,
                        "vehicle_type_id": "150"
                    }
                ]
            },
            "type": "Feature"
        },
        {
            "geometry": {
                "coordinates": [
                    16.546534,
                    46.022135
                ],
                "type": "Point"
            },
            "properties": {
                "is_installed": true,
                "is_renting": true,
                "is_returning": true,
                "is_virtual_station": false,
                "last_reported": 1789136699,
                "name": "Neboder",
                "num_bikes_available": 3,
                "num_docks_available": 0,
                "region_id": "714",
                "rental_uris": {
                    "android": "https://app.nextbike.net/station?id=529551878",
                    "ios": "https://app.nextbike.net/station?id=529551878",
                    "web": "https://nxtb.it/p/529551878"
                },
                "short_name": "31074",
                "station_id": "529551878",
                "vehicle_types_available": [
                    {
                        "count": 3,
                        "vehicle_type_id": "150"
                    }
                ]
            },
            "type": "Feature"
        }
    ],
    "gbfs": {
        "station_information": {
            "last_updated": 1789136699,
            "ttl": 60,
            "version": "2.3"
        },
        "station_status": {
            "last_updated": 1789136699,
            "ttl": 60,
            "version": "2.3"
        }
    },
    "type": "FeatureCollection"
}