{
    "features": [
        {
            "geometry": {
                "coordinates": [
                    -7.54,
                    40.8221
                ],
                "type": "Point"
            },
            "properties": {
                "address": "Rua Frei Joaquim Santa Viterbo",
                "capacity": 5,
                "is_installed": true,
                "is_renting": true,
                "is_returning": true,
                "last_reported": "2026-09-12T21:29:36.000Z",
                "name": [
                    {
                        "language": "en",
                        "text": "Aguiar Beira - Esc. Padre J. Fonseca"
                    },
                    {
                        "language": "pt",
                        "text": "Aguiar Beira - Esc. Padre J. Fonseca"
                    }
                ],
                "num_docks_available": 1,
                "num_docks_disabled": 0,
                "num_vehicles_available": 4,
                "num_vehicles_disabled": 0,
                "short_name": [
                    {
                        "language": "en",
                        "text": "0029-P01"
                    },
                    {
                        "language": "pt",
                        "text": "0029-P01"
                    }
                ],
                "station_id": "378"
            },
            "type": "Feature"
        },
        {
            "geometry": {
                "coordinates": [
                    -7.53482,
                    40.8146
                ],
                "type": "Point"
            },
            "properties": {
                "address": "Avenida Europa ",
                "capacity": 5,
                "is_installed": true,
                "is_renting": true,
                "is_returning": true,
                "last_reported": "2026-09-12T21:29:40.000Z",
                "name": [
                    {
                        "language": "en",
                        "text": "Aguiar Beira - Compl. D. Municipal"
                    },
                    {
                        "language": "pt",
                        "text": "Aguiar Beira - Compl. D. Municipal"
                    }
                ],
                "num_docks_available": 2,
                "num_docks_disabled": 0,
                "num_vehicles_available": 3,
                "num_vehicles_disabled": 0,
                "short_name": [
                    {
                        "language": "en",
                        "text": "0029-P02"
                    },
                    {
                        "language": "pt",
                        "text": "0029-P02"
                    }
                ],
                "station_id": "379"
            },
            "type": "Feature"
        },
        {
            "geometry": {
                "coordinates": [
                    -7.98678,
                    40.4369
                ],
                "type": "Point"
            },
            "properties": {
                "address": "Arruamento Urbano Sul Vila  (oeste)",
                "capacity": 5,
                "is_installed": true,
                "is_renting": true,
                "is_returning": true,
                "last_reported": "2026-09-12T21:29:40.000Z",
                "name": [
                    {
                        "language": "en",
                        "text": "Carregal do Sal - Albergaria"
                    },
                    {
                        "language": "pt",
                        "text": "Carregal do Sal - Albergaria"
                    }
                ],
                "num_docks_available": 2,
                "num_docks_disabled": 0,
                "num_vehicles_available": 3,
                "num_vehicles_disabled": 0,
                "short_name": [
                    {
                        "language": "en",
                        "text": "0029-P03"
                    },
                    {
                        "language": "pt",
                        "text": "0029-P03"
                    }
                ],
                "station_id": "380"
            },
            "type": "Feature"
        },
        {
            "geometry": {
                "coordinates": [
                    -7.9974,
                    40.4313
                ],
                "type": "Point"
            },
            "properties": {
                "address": "Arruamento Urbano Sul Vila  (este)",
                "capacity": 5,
                "is_installed": true,
                "is_renting": true,
                "is_returning": true,
                "last_reported": "2026-09-12T21:29:40.000Z",
                "name": [
                    {
                        "language": "en",
                        "text": "Carregal do Sal - Gorgol\u00e3o"
                    },
                    {
                        "language": "pt",
                        "text": "Carregal do Sal - Gorgol\u00e3o"
                    }
                ],
                "num_docks_available": 2,
                "num_docks_disabled": 0,
                "num_vehicles_available": 3,
                "num_vehicles_disabled": 0,
                "short_name": [
                    {
                        "language": "en",
                        "text": "0029-P04"
                    },
                    {
                        "language": "pt",
                        "text": "0029-P04"
                    }
                ],
                "station_id": "381"
            },
            "type": "Feature"
        },
        {
            "geometry": {
                "coordinates": [
                    -7.93371,
                    40.8977
                ],
                "type": "Point"
            },
            "properties": {
                "address": "Largo  do Coreto",
                "capacity": 5,
                "is_installed": true,
                "is_renting": true,
                "is_returning": true,
                "last_reported": "2026-09-12T21:29:40.000Z",
                "name": [
                    {
                        "language": "en",
                        "text": "Castro Daire - Largo  do Coreto"
                    },
                    {
                        "language": "pt",
                        "text": "Castro Daire - Largo  do Coreto"
                    }
                ],
                "num_docks_available": 2,
                "num_docks_disabled": 0,
                "num_vehicles_available": 3,
                "num_vehicles_disabled": 0,
                "short_name": [
                    {
                        "language": "en",
                        "text": "0029-P05"
                    },
                    {
                        "language": "pt",
                        "text": "0029-P05"
                    }
                ],
                "station_id": "382"
            },
            "type": "Feature"
        },
        {
            "geometry": {
                "coordinates": [
                    -7.93518,
                    40.8521
                ],
                "type": "Point"
            },
            "properties": {
                "address": "Termas do Carvalhal",
                "capacity": 5,
                "is_installed": true,
                "is_renting": true,
                "is_returning": true,
                "last_reported": "2026-09-12T21:29:41.000Z",
                "name": [
                    {
                        "language": "en",
                        "text": "Castro Daire - Termas do Carvalhal"
                    },
                    {
                        "language": "pt",
                        "text": "Castro Daire - Termas do Carvalhal"
                    }
                ],
                "num_docks_available": 3,
                "num_docks_disabled": 0,
                "num_vehicles_available": 2,
                "num_vehicles_disabled": 0,
                "short_name": [
                    {
                        "language": "en",
                        "text": "0029-P06"
                    },
                    {
                        "language": "pt",
                        "text": "0029-P06"
                    }
                ],
                "station_id": "383"
            },
            "type": "Feature"
        },
        {
            "geometry": {
                "coordinates": [
                    -7.76117,
                    40.6065
                ],
                "type": "Point"
            },
            "properties": {
                "address": "Av. Nossa Senhora do Castelo ",
                "capacity": 5,
                "is_installed": true,
                "is_renting": true,
                "is_returning": true,
                "last_reported": "2026-09-12T21:29:37.000Z",
                "name": [
                    {
                        "language": "en",
                        "text": "Mangualde - Mercado Municipal"
                    },
                    {
                        "language": "pt",
                        "text": "Mangualde - Mercado Municipal"
                    }
                ],
                "num_docks_available": 0,
                "num_docks_disabled": 0,
                "num_vehicles_available": 10,
                "num_vehicles_disabled": 0,
                "short_name": [
                    {
                        "language": "en",
                        "text": "0029-P07"
                    },
                    {
                        "language": "pt",
                        "text": "0029-P07"
                    }
                ],
                "station_id": "384"
            },
            "type": "Feature"
        },
        {
            "geometry": {
                "coordinates": [
                    -7.75665,
                    40.6081
                ],
                "type": "Point"
            },
            "properties": {
                "address": "Av. Nossa Senhora do Castelo rotunda",
                "capacity": 5,
                "is_installed": true,
                "is_renting": true,
                "is_returning": true,
                "last_reported": "2026-09-12T21:29:40.000Z",
                "name": [
                    {
                        "language": "en",
                        "text": "Mangualde - Parque Urbano"
                    },
                    {
                        "language": "pt",
                        "text": "Mangualde - Parque Urbano"
                    }
                ],
                "num_docks_available": 0,
                "num_docks_disabled": 0,
                "num_vehicles_available": 5,
                "num_vehicles_disabled": 0,
                "short_name": [
                    {
                        "language": "en",
                        "text": "0029-P08"
                    },
                    {
                        "language": "pt",
                        "text": "0029-P08"
                    }
                ],
                "station_id": "385"
            },
            "type": "Feature"
        },
        {
            "geometry": {
                "coordinates": [
                    -7.75229,
                    40.6005
                ],
                "type": "Point"
            },
            "properties": {
                "address": "Rua Jos\u00e9 Maria de Almeida",
                "capacity": 5,
                "is_installed": true,
                "is_renting": true,
                "is_returning": true,
                "last_reported": "2026-09-12T21:29:38.000Z",
                "name": [
                    {
                        "language": "en",
                        "text": "Mangualde - Biblioteca Municipal"
                    },
                    {
                        "language": "pt",
                        "text": "Mangualde - Biblioteca Municipal"
                    }
                ],
                "num_docks_available": 5,
                "num_docks_disabled": 0,
                "num_vehicles_available": 0,
                "num_vehicles_disabled": 0,
                "short_name": [
                    {
                        "language": "en",
                        "text": "0029-P09"
                    },
                    {
                        "language": "pt",
                        "text": "0029-P09"
                    }
                ],
                "station_id": "386"
            },
            "type": "Feature"
        },
        {
            "geometry": {
                "coordinates": [
                    -7.8475,
                    40.5391
                ],
                "type": "Point"
            },
            "properties": {
                "address": "Av. Dr. Fortunato de Almeida",
                "capacity": 5,
                "is_installed": true,
                "is_renting": true,
                "is_returning": true,
                "last_reported": "2026-09-12T21:29:38.000Z",
                "name": [
                    {
                        "language": "en",
                        "text": "Nelas - Av Dr. Fortunato de Almeida"
                    },
                    {
                        "language": "pt",
                        "text": "Nelas - Av Dr. Fortunato de Almeida"
                    }
                ],
                "num_docks_available": 3,
                "num_docks_disabled": 0,
                "num_vehicles_available": 2,
                "num_vehicles_disabled": 0,
                "short_name": [
                    {
                        "language": "en",
                        "text": "0029-P10"
                    },
                    {
                        "language": "pt",
                        "text": "0029-P10"
                    }
                ],
                "station_id": "387"
            },
            "type": "Feature"
        },
        {
            "geometry": {
                "coordinates": [
                    -7.85425,
                    40.53
                ],
                "type": "Point"
            },
            "properties": {
                "address": "Rua Luis de Camoes ",
                "capacity": 5,
                "is_installed": true,
                "is_renting": true,
                "is_returning": true,
                "last_reported": "2026-09-12T21:29:38.000Z",
                "name": [
                    {
                        "language": "en",
                        "text": "Nelas - Posto de Turismo"
                    },
                    {
                        "language": "pt",
                        "text": "Nelas - Posto de Turismo"
                    }
                ],
                "num_docks_available": 3,
                "num_docks_disabled": 0,
                "num_vehicles_available": 2,
                "num_vehicles_disabled": 0,
                "short_name": [
                    {
                        "language": "en",
                        "text": "0029-P11"
                    },
                    {
                        "language": "pt",
                        "text": "0029-P11"
                    }
                ],
                "station_id": "388"
            },
            "type": "Feature"
        },
        {
            "geometry": {
                "coordinates": [
                    -8.17424,
                    40.7303
                ],
                "type": "Point"
            },
            "properties": {
                "address": "Rua  Padre Jo\u00e3o Matos",
                "capacity": 5,
                "is_installed": true,
                "is_renting": true,
                "is_returning": true,
                "last_reported": "2026-09-12T21:29:39.000Z",
                "name": [
                    {
                        "language": "en",
                        "text": "Oliveira de Frades - Rua Padre J. Matos"
                    },
                    {
                        "language": "pt",
                        "text": "Oliveira de Frades - Rua Padre J. Matos"
                    }
                ],
                "num_docks_available": 3,
                "num_docks_disabled": 0,
                "num_vehicles_available": 2,
                "num_vehicles_disabled": 0,
                "short_name": [
                    {
                        "language": "en",
                        "text": "0029-P12"
                    },
                    {
                        "language": "pt",
                        "text": "0029-P12"
                    }
                ],
                "station_id": "389"
            },
            "type": "Feature"
        },
        {
            "geometry": {
                "coordinates": [
                    -8.17571,
                    40.7259
                ],
                "type": "Point"
            },
            "properties": {
                "address": "Av. Dr. Arm\u00e9nio Maia",
                "capacity": 5,
                "is_installed": true,
                "is_renting": true,
                "is_returning": true,
                "last_reported": "2026-07-05T15:55:10.000Z",
                "name": [
                    {
                        "language": "en",
                        "text": "Oliveira de Frades - Av. Dr. Arm\u00e9nio Maia"
                    },
                    {
                        "language": "pt",
                        "text": "Oliveira de Frades - Av. Dr. Arm\u00e9nio Maia"
                    }
                ],
                "num_docks_available": 3,
                "num_docks_disabled": 0,
                "num_vehicles_available": 2,
                "num_vehicles_disabled": 0,
                "short_name": [
                    {
                        "language": "en",
                        "text": "0029-P13"
                    },
                    {
                        "language": "pt",
                        "text": "0029-P13"
                    }
                ],
                "station_id": "390"
            },
            "type": "Feature"
        },
        {
            "geometry": {
                "coordinates": [
                    -7.70143,
                    40.6761
                ],
                "type": "Point"
            },
            "properties": {
                "address": "Av. Castendo",
                "capacity": 5,
                "is_installed": true,
                "is_renting": true,
                "is_returning": true,
                "last_reported": "2026-09-12T21:29:40.000Z",
                "name": [
                    {
                        "language": "en",
                        "text": "Penalva do Castelo - Avenida Castendo"
                    },
                    {
                        "language": "pt",
                        "text": "Penalva do Castelo - Avenida Castendo"
                    }
                ],
                "num_docks_available": 5,
                "num_docks_disabled": 0,
                "num_vehicles_available": 0,
                "num_vehicles_disabled": 0,
                "short_name": [
                    {
                        "language": "en",
                        "text": "0029-P14"
                    },
                    {
                        "language": "pt",
                        "text": "0029-P14"
                    }
                ],
                "station_id": "391"
            },
            "type": "Feature"
        },
        {
            "geometry": {
                "coordinates": [
                    -7.69606,
                    40.6792
                ],
                "type": "Point"
            },
            "properties": {
                "address": "Rua da Escola",
                "capacity": 5,
                "is_installed": true,
                "is_renting": true,
                "is_returning": true,
                "last_reported": "2026-02-19T16:08:09.000Z",
                "name": [
                    {
                        "language": "en",
                        "text": "Penalva do Castelo - Rua da Escola"
                    },
                    {
                        "language": "pt",
                        "text": "Penalva do Castelo - Rua da Escola"
                    }
                ],
                "num_docks_available": 5,
                "num_docks_disabled": 0,
                "num_vehicles_available": 0,
                "num_vehicles_disabled": 0,
                "short_name": [
                    {
                        "language": "en",
                        "text": "0029-P15"
                    },
                    {
                        "language": "pt",
                        "text": "0029-P15"
                    }
                ],
                "station_id": "392"
            },
            "type": "Feature"
        },
        {
            "geometry": {
                "coordinates": [
                    -8.06346,
                    40.7628
                ],
                "type": "Point"
            },
            "properties": {
                "address": "Largo Cam\u00f5es ",
                "capacity": 5,
                "is_installed": true,
                "is_renting": true,
                "is_returning": true,
                "last_reported": "2026-09-12T21:29:41.000Z",
                "name": [
                    {
                        "language": "en",
                        "text": "S. Pedro Sul - Largo Cam\u00f5es "
                    },
                    {
                        "language": "pt",
                        "text": "S. Pedro Sul - Largo Cam\u00f5es "
                    }
                ],
                "num_docks_available": 3,
                "num_docks_disabled": 0,
                "num_vehicles_available": 2,
                "num_vehicles_disabled": 0,
                "short_name": [
                    {
                        "language": "en",
                        "text": "0029-P16"
                    },
                    {
                        "language": "pt",
                        "text": "0029-P16"
                    }
                ],
                "station_id": "393"
            },
            "type": "Feature"
        },
        {
            "geometry": {
                "coordinates": [
                    -8.06084,
                    40.76
                ],
                "type": "Point"
            },
            "properties": {
                "address": "Avenida da Ponte",
                "capacity": 5,
                "is_installed": true,
                "is_renting": true,
                "is_returning": true,
                "last_reported": "2026-09-12T21:29:41.000Z",
                "name": [
                    {
                        "language": "en",
                        "text": "S. Pedro Sul - CITE"
                    },
                    {
                        "language": "pt",
                        "text": "S. Pedro Sul - CITE"
                    }
                ],
                "num_docks_available": 0,
                "num_docks_disabled": 0,
                "num_vehicles_available": 8,
                "num_vehicles_disabled": 0,
                "short_name": [
                    {
                        "language": "en",
                        "text": "0029-P17"
                    },
                    {
                        "language": "pt",
                        "text": "0029-P17"
                    }
                ],
                "station_id": "394"
            },
            "type": "Feature"
        },
        {
            "geometry": {
                "coordinates": [
                    -8.09009,
                    40.739
                ],
                "type": "Point"
            },
            "properties": {
                "address": "Rua Central",
                "capacity": 5,
                "is_installed": true,
                "is_renting": true,
                "is_returning": true,
                "last_reported": "2026-09-12T21:29:38.000Z",
                "name": [
                    {
                        "language": "en",
                        "text": "S. Pedro Sul - Esta\u00e7\u00e3o Antiga"
                    },
                    {
                        "language": "pt",
                        "text": "S. Pedro Sul - Esta\u00e7\u00e3o Antiga"
                    }
                ],
                "num_docks_available": 4,
                "num_docks_disabled": 0,
                "num_vehicles_available": 1,
                "num_vehicles_disabled": 0,
                "short_name": [
                    {
                        "language": "en",
                        "text": "0029-P18"
                    },
                    {
                        "language": "pt",
                        "text": "0029-P18"
                    }
                ],
                "station_id": "395"
            },
            "type": "Feature"
        },
        {
            "geometry": {
                "coordinates": [
                    -7.73702,
                    40.7515
                ],
                "type": "Point"
            },
            "properties": {
                "address": "Rua Francisco S\u00e1 Carneiro",
                "capacity": 5,
                "is_installed": true,
                "is_renting": true,
                "is_returning": true,
                "last_reported": "2026-09-12T21:28:24.000Z",
                "name": [
                    {
                        "language": "en",
                        "text": "Sat\u00e3o - Rua Francisco S\u00e1 Carneiro"
                    },
                    {
                        "language": "pt",
                        "text": "Sat\u00e3o - Rua Francisco S\u00e1 Carneiro"
                    }
                ],
                "num_docks_available": 5,
                "num_docks_disabled": 0,
                "num_vehicles_available": 0,
                "num_vehicles_disabled": 0,
                "short_name": [
                    {
                        "language": "en",
                        "text": "0029-P19"
                    },
                    {
                        "language": "pt",
                        "text": "0029-P19"
                    }
                ],
                "station_id": "396"
            },
            "type": "Feature"
        },
        {
            "geometry": {
                "coordinates": [
                    -7.73459,
                    40.7419
                ],
                "type": "Point"
            },
            "properties": {
                "address": "Largo S\u00e3o Bernardo",
                "capacity": 5,
                "is_installed": true,
                "is_renting": true,
                "is_returning": true,
                "last_reported": "2026-09-12T21:29:38.000Z",
                "name": [
                    {
                        "language": "en",
                        "text": "Sat\u00e3o - Largo S\u00e3o Bernardo"
                    },
                    {
                        "language": "pt",
                        "text": "Sat\u00e3o - Largo S\u00e3o Bernardo"
                    }
                ],
                "num_docks_available": 1,
                "num_docks_disabled": 0,
                "num_vehicles_available": 4,
                "num_vehicles_disabled": 0,
                "short_name": [
                    {
                        "language": "en",
                        "text": "0029-P20"
                    },
                    {
                        "language": "pt",
                        "text": "0029-P20"
                    }
                ],
                "station_id": "397"
            },
            "type": "Feature"
        },
        {
            "geometry": {
                "coordinates": [
                    -8.07968,
                    40.5198
                ],
                "type": "Point"
            },
            "properties": {
                "address": "Rua Cmte. Jo\u00e3o Matos Ferreira",
                "capacity": 5,
                "is_installed": true,
                "is_renting": true,
                "is_returning": true,
                "last_reported": "2026-09-12T21:29:39.000Z",
                "name": [
                    {
                        "language": "en",
                        "text": "Tondela - Parque Urbano"
                    },
                    {
                        "language": "pt",
                        "text": "Tondela - Parque Urbano"
                    }
                ],
                "num_docks_available": 4,
                "num_docks_disabled": 0,
                "num_vehicles_available": 1,
                "num_vehicles_disabled": 0,
                "short_name": [
                    {
                        "language": "en",
                        "text": "0029-P21"
                    },
                    {
                        "language": "pt",
                        "text": "0029-P21"
                    }
                ],
                "station_id": "398"
            },
            "type": "Feature"
        },
        {
            "geometry": {
                "coordinates": [
                    -8.08702,
                    40.5187
                ],
                "type": "Point"
            },
            "properties": {
                "address": "Pavilh\u00e3o Municipal",
                "capacity": 5,
                "is_installed": true,
                "is_renting": true,
                "is_returning": true,
                "last_reported": "2026-09-12T21:29:40.000Z",
                "name": [
                    {
                        "language": "en",
                        "text": "Tondela - Pavilh\u00e3o Municipal"
                    },
                    {
                        "language": "pt",
                        "text": "Tondela - Pavilh\u00e3o Municipal"
                    }
                ],
                "num_docks_available": 2,
                "num_docks_disabled": 0,
                "num_vehicles_available": 3,
                "num_vehicles_disabled": 0,
                "short_name": [
                    {
                        "language": "en",
                        "text": "0029-P22"
                    },
                    {
                        "language": "pt",
                        "text": "0029-P22"
                    }
                ],
                "station_id": "399"
            },
            "type": "Feature"
        },
        {
            "geometry": {
                "coordinates": [
                    -8.08222,
                    40.519
                ],
                "type": "Point"
            },
            "properties": {
                "address": "Audit\u00f3rio Municipal",
                "capacity": 5,
                "is_installed": true,
                "is_renting": true,
                "is_returning": true,
                "last_reported": "2026-09-12T21:29:40.000Z",
                "name": [
                    {
                        "language": "en",
                        "text": "Tondela - Audit\u00f3rio Municipal"
                    },
                    {
                        "language": "pt",
                        "text": "Tondela - Audit\u00f3rio Municipal"
                    }
                ],
                "num_docks_available": 3,
                "num_docks_disabled": 0,
                "num_vehicles_available": 2,
                "num_vehicles_disabled": 0,
                "short_name": [
                    {
                        "language": "en",
                        "text": "0029-P23"
                    },
                    {
                        "language": "pt",
                        "text": "0029-P23"
                    }
                ],
                "station_id": "400"
            },
            "type": "Feature"
        },
        {
            "geometry": {
                "coordinates": [
                    -7.90966,
                    40.6499
                ],
                "type": "Point"
            },
            "properties": {
                "address": "Av. Rei D. Duarte",
                "capacity": 5,
                "is_installed": true,
                "is_renting": true,
                "is_returning": true,
                "last_reported": "2026-09-12T21:29:36.000Z",
                "name": [
                    {
                        "language": "en",
                        "text": "Viseu  - Interface Hospital"
                    },
                    {
                        "language": "pt",
                        "text": "Viseu  - Interface Hospital"
                    }
                ],
                "num_docks_available": 3,
                "num_docks_disabled": 0,
                "num_vehicles_available": 2,
                "num_vehicles_disabled": 0,
                "short_name": [
                    {
                        "language": "en",
                        "text": "0029-P24"
                    },
                    {
                        "language": "pt",
                        "text": "0029-P24"
                    }
                ],
                "station_id": "401"
            },
            "type": "Feature"
        },
        {
            "geometry": {
                "coordinates": [
                    -7.90347,
                    40.6595
                ],
                "type": "Point"
            },
            "properties": {
                "address": "Av. Jos\u00e9 Neto",
                "capacity": 5,
                "is_installed": true,
                "is_renting": true,
                "is_returning": true,
                "last_reported": "2026-09-12T21:29:37.000Z",
                "name": [
                    {
                        "language": "en",
                        "text": "Viseu - Fontelo/ Av. Jos\u00e9 Relvas"
                    },
                    {
                        "language": "pt",
                        "text": "Viseu - Fontelo/ Av. Jos\u00e9 Relvas"
                    }
                ],
                "num_docks_available": 4,
                "num_docks_disabled": 0,
                "num_vehicles_available": 1,
                "num_vehicles_disabled": 0,
                "short_name": [
                    {
                        "language": "en",
                        "text": "0029-P25"
                    },
                    {
                        "language": "pt",
                        "text": "0029-P25"
                    }
                ],
                "station_id": "402"
            },
            "type": "Feature"
        },
        {
            "geometry": {
                "coordinates": [
                    -7.92006,
                    40.6478
                ],
                "type": "Point"
            },
            "properties": {
                "address": "Rua Alexandre Herculano ",
                "capacity": 5,
                "is_installed": true,
                "is_renting": true,
                "is_returning": true,
                "last_reported": "2026-09-12T21:29:39.000Z",
                "name": [
                    {
                        "language": "en",
                        "text": "Viseu - Instituto Polit\u00e9cnico/ Av. Jos\u00e9 V.  Almeida"
                    },
                    {
                        "language": "pt",
                        "text": "Viseu - Instituto Polit\u00e9cnico/ Av. Jos\u00e9 V.  Almeida"
                    }
                ],
                "num_docks_available": 1,
                "num_docks_disabled": 0,
                "num_vehicles_available": 4,
                "num_vehicles_disabled": 0,
                "short_name": [
                    {
                        "language": "en",
                        "text": "0029-P26"
                    },
                    {
                        "language": "pt",
                        "text": "0029-P26"
                    }
                ],
                "station_id": "403"
            },
            "type": "Feature"
        },
        {
            "geometry": {
                "coordinates": [
                    -7.91556,
                    40.6614
                ],
                "type": "Point"
            },
            "properties": {
                "address": " Av. Dr. Ant\u00f3nio Jos\u00e9 de Almeida",
                "capacity": 5,
                "is_installed": true,
                "is_renting": true,
                "is_returning": true,
                "last_reported": "2026-09-12T21:29:36.000Z",
                "name": [
                    {
                        "language": "en",
                        "text": "Viseu - COMV / Av. Ant. Jos\u00e9 de Almeida"
                    },
                    {
                        "language": "pt",
                        "text": "Viseu - COMV / Av. Ant. Jos\u00e9 de Almeida"
                    }
                ],
                "num_docks_available": 1,
                "num_docks_disabled": 0,
                "num_vehicles_available": 4,
                "num_vehicles_disabled": 0,
                "short_name": [
                    {
                        "language": "en",
                        "text": "0029-P27"
                    },
                    {
                        "language": "pt",
                        "text": "0029-P27"
                    }
                ],
                "station_id": "404"
            },
            "type": "Feature"
        },
        {
            "geometry": {
                "coordinates": [
                    -7.91723,
                    40.6654
                ],
                "type": "Point"
            },
            "properties": {
                "address": " Av. Europa ",
                "capacity": 5,
                "is_installed": true,
                "is_renting": true,
                "is_returning": true,
                "last_reported": "2026-09-12T21:29:36.000Z",
                "name": [
                    {
                        "language": "en",
                        "text": "Viseu - Rotunda Cibern\u00e9tica / Tribunal"
                    },
                    {
                        "language": "pt",
                        "text": "Viseu - Rotunda Cibern\u00e9tica / Tribunal"
                    }
                ],
                "num_docks_available": 0,
                "num_docks_disabled": 0,
                "num_vehicles_available": 5,
                "num_vehicles_disabled": 0,
                "short_name": [
                    {
                        "language": "en",
                        "text": "0029-P28"
                    },
                    {
                        "language": "pt",
                        "text": "0029-P28"
                    }
                ],
                "station_id": "405"
            },
            "type": "Feature"
        },
        {
            "geometry": {
                "coordinates": [
                    -7.90274,
                    40.6675
                ],
                "type": "Point"
            },
            "properties": {
                "address": " Av. Cidade de Salamanca",
                "capacity": 5,
                "is_installed": true,
                "is_renting": true,
                "is_returning": true,
                "last_reported": "2026-09-12T21:29:37.000Z",
                "name": [
                    {
                        "language": "en",
                        "text": "Viseu - Parque Santiago "
                    },
                    {
                        "language": "pt",
                        "text": "Viseu - Parque Santiago "
                    }
                ],
                "num_docks_available": 2,
                "num_docks_disabled": 0,
                "num_vehicles_available": 3,
                "num_vehicles_disabled": 0,
                "short_name": [
                    {
                        "language": "en",
                        "text": "0029-P29"
                    },
                    {
                        "language": "pt",
                        "text": "0029-P29"
                    }
                ],
                "station_id": "406"
            },
            "type": "Feature"
        },
        {
            "geometry": {
                "coordinates": [
                    -7.90901,
                    40.6516
                ],
                "type": "Point"
            },
            "properties": {
                "address": " Rua Aquilino Ribeiro ",
                "capacity": 5,
                "is_installed": true,
                "is_renting": true,
                "is_returning": true,
                "last_reported": "2026-09-12T21:29:38.000Z",
                "name": [
                    {
                        "language": "en",
                        "text": "Viseu - Biblioteca Municipal"
                    },
                    {
                        "language": "pt",
                        "text": "Viseu - Biblioteca Municipal"
                    }
                ],
                "num_docks_available": 2,
                "num_docks_disabled": 0,
                "num_vehicles_available": 3,
                "num_vehicles_disabled": 0,
                "short_name": [
                    {
                        "language": "en",
                        "text": "0029-P30"
                    },
                    {
                        "language": "pt",
                        "text": "0029-P30"
                    }
                ],
                "station_id": "407"
            },
            "type": "Feature"
        },
        {
            "geometry": {
                "coordinates": [
                    -7.9156,
                    40.6515
                ],
                "type": "Point"
            },
            "properties": {
                "address": "Jardim da Alameda Luis de Cam\u00f5es",
                "capacity": 5,
                "is_installed": true,
                "is_renting": true,
                "is_returning": true,
                "last_reported": "2026-09-12T21:29:41.000Z",
                "name": [
                    {
                        "language": "en",
                        "text": "Viseu - Escola Gr\u00e3o Vasco / Jardim Al. Lu\u00eds de Cam\u00f5es"
                    },
                    {
                        "language": "pt",
                        "text": "Viseu - Escola Gr\u00e3o Vasco / Jardim Al. Lu\u00eds de Cam\u00f5es"
                    }
                ],
                "num_docks_available": 1,
                "num_docks_disabled": 0,
                "num_vehicles_available": 4,
                "num_vehicles_disabled": 0,
                "short_name": [
                    {
                        "language": "en",
                        "text": "0029-P31"
                    },
                    {
                        "language": "pt",
                        "text": "0029-P31"
                    }
                ],
                "station_id": "408"
            },
            "type": "Feature"
        },
        {
            "geometry": {
                "coordinates": [
                    -7.91463,
                    40.6569
                ],
                "type": "Point"
            },
            "properties": {
                "address": " Pra\u00e7a da Rep\u00fablica",
                "capacity": 5,
                "is_installed": true,
                "is_renting": true,
                "is_returning": true,
                "last_reported": "2026-09-12T21:29:37.000Z",
                "name": [
                    {
                        "language": "en",
                        "text": "Viseu - Rossio / Pra\u00e7a da Republica "
                    },
                    {
                        "language": "pt",
                        "text": "Viseu - Rossio / Pra\u00e7a da Republica "
                    }
                ],
                "num_docks_available": 5,
                "num_docks_disabled": 0,
                "num_vehicles_available": 0,
                "num_vehicles_disabled": 0,
                "short_name": [
                    {
                        "language": "en",
                        "text": "0029-P32"
                    },
                    {
                        "language": "pt",
                        "text": "0029-P32"
                    }
                ],
                "station_id": "409"
            },
            "type": "Feature"
        },
        {
            "geometry": {
                "coordinates": [
                    -7.9082,
                    40.6607
                ],
                "type": "Point"
            },
            "properties": {
                "address": "Av. Emidio Navarro ",
                "capacity": 5,
                "is_installed": true,
                "is_renting": true,
                "is_returning": true,
                "last_reported": "2026-09-12T21:29:41.000Z",
                "name": [
                    {
                        "language": "en",
                        "text": "Viseu - Escola Em\u00eddio Navarro / Teatro"
                    },
                    {
                        "language": "pt",
                        "text": "Viseu - Escola Em\u00eddio Navarro / Teatro"
                    }
                ],
                "num_docks_available": 4,
                "num_docks_disabled": 0,
                "num_vehicles_available": 1,
                "num_vehicles_disabled": 0,
                "short_name": [
                    {
                        "language": "en",
                        "text": "0029-P33"
                    },
                    {
                        "language": "pt",
                        "text": "0029-P33"
                    }
                ],
                "station_id": "410"
            },
            "type": "Feature"
        },
        {
            "geometry": {
                "coordinates": [
                    -8.10921,
                    40.7224
                ],
                "type": "Point"
            },
            "properties": {
                "address": "Rua Bombeiros Volunt\u00e1rios ",
                "capacity": 5,
                "is_installed": true,
                "is_renting": true,
                "is_returning": true,
                "last_reported": "2026-09-12T21:29:40.000Z",
                "name": [
                    {
                        "language": "en",
                        "text": "Vouzela - Locomotiva"
                    },
                    {
                        "language": "pt",
                        "text": "Vouzela - Locomotiva"
                    }
                ],
                "num_docks_available": 5,
                "num_docks_disabled": 0,
                "num_vehicles_available": 0,
                "num_vehicles_disabled": 0,
                "short_name": [
                    {
                        "language": "en",
                        "text": "0029-P34"
                    },
                    {
                        "language": "pt",
                        "text": "0029-P34"
                    }
                ],
                "station_id": "411"
            },
            "type": "Feature"
        },
        {
            "geometry": {
                "coordinates": [
                    -8.09245,
                    40.7167
                ],
                "type": "Point"
            },
            "properties": {
                "address": "Parque Campismo",
                "capacity": 5,
                "is_installed": true,
                "is_renting": true,
                "is_returning": true,
                "last_reported": "2026-09-12T21:29:39.000Z",
                "name": [
                    {
                        "language": "en",
                        "text": "Vouzela - Parque Campismo"
                    },
                    {
                        "language": "pt",
                        "text": "Vouzela - Parque Campismo"
                    }
                ],
                "num_docks_available": 5,
                "num_docks_disabled": 0,
                "num_vehicles_available": 0,
                "num_vehicles_disabled": 0,
                "short_name": [
                    {
                        "language": "en",
                        "text": "0029-P35"
                    },
                    {
                        "language": "pt",
                        "text": "0029-P35"
                    }
                ],
                "station_id": "412"
            },
            "type": "Feature"
        },
        {
            "geometry": {
                "coordinates": [
                    -7.73226,
                    40.8504
                ],
                "type": "Point"
            },
            "properties": {
                "address": "N323",
                "capacity": 5,
                "is_installed": true,
                "is_renting": true,
                "is_returning": true,
                "last_reported": "2026-09-12T21:29:40.000Z",
                "name": [
                    {
                        "language": "en",
                        "text": "V. N. Paiva - Jardim das Fontes"
                    },
                    {
                        "language": "pt",
                        "text": "V. N. Paiva - Jardim das Fontes"
                    }
                ],
                "num_docks_available": 0,
                "num_docks_disabled": 0,
                "num_vehicles_available": 5,
                "num_vehicles_disabled": 0,
                "short_name": [
                    {
                        "language": "en",
                        "text": "0029-P36"
                    },
                    {
                        "language": "pt",
                        "text": "0029-P36"
                    }
                ],
                "station_id": "413"
            },
            "type": "Feature"
        },
        {
            "geometry": {
                "coordinates": [
                    -7.70902,
                    40.8616
                ],
                "type": "Point"
            },
            "properties": {
                "address": "Esc. Alhais de Baixo",
                "capacity": 5,
                "is_installed": true,
                "is_renting": true,
                "is_returning": true,
                "last_reported": "2026-09-12T21:29:38.000Z",
                "name": [
                    {
                        "language": "en",
                        "text": "V. N. Paiva - Esc. Alhais de Baixo"
                    },
                    {
                        "language": "pt",
                        "text": "V. N. Paiva - Esc. Alhais de Baixo"
                    }
                ],
                "num_docks_available": 3,
                "num_docks_disabled": 0,
                "num_vehicles_available": 2,
                "num_vehicles_disabled": 0,
                "short_name": [
                    {
                        "language": "en",
                        "text": "0029-P37"
                    },
                    {
                        "language": "pt",
                        "text": "0029-P37"
                    }
                ],
                "station_id": "414"
            },
            "type": "Feature"
        },
        {
            "geometry": {
                "coordinates": [
                    -8.13243,
                    40.3971
                ],
                "type": "Point"
            },
            "properties": {
                "address": "R. Dr. Tavares Festas",
                "capacity": 5,
                "is_installed": true,
                "is_renting": true,
                "is_returning": true,
                "last_reported": "2026-09-12T21:29:41.000Z",
                "name": [
                    {
                        "language": "en",
                        "text": "Santa Comba D\u00e3o - C. Municipal"
                    },
                    {
                        "language": "pt",
                        "text": "Santa Comba D\u00e3o - C. Municipal"
                    }
                ],
                "num_docks_available": 4,
                "num_docks_disabled": 0,
                "num_vehicles_available": 1,
                "num_vehicles_disabled": 0,
                "short_name": [
                    {
                        "language": "en",
                        "text": "0029-P38"
                    },
                    {
                        "language": "pt",
                        "text": "0029-P38"
                    }
                ],
                "station_id": "436"
            },
            "type": "Feature"
        },
        {
            "geometry": {
                "coordinates": [
                    -8.13004,
                    40.3965
                ],
                "type": "Point"
            },
            "properties": {
                "address": "N2",
                "capacity": 5,
                "is_installed": true,
                "is_renting": true,
                "is_returning": true,
                "last_reported": "2026-09-12T21:29:40.000Z",
                "name": [
                    {
                        "language": "en",
                        "text": "Santa Comba D\u00e3o - Posto Turismo"
                    },
                    {
                        "language": "pt",
                        "text": "Santa Comba D\u00e3o - Posto Turismo"
                    }
                ],
                "num_docks_available": 0,
                "num_docks_disabled": 0,
                "num_vehicles_available": 5,
                "num_vehicles_disabled": 0,
                "short_name": [
                    {
                        "language": "en",
                        "text": "0029-P39"
                    },
                    {
                        "language": "pt",
                        "text": "0029-P39"
                    }
                ],
                "station_id": "437"
            },
            "type": "Feature"
        }
    ],
    "gbfs": {
        "station_information": {
            "last_updated": "2026-09-12T21:30:06.394Z",
            "ttl": 3600,
            "version": "3.0"
        },
        "station_status": {
            "last_updated": "2026-09-12T21:30:06.394Z",
            "ttl": 0,
            "version": "3.0"
        }
    },
    "type": "FeatureCollection"
}