{
    "features": [
        {
            "geometry": {
                "coordinates": [
                    17.369866,
                    48.681256
                ],
                "type": "Point"
            },
            "properties": {
                "capacity": 10,
                "is_installed": true,
                "is_renting": true,
                "is_returning": true,
                "is_virtual_station": false,
                "last_reported": 1789281434,
                "name": "\u0160tef\u00e1nikova ulica",
                "num_bikes_available": 4,
                "num_docks_available": 6,
                "region_id": "942",
                "rental_uris": {
                    "android": "https://app.nextbike.net/station?id=288412088",
                    "ios": "https://app.nextbike.net/station?id=288412088",
                    "web": "https://nxtb.it/p/288412088"
                },
                "short_name": "22100",
                "station_id": "288412088",
                "vehicle_types_available": [
                    {
                        "count": 3,
                        "vehicle_type_id": "196"
                    },
                    {
                        "count": 1,
                        "vehicle_type_id": "183"
                    }
                ]
            },
            "type": "Feature"
        },
        {
            "geometry": {
                "coordinates": [
                    17.335324,
                    48.666547
                ],
                "type": "Point"
            },
            "properties": {
                "capacity": 10,
                "is_installed": true,
                "is_renting": true,
                "is_returning": true,
                "is_virtual_station": false,
                "last_reported": 1789281434,
                "name": "\u017delezni\u010dn\u00e1 ulica",
                "num_bikes_available": 0,
                "num_docks_available": 9,
                "region_id": "942",
                "rental_uris": {
                    "android": "https://app.nextbike.net/station?id=288412629",
                    "ios": "https://app.nextbike.net/station?id=288412629",
                    "web": "https://nxtb.it/p/288412629"
                },
                "short_name": "22101",
                "station_id": "288412629",
                "vehicle_types_available": []
            },
            "type": "Feature"
        },
        {
            "geometry": {
                "coordinates": [
                    17.364387,
                    48.67631
                ],
                "type": "Point"
            },
            "properties": {
                "capacity": 8,
                "is_installed": true,
                "is_renting": true,
                "is_returning": true,
                "is_virtual_station": false,
                "last_reported": 1789281434,
                "name": "Dlh\u00e1 ulica (OA)",
                "num_bikes_available": 4,
                "num_docks_available": 4,
                "region_id": "942",
                "rental_uris": {
                    "android": "https://app.nextbike.net/station?id=288412749",
                    "ios": "https://app.nextbike.net/station?id=288412749",
                    "web": "https://nxtb.it/p/288412749"
                },
                "short_name": "22102",
                "station_id": "288412749",
                "vehicle_types_available": [
                    {
                        "count": 3,
                        "vehicle_type_id": "196"
                    },
                    {
                        "count": 1,
                        "vehicle_type_id": "183"
                    }
                ]
            },
            "type": "Feature"
        },
        {
            "geometry": {
                "coordinates": [
                    17.36615,
                    48.671818
                ],
                "type": "Point"
            },
            "properties": {
                "capacity": 6,
                "is_installed": true,
                "is_renting": true,
                "is_returning": true,
                "is_virtual_station": false,
                "last_reported": 1789281434,
                "name": "Olivov\u00e1 ulica",
                "num_bikes_available": 8,
                "num_docks_available": 0,
                "region_id": "942",
                "rental_uris": {
                    "android": "https://app.nextbike.net/station?id=288412903",
                    "ios": "https://app.nextbike.net/station?id=288412903",
                    "web": "https://nxtb.it/p/288412903"
                },
                "short_name": "22103",
                "station_id": "288412903",
                "vehicle_types_available": [
                    {
                        "count": 5,
                        "vehicle_type_id": "196"
                    },
                    {
                        "count": 3,
                        "vehicle_type_id": "183"
                    }
                ]
            },
            "type": "Feature"
        },
        {
            "geometry": {
                "coordinates": [
                    17.368236,
                    48.677942
                ],
                "type": "Point"
            },
            "properties": {
                "capacity": 10,
                "is_installed": true,
                "is_renting": true,
                "is_returning": true,
                "is_virtual_station": false,
                "last_reported": 1789281434,
                "name": "Vajansk\u00e9ho ulica",
                "num_bikes_available": 3,
                "num_docks_available": 7,
                "region_id": "942",
                "rental_uris": {
                    "android": "https://app.nextbike.net/station?id=288413114",
                    "ios": "https://app.nextbike.net/station?id=288413114",
                    "web": "https://nxtb.it/p/288413114"
                },
                "short_name": "22104",
                "station_id": "288413114",
                "vehicle_types_available": [
                    {
                        "count": 3,
                        "vehicle_type_id": "183"
                    }
                ]
            },
            "type": "Feature"
        },
        {
            "geometry": {
                "coordinates": [
                    17.36789,
                    48.679722
                ],
                "type": "Point"
            },
            "properties": {
                "capacity": 10,
                "is_installed": true,
                "is_renting": true,
                "is_returning": true,
                "is_virtual_station": false,
                "last_reported": 1789281434,
                "name": "N\u00e1mestie oslobodenia",
                "num_bikes_available": 3,
                "num_docks_available": 7,
                "region_id": "942",
                "rental_uris": {
                    "android": "https://app.nextbike.net/station?id=288413427",
                    "ios": "https://app.nextbike.net/station?id=288413427",
                    "web": "https://nxtb.it/p/288413427"
                },
                "short_name": "22105",
                "station_id": "288413427",
                "vehicle_types_available": [
                    {
                        "count": 1,
                        "vehicle_type_id": "196"
                    },
                    {
                        "count": 2,
                        "vehicle_type_id": "183"
                    }
                ]
            },
            "type": "Feature"
        },
        {
            "geometry": {
                "coordinates": [
                    17.364845,
                    48.680488
                ],
                "type": "Point"
            },
            "properties": {
                "capacity": 10,
                "is_installed": true,
                "is_renting": true,
                "is_returning": true,
                "is_virtual_station": false,
                "last_reported": 1789281434,
                "name": "Hviezdoslavova ulica (Pas\u00e1\u017e)",
                "num_bikes_available": 12,
                "num_docks_available": 0,
                "region_id": "942",
                "rental_uris": {
                    "android": "https://app.nextbike.net/station?id=288413802",
                    "ios": "https://app.nextbike.net/station?id=288413802",
                    "web": "https://nxtb.it/p/288413802"
                },
                "short_name": "22106",
                "station_id": "288413802",
                "vehicle_types_available": [
                    {
                        "count": 9,
                        "vehicle_type_id": "196"
                    },
                    {
                        "count": 3,
                        "vehicle_type_id": "183"
                    }
                ]
            },
            "type": "Feature"
        },
        {
            "geometry": {
                "coordinates": [
                    17.364818,
                    48.682076
                ],
                "type": "Point"
            },
            "properties": {
                "capacity": 10,
                "is_installed": true,
                "is_renting": true,
                "is_returning": true,
                "is_virtual_station": false,
                "last_reported": 1789281434,
                "name": "Tov\u00e1rensk\u00e1 ulica (Plav\u00e1re\u0148)",
                "num_bikes_available": 8,
                "num_docks_available": 2,
                "region_id": "942",
                "rental_uris": {
                    "android": "https://app.nextbike.net/station?id=288419711",
                    "ios": "https://app.nextbike.net/station?id=288419711",
                    "web": "https://nxtb.it/p/288419711"
                },
                "short_name": "22107",
                "station_id": "288419711",
                "vehicle_types_available": [
                    {
                        "count": 8,
                        "vehicle_type_id": "196"
                    }
                ]
            },
            "type": "Feature"
        },
        {
            "geometry": {
                "coordinates": [
                    17.373947,
                    48.680624
                ],
                "type": "Point"
            },
            "properties": {
                "capacity": 10,
                "is_installed": true,
                "is_renting": true,
                "is_returning": true,
                "is_virtual_station": false,
                "last_reported": 1789281434,
                "name": "Fajnorova ulica",
                "num_bikes_available": 4,
                "num_docks_available": 6,
                "region_id": "942",
                "rental_uris": {
                    "android": "https://app.nextbike.net/station?id=288419965",
                    "ios": "https://app.nextbike.net/station?id=288419965",
                    "web": "https://nxtb.it/p/288419965"
                },
                "short_name": "22108",
                "station_id": "288419965",
                "vehicle_types_available": [
                    {
                        "count": 2,
                        "vehicle_type_id": "196"
                    },
                    {
                        "count": 2,
                        "vehicle_type_id": "183"
                    }
                ]
            },
            "type": "Feature"
        },
        {
            "geometry": {
                "coordinates": [
                    17.376987,
                    48.682203
                ],
                "type": "Point"
            },
            "properties": {
                "capacity": 10,
                "is_installed": true,
                "is_renting": true,
                "is_returning": true,
                "is_virtual_station": false,
                "last_reported": 1789281434,
                "name": "Sadov\u00e1 ulica (K\u00fapalisko)",
                "num_bikes_available": 8,
                "num_docks_available": 2,
                "region_id": "942",
                "rental_uris": {
                    "android": "https://app.nextbike.net/station?id=288420245",
                    "ios": "https://app.nextbike.net/station?id=288420245",
                    "web": "https://nxtb.it/p/288420245"
                },
                "short_name": "22109",
                "station_id": "288420245",
                "vehicle_types_available": [
                    {
                        "count": 4,
                        "vehicle_type_id": "196"
                    },
                    {
                        "count": 4,
                        "vehicle_type_id": "183"
                    }
                ]
            },
            "type": "Feature"
        },
        {
            "geometry": {
                "coordinates": [
                    17.35924,
                    48.679173
                ],
                "type": "Point"
            },
            "properties": {
                "capacity": 10,
                "is_installed": true,
                "is_renting": true,
                "is_returning": true,
                "is_virtual_station": false,
                "last_reported": 1789281434,
                "name": "Hviezdoslavova",
                "num_bikes_available": 6,
                "num_docks_available": 4,
                "region_id": "942",
                "rental_uris": {
                    "android": "https://app.nextbike.net/station?id=288420568",
                    "ios": "https://app.nextbike.net/station?id=288420568",
                    "web": "https://nxtb.it/p/288420568"
                },
                "short_name": "22110",
                "station_id": "288420568",
                "vehicle_types_available": [
                    {
                        "count": 6,
                        "vehicle_type_id": "196"
                    }
                ]
            },
            "type": "Feature"
        },
        {
            "geometry": {
                "coordinates": [
                    17.372939,
                    48.687767
                ],
                "type": "Point"
            },
            "properties": {
                "capacity": 10,
                "is_installed": true,
                "is_renting": true,
                "is_returning": true,
                "is_virtual_station": false,
                "last_reported": 1789281434,
                "name": "Sotinsk\u00e1 ulica (Poliklinika)",
                "num_bikes_available": 5,
                "num_docks_available": 5,
                "region_id": "942",
                "rental_uris": {
                    "android": "https://app.nextbike.net/station?id=288420946",
                    "ios": "https://app.nextbike.net/station?id=288420946",
                    "web": "https://nxtb.it/p/288420946"
                },
                "short_name": "22111",
                "station_id": "288420946",
                "vehicle_types_available": [
                    {
                        "count": 5,
                        "vehicle_type_id": "196"
                    }
                ]
            },
            "type": "Feature"
        },
        {
            "geometry": {
                "coordinates": [
                    17.363189,
                    48.686978
                ],
                "type": "Point"
            },
            "properties": {
                "capacity": 10,
                "is_installed": true,
                "is_renting": true,
                "is_returning": true,
                "is_virtual_station": false,
                "last_reported": 1789281434,
                "name": "Obchodn\u00e1 ulica",
                "num_bikes_available": 2,
                "num_docks_available": 8,
                "region_id": "942",
                "rental_uris": {
                    "android": "https://app.nextbike.net/station?id=288421200",
                    "ios": "https://app.nextbike.net/station?id=288421200",
                    "web": "https://nxtb.it/p/288421200"
                },
                "short_name": "22112",
                "station_id": "288421200",
                "vehicle_types_available": [
                    {
                        "count": 1,
                        "vehicle_type_id": "196"
                    },
                    {
                        "count": 1,
                        "vehicle_type_id": "183"
                    }
                ]
            },
            "type": "Feature"
        },
        {
            "geometry": {
                "coordinates": [
                    17.372445,
                    48.675562
                ],
                "type": "Point"
            },
            "properties": {
                "capacity": 6,
                "is_installed": true,
                "is_renting": true,
                "is_returning": true,
                "is_virtual_station": false,
                "last_reported": 1789281434,
                "name": "Ulica SNP (Cintor\u00edn)",
                "num_bikes_available": 8,
                "num_docks_available": 0,
                "region_id": "942",
                "rental_uris": {
                    "android": "https://app.nextbike.net/station?id=288421476",
                    "ios": "https://app.nextbike.net/station?id=288421476",
                    "web": "https://nxtb.it/p/288421476"
                },
                "short_name": "22113",
                "station_id": "288421476",
                "vehicle_types_available": [
                    {
                        "count": 5,
                        "vehicle_type_id": "196"
                    },
                    {
                        "count": 3,
                        "vehicle_type_id": "183"
                    }
                ]
            },
            "type": "Feature"
        },
        {
            "geometry": {
                "coordinates": [
                    17.399005,
                    48.692509
                ],
                "type": "Point"
            },
            "properties": {
                "capacity": 10,
                "is_installed": true,
                "is_renting": true,
                "is_returning": true,
                "is_virtual_station": false,
                "last_reported": 1789281434,
                "name": "Kunov - Futbalov\u00e9 ihrisko",
                "num_bikes_available": 2,
                "num_docks_available": 8,
                "region_id": "942",
                "rental_uris": {
                    "android": "https://app.nextbike.net/station?id=288422077",
                    "ios": "https://app.nextbike.net/station?id=288422077",
                    "web": "https://nxtb.it/p/288422077"
                },
                "short_name": "22114",
                "station_id": "288422077",
                "vehicle_types_available": [
                    {
                        "count": 2,
                        "vehicle_type_id": "196"
                    }
                ]
            },
            "type": "Feature"
        },
        {
            "geometry": {
                "coordinates": [
                    17.3769,
                    48.686111
                ],
                "type": "Point"
            },
            "properties": {
                "capacity": 9,
                "is_installed": true,
                "is_renting": true,
                "is_returning": true,
                "is_virtual_station": false,
                "last_reported": 1789281434,
                "name": "Ulica S. Jurkovi\u010da",
                "num_bikes_available": 5,
                "num_docks_available": 4,
                "region_id": "942",
                "rental_uris": {
                    "android": "https://app.nextbike.net/station?id=288422773",
                    "ios": "https://app.nextbike.net/station?id=288422773",
                    "web": "https://nxtb.it/p/288422773"
                },
                "short_name": "22115",
                "station_id": "288422773",
                "vehicle_types_available": [
                    {
                        "count": 3,
                        "vehicle_type_id": "196"
                    },
                    {
                        "count": 2,
                        "vehicle_type_id": "183"
                    }
                ]
            },
            "type": "Feature"
        },
        {
            "geometry": {
                "coordinates": [
                    17.374179,
                    48.685907
                ],
                "type": "Point"
            },
            "properties": {
                "capacity": 10,
                "is_installed": true,
                "is_renting": true,
                "is_returning": true,
                "is_virtual_station": false,
                "last_reported": 1789281434,
                "name": "Ulica L. Novomesk\u00e9ho",
                "num_bikes_available": 5,
                "num_docks_available": 5,
                "region_id": "942",
                "rental_uris": {
                    "android": "https://app.nextbike.net/station?id=288423080",
                    "ios": "https://app.nextbike.net/station?id=288423080",
                    "web": "https://nxtb.it/p/288423080"
                },
                "short_name": "22116",
                "station_id": "288423080",
                "vehicle_types_available": [
                    {
                        "count": 2,
                        "vehicle_type_id": "196"
                    },
                    {
                        "count": 3,
                        "vehicle_type_id": "183"
                    }
                ]
            },
            "type": "Feature"
        },
        {
            "geometry": {
                "coordinates": [
                    17.371377,
                    48.683423
                ],
                "type": "Point"
            },
            "properties": {
                "capacity": 10,
                "is_installed": true,
                "is_renting": true,
                "is_returning": true,
                "is_virtual_station": false,
                "last_reported": 1789281434,
                "name": "Sadov\u00e1 ulica (Mestsk\u00fd park)",
                "num_bikes_available": 9,
                "num_docks_available": 1,
                "region_id": "942",
                "rental_uris": {
                    "android": "https://app.nextbike.net/station?id=288423346",
                    "ios": "https://app.nextbike.net/station?id=288423346",
                    "web": "https://nxtb.it/p/288423346"
                },
                "short_name": "22117",
                "station_id": "288423346",
                "vehicle_types_available": [
                    {
                        "count": 5,
                        "vehicle_type_id": "196"
                    },
                    {
                        "count": 4,
                        "vehicle_type_id": "183"
                    }
                ]
            },
            "type": "Feature"
        },
        {
            "geometry": {
                "coordinates": [
                    17.361612,
                    48.684658
                ],
                "type": "Point"
            },
            "properties": {
                "capacity": 6,
                "is_installed": true,
                "is_renting": true,
                "is_returning": true,
                "is_virtual_station": false,
                "last_reported": 1789281434,
                "name": "Ulica Kol\u00f3nia",
                "num_bikes_available": 4,
                "num_docks_available": 2,
                "region_id": "942",
                "rental_uris": {
                    "android": "https://app.nextbike.net/station?id=288423620",
                    "ios": "https://app.nextbike.net/station?id=288423620",
                    "web": "https://nxtb.it/p/288423620"
                },
                "short_name": "22118",
                "station_id": "288423620",
                "vehicle_types_available": [
                    {
                        "count": 4,
                        "vehicle_type_id": "196"
                    }
                ]
            },
            "type": "Feature"
        },
        {
            "geometry": {
                "coordinates": [
                    17.339058,
                    48.678187
                ],
                "type": "Point"
            },
            "properties": {
                "capacity": 8,
                "is_installed": true,
                "is_renting": true,
                "is_returning": true,
                "is_virtual_station": false,
                "last_reported": 1789281434,
                "name": "\u010c\u00e1\u010dovsk\u00e1 cesta",
                "num_bikes_available": 5,
                "num_docks_available": 3,
                "region_id": "942",
                "rental_uris": {
                    "android": "https://app.nextbike.net/station?id=288424164",
                    "ios": "https://app.nextbike.net/station?id=288424164",
                    "web": "https://nxtb.it/p/288424164"
                },
                "short_name": "22119",
                "station_id": "288424164",
                "vehicle_types_available": [
                    {
                        "count": 1,
                        "vehicle_type_id": "196"
                    },
                    {
                        "count": 4,
                        "vehicle_type_id": "183"
                    }
                ]
            },
            "type": "Feature"
        },
        {
            "geometry": {
                "coordinates": [
                    17.352558,
                    48.675567
                ],
                "type": "Point"
            },
            "properties": {
                "capacity": 10,
                "is_installed": true,
                "is_renting": true,
                "is_returning": true,
                "is_virtual_station": false,
                "last_reported": 1789281434,
                "name": "Dlh\u00e1 ulica (Park)",
                "num_bikes_available": 2,
                "num_docks_available": 7,
                "region_id": "942",
                "rental_uris": {
                    "android": "https://app.nextbike.net/station?id=288424498",
                    "ios": "https://app.nextbike.net/station?id=288424498",
                    "web": "https://nxtb.it/p/288424498"
                },
                "short_name": "22120",
                "station_id": "288424498",
                "vehicle_types_available": [
                    {
                        "count": 2,
                        "vehicle_type_id": "196"
                    }
                ]
            },
            "type": "Feature"
        },
        {
            "geometry": {
                "coordinates": [
                    17.35642,
                    48.676952
                ],
                "type": "Point"
            },
            "properties": {
                "capacity": 10,
                "is_installed": true,
                "is_renting": true,
                "is_returning": true,
                "is_virtual_station": false,
                "last_reported": 1789281434,
                "name": "Kalin\u010diakova ulica (Jednota)",
                "num_bikes_available": 3,
                "num_docks_available": 7,
                "region_id": "942",
                "rental_uris": {
                    "android": "https://app.nextbike.net/station?id=288424789",
                    "ios": "https://app.nextbike.net/station?id=288424789",
                    "web": "https://nxtb.it/p/288424789"
                },
                "short_name": "22121",
                "station_id": "288424789",
                "vehicle_types_available": [
                    {
                        "count": 2,
                        "vehicle_type_id": "196"
                    },
                    {
                        "count": 1,
                        "vehicle_type_id": "183"
                    }
                ]
            },
            "type": "Feature"
        },
        {
            "geometry": {
                "coordinates": [
                    17.370313,
                    48.686479
                ],
                "type": "Point"
            },
            "properties": {
                "capacity": 10,
                "is_installed": true,
                "is_renting": true,
                "is_returning": true,
                "is_virtual_station": false,
                "last_reported": 1789281434,
                "name": "Ulica G. L. Svobodu",
                "num_bikes_available": 1,
                "num_docks_available": 9,
                "region_id": "942",
                "rental_uris": {
                    "android": "https://app.nextbike.net/station?id=288425042",
                    "ios": "https://app.nextbike.net/station?id=288425042",
                    "web": "https://nxtb.it/p/288425042"
                },
                "short_name": "22122",
                "station_id": "288425042",
                "vehicle_types_available": [
                    {
                        "count": 1,
                        "vehicle_type_id": "183"
                    }
                ]
            },
            "type": "Feature"
        },
        {
            "geometry": {
                "coordinates": [
                    17.355931,
                    48.662651
                ],
                "type": "Point"
            },
            "properties": {
                "capacity": 10,
                "is_installed": true,
                "is_renting": true,
                "is_returning": true,
                "is_virtual_station": false,
                "last_reported": 1789281434,
                "name": "Vaillant",
                "num_bikes_available": 0,
                "num_docks_available": 10,
                "region_id": "942",
                "rental_uris": {
                    "android": "https://app.nextbike.net/station?id=288425254",
                    "ios": "https://app.nextbike.net/station?id=288425254",
                    "web": "https://nxtb.it/p/288425254"
                },
                "short_name": "22123",
                "station_id": "288425254",
                "vehicle_types_available": []
            },
            "type": "Feature"
        },
        {
            "geometry": {
                "coordinates": [
                    17.409457,
                    48.706164
                ],
                "type": "Point"
            },
            "properties": {
                "capacity": 10,
                "is_installed": true,
                "is_renting": true,
                "is_returning": true,
                "is_virtual_station": false,
                "last_reported": 1789281434,
                "name": "Kunov - Priehrada",
                "num_bikes_available": 2,
                "num_docks_available": 8,
                "region_id": "942",
                "rental_uris": {
                    "android": "https://app.nextbike.net/station?id=517228708",
                    "ios": "https://app.nextbike.net/station?id=517228708",
                    "web": "https://nxtb.it/p/517228708"
                },
                "short_name": "22127",
                "station_id": "517228708",
                "vehicle_types_available": [
                    {
                        "count": 2,
                        "vehicle_type_id": "196"
                    }
                ]
            },
            "type": "Feature"
        },
        {
            "geometry": {
                "coordinates": [
                    17.35437,
                    48.667702
                ],
                "type": "Point"
            },
            "properties": {
                "is_installed": true,
                "is_renting": true,
                "is_returning": true,
                "is_virtual_station": false,
                "last_reported": 1789281434,
                "name": "Priemyseln\u00fd park",
                "num_bikes_available": 4,
                "num_docks_available": 0,
                "region_id": "942",
                "rental_uris": {
                    "android": "https://app.nextbike.net/station?id=562541409",
                    "ios": "https://app.nextbike.net/station?id=562541409",
                    "web": "https://nxtb.it/p/562541409"
                },
                "short_name": "22128",
                "station_id": "562541409",
                "vehicle_types_available": [
                    {
                        "count": 3,
                        "vehicle_type_id": "196"
                    },
                    {
                        "count": 1,
                        "vehicle_type_id": "183"
                    }
                ]
            },
            "type": "Feature"
        }
    ],
    "gbfs": {
        "station_information": {
            "last_updated": 1789281434,
            "ttl": 60,
            "version": "2.3"
        },
        "station_status": {
            "last_updated": 1789281434,
            "ttl": 60,
            "version": "2.3"
        }
    },
    "type": "FeatureCollection"
}