{
    "features": [
        {
            "geometry": {
                "coordinates": [
                    139.729708,
                    35.61678
                ],
                "type": "Point"
            },
            "properties": {
                "capacity": 4,
                "is_installed": true,
                "is_renting": true,
                "is_returning": true,
                "last_reported": 1786120083,
                "name": "I1-161.\u5927\u5d0e\u30a6\u30a3\u30ba\u30b7\u30c6\u30a3",
                "num_bikes_available": 0,
                "num_docks_available": 4,
                "region_id": "10",
                "station_id": "5857"
            },
            "type": "Feature"
        }
    ],
    "type": "FeatureCollection"
}