{
    "features": [
        {
            "geometry": {
                "coordinates": [
                    -0.37722,
                    43.30552
                ],
                "type": "Point"
            },
            "properties": {
                "capacity": 10,
                "is_charging_station": false,
                "is_installed": true,
                "is_renting": false,
                "is_returning": false,
                "is_valet_station": false,
                "is_virtual_station": true,
                "last_reported": 1791332056,
                "name": "Parc des Expositions",
                "num_bikes_available": 0,
                "num_docks_available": 0,
                "rental_uris": {
                    "android": "%!(EXTRA string=st_d3d596mmbtds73b4hmr0)",
                    "ios": "%!(EXTRA string=st_d3d596mmbtds73b4hmr0)"
                },
                "station_id": "st_d3d596mmbtds73b4hmr0",
                "vehicle_type_capacity": {
                    "1": 0
                },
                "vehicle_types_available": [
                    {
                        "count": 0,
                        "vehicle_type_id": "1"
                    }
                ]
            },
            "type": "Feature"
        },
        {
            "geometry": {
                "coordinates": [
                    -0.38821,
                    43.30987
                ],
                "type": "Point"
            },
            "properties": {
                "capacity": 10,
                "is_charging_station": false,
                "is_installed": true,
                "is_renting": false,
                "is_returning": false,
                "is_valet_station": false,
                "is_virtual_station": true,
                "last_reported": 1791332056,
                "name": "Lacao\u00fc",
                "num_bikes_available": 0,
                "num_docks_available": 0,
                "rental_uris": {
                    "android": "%!(EXTRA string=st_d3d597embtds73b4hnp0)",
                    "ios": "%!(EXTRA string=st_d3d597embtds73b4hnp0)"
                },
                "station_id": "st_d3d597embtds73b4hnp0",
                "vehicle_type_capacity": {
                    "1": 0
                },
                "vehicle_types_available": [
                    {
                        "count": 0,
                        "vehicle_type_id": "1"
                    }
                ]
            },
            "type": "Feature"
        },
        {
            "geometry": {
                "coordinates": [
                    -0.39555,
                    43.30186
                ],
                "type": "Point"
            },
            "properties": {
                "capacity": 10,
                "is_charging_station": false,
                "is_installed": true,
                "is_renting": false,
                "is_returning": false,
                "is_valet_station": false,
                "is_virtual_station": true,
                "last_reported": 1791332056,
                "name": "Mairie de Bill\u00e8re",
                "num_bikes_available": 0,
                "num_docks_available": 0,
                "rental_uris": {
                    "android": "%!(EXTRA string=st_d3d597embtds73djaadg)",
                    "ios": "%!(EXTRA string=st_d3d597embtds73djaadg)"
                },
                "station_id": "st_d3d597embtds73djaadg",
                "vehicle_type_capacity": {
                    "1": 0
                },
                "vehicle_types_available": [
                    {
                        "count": 0,
                        "vehicle_type_id": "1"
                    }
                ]
            },
            "type": "Feature"
        },
        {
            "geometry": {
                "coordinates": [
                    -0.42038,
                    43.30679
                ],
                "type": "Point"
            },
            "properties": {
                "capacity": 10,
                "is_charging_station": false,
                "is_installed": true,
                "is_renting": false,
                "is_returning": false,
                "is_valet_station": false,
                "is_virtual_station": true,
                "last_reported": 1791332056,
                "name": "Montgolfier",
                "num_bikes_available": 0,
                "num_docks_available": 0,
                "rental_uris": {
                    "android": "%!(EXTRA string=st_d3d597embtds73djaalg)",
                    "ios": "%!(EXTRA string=st_d3d597embtds73djaalg)"
                },
                "station_id": "st_d3d597embtds73djaalg",
                "vehicle_type_capacity": {
                    "1": 0
                },
                "vehicle_types_available": [
                    {
                        "count": 0,
                        "vehicle_type_id": "1"
                    }
                ]
            },
            "type": "Feature"
        },
        {
            "geometry": {
                "coordinates": [
                    -0.43435,
                    43.32037
                ],
                "type": "Point"
            },
            "properties": {
                "capacity": 10,
                "is_charging_station": false,
                "is_installed": true,
                "is_renting": false,
                "is_returning": false,
                "is_valet_station": false,
                "is_virtual_station": true,
                "last_reported": 1791332056,
                "name": "Lescar Soleil",
                "num_bikes_available": 0,
                "num_docks_available": 0,
                "rental_uris": {
                    "android": "%!(EXTRA string=st_d3d597umbtds73b4ho20)",
                    "ios": "%!(EXTRA string=st_d3d597umbtds73b4ho20)"
                },
                "station_id": "st_d3d597umbtds73b4ho20",
                "vehicle_type_capacity": {
                    "1": 0
                },
                "vehicle_types_available": [
                    {
                        "count": 0,
                        "vehicle_type_id": "1"
                    }
                ]
            },
            "type": "Feature"
        },
        {
            "geometry": {
                "coordinates": [
                    -0.39006,
                    43.28711
                ],
                "type": "Point"
            },
            "properties": {
                "capacity": 10,
                "is_charging_station": false,
                "is_installed": true,
                "is_renting": false,
                "is_returning": false,
                "is_valet_station": false,
                "is_virtual_station": true,
                "last_reported": 1791332056,
                "name": "Mairie de Juran\u00e7on",
                "num_bikes_available": 0,
                "num_docks_available": 0,
                "rental_uris": {
                    "android": "%!(EXTRA string=st_d3d597umbtds73b4ho80)",
                    "ios": "%!(EXTRA string=st_d3d597umbtds73b4ho80)"
                },
                "station_id": "st_d3d597umbtds73b4ho80",
                "vehicle_type_capacity": {
                    "1": 0
                },
                "vehicle_types_available": [
                    {
                        "count": 0,
                        "vehicle_type_id": "1"
                    }
                ]
            },
            "type": "Feature"
        },
        {
            "geometry": {
                "coordinates": [
                    -0.39669,
                    43.29235
                ],
                "type": "Point"
            },
            "properties": {
                "capacity": 10,
                "is_charging_station": false,
                "is_installed": true,
                "is_renting": false,
                "is_returning": false,
                "is_valet_station": false,
                "is_virtual_station": true,
                "last_reported": 1791332056,
                "name": "Guynemer",
                "num_bikes_available": 0,
                "num_docks_available": 0,
                "rental_uris": {
                    "android": "%!(EXTRA string=st_d3d597umbtds73djab10)",
                    "ios": "%!(EXTRA string=st_d3d597umbtds73djab10)"
                },
                "station_id": "st_d3d597umbtds73djab10",
                "vehicle_type_capacity": {
                    "1": 0
                },
                "vehicle_types_available": [
                    {
                        "count": 0,
                        "vehicle_type_id": "1"
                    }
                ]
            },
            "type": "Feature"
        }
    ],
    "gbfs": {
        "station_information": {
            "last_updated": 1791332010,
            "ttl": 60,
            "version": "2.2"
        },
        "station_status": {
            "last_updated": 1791332056,
            "ttl": 60,
            "version": "2.2"
        }
    },
    "type": "FeatureCollection"
}