{
    "features": [
        {
            "geometry": {
                "coordinates": [
                    15.932891,
                    49.588879
                ],
                "type": "Point"
            },
            "properties": {
                "is_installed": true,
                "is_renting": true,
                "is_returning": true,
                "is_virtual_station": false,
                "last_reported": 1789272049,
                "name": "Pil\u00e1k",
                "num_bikes_available": 0,
                "num_docks_available": 0,
                "region_id": "1310",
                "rental_uris": {
                    "android": "https://app.nextbike.net/station?id=607757900",
                    "ios": "https://app.nextbike.net/station?id=607757900",
                    "web": "https://nxtb.it/p/607757900"
                },
                "short_name": "495651",
                "station_id": "607757900",
                "vehicle_types_available": []
            },
            "type": "Feature"
        },
        {
            "geometry": {
                "coordinates": [
                    15.935466,
                    49.582745
                ],
                "type": "Point"
            },
            "properties": {
                "is_installed": true,
                "is_renting": true,
                "is_returning": true,
                "is_virtual_station": false,
                "last_reported": 1789272049,
                "name": "Z\u00e1mek",
                "num_bikes_available": 3,
                "num_docks_available": 0,
                "region_id": "1310",
                "rental_uris": {
                    "android": "https://app.nextbike.net/station?id=607758106",
                    "ios": "https://app.nextbike.net/station?id=607758106",
                    "web": "https://nxtb.it/p/607758106"
                },
                "short_name": "495652",
                "station_id": "607758106",
                "vehicle_types_available": [
                    {
                        "count": 2,
                        "vehicle_type_id": "407"
                    },
                    {
                        "count": 1,
                        "vehicle_type_id": "427"
                    }
                ]
            },
            "type": "Feature"
        },
        {
            "geometry": {
                "coordinates": [
                    15.943301,
                    49.579575
                ],
                "type": "Point"
            },
            "properties": {
                "is_installed": true,
                "is_renting": true,
                "is_returning": true,
                "is_virtual_station": false,
                "last_reported": 1789272049,
                "name": "Zelen\u00e1 hora",
                "num_bikes_available": 0,
                "num_docks_available": 0,
                "region_id": "1310",
                "rental_uris": {
                    "android": "https://app.nextbike.net/station?id=607758159",
                    "ios": "https://app.nextbike.net/station?id=607758159",
                    "web": "https://nxtb.it/p/607758159"
                },
                "short_name": "495653",
                "station_id": "607758159",
                "vehicle_types_available": []
            },
            "type": "Feature"
        },
        {
            "geometry": {
                "coordinates": [
                    15.938165,
                    49.577076
                ],
                "type": "Point"
            },
            "properties": {
                "is_installed": true,
                "is_renting": true,
                "is_returning": true,
                "is_virtual_station": false,
                "last_reported": 1789272049,
                "name": "Bezru\u010dova",
                "num_bikes_available": 0,
                "num_docks_available": 0,
                "region_id": "1310",
                "rental_uris": {
                    "android": "https://app.nextbike.net/station?id=607758221",
                    "ios": "https://app.nextbike.net/station?id=607758221",
                    "web": "https://nxtb.it/p/607758221"
                },
                "short_name": "495654",
                "station_id": "607758221",
                "vehicle_types_available": []
            },
            "type": "Feature"
        },
        {
            "geometry": {
                "coordinates": [
                    15.941443,
                    49.573036
                ],
                "type": "Point"
            },
            "properties": {
                "is_installed": true,
                "is_renting": true,
                "is_returning": true,
                "is_virtual_station": false,
                "last_reported": 1789272049,
                "name": "Fotbalov\u00fd stadion",
                "num_bikes_available": 0,
                "num_docks_available": 0,
                "region_id": "1310",
                "rental_uris": {
                    "android": "https://app.nextbike.net/station?id=607758283",
                    "ios": "https://app.nextbike.net/station?id=607758283",
                    "web": "https://nxtb.it/p/607758283"
                },
                "short_name": "495655",
                "station_id": "607758283",
                "vehicle_types_available": []
            },
            "type": "Feature"
        },
        {
            "geometry": {
                "coordinates": [
                    15.933271,
                    49.571183
                ],
                "type": "Point"
            },
            "properties": {
                "is_installed": true,
                "is_renting": true,
                "is_returning": true,
                "is_virtual_station": false,
                "last_reported": 1789272049,
                "name": "S\u00e1zavsk\u00e1",
                "num_bikes_available": 2,
                "num_docks_available": 0,
                "region_id": "1310",
                "rental_uris": {
                    "android": "https://app.nextbike.net/station?id=607758368",
                    "ios": "https://app.nextbike.net/station?id=607758368",
                    "web": "https://nxtb.it/p/607758368"
                },
                "short_name": "495656",
                "station_id": "607758368",
                "vehicle_types_available": [
                    {
                        "count": 2,
                        "vehicle_type_id": "407"
                    }
                ]
            },
            "type": "Feature"
        },
        {
            "geometry": {
                "coordinates": [
                    15.936592,
                    49.570724
                ],
                "type": "Point"
            },
            "properties": {
                "is_installed": true,
                "is_renting": true,
                "is_returning": true,
                "is_virtual_station": false,
                "last_reported": 1789272049,
                "name": "Hrn\u010d\u00ed\u0159sk\u00e1",
                "num_bikes_available": 1,
                "num_docks_available": 0,
                "region_id": "1310",
                "rental_uris": {
                    "android": "https://app.nextbike.net/station?id=607758427",
                    "ios": "https://app.nextbike.net/station?id=607758427",
                    "web": "https://nxtb.it/p/607758427"
                },
                "short_name": "495657",
                "station_id": "607758427",
                "vehicle_types_available": [
                    {
                        "count": 1,
                        "vehicle_type_id": "407"
                    }
                ]
            },
            "type": "Feature"
        },
        {
            "geometry": {
                "coordinates": [
                    15.941426,
                    49.570061
                ],
                "type": "Point"
            },
            "properties": {
                "is_installed": true,
                "is_renting": true,
                "is_returning": true,
                "is_virtual_station": false,
                "last_reported": 1789272049,
                "name": "Zimn\u00ed stadion",
                "num_bikes_available": 0,
                "num_docks_available": 0,
                "region_id": "1310",
                "rental_uris": {
                    "android": "https://app.nextbike.net/station?id=607758495",
                    "ios": "https://app.nextbike.net/station?id=607758495",
                    "web": "https://nxtb.it/p/607758495"
                },
                "short_name": "495658",
                "station_id": "607758495",
                "vehicle_types_available": []
            },
            "type": "Feature"
        },
        {
            "geometry": {
                "coordinates": [
                    15.947142,
                    49.570518
                ],
                "type": "Point"
            },
            "properties": {
                "is_installed": true,
                "is_renting": true,
                "is_returning": true,
                "is_virtual_station": false,
                "last_reported": 1789272049,
                "name": "Vnit\u0159n\u00ed",
                "num_bikes_available": 2,
                "num_docks_available": 0,
                "region_id": "1310",
                "rental_uris": {
                    "android": "https://app.nextbike.net/station?id=607758548",
                    "ios": "https://app.nextbike.net/station?id=607758548",
                    "web": "https://nxtb.it/p/607758548"
                },
                "short_name": "495659",
                "station_id": "607758548",
                "vehicle_types_available": [
                    {
                        "count": 2,
                        "vehicle_type_id": "407"
                    }
                ]
            },
            "type": "Feature"
        },
        {
            "geometry": {
                "coordinates": [
                    15.94069,
                    49.567959
                ],
                "type": "Point"
            },
            "properties": {
                "is_installed": true,
                "is_renting": true,
                "is_returning": true,
                "is_virtual_station": false,
                "last_reported": 1789272049,
                "name": "Flop potraviny",
                "num_bikes_available": 3,
                "num_docks_available": 0,
                "region_id": "1310",
                "rental_uris": {
                    "android": "https://app.nextbike.net/station?id=607758843",
                    "ios": "https://app.nextbike.net/station?id=607758843",
                    "web": "https://nxtb.it/p/607758843"
                },
                "short_name": "495660",
                "station_id": "607758843",
                "vehicle_types_available": [
                    {
                        "count": 3,
                        "vehicle_type_id": "407"
                    }
                ]
            },
            "type": "Feature"
        },
        {
            "geometry": {
                "coordinates": [
                    15.937805,
                    49.565857
                ],
                "type": "Point"
            },
            "properties": {
                "is_installed": true,
                "is_renting": true,
                "is_returning": true,
                "is_virtual_station": false,
                "last_reported": 1789272049,
                "name": "D\u016fm kultury",
                "num_bikes_available": 2,
                "num_docks_available": 0,
                "region_id": "1310",
                "rental_uris": {
                    "android": "https://app.nextbike.net/station?id=607758867",
                    "ios": "https://app.nextbike.net/station?id=607758867",
                    "web": "https://nxtb.it/p/607758867"
                },
                "short_name": "495661",
                "station_id": "607758867",
                "vehicle_types_available": [
                    {
                        "count": 2,
                        "vehicle_type_id": "407"
                    }
                ]
            },
            "type": "Feature"
        },
        {
            "geometry": {
                "coordinates": [
                    15.931366,
                    49.566761
                ],
                "type": "Point"
            },
            "properties": {
                "is_installed": true,
                "is_renting": true,
                "is_returning": true,
                "is_virtual_station": false,
                "last_reported": 1789272049,
                "name": "Orlovna",
                "num_bikes_available": 1,
                "num_docks_available": 0,
                "region_id": "1310",
                "rental_uris": {
                    "android": "https://app.nextbike.net/station?id=607759023",
                    "ios": "https://app.nextbike.net/station?id=607759023",
                    "web": "https://nxtb.it/p/607759023"
                },
                "short_name": "495662",
                "station_id": "607759023",
                "vehicle_types_available": [
                    {
                        "count": 1,
                        "vehicle_type_id": "407"
                    }
                ]
            },
            "type": "Feature"
        },
        {
            "geometry": {
                "coordinates": [
                    15.926836,
                    49.565163
                ],
                "type": "Point"
            },
            "properties": {
                "is_installed": true,
                "is_renting": true,
                "is_returning": true,
                "is_virtual_station": false,
                "last_reported": 1789272049,
                "name": "Brodsk\u00e1",
                "num_bikes_available": 0,
                "num_docks_available": 0,
                "region_id": "1310",
                "rental_uris": {
                    "android": "https://app.nextbike.net/station?id=607759082",
                    "ios": "https://app.nextbike.net/station?id=607759082",
                    "web": "https://nxtb.it/p/607759082"
                },
                "short_name": "495663",
                "station_id": "607759082",
                "vehicle_types_available": []
            },
            "type": "Feature"
        },
        {
            "geometry": {
                "coordinates": [
                    15.932072,
                    49.563728
                ],
                "type": "Point"
            },
            "properties": {
                "is_installed": true,
                "is_renting": true,
                "is_returning": true,
                "is_virtual_station": false,
                "last_reported": 1789272049,
                "name": "Brodsk\u00e1/Komensk\u00e9ho",
                "num_bikes_available": 0,
                "num_docks_available": 0,
                "region_id": "1310",
                "rental_uris": {
                    "android": "https://app.nextbike.net/station?id=607760009",
                    "ios": "https://app.nextbike.net/station?id=607760009",
                    "web": "https://nxtb.it/p/607760009"
                },
                "short_name": "495664",
                "station_id": "607760009",
                "vehicle_types_available": []
            },
            "type": "Feature"
        },
        {
            "geometry": {
                "coordinates": [
                    15.936301,
                    49.564949
                ],
                "type": "Point"
            },
            "properties": {
                "is_installed": true,
                "is_renting": true,
                "is_returning": true,
                "is_virtual_station": false,
                "last_reported": 1789272049,
                "name": "M\u011bstsk\u00fd \u00fa\u0159ad",
                "num_bikes_available": 0,
                "num_docks_available": 0,
                "region_id": "1310",
                "rental_uris": {
                    "android": "https://app.nextbike.net/station?id=607760066",
                    "ios": "https://app.nextbike.net/station?id=607760066",
                    "web": "https://nxtb.it/p/607760066"
                },
                "short_name": "495665",
                "station_id": "607760066",
                "vehicle_types_available": []
            },
            "type": "Feature"
        },
        {
            "geometry": {
                "coordinates": [
                    15.931595,
                    49.560741
                ],
                "type": "Point"
            },
            "properties": {
                "is_installed": true,
                "is_renting": true,
                "is_returning": true,
                "is_virtual_station": false,
                "last_reported": 1789272049,
                "name": "Stroj\u00edrensk\u00e1, u mostu",
                "num_bikes_available": 8,
                "num_docks_available": 0,
                "region_id": "1310",
                "rental_uris": {
                    "android": "https://app.nextbike.net/station?id=607760138",
                    "ios": "https://app.nextbike.net/station?id=607760138",
                    "web": "https://nxtb.it/p/607760138"
                },
                "short_name": "495666",
                "station_id": "607760138",
                "vehicle_types_available": [
                    {
                        "count": 8,
                        "vehicle_type_id": "407"
                    }
                ]
            },
            "type": "Feature"
        },
        {
            "geometry": {
                "coordinates": [
                    15.935522,
                    49.561581
                ],
                "type": "Point"
            },
            "properties": {
                "is_installed": true,
                "is_renting": true,
                "is_returning": true,
                "is_virtual_station": false,
                "last_reported": 1789272049,
                "name": "Farsk\u00e1 humna",
                "num_bikes_available": 14,
                "num_docks_available": 0,
                "region_id": "1310",
                "rental_uris": {
                    "android": "https://app.nextbike.net/station?id=607760252",
                    "ios": "https://app.nextbike.net/station?id=607760252",
                    "web": "https://nxtb.it/p/607760252"
                },
                "short_name": "495667",
                "station_id": "607760252",
                "vehicle_types_available": [
                    {
                        "count": 14,
                        "vehicle_type_id": "407"
                    }
                ]
            },
            "type": "Feature"
        },
        {
            "geometry": {
                "coordinates": [
                    15.938992,
                    49.562881
                ],
                "type": "Point"
            },
            "properties": {
                "is_installed": true,
                "is_renting": true,
                "is_returning": true,
                "is_virtual_station": false,
                "last_reported": 1789272049,
                "name": "N\u00e1m\u011bst\u00ed Republiky, infocentrum",
                "num_bikes_available": 1,
                "num_docks_available": 0,
                "region_id": "1310",
                "rental_uris": {
                    "android": "https://app.nextbike.net/station?id=607760336",
                    "ios": "https://app.nextbike.net/station?id=607760336",
                    "web": "https://nxtb.it/p/607760336"
                },
                "short_name": "495668",
                "station_id": "607760336",
                "vehicle_types_available": [
                    {
                        "count": 1,
                        "vehicle_type_id": "407"
                    }
                ]
            },
            "type": "Feature"
        },
        {
            "geometry": {
                "coordinates": [
                    15.939643,
                    49.562294
                ],
                "type": "Point"
            },
            "properties": {
                "is_installed": true,
                "is_renting": true,
                "is_returning": true,
                "is_virtual_station": false,
                "last_reported": 1789272049,
                "name": "N\u00e1m\u011bst\u00ed Republiky, Genesis",
                "num_bikes_available": 0,
                "num_docks_available": 0,
                "region_id": "1310",
                "rental_uris": {
                    "android": "https://app.nextbike.net/station?id=607760414",
                    "ios": "https://app.nextbike.net/station?id=607760414",
                    "web": "https://nxtb.it/p/607760414"
                },
                "short_name": "495669",
                "station_id": "607760414",
                "vehicle_types_available": []
            },
            "type": "Feature"
        },
        {
            "geometry": {
                "coordinates": [
                    15.940293,
                    49.561859
                ],
                "type": "Point"
            },
            "properties": {
                "is_installed": true,
                "is_renting": true,
                "is_returning": true,
                "is_virtual_station": false,
                "last_reported": 1789272049,
                "name": "N\u00e1m\u011bst\u00ed Republiky, Moneta",
                "num_bikes_available": 0,
                "num_docks_available": 0,
                "region_id": "1310",
                "rental_uris": {
                    "android": "https://app.nextbike.net/station?id=607760479",
                    "ios": "https://app.nextbike.net/station?id=607760479",
                    "web": "https://nxtb.it/p/607760479"
                },
                "short_name": "495670",
                "station_id": "607760479",
                "vehicle_types_available": []
            },
            "type": "Feature"
        },
        {
            "geometry": {
                "coordinates": [
                    15.939779,
                    49.561882
                ],
                "type": "Point"
            },
            "properties": {
                "is_installed": true,
                "is_renting": true,
                "is_returning": true,
                "is_virtual_station": false,
                "last_reported": 1789272049,
                "name": "N\u00e1dra\u017en\u00ed, Moneta",
                "num_bikes_available": 2,
                "num_docks_available": 0,
                "region_id": "1310",
                "rental_uris": {
                    "android": "https://app.nextbike.net/station?id=607760926",
                    "ios": "https://app.nextbike.net/station?id=607760926",
                    "web": "https://nxtb.it/p/607760926"
                },
                "short_name": "495671",
                "station_id": "607760926",
                "vehicle_types_available": [
                    {
                        "count": 2,
                        "vehicle_type_id": "427"
                    }
                ]
            },
            "type": "Feature"
        },
        {
            "geometry": {
                "coordinates": [
                    15.939246,
                    49.56089
                ],
                "type": "Point"
            },
            "properties": {
                "is_installed": true,
                "is_renting": true,
                "is_returning": true,
                "is_virtual_station": false,
                "last_reported": 1789272049,
                "name": "N\u00e1dra\u017en\u00ed, \u010cSOB",
                "num_bikes_available": 0,
                "num_docks_available": 0,
                "region_id": "1310",
                "rental_uris": {
                    "android": "https://app.nextbike.net/station?id=607761002",
                    "ios": "https://app.nextbike.net/station?id=607761002",
                    "web": "https://nxtb.it/p/607761002"
                },
                "short_name": "495672",
                "station_id": "607761002",
                "vehicle_types_available": []
            },
            "type": "Feature"
        },
        {
            "geometry": {
                "coordinates": [
                    15.939007,
                    49.560429
                ],
                "type": "Point"
            },
            "properties": {
                "is_installed": true,
                "is_renting": true,
                "is_returning": true,
                "is_virtual_station": false,
                "last_reported": 1789272049,
                "name": "N\u00e1dra\u017en\u00ed, Po\u0161ta",
                "num_bikes_available": 3,
                "num_docks_available": 0,
                "region_id": "1310",
                "rental_uris": {
                    "android": "https://app.nextbike.net/station?id=607761050",
                    "ios": "https://app.nextbike.net/station?id=607761050",
                    "web": "https://nxtb.it/p/607761050"
                },
                "short_name": "495673",
                "station_id": "607761050",
                "vehicle_types_available": [
                    {
                        "count": 2,
                        "vehicle_type_id": "407"
                    },
                    {
                        "count": 1,
                        "vehicle_type_id": "427"
                    }
                ]
            },
            "type": "Feature"
        },
        {
            "geometry": {
                "coordinates": [
                    15.940783,
                    49.560758
                ],
                "type": "Point"
            },
            "properties": {
                "is_installed": true,
                "is_renting": true,
                "is_returning": true,
                "is_virtual_station": false,
                "last_reported": 1789272049,
                "name": "Divadlo",
                "num_bikes_available": 0,
                "num_docks_available": 0,
                "region_id": "1310",
                "rental_uris": {
                    "android": "https://app.nextbike.net/station?id=607761110",
                    "ios": "https://app.nextbike.net/station?id=607761110",
                    "web": "https://nxtb.it/p/607761110"
                },
                "short_name": "495674",
                "station_id": "607761110",
                "vehicle_types_available": []
            },
            "type": "Feature"
        },
        {
            "geometry": {
                "coordinates": [
                    15.941758,
                    49.563148
                ],
                "type": "Point"
            },
            "properties": {
                "is_installed": true,
                "is_renting": true,
                "is_returning": true,
                "is_virtual_station": false,
                "last_reported": 1789272049,
                "name": "Baz\u00e9n",
                "num_bikes_available": 0,
                "num_docks_available": 0,
                "region_id": "1310",
                "rental_uris": {
                    "android": "https://app.nextbike.net/station?id=607761165",
                    "ios": "https://app.nextbike.net/station?id=607761165",
                    "web": "https://nxtb.it/p/607761165"
                },
                "short_name": "495675",
                "station_id": "607761165",
                "vehicle_types_available": []
            },
            "type": "Feature"
        },
        {
            "geometry": {
                "coordinates": [
                    15.953398,
                    49.564469
                ],
                "type": "Point"
            },
            "properties": {
                "is_installed": true,
                "is_renting": true,
                "is_returning": true,
                "is_virtual_station": false,
                "last_reported": 1789272049,
                "name": "Jamborova",
                "num_bikes_available": 0,
                "num_docks_available": 0,
                "region_id": "1310",
                "rental_uris": {
                    "android": "https://app.nextbike.net/station?id=607761226",
                    "ios": "https://app.nextbike.net/station?id=607761226",
                    "web": "https://nxtb.it/p/607761226"
                },
                "short_name": "495676",
                "station_id": "607761226",
                "vehicle_types_available": []
            },
            "type": "Feature"
        },
        {
            "geometry": {
                "coordinates": [
                    15.946055,
                    49.560665
                ],
                "type": "Point"
            },
            "properties": {
                "is_installed": true,
                "is_renting": true,
                "is_returning": true,
                "is_virtual_station": false,
                "last_reported": 1789272049,
                "name": "Horn\u00ed rybn\u00edk",
                "num_bikes_available": 0,
                "num_docks_available": 0,
                "region_id": "1310",
                "rental_uris": {
                    "android": "https://app.nextbike.net/station?id=607761324",
                    "ios": "https://app.nextbike.net/station?id=607761324",
                    "web": "https://nxtb.it/p/607761324"
                },
                "short_name": "495677",
                "station_id": "607761324",
                "vehicle_types_available": []
            },
            "type": "Feature"
        },
        {
            "geometry": {
                "coordinates": [
                    15.939568,
                    49.556843
                ],
                "type": "Point"
            },
            "properties": {
                "is_installed": true,
                "is_renting": true,
                "is_returning": true,
                "is_virtual_station": false,
                "last_reported": 1789272049,
                "name": "N\u00e1dra\u017en\u00ed",
                "num_bikes_available": 1,
                "num_docks_available": 0,
                "region_id": "1310",
                "rental_uris": {
                    "android": "https://app.nextbike.net/station?id=607762289",
                    "ios": "https://app.nextbike.net/station?id=607762289",
                    "web": "https://nxtb.it/p/607762289"
                },
                "short_name": "495678",
                "station_id": "607762289",
                "vehicle_types_available": [
                    {
                        "count": 1,
                        "vehicle_type_id": "407"
                    }
                ]
            },
            "type": "Feature"
        },
        {
            "geometry": {
                "coordinates": [
                    15.939709,
                    49.554199
                ],
                "type": "Point"
            },
            "properties": {
                "is_installed": true,
                "is_renting": true,
                "is_returning": true,
                "is_virtual_station": false,
                "last_reported": 1789272049,
                "name": "Vlakov\u00e9 n\u00e1dra\u017e\u00ed",
                "num_bikes_available": 3,
                "num_docks_available": 0,
                "region_id": "1310",
                "rental_uris": {
                    "android": "https://app.nextbike.net/station?id=607762420",
                    "ios": "https://app.nextbike.net/station?id=607762420",
                    "web": "https://nxtb.it/p/607762420"
                },
                "short_name": "495679",
                "station_id": "607762420",
                "vehicle_types_available": [
                    {
                        "count": 3,
                        "vehicle_type_id": "407"
                    }
                ]
            },
            "type": "Feature"
        },
        {
            "geometry": {
                "coordinates": [
                    15.942905,
                    49.555247
                ],
                "type": "Point"
            },
            "properties": {
                "is_installed": true,
                "is_renting": true,
                "is_returning": true,
                "is_virtual_station": false,
                "last_reported": 1789272049,
                "name": "Ha\u0161kova",
                "num_bikes_available": 1,
                "num_docks_available": 0,
                "region_id": "1310",
                "rental_uris": {
                    "android": "https://app.nextbike.net/station?id=607762525",
                    "ios": "https://app.nextbike.net/station?id=607762525",
                    "web": "https://nxtb.it/p/607762525"
                },
                "short_name": "495680",
                "station_id": "607762525",
                "vehicle_types_available": [
                    {
                        "count": 1,
                        "vehicle_type_id": "407"
                    }
                ]
            },
            "type": "Feature"
        },
        {
            "geometry": {
                "coordinates": [
                    15.948346,
                    49.556637
                ],
                "type": "Point"
            },
            "properties": {
                "is_installed": true,
                "is_renting": true,
                "is_returning": true,
                "is_virtual_station": false,
                "last_reported": 1789272049,
                "name": "Brn\u011bnsk\u00e1",
                "num_bikes_available": 0,
                "num_docks_available": 0,
                "region_id": "1310",
                "rental_uris": {
                    "android": "https://app.nextbike.net/station?id=607762587",
                    "ios": "https://app.nextbike.net/station?id=607762587",
                    "web": "https://nxtb.it/p/607762587"
                },
                "short_name": "495681",
                "station_id": "607762587",
                "vehicle_types_available": []
            },
            "type": "Feature"
        },
        {
            "geometry": {
                "coordinates": [
                    15.941582,
                    49.565591
                ],
                "type": "Point"
            },
            "properties": {
                "is_installed": true,
                "is_renting": true,
                "is_returning": true,
                "is_virtual_station": false,
                "last_reported": 1789272049,
                "name": "Studentsk\u00e1",
                "num_bikes_available": 3,
                "num_docks_available": 0,
                "region_id": "1310",
                "rental_uris": {
                    "android": "https://app.nextbike.net/station?id=607762710",
                    "ios": "https://app.nextbike.net/station?id=607762710",
                    "web": "https://nxtb.it/p/607762710"
                },
                "short_name": "495682",
                "station_id": "607762710",
                "vehicle_types_available": [
                    {
                        "count": 2,
                        "vehicle_type_id": "407"
                    },
                    {
                        "count": 1,
                        "vehicle_type_id": "427"
                    }
                ]
            },
            "type": "Feature"
        },
        {
            "geometry": {
                "coordinates": [
                    15.946544,
                    49.563461
                ],
                "type": "Point"
            },
            "properties": {
                "is_installed": true,
                "is_renting": true,
                "is_returning": true,
                "is_virtual_station": false,
                "last_reported": 1789272049,
                "name": "Brat\u0159\u00ed \u010capk\u016f",
                "num_bikes_available": 4,
                "num_docks_available": 0,
                "region_id": "1310",
                "rental_uris": {
                    "android": "https://app.nextbike.net/station?id=607762765",
                    "ios": "https://app.nextbike.net/station?id=607762765",
                    "web": "https://nxtb.it/p/607762765"
                },
                "short_name": "495683",
                "station_id": "607762765",
                "vehicle_types_available": [
                    {
                        "count": 1,
                        "vehicle_type_id": "407"
                    },
                    {
                        "count": 3,
                        "vehicle_type_id": "427"
                    }
                ]
            },
            "type": "Feature"
        },
        {
            "geometry": {
                "coordinates": [
                    15.946787,
                    49.554798
                ],
                "type": "Point"
            },
            "properties": {
                "is_installed": true,
                "is_renting": true,
                "is_returning": true,
                "is_virtual_station": false,
                "last_reported": 1789272049,
                "name": "Jihlavsk\u00e1",
                "num_bikes_available": 0,
                "num_docks_available": 0,
                "region_id": "1310",
                "rental_uris": {
                    "android": "https://app.nextbike.net/station?id=607762889",
                    "ios": "https://app.nextbike.net/station?id=607762889",
                    "web": "https://nxtb.it/p/607762889"
                },
                "short_name": "495684",
                "station_id": "607762889",
                "vehicle_types_available": []
            },
            "type": "Feature"
        },
        {
            "geometry": {
                "coordinates": [
                    15.943763,
                    49.558053
                ],
                "type": "Point"
            },
            "properties": {
                "is_installed": true,
                "is_renting": true,
                "is_returning": true,
                "is_virtual_station": false,
                "last_reported": 1789272049,
                "name": "Palachova",
                "num_bikes_available": 0,
                "num_docks_available": 0,
                "region_id": "1310",
                "rental_uris": {
                    "android": "https://app.nextbike.net/station?id=607762951",
                    "ios": "https://app.nextbike.net/station?id=607762951",
                    "web": "https://nxtb.it/p/607762951"
                },
                "short_name": "495685",
                "station_id": "607762951",
                "vehicle_types_available": []
            },
            "type": "Feature"
        },
        {
            "geometry": {
                "coordinates": [
                    15.934473,
                    49.557964
                ],
                "type": "Point"
            },
            "properties": {
                "is_installed": true,
                "is_renting": true,
                "is_returning": true,
                "is_virtual_station": false,
                "last_reported": 1789272049,
                "name": "Stroj\u00edrensk\u00e1",
                "num_bikes_available": 1,
                "num_docks_available": 0,
                "region_id": "1310",
                "rental_uris": {
                    "android": "https://app.nextbike.net/station?id=607763013",
                    "ios": "https://app.nextbike.net/station?id=607763013",
                    "web": "https://nxtb.it/p/607763013"
                },
                "short_name": "495686",
                "station_id": "607763013",
                "vehicle_types_available": [
                    {
                        "count": 1,
                        "vehicle_type_id": "407"
                    }
                ]
            },
            "type": "Feature"
        },
        {
            "geometry": {
                "coordinates": [
                    15.941018,
                    49.561611
                ],
                "type": "Point"
            },
            "properties": {
                "is_installed": true,
                "is_renting": true,
                "is_returning": true,
                "is_virtual_station": false,
                "last_reported": 1789272049,
                "name": "N\u00e1m\u011bst\u00ed Republiky, Methodka",
                "num_bikes_available": 1,
                "num_docks_available": 0,
                "region_id": "1310",
                "rental_uris": {
                    "android": "https://app.nextbike.net/station?id=607763118",
                    "ios": "https://app.nextbike.net/station?id=607763118",
                    "web": "https://nxtb.it/p/607763118"
                },
                "short_name": "495687",
                "station_id": "607763118",
                "vehicle_types_available": [
                    {
                        "count": 1,
                        "vehicle_type_id": "407"
                    }
                ]
            },
            "type": "Feature"
        },
        {
            "geometry": {
                "coordinates": [
                    15.933745,
                    49.56448
                ],
                "type": "Point"
            },
            "properties": {
                "is_installed": true,
                "is_renting": true,
                "is_returning": true,
                "is_virtual_station": false,
                "last_reported": 1789272049,
                "name": "Sportovn\u00ed hala",
                "num_bikes_available": 0,
                "num_docks_available": 0,
                "region_id": "1310",
                "rental_uris": {
                    "android": "https://app.nextbike.net/station?id=607763175",
                    "ios": "https://app.nextbike.net/station?id=607763175",
                    "web": "https://nxtb.it/p/607763175"
                },
                "short_name": "495688",
                "station_id": "607763175",
                "vehicle_types_available": []
            },
            "type": "Feature"
        },
        {
            "geometry": {
                "coordinates": [
                    15.935328,
                    49.598301
                ],
                "type": "Point"
            },
            "properties": {
                "is_installed": true,
                "is_renting": true,
                "is_returning": true,
                "is_virtual_station": false,
                "last_reported": 1789272049,
                "name": "Str\u017eanov",
                "num_bikes_available": 0,
                "num_docks_available": 0,
                "region_id": "1310",
                "rental_uris": {
                    "android": "https://app.nextbike.net/station?id=607763239",
                    "ios": "https://app.nextbike.net/station?id=607763239",
                    "web": "https://nxtb.it/p/607763239"
                },
                "short_name": "495689",
                "station_id": "607763239",
                "vehicle_types_available": []
            },
            "type": "Feature"
        },
        {
            "geometry": {
                "coordinates": [
                    15.941554,
                    49.575975
                ],
                "type": "Point"
            },
            "properties": {
                "is_installed": true,
                "is_renting": true,
                "is_returning": true,
                "is_virtual_station": false,
                "last_reported": 1789272049,
                "name": "Sr\u00e1zn\u00e1",
                "num_bikes_available": 1,
                "num_docks_available": 0,
                "region_id": "1310",
                "rental_uris": {
                    "android": "https://app.nextbike.net/station?id=607763294",
                    "ios": "https://app.nextbike.net/station?id=607763294",
                    "web": "https://nxtb.it/p/607763294"
                },
                "short_name": "495690",
                "station_id": "607763294",
                "vehicle_types_available": [
                    {
                        "count": 1,
                        "vehicle_type_id": "427"
                    }
                ]
            },
            "type": "Feature"
        },
        {
            "geometry": {
                "coordinates": [
                    15.94082,
                    49.54865
                ],
                "type": "Point"
            },
            "properties": {
                "is_installed": true,
                "is_renting": true,
                "is_returning": true,
                "is_virtual_station": false,
                "last_reported": 1789272049,
                "name": "Hettich",
                "num_bikes_available": 1,
                "num_docks_available": 0,
                "region_id": "1310",
                "rental_uris": {
                    "android": "https://app.nextbike.net/station?id=607763375",
                    "ios": "https://app.nextbike.net/station?id=607763375",
                    "web": "https://nxtb.it/p/607763375"
                },
                "short_name": "495691",
                "station_id": "607763375",
                "vehicle_types_available": [
                    {
                        "count": 1,
                        "vehicle_type_id": "407"
                    }
                ]
            },
            "type": "Feature"
        },
        {
            "geometry": {
                "coordinates": [
                    15.91792,
                    49.60671
                ],
                "type": "Point"
            },
            "properties": {
                "is_installed": true,
                "is_renting": true,
                "is_returning": true,
                "is_virtual_station": false,
                "last_reported": 1789272049,
                "name": "Polni\u010dka, u mostku",
                "num_bikes_available": 1,
                "num_docks_available": 0,
                "region_id": "1310",
                "rental_uris": {
                    "android": "https://app.nextbike.net/station?id=607763470",
                    "ios": "https://app.nextbike.net/station?id=607763470",
                    "web": "https://nxtb.it/p/607763470"
                },
                "short_name": "495692",
                "station_id": "607763470",
                "vehicle_types_available": [
                    {
                        "count": 1,
                        "vehicle_type_id": "407"
                    }
                ]
            },
            "type": "Feature"
        },
        {
            "geometry": {
                "coordinates": [
                    15.912955,
                    49.606148
                ],
                "type": "Point"
            },
            "properties": {
                "is_installed": true,
                "is_renting": true,
                "is_returning": true,
                "is_virtual_station": false,
                "last_reported": 1789272049,
                "name": "Polni\u010dka, bo\u017e\u00ed muka",
                "num_bikes_available": 3,
                "num_docks_available": 0,
                "region_id": "1310",
                "rental_uris": {
                    "android": "https://app.nextbike.net/station?id=607763542",
                    "ios": "https://app.nextbike.net/station?id=607763542",
                    "web": "https://nxtb.it/p/607763542"
                },
                "short_name": "495693",
                "station_id": "607763542",
                "vehicle_types_available": [
                    {
                        "count": 3,
                        "vehicle_type_id": "407"
                    }
                ]
            },
            "type": "Feature"
        },
        {
            "geometry": {
                "coordinates": [
                    15.93651,
                    49.562885
                ],
                "type": "Point"
            },
            "properties": {
                "is_installed": true,
                "is_renting": true,
                "is_returning": true,
                "is_virtual_station": false,
                "last_reported": 1789272049,
                "name": "Farsk\u00e1 Humna - skl\u00e1rna",
                "num_bikes_available": 6,
                "num_docks_available": 0,
                "region_id": "1310",
                "rental_uris": {
                    "android": "https://app.nextbike.net/station?id=628982548",
                    "ios": "https://app.nextbike.net/station?id=628982548",
                    "web": "https://nxtb.it/p/628982548"
                },
                "short_name": "495694",
                "station_id": "628982548",
                "vehicle_types_available": [
                    {
                        "count": 6,
                        "vehicle_type_id": "407"
                    }
                ]
            },
            "type": "Feature"
        },
        {
            "geometry": {
                "coordinates": [
                    15.896821,
                    49.566889
                ],
                "type": "Point"
            },
            "properties": {
                "is_installed": true,
                "is_renting": true,
                "is_returning": true,
                "is_virtual_station": false,
                "last_reported": 1789272049,
                "name": "Hamry nad S\u00e1zavou - n\u00e1dra\u017e\u00ed",
                "num_bikes_available": 2,
                "num_docks_available": 0,
                "region_id": "1345",
                "rental_uris": {
                    "android": "https://app.nextbike.net/station?id=641210240",
                    "ios": "https://app.nextbike.net/station?id=641210240",
                    "web": "https://nxtb.it/p/641210240"
                },
                "short_name": "495695",
                "station_id": "641210240",
                "vehicle_types_available": [
                    {
                        "count": 2,
                        "vehicle_type_id": "407"
                    }
                ]
            },
            "type": "Feature"
        },
        {
            "geometry": {
                "coordinates": [
                    15.912055,
                    49.56213
                ],
                "type": "Point"
            },
            "properties": {
                "is_installed": true,
                "is_renting": true,
                "is_returning": true,
                "is_virtual_station": false,
                "last_reported": 1789272049,
                "name": "Hamry nad S\u00e1zavou - Horn\u00ed Hamry",
                "num_bikes_available": 2,
                "num_docks_available": 0,
                "region_id": "1345",
                "rental_uris": {
                    "android": "https://app.nextbike.net/station?id=641210592",
                    "ios": "https://app.nextbike.net/station?id=641210592",
                    "web": "https://nxtb.it/p/641210592"
                },
                "short_name": "495696",
                "station_id": "641210592",
                "vehicle_types_available": [
                    {
                        "count": 2,
                        "vehicle_type_id": "407"
                    }
                ]
            },
            "type": "Feature"
        }
    ],
    "gbfs": {
        "station_information": {
            "last_updated": 1789272049,
            "ttl": 60,
            "version": "2.3"
        },
        "station_status": {
            "last_updated": 1789272049,
            "ttl": 60,
            "version": "2.3"
        }
    },
    "type": "FeatureCollection"
}