{
    "features": [
        {
            "geometry": {
                "coordinates": [
                    4.84661,
                    50.47536
                ],
                "type": "Point"
            },
            "properties": {
                "address": "001 - OCTAVE HENRY - RUE DE GEMBLOUX / HALL OMNISPORT",
                "available_bike_stands": 6,
                "available_bikes": 9,
                "banking": false,
                "bike_stands": 15,
                "bonus": false,
                "contract_name": "namur",
                "last_update": 1789335639000,
                "name": "001 - OCTAVE HENRY",
                "number": 1,
                "status": "OPEN"
            },
            "type": "Feature"
        },
        {
            "geometry": {
                "coordinates": [
                    4.852803,
                    50.470692
                ],
                "type": "Point"
            },
            "properties": {
                "address": "002 - CROIX DU FEU - AV DES CROIX DU FEU / RUE MUZET FACE N\u00b07",
                "available_bike_stands": 2,
                "available_bikes": 13,
                "banking": false,
                "bike_stands": 15,
                "bonus": false,
                "contract_name": "namur",
                "last_update": 1789335642000,
                "name": "002 - CROIX DU FEU",
                "number": 2,
                "status": "OPEN"
            },
            "type": "Feature"
        },
        {
            "geometry": {
                "coordinates": [
                    4.86199,
                    50.47001
                ],
                "type": "Point"
            },
            "properties": {
                "address": "003 - GARE DU NORD - BD DU NORD FACE 5",
                "available_bike_stands": 7,
                "available_bikes": 8,
                "banking": false,
                "bike_stands": 15,
                "bonus": false,
                "contract_name": "namur",
                "last_update": 1789335632000,
                "name": "003 - GARE DU NORD",
                "number": 3,
                "status": "OPEN"
            },
            "type": "Feature"
        },
        {
            "geometry": {
                "coordinates": [
                    4.86546,
                    50.46697
                ],
                "type": "Point"
            },
            "properties": {
                "address": "006 - HOTEL DE VILLE - RUE DE FER DVT 101",
                "available_bike_stands": 7,
                "available_bikes": 8,
                "banking": false,
                "bike_stands": 15,
                "bonus": false,
                "contract_name": "namur",
                "last_update": 1789335647000,
                "name": "006 - HOTEL DE VILLE",
                "number": 6,
                "status": "OPEN"
            },
            "type": "Feature"
        },
        {
            "geometry": {
                "coordinates": [
                    4.8652,
                    50.46424
                ],
                "type": "Point"
            },
            "properties": {
                "address": "007 - ANGE - PLACE DE L ANGE FACE 95",
                "available_bike_stands": 6,
                "available_bikes": 9,
                "banking": false,
                "bike_stands": 15,
                "bonus": false,
                "contract_name": "namur",
                "last_update": 1789335627000,
                "name": "007 - ANGE",
                "number": 7,
                "status": "OPEN"
            },
            "type": "Feature"
        },
        {
            "geometry": {
                "coordinates": [
                    4.87353,
                    50.46364
                ],
                "type": "Point"
            },
            "properties": {
                "address": "010 - ARTHUR MASSON - SQUARE ARTHUR MASSON N 5",
                "available_bike_stands": 7,
                "available_bikes": 8,
                "banking": false,
                "bike_stands": 15,
                "bonus": false,
                "contract_name": "namur",
                "last_update": 1789335591000,
                "name": "010 - ARTHUR MASSON",
                "number": 10,
                "status": "OPEN"
            },
            "type": "Feature"
        },
        {
            "geometry": {
                "coordinates": [
                    4.87352,
                    50.46786
                ],
                "type": "Point"
            },
            "properties": {
                "address": "011 - CITE ADMINISTRATIVE - BD CAUCHY",
                "available_bike_stands": 5,
                "available_bikes": 5,
                "banking": false,
                "bike_stands": 10,
                "bonus": false,
                "contract_name": "namur",
                "last_update": 1789335815000,
                "name": "011 - CITE ADMINISTRATIVE",
                "number": 11,
                "status": "OPEN"
            },
            "type": "Feature"
        },
        {
            "geometry": {
                "coordinates": [
                    4.88484,
                    50.46687
                ],
                "type": "Point"
            },
            "properties": {
                "address": "012 - PLACE SAINT-NICOLAS - AVENUE ALBERT 1ER / PARKING P + R",
                "available_bike_stands": 6,
                "available_bikes": 9,
                "banking": false,
                "bike_stands": 15,
                "bonus": false,
                "contract_name": "namur",
                "last_update": 1789335603000,
                "name": "012 - PLACE SAINT-NICOLAS",
                "number": 12,
                "status": "OPEN"
            },
            "type": "Feature"
        },
        {
            "geometry": {
                "coordinates": [
                    4.87609,
                    50.46155
                ],
                "type": "Point"
            },
            "properties": {
                "address": "013 - PONT DES ARDENNES - PONT DES ARDENNES",
                "available_bike_stands": 6,
                "available_bikes": 9,
                "banking": false,
                "bike_stands": 15,
                "bonus": false,
                "contract_name": "namur",
                "last_update": 1789335628000,
                "name": "013 - PONT DES ARDENNES",
                "number": 13,
                "status": "OPEN"
            },
            "type": "Feature"
        },
        {
            "geometry": {
                "coordinates": [
                    4.86697,
                    50.457858
                ],
                "type": "Point"
            },
            "properties": {
                "address": "015 - PONT DE JAMBES - BD DE LA MEUSE x AV. DU BOURGEMESTRE JEAN MATERNE",
                "available_bike_stands": 5,
                "available_bikes": 10,
                "banking": false,
                "bike_stands": 15,
                "bonus": false,
                "contract_name": "namur",
                "last_update": 1789335627000,
                "name": "015 - PONT DE JAMBES",
                "number": 15,
                "status": "OPEN"
            },
            "type": "Feature"
        },
        {
            "geometry": {
                "coordinates": [
                    4.87266,
                    50.45602
                ],
                "type": "Point"
            },
            "properties": {
                "address": "016 - PLACE DE WALLONIE - PLACE DE LA WALLONIE",
                "available_bike_stands": 8,
                "available_bikes": 7,
                "banking": false,
                "bike_stands": 15,
                "bonus": false,
                "contract_name": "namur",
                "last_update": 1789335846000,
                "name": "016 - PLACE DE WALLONIE",
                "number": 16,
                "status": "OPEN"
            },
            "type": "Feature"
        },
        {
            "geometry": {
                "coordinates": [
                    4.8755827,
                    50.455072
                ],
                "type": "Point"
            },
            "properties": {
                "address": "017 - GARE DE JAMBES - RUE DE LA GARE FLEURIE",
                "available_bike_stands": 10,
                "available_bikes": 5,
                "banking": false,
                "bike_stands": 15,
                "bonus": false,
                "contract_name": "namur",
                "last_update": 1789335713000,
                "name": "017 - GARE DE JAMBES",
                "number": 17,
                "status": "OPEN"
            },
            "type": "Feature"
        },
        {
            "geometry": {
                "coordinates": [
                    4.868837,
                    50.451892
                ],
                "type": "Point"
            },
            "properties": {
                "address": "018 - CPAS - RUE DE DAVE",
                "available_bike_stands": 4,
                "available_bikes": 6,
                "banking": false,
                "bike_stands": 10,
                "bonus": false,
                "contract_name": "namur",
                "last_update": 1789335636000,
                "name": "018 - CPAS",
                "number": 18,
                "status": "OPEN"
            },
            "type": "Feature"
        },
        {
            "geometry": {
                "coordinates": [
                    4.862225,
                    50.456159
                ],
                "type": "Point"
            },
            "properties": {
                "address": "021 - CASINO - AVENUE DE LA PLANTE / CASINO",
                "available_bike_stands": 9,
                "available_bikes": 6,
                "banking": false,
                "bike_stands": 15,
                "bonus": false,
                "contract_name": "namur",
                "last_update": 1789335847000,
                "name": "021 - CASINO",
                "number": 21,
                "status": "OPEN"
            },
            "type": "Feature"
        },
        {
            "geometry": {
                "coordinates": [
                    4.867857,
                    50.461576
                ],
                "type": "Point"
            },
            "properties": {
                "address": "022 - GROGNON - ROND-POINT GROGNON / GROGNON",
                "available_bike_stands": 9,
                "available_bikes": 6,
                "banking": false,
                "bike_stands": 15,
                "bonus": false,
                "contract_name": "namur",
                "last_update": 1789335851000,
                "name": "022 - GROGNON",
                "number": 22,
                "status": "OPEN"
            },
            "type": "Feature"
        },
        {
            "geometry": {
                "coordinates": [
                    4.86499,
                    50.46204
                ],
                "type": "Point"
            },
            "properties": {
                "address": "023 - MAURICE SERVAIS - PLACE MAURICE SERVAIS DVT 92",
                "available_bike_stands": 6,
                "available_bikes": 4,
                "banking": false,
                "bike_stands": 10,
                "bonus": false,
                "contract_name": "namur",
                "last_update": 1789335617000,
                "name": "023 - MAURICE SERVAIS",
                "number": 23,
                "status": "OPEN"
            },
            "type": "Feature"
        },
        {
            "geometry": {
                "coordinates": [
                    4.861142,
                    50.46387
                ],
                "type": "Point"
            },
            "properties": {
                "address": "024 - SAINT-AUBAIN - RUE DU COLLEGE / PLACE SAINT-AUBIN",
                "available_bike_stands": 8,
                "available_bikes": 7,
                "banking": false,
                "bike_stands": 15,
                "bonus": false,
                "contract_name": "namur",
                "last_update": 1789335658000,
                "name": "024 - SAINT-AUBAIN",
                "number": 24,
                "status": "OPEN"
            },
            "type": "Feature"
        },
        {
            "geometry": {
                "coordinates": [
                    4.859506,
                    50.448224
                ],
                "type": "Point"
            },
            "properties": {
                "address": "025 - AUBERGE DE JEUNESSE - AVENUE FELICIEN ROPS",
                "available_bike_stands": 3,
                "available_bikes": 12,
                "banking": false,
                "bike_stands": 15,
                "bonus": false,
                "contract_name": "namur",
                "last_update": 1789335647000,
                "name": "025 - AUBERGE DE JEUNESSE",
                "number": 25,
                "status": "OPEN"
            },
            "type": "Feature"
        },
        {
            "geometry": {
                "coordinates": [
                    4.85644,
                    50.464457
                ],
                "type": "Point"
            },
            "properties": {
                "address": "026 - ARSENAL - BOULEVARD FRERE ORBAN",
                "available_bike_stands": 6,
                "available_bikes": 1,
                "banking": false,
                "bike_stands": 15,
                "bonus": false,
                "contract_name": "namur",
                "last_update": 1789335637000,
                "name": "026 - ARSENAL",
                "number": 26,
                "status": "OPEN"
            },
            "type": "Feature"
        },
        {
            "geometry": {
                "coordinates": [
                    4.8581,
                    50.4674
                ],
                "type": "Point"
            },
            "properties": {
                "address": "027 - OMALIUS - REMPART DE LA VIERGE / PLACE D'OMALIUS",
                "available_bike_stands": 6,
                "available_bikes": 9,
                "banking": false,
                "bike_stands": 15,
                "bonus": false,
                "contract_name": "namur",
                "last_update": 1789335683000,
                "name": "027 - OMALIUS",
                "number": 27,
                "status": "OPEN"
            },
            "type": "Feature"
        },
        {
            "geometry": {
                "coordinates": [
                    4.84834,
                    50.46675
                ],
                "type": "Point"
            },
            "properties": {
                "address": "028 - EXPO - AV SGT VRITHOFF FACE PALAIS DES EXPO",
                "available_bike_stands": 7,
                "available_bikes": 7,
                "banking": false,
                "bike_stands": 15,
                "bonus": false,
                "contract_name": "namur",
                "last_update": 1789335855000,
                "name": "028 - EXPO",
                "number": 28,
                "status": "OPEN"
            },
            "type": "Feature"
        },
        {
            "geometry": {
                "coordinates": [
                    4.849289,
                    50.464476
                ],
                "type": "Point"
            },
            "properties": {
                "address": "029 - WIERTZ - PLACE WIERTZ FACE 8",
                "available_bike_stands": 8,
                "available_bikes": 7,
                "banking": false,
                "bike_stands": 15,
                "bonus": false,
                "contract_name": "namur",
                "last_update": 1789335637000,
                "name": "029 - WIERTZ",
                "number": 29,
                "status": "OPEN"
            },
            "type": "Feature"
        },
        {
            "geometry": {
                "coordinates": [
                    4.842836,
                    50.460596
                ],
                "type": "Point"
            },
            "properties": {
                "address": "030 - PLACE LOUISE GODIN- LOUISE GODIN",
                "available_bike_stands": 10,
                "available_bikes": 5,
                "banking": false,
                "bike_stands": 15,
                "bonus": false,
                "contract_name": "namur",
                "last_update": 1789335835000,
                "name": "030 - PLACE LOUISE GODIN",
                "number": 30,
                "status": "OPEN"
            },
            "type": "Feature"
        },
        {
            "geometry": {
                "coordinates": [
                    4.839852,
                    50.464517
                ],
                "type": "Point"
            },
            "properties": {
                "address": "031 - PLACE DE BERCK-SUR-MER / PLACE DE BERCK-SUR-MER",
                "available_bike_stands": 6,
                "available_bikes": 9,
                "banking": false,
                "bike_stands": 15,
                "bonus": false,
                "contract_name": "namur",
                "last_update": 1789335669000,
                "name": "031 - PLACE DE BERCK-SUR-MER",
                "number": 31,
                "status": "OPEN"
            },
            "type": "Feature"
        },
        {
            "geometry": {
                "coordinates": [
                    4.87735,
                    50.46603
                ],
                "type": "Point"
            },
            "properties": {
                "address": "032- ECOLE DES CADETS - PLACE DE L'ECOLE DES CADETS",
                "available_bike_stands": 7,
                "available_bikes": 10,
                "banking": false,
                "bike_stands": 17,
                "bonus": false,
                "contract_name": "namur",
                "last_update": 1789335639000,
                "name": "032- ECOLE DES CADETS",
                "number": 32,
                "status": "OPEN"
            },
            "type": "Feature"
        },
        {
            "geometry": {
                "coordinates": [
                    4.837198,
                    50.462741
                ],
                "type": "Point"
            },
            "properties": {
                "address": "033 - BOSQUETS - RUE DES BOSQUETS",
                "available_bike_stands": 5,
                "available_bikes": 10,
                "banking": false,
                "bike_stands": 15,
                "bonus": false,
                "contract_name": "namur",
                "last_update": 1789335860000,
                "name": "033 - BOSQUETS",
                "number": 33,
                "status": "OPEN"
            },
            "type": "Feature"
        },
        {
            "geometry": {
                "coordinates": [
                    4.856928,
                    50.462037
                ],
                "type": "Point"
            },
            "properties": {
                "address": "035 -  REINE ASTRID",
                "available_bike_stands": 8,
                "available_bikes": 7,
                "banking": false,
                "bike_stands": 15,
                "bonus": false,
                "contract_name": "namur",
                "last_update": 1789336174000,
                "name": "035 - REINE ASTRID",
                "number": 35,
                "status": "OPEN"
            },
            "type": "Feature"
        }
    ],
    "type": "FeatureCollection"
}