{
    "features": [
        {
            "geometry": {
                "coordinates": [
                    7.338923,
                    47.747038
                ],
                "type": "Point"
            },
            "properties": {
                "address": "Rue de la Lanterne contre Temple St ETIENNE",
                "available_bike_stands": 22,
                "available_bikes": 0,
                "banking": true,
                "bike_stands": 28,
                "bonus": false,
                "contract_name": "mulhouse",
                "name": "17 - PLACE DE LA REUNION (CB)",
                "status": "CLOSED"
            },
            "type": "Feature"
        }
    ],
    "type": "FeatureCollection"
}