{
    "features": [
        {
            "geometry": {
                "coordinates": [
                    15.259719,
                    44.093336
                ],
                "type": "Point"
            },
            "properties": {
                "is_installed": true,
                "is_renting": true,
                "is_returning": true,
                "is_virtual_station": false,
                "last_reported": 1789242571,
                "name": "Ga\u017eenica, Zadar",
                "num_bikes_available": 4,
                "num_docks_available": 0,
                "region_id": "327",
                "rental_uris": {
                    "android": "https://app.nextbike.net/station?id=102996144",
                    "ios": "https://app.nextbike.net/station?id=102996144",
                    "web": "https://nxtb.it/p/102996144"
                },
                "short_name": "2393",
                "station_id": "102996144",
                "vehicle_types_available": [
                    {
                        "count": 1,
                        "vehicle_type_id": "120"
                    },
                    {
                        "count": 3,
                        "vehicle_type_id": "150"
                    }
                ]
            },
            "type": "Feature"
        },
        {
            "geometry": {
                "coordinates": [
                    15.210775,
                    44.130963
                ],
                "type": "Point"
            },
            "properties": {
                "capacity": 4,
                "is_installed": true,
                "is_renting": true,
                "is_returning": true,
                "is_virtual_station": false,
                "last_reported": 1789242571,
                "name": "Borik, Zadar",
                "num_bikes_available": 4,
                "num_docks_available": 0,
                "region_id": "327",
                "rental_uris": {
                    "android": "https://app.nextbike.net/station?id=16852514",
                    "ios": "https://app.nextbike.net/station?id=16852514",
                    "web": "https://nxtb.it/p/16852514"
                },
                "short_name": "2389",
                "station_id": "16852514",
                "vehicle_types_available": [
                    {
                        "count": 4,
                        "vehicle_type_id": "150"
                    }
                ]
            },
            "type": "Feature"
        },
        {
            "geometry": {
                "coordinates": [
                    15.235639,
                    44.104679
                ],
                "type": "Point"
            },
            "properties": {
                "capacity": 2,
                "is_installed": true,
                "is_renting": true,
                "is_returning": true,
                "is_virtual_station": false,
                "last_reported": 1789242571,
                "name": "Kolovare, Zadar",
                "num_bikes_available": 0,
                "num_docks_available": 2,
                "region_id": "327",
                "rental_uris": {
                    "android": "https://app.nextbike.net/station?id=16852569",
                    "ios": "https://app.nextbike.net/station?id=16852569",
                    "web": "https://nxtb.it/p/16852569"
                },
                "short_name": "2390",
                "station_id": "16852569",
                "vehicle_types_available": []
            },
            "type": "Feature"
        },
        {
            "geometry": {
                "coordinates": [
                    15.243493,
                    44.118483
                ],
                "type": "Point"
            },
            "properties": {
                "is_installed": true,
                "is_renting": true,
                "is_returning": true,
                "is_virtual_station": false,
                "last_reported": 1789242571,
                "name": "Vi\u0161njik, Zadar",
                "num_bikes_available": 1,
                "num_docks_available": 0,
                "region_id": "327",
                "rental_uris": {
                    "android": "https://app.nextbike.net/station?id=43713626",
                    "ios": "https://app.nextbike.net/station?id=43713626",
                    "web": "https://nxtb.it/p/43713626"
                },
                "short_name": "2392",
                "station_id": "43713626",
                "vehicle_types_available": [
                    {
                        "count": 1,
                        "vehicle_type_id": "120"
                    }
                ]
            },
            "type": "Feature"
        },
        {
            "geometry": {
                "coordinates": [
                    15.226638,
                    44.111655
                ],
                "type": "Point"
            },
            "properties": {
                "capacity": 4,
                "is_installed": true,
                "is_renting": true,
                "is_returning": true,
                "is_virtual_station": false,
                "last_reported": 1789242571,
                "name": "Stari kampus, Zadar",
                "num_bikes_available": 1,
                "num_docks_available": 2,
                "region_id": "327",
                "rental_uris": {
                    "android": "https://app.nextbike.net/station?id=687092",
                    "ios": "https://app.nextbike.net/station?id=687092",
                    "web": "https://nxtb.it/p/687092"
                },
                "short_name": "2387",
                "station_id": "687092",
                "vehicle_types_available": [
                    {
                        "count": 1,
                        "vehicle_type_id": "120"
                    }
                ]
            },
            "type": "Feature"
        },
        {
            "geometry": {
                "coordinates": [
                    15.228912,
                    44.11494
                ],
                "type": "Point"
            },
            "properties": {
                "is_installed": true,
                "is_renting": true,
                "is_returning": true,
                "is_virtual_station": false,
                "last_reported": 1789242571,
                "name": "Poluotok, Zadar",
                "num_bikes_available": 3,
                "num_docks_available": 1,
                "region_id": "327",
                "rental_uris": {
                    "android": "https://app.nextbike.net/station?id=687100",
                    "ios": "https://app.nextbike.net/station?id=687100",
                    "web": "https://nxtb.it/p/687100"
                },
                "short_name": "2385",
                "station_id": "687100",
                "vehicle_types_available": [
                    {
                        "count": 3,
                        "vehicle_type_id": "150"
                    }
                ]
            },
            "type": "Feature"
        },
        {
            "geometry": {
                "coordinates": [
                    15.241245,
                    44.106828
                ],
                "type": "Point"
            },
            "properties": {
                "capacity": 4,
                "is_installed": true,
                "is_renting": true,
                "is_returning": true,
                "is_virtual_station": false,
                "last_reported": 1789242571,
                "name": "Autobusni kolodvor, Zadar",
                "num_bikes_available": 3,
                "num_docks_available": 0,
                "region_id": "327",
                "rental_uris": {
                    "android": "https://app.nextbike.net/station?id=687108",
                    "ios": "https://app.nextbike.net/station?id=687108",
                    "web": "https://nxtb.it/p/687108"
                },
                "short_name": "2386",
                "station_id": "687108",
                "vehicle_types_available": [
                    {
                        "count": 3,
                        "vehicle_type_id": "150"
                    }
                ]
            },
            "type": "Feature"
        },
        {
            "geometry": {
                "coordinates": [
                    15.23698,
                    44.11323
                ],
                "type": "Point"
            },
            "properties": {
                "capacity": 6,
                "is_installed": true,
                "is_renting": true,
                "is_returning": true,
                "is_virtual_station": false,
                "last_reported": 1789242571,
                "name": "Novi kampus, Zadar",
                "num_bikes_available": 3,
                "num_docks_available": 3,
                "region_id": "327",
                "rental_uris": {
                    "android": "https://app.nextbike.net/station?id=687113",
                    "ios": "https://app.nextbike.net/station?id=687113",
                    "web": "https://nxtb.it/p/687113"
                },
                "short_name": "2388",
                "station_id": "687113",
                "vehicle_types_available": [
                    {
                        "count": 1,
                        "vehicle_type_id": "120"
                    },
                    {
                        "count": 1,
                        "vehicle_type_id": "196"
                    },
                    {
                        "count": 1,
                        "vehicle_type_id": "150"
                    }
                ]
            },
            "type": "Feature"
        }
    ],
    "gbfs": {
        "station_information": {
            "last_updated": 1789242571,
            "ttl": 60,
            "version": "2.3"
        },
        "station_status": {
            "last_updated": 1789242571,
            "ttl": 60,
            "version": "2.3"
        }
    },
    "type": "FeatureCollection"
}