{
    "features": [
        {
            "geometry": {
                "coordinates": [
                    18.612868,
                    53.013623
                ],
                "type": "Point"
            },
            "properties": {
                "is_installed": true,
                "is_renting": true,
                "is_returning": true,
                "is_virtual_station": false,
                "last_reported": 1789299436,
                "name": "Pl. \u015aw. Katarzyny",
                "num_bikes_available": 4,
                "num_docks_available": 0,
                "region_id": "1264",
                "rental_uris": {
                    "android": "https://app.nextbike.net/station?id=613720481",
                    "ios": "https://app.nextbike.net/station?id=613720481",
                    "web": "https://nxtb.it/p/613720481"
                },
                "short_name": "60001",
                "station_id": "613720481",
                "vehicle_types_available": [
                    {
                        "count": 4,
                        "vehicle_type_id": "71"
                    }
                ]
            },
            "type": "Feature"
        },
        {
            "geometry": {
                "coordinates": [
                    18.600396,
                    53.009734
                ],
                "type": "Point"
            },
            "properties": {
                "is_installed": true,
                "is_renting": true,
                "is_returning": true,
                "is_virtual_station": false,
                "last_reported": 1789299436,
                "name": "Pl. Rapackiego",
                "num_bikes_available": 0,
                "num_docks_available": 0,
                "region_id": "1264",
                "rental_uris": {
                    "android": "https://app.nextbike.net/station?id=613720538",
                    "ios": "https://app.nextbike.net/station?id=613720538",
                    "web": "https://nxtb.it/p/613720538"
                },
                "short_name": "60002",
                "station_id": "613720538",
                "vehicle_types_available": []
            },
            "type": "Feature"
        },
        {
            "geometry": {
                "coordinates": [
                    18.619295,
                    53.012572
                ],
                "type": "Point"
            },
            "properties": {
                "is_installed": true,
                "is_renting": true,
                "is_returning": true,
                "is_virtual_station": false,
                "last_reported": 1789299436,
                "name": "Pl. 18 Stycznia - PKP Toru\u0144 Miasto",
                "num_bikes_available": 3,
                "num_docks_available": 0,
                "region_id": "1264",
                "rental_uris": {
                    "android": "https://app.nextbike.net/station?id=615517166",
                    "ios": "https://app.nextbike.net/station?id=615517166",
                    "web": "https://nxtb.it/p/615517166"
                },
                "short_name": "60003",
                "station_id": "615517166",
                "vehicle_types_available": [
                    {
                        "count": 3,
                        "vehicle_type_id": "71"
                    }
                ]
            },
            "type": "Feature"
        },
        {
            "geometry": {
                "coordinates": [
                    18.601567,
                    53.015825
                ],
                "type": "Point"
            },
            "properties": {
                "is_installed": true,
                "is_renting": true,
                "is_returning": true,
                "is_virtual_station": false,
                "last_reported": 1789299436,
                "name": "ul. Szosa Che\u0142mi\u0144ska - CINEMA",
                "num_bikes_available": 3,
                "num_docks_available": 0,
                "region_id": "1264",
                "rental_uris": {
                    "android": "https://app.nextbike.net/station?id=615979678",
                    "ios": "https://app.nextbike.net/station?id=615979678",
                    "web": "https://nxtb.it/p/615979678"
                },
                "short_name": "60004",
                "station_id": "615979678",
                "vehicle_types_available": [
                    {
                        "count": 3,
                        "vehicle_type_id": "71"
                    }
                ]
            },
            "type": "Feature"
        },
        {
            "geometry": {
                "coordinates": [
                    18.570614,
                    53.020412
                ],
                "type": "Point"
            },
            "properties": {
                "is_installed": true,
                "is_renting": true,
                "is_returning": true,
                "is_virtual_station": false,
                "last_reported": 1789299436,
                "name": "ul. Gagarina - Biblioteka Uniwersytecka",
                "num_bikes_available": 4,
                "num_docks_available": 0,
                "region_id": "1264",
                "rental_uris": {
                    "android": "https://app.nextbike.net/station?id=615979967",
                    "ios": "https://app.nextbike.net/station?id=615979967",
                    "web": "https://nxtb.it/p/615979967"
                },
                "short_name": "60005",
                "station_id": "615979967",
                "vehicle_types_available": [
                    {
                        "count": 4,
                        "vehicle_type_id": "71"
                    }
                ]
            },
            "type": "Feature"
        },
        {
            "geometry": {
                "coordinates": [
                    18.571114,
                    53.01345
                ],
                "type": "Point"
            },
            "properties": {
                "is_installed": true,
                "is_renting": true,
                "is_returning": true,
                "is_virtual_station": false,
                "last_reported": 1789299436,
                "name": "ul. Broniewskiego / Reja",
                "num_bikes_available": 6,
                "num_docks_available": 0,
                "region_id": "1264",
                "rental_uris": {
                    "android": "https://app.nextbike.net/station?id=615980325",
                    "ios": "https://app.nextbike.net/station?id=615980325",
                    "web": "https://nxtb.it/p/615980325"
                },
                "short_name": "60006",
                "station_id": "615980325",
                "vehicle_types_available": [
                    {
                        "count": 6,
                        "vehicle_type_id": "71"
                    }
                ]
            },
            "type": "Feature"
        },
        {
            "geometry": {
                "coordinates": [
                    18.578777,
                    53.049688
                ],
                "type": "Point"
            },
            "properties": {
                "is_installed": true,
                "is_renting": true,
                "is_returning": true,
                "is_virtual_station": false,
                "last_reported": 1789299436,
                "name": "ul. Zbo\u017cowa",
                "num_bikes_available": 8,
                "num_docks_available": 0,
                "region_id": "1264",
                "rental_uris": {
                    "android": "https://app.nextbike.net/station?id=615980545",
                    "ios": "https://app.nextbike.net/station?id=615980545",
                    "web": "https://nxtb.it/p/615980545"
                },
                "short_name": "60007",
                "station_id": "615980545",
                "vehicle_types_available": [
                    {
                        "count": 8,
                        "vehicle_type_id": "71"
                    }
                ]
            },
            "type": "Feature"
        },
        {
            "geometry": {
                "coordinates": [
                    18.614753,
                    53.000701
                ],
                "type": "Point"
            },
            "properties": {
                "is_installed": true,
                "is_renting": true,
                "is_returning": true,
                "is_virtual_station": false,
                "last_reported": 1789299436,
                "name": "PKP Toru\u0144 G\u0142\u00f3wny",
                "num_bikes_available": 5,
                "num_docks_available": 0,
                "region_id": "1264",
                "rental_uris": {
                    "android": "https://app.nextbike.net/station?id=615980677",
                    "ios": "https://app.nextbike.net/station?id=615980677",
                    "web": "https://nxtb.it/p/615980677"
                },
                "short_name": "60008",
                "station_id": "615980677",
                "vehicle_types_available": [
                    {
                        "count": 5,
                        "vehicle_type_id": "71"
                    }
                ]
            },
            "type": "Feature"
        },
        {
            "geometry": {
                "coordinates": [
                    18.665398,
                    53.027308
                ],
                "type": "Point"
            },
            "properties": {
                "is_installed": true,
                "is_renting": true,
                "is_returning": true,
                "is_virtual_station": false,
                "last_reported": 1789299436,
                "name": "ul. Dziewulskiego",
                "num_bikes_available": 3,
                "num_docks_available": 0,
                "region_id": "1264",
                "rental_uris": {
                    "android": "https://app.nextbike.net/station?id=615980809",
                    "ios": "https://app.nextbike.net/station?id=615980809",
                    "web": "https://nxtb.it/p/615980809"
                },
                "short_name": "60009",
                "station_id": "615980809",
                "vehicle_types_available": [
                    {
                        "count": 3,
                        "vehicle_type_id": "71"
                    }
                ]
            },
            "type": "Feature"
        },
        {
            "geometry": {
                "coordinates": [
                    18.675929,
                    53.023784
                ],
                "type": "Point"
            },
            "properties": {
                "is_installed": true,
                "is_renting": true,
                "is_returning": true,
                "is_virtual_station": false,
                "last_reported": 1789299436,
                "name": "ul. Konstytucji 3 Maja",
                "num_bikes_available": 2,
                "num_docks_available": 0,
                "region_id": "1264",
                "rental_uris": {
                    "android": "https://app.nextbike.net/station?id=615980950",
                    "ios": "https://app.nextbike.net/station?id=615980950",
                    "web": "https://nxtb.it/p/615980950"
                },
                "short_name": "60010",
                "station_id": "615980950",
                "vehicle_types_available": [
                    {
                        "count": 2,
                        "vehicle_type_id": "71"
                    }
                ]
            },
            "type": "Feature"
        },
        {
            "geometry": {
                "coordinates": [
                    18.607093,
                    53.015787
                ],
                "type": "Point"
            },
            "properties": {
                "is_installed": true,
                "is_renting": true,
                "is_returning": true,
                "is_virtual_station": false,
                "last_reported": 1789299436,
                "name": "ul. D\u0105browskie o - Dworzec autobusowy",
                "num_bikes_available": 6,
                "num_docks_available": 0,
                "region_id": "1264",
                "rental_uris": {
                    "android": "https://app.nextbike.net/station?id=616127337",
                    "ios": "https://app.nextbike.net/station?id=616127337",
                    "web": "https://nxtb.it/p/616127337"
                },
                "short_name": "60011",
                "station_id": "616127337",
                "vehicle_types_available": [
                    {
                        "count": 6,
                        "vehicle_type_id": "71"
                    }
                ]
            },
            "type": "Feature"
        },
        {
            "geometry": {
                "coordinates": [
                    18.603585,
                    53.013126
                ],
                "type": "Point"
            },
            "properties": {
                "is_installed": true,
                "is_renting": true,
                "is_returning": true,
                "is_virtual_station": false,
                "last_reported": 1789299436,
                "name": "ul. Wa\u0142. gen. Sikorskiego - Urz\u0105d Miasta",
                "num_bikes_available": 5,
                "num_docks_available": 0,
                "region_id": "1264",
                "rental_uris": {
                    "android": "https://app.nextbike.net/station?id=616132207",
                    "ios": "https://app.nextbike.net/station?id=616132207",
                    "web": "https://nxtb.it/p/616132207"
                },
                "short_name": "60012",
                "station_id": "616132207",
                "vehicle_types_available": [
                    {
                        "count": 5,
                        "vehicle_type_id": "71"
                    }
                ]
            },
            "type": "Feature"
        },
        {
            "geometry": {
                "coordinates": [
                    18.592047,
                    53.018967
                ],
                "type": "Point"
            },
            "properties": {
                "is_installed": true,
                "is_renting": true,
                "is_returning": true,
                "is_virtual_station": false,
                "last_reported": 1789299436,
                "name": "ul. Gen. J\u00f3zefa Bema - Tor-Tor",
                "num_bikes_available": 2,
                "num_docks_available": 0,
                "region_id": "1264",
                "rental_uris": {
                    "android": "https://app.nextbike.net/station?id=616268151",
                    "ios": "https://app.nextbike.net/station?id=616268151",
                    "web": "https://nxtb.it/p/616268151"
                },
                "short_name": "60013",
                "station_id": "616268151",
                "vehicle_types_available": [
                    {
                        "count": 2,
                        "vehicle_type_id": "71"
                    }
                ]
            },
            "type": "Feature"
        },
        {
            "geometry": {
                "coordinates": [
                    18.583422,
                    53.011864
                ],
                "type": "Point"
            },
            "properties": {
                "is_installed": true,
                "is_renting": true,
                "is_returning": true,
                "is_virtual_station": false,
                "last_reported": 1789299436,
                "name": "ul. Mickiewicza",
                "num_bikes_available": 5,
                "num_docks_available": 0,
                "region_id": "1264",
                "rental_uris": {
                    "android": "https://app.nextbike.net/station?id=616274521",
                    "ios": "https://app.nextbike.net/station?id=616274521",
                    "web": "https://nxtb.it/p/616274521"
                },
                "short_name": "60014",
                "station_id": "616274521",
                "vehicle_types_available": [
                    {
                        "count": 5,
                        "vehicle_type_id": "71"
                    }
                ]
            },
            "type": "Feature"
        },
        {
            "geometry": {
                "coordinates": [
                    18.613091,
                    53.021196
                ],
                "type": "Point"
            },
            "properties": {
                "is_installed": true,
                "is_renting": true,
                "is_returning": true,
                "is_virtual_station": false,
                "last_reported": 1789299436,
                "name": "ul. Ba\u017cy\u0144skich",
                "num_bikes_available": 1,
                "num_docks_available": 0,
                "region_id": "1264",
                "rental_uris": {
                    "android": "https://app.nextbike.net/station?id=616288257",
                    "ios": "https://app.nextbike.net/station?id=616288257",
                    "web": "https://nxtb.it/p/616288257"
                },
                "short_name": "60015",
                "station_id": "616288257",
                "vehicle_types_available": [
                    {
                        "count": 1,
                        "vehicle_type_id": "71"
                    }
                ]
            },
            "type": "Feature"
        },
        {
            "geometry": {
                "coordinates": [
                    18.634041,
                    53.025961
                ],
                "type": "Point"
            },
            "properties": {
                "is_installed": true,
                "is_renting": true,
                "is_returning": true,
                "is_virtual_station": false,
                "last_reported": 1789299436,
                "name": "PKP Toru\u0144 Wschodni",
                "num_bikes_available": 3,
                "num_docks_available": 0,
                "region_id": "1264",
                "rental_uris": {
                    "android": "https://app.nextbike.net/station?id=616289899",
                    "ios": "https://app.nextbike.net/station?id=616289899",
                    "web": "https://nxtb.it/p/616289899"
                },
                "short_name": "60016",
                "station_id": "616289899",
                "vehicle_types_available": [
                    {
                        "count": 3,
                        "vehicle_type_id": "71"
                    }
                ]
            },
            "type": "Feature"
        },
        {
            "geometry": {
                "coordinates": [
                    18.617838,
                    53.023929
                ],
                "type": "Point"
            },
            "properties": {
                "is_installed": true,
                "is_renting": true,
                "is_returning": true,
                "is_virtual_station": false,
                "last_reported": 1789299436,
                "name": "ul. Ko\u015bciuszki / ul. \u015awi\u0119tope\u0142ka",
                "num_bikes_available": 3,
                "num_docks_available": 0,
                "region_id": "1264",
                "rental_uris": {
                    "android": "https://app.nextbike.net/station?id=616290080",
                    "ios": "https://app.nextbike.net/station?id=616290080",
                    "web": "https://nxtb.it/p/616290080"
                },
                "short_name": "60017",
                "station_id": "616290080",
                "vehicle_types_available": [
                    {
                        "count": 3,
                        "vehicle_type_id": "71"
                    }
                ]
            },
            "type": "Feature"
        },
        {
            "geometry": {
                "coordinates": [
                    18.596143,
                    53.012011
                ],
                "type": "Point"
            },
            "properties": {
                "is_installed": true,
                "is_renting": true,
                "is_returning": true,
                "is_virtual_station": false,
                "last_reported": 1789299436,
                "name": "ul. Mickiewicza / ul. Tujakowskiego",
                "num_bikes_available": 3,
                "num_docks_available": 0,
                "region_id": "1264",
                "rental_uris": {
                    "android": "https://app.nextbike.net/station?id=616295104",
                    "ios": "https://app.nextbike.net/station?id=616295104",
                    "web": "https://nxtb.it/p/616295104"
                },
                "short_name": "60018",
                "station_id": "616295104",
                "vehicle_types_available": [
                    {
                        "count": 3,
                        "vehicle_type_id": "71"
                    }
                ]
            },
            "type": "Feature"
        },
        {
            "geometry": {
                "coordinates": [
                    18.580283,
                    53.018757
                ],
                "type": "Point"
            },
            "properties": {
                "is_installed": true,
                "is_renting": true,
                "is_returning": true,
                "is_virtual_station": false,
                "last_reported": 1789299436,
                "name": "ul. Gagarina - Od Nowa",
                "num_bikes_available": 3,
                "num_docks_available": 0,
                "region_id": "1264",
                "rental_uris": {
                    "android": "https://app.nextbike.net/station?id=616295852",
                    "ios": "https://app.nextbike.net/station?id=616295852",
                    "web": "https://nxtb.it/p/616295852"
                },
                "short_name": "60019",
                "station_id": "616295852",
                "vehicle_types_available": [
                    {
                        "count": 3,
                        "vehicle_type_id": "71"
                    }
                ]
            },
            "type": "Feature"
        },
        {
            "geometry": {
                "coordinates": [
                    18.653275,
                    53.029522
                ],
                "type": "Point"
            },
            "properties": {
                "is_installed": true,
                "is_renting": true,
                "is_returning": true,
                "is_virtual_station": false,
                "last_reported": 1789299436,
                "name": "ul. Rydygiera / ul. Donimirskiego",
                "num_bikes_available": 4,
                "num_docks_available": 0,
                "region_id": "1264",
                "rental_uris": {
                    "android": "https://app.nextbike.net/station?id=616296257",
                    "ios": "https://app.nextbike.net/station?id=616296257",
                    "web": "https://nxtb.it/p/616296257"
                },
                "short_name": "60020",
                "station_id": "616296257",
                "vehicle_types_available": [
                    {
                        "count": 4,
                        "vehicle_type_id": "71"
                    }
                ]
            },
            "type": "Feature"
        },
        {
            "geometry": {
                "coordinates": [
                    18.692328,
                    53.028775
                ],
                "type": "Point"
            },
            "properties": {
                "is_installed": true,
                "is_renting": true,
                "is_returning": true,
                "is_virtual_station": false,
                "last_reported": 1789299436,
                "name": "ul. Kolankowskiego / ul. Kosynier\u00f3w",
                "num_bikes_available": 5,
                "num_docks_available": 0,
                "region_id": "1264",
                "rental_uris": {
                    "android": "https://app.nextbike.net/station?id=616296925",
                    "ios": "https://app.nextbike.net/station?id=616296925",
                    "web": "https://nxtb.it/p/616296925"
                },
                "short_name": "60021",
                "station_id": "616296925",
                "vehicle_types_available": [
                    {
                        "count": 5,
                        "vehicle_type_id": "71"
                    }
                ]
            },
            "type": "Feature"
        },
        {
            "geometry": {
                "coordinates": [
                    18.583757,
                    53.022882
                ],
                "type": "Point"
            },
            "properties": {
                "is_installed": true,
                "is_renting": true,
                "is_returning": true,
                "is_virtual_station": false,
                "last_reported": 1789299436,
                "name": "ul. \u015aw. Klemensa / ul. \u015aw. J\u00f3zefa",
                "num_bikes_available": 6,
                "num_docks_available": 0,
                "region_id": "1264",
                "rental_uris": {
                    "android": "https://app.nextbike.net/station?id=616297133",
                    "ios": "https://app.nextbike.net/station?id=616297133",
                    "web": "https://nxtb.it/p/616297133"
                },
                "short_name": "60022",
                "station_id": "616297133",
                "vehicle_types_available": [
                    {
                        "count": 6,
                        "vehicle_type_id": "71"
                    }
                ]
            },
            "type": "Feature"
        },
        {
            "geometry": {
                "coordinates": [
                    18.585142,
                    53.009843
                ],
                "type": "Point"
            },
            "properties": {
                "is_installed": true,
                "is_renting": true,
                "is_returning": true,
                "is_virtual_station": false,
                "last_reported": 1789299436,
                "name": "ul. Bydgoska/Konopnickiej",
                "num_bikes_available": 3,
                "num_docks_available": 0,
                "region_id": "1264",
                "rental_uris": {
                    "android": "https://app.nextbike.net/station?id=616298345",
                    "ios": "https://app.nextbike.net/station?id=616298345",
                    "web": "https://nxtb.it/p/616298345"
                },
                "short_name": "60023",
                "station_id": "616298345",
                "vehicle_types_available": [
                    {
                        "count": 3,
                        "vehicle_type_id": "71"
                    }
                ]
            },
            "type": "Feature"
        },
        {
            "geometry": {
                "coordinates": [
                    18.601729,
                    53.025416
                ],
                "type": "Point"
            },
            "properties": {
                "is_installed": true,
                "is_renting": true,
                "is_returning": true,
                "is_virtual_station": false,
                "last_reported": 1789299436,
                "name": "ul. Legion\u00f3w / Trasa \u015arednicowa",
                "num_bikes_available": 4,
                "num_docks_available": 0,
                "region_id": "1264",
                "rental_uris": {
                    "android": "https://app.nextbike.net/station?id=616298795",
                    "ios": "https://app.nextbike.net/station?id=616298795",
                    "web": "https://nxtb.it/p/616298795"
                },
                "short_name": "60024",
                "station_id": "616298795",
                "vehicle_types_available": [
                    {
                        "count": 4,
                        "vehicle_type_id": "71"
                    }
                ]
            },
            "type": "Feature"
        },
        {
            "geometry": {
                "coordinates": [
                    18.598191,
                    53.04111
                ],
                "type": "Point"
            },
            "properties": {
                "is_installed": true,
                "is_renting": true,
                "is_returning": true,
                "is_virtual_station": false,
                "last_reported": 1789299436,
                "name": "ul. Watzenrodego/Ugory",
                "num_bikes_available": 7,
                "num_docks_available": 0,
                "region_id": "1264",
                "rental_uris": {
                    "android": "https://app.nextbike.net/station?id=616299270",
                    "ios": "https://app.nextbike.net/station?id=616299270",
                    "web": "https://nxtb.it/p/616299270"
                },
                "short_name": "60025",
                "station_id": "616299270",
                "vehicle_types_available": [
                    {
                        "count": 7,
                        "vehicle_type_id": "71"
                    }
                ]
            },
            "type": "Feature"
        },
        {
            "geometry": {
                "coordinates": [
                    18.610359,
                    53.031438
                ],
                "type": "Point"
            },
            "properties": {
                "is_installed": true,
                "is_renting": true,
                "is_returning": true,
                "is_virtual_station": false,
                "last_reported": 1789299436,
                "name": "ul. Grudzi\u0105dzka / Kozacka",
                "num_bikes_available": 3,
                "num_docks_available": 0,
                "region_id": "1264",
                "rental_uris": {
                    "android": "https://app.nextbike.net/station?id=616299500",
                    "ios": "https://app.nextbike.net/station?id=616299500",
                    "web": "https://nxtb.it/p/616299500"
                },
                "short_name": "60026",
                "station_id": "616299500",
                "vehicle_types_available": [
                    {
                        "count": 3,
                        "vehicle_type_id": "71"
                    }
                ]
            },
            "type": "Feature"
        },
        {
            "geometry": {
                "coordinates": [
                    18.635685,
                    53.017748
                ],
                "type": "Point"
            },
            "properties": {
                "is_installed": true,
                "is_renting": true,
                "is_returning": true,
                "is_virtual_station": false,
                "last_reported": 1789299436,
                "name": "ul. Antczaka / Targowa",
                "num_bikes_available": 4,
                "num_docks_available": 0,
                "region_id": "1264",
                "rental_uris": {
                    "android": "https://app.nextbike.net/station?id=616300230",
                    "ios": "https://app.nextbike.net/station?id=616300230",
                    "web": "https://nxtb.it/p/616300230"
                },
                "short_name": "60027",
                "station_id": "616300230",
                "vehicle_types_available": [
                    {
                        "count": 4,
                        "vehicle_type_id": "71"
                    }
                ]
            },
            "type": "Feature"
        },
        {
            "geometry": {
                "coordinates": [
                    18.594074,
                    52.993845
                ],
                "type": "Point"
            },
            "properties": {
                "is_installed": true,
                "is_renting": true,
                "is_returning": true,
                "is_virtual_station": false,
                "last_reported": 1789299436,
                "name": "ul. Pozna\u0144ska/Urz\u0105d Pocztowy",
                "num_bikes_available": 7,
                "num_docks_available": 0,
                "region_id": "1264",
                "rental_uris": {
                    "android": "https://app.nextbike.net/station?id=616300597",
                    "ios": "https://app.nextbike.net/station?id=616300597",
                    "web": "https://nxtb.it/p/616300597"
                },
                "short_name": "60028",
                "station_id": "616300597",
                "vehicle_types_available": [
                    {
                        "count": 7,
                        "vehicle_type_id": "71"
                    }
                ]
            },
            "type": "Feature"
        },
        {
            "geometry": {
                "coordinates": [
                    18.596588,
                    53.021687
                ],
                "type": "Point"
            },
            "properties": {
                "is_installed": true,
                "is_renting": true,
                "is_returning": true,
                "is_virtual_station": false,
                "last_reported": 1789299436,
                "name": "Sz. Che\u0142mi\u0144ska / Podg\u00f3rna",
                "num_bikes_available": 4,
                "num_docks_available": 0,
                "region_id": "1264",
                "rental_uris": {
                    "android": "https://app.nextbike.net/station?id=616300964",
                    "ios": "https://app.nextbike.net/station?id=616300964",
                    "web": "https://nxtb.it/p/616300964"
                },
                "short_name": "60029",
                "station_id": "616300964",
                "vehicle_types_available": [
                    {
                        "count": 4,
                        "vehicle_type_id": "71"
                    }
                ]
            },
            "type": "Feature"
        },
        {
            "geometry": {
                "coordinates": [
                    18.571335,
                    53.017285
                ],
                "type": "Point"
            },
            "properties": {
                "is_installed": true,
                "is_renting": true,
                "is_returning": true,
                "is_virtual_station": false,
                "last_reported": 1789299436,
                "name": "ul. Gagarina /Polomarket",
                "num_bikes_available": 8,
                "num_docks_available": 0,
                "region_id": "1264",
                "rental_uris": {
                    "android": "https://app.nextbike.net/station?id=616301169",
                    "ios": "https://app.nextbike.net/station?id=616301169",
                    "web": "https://nxtb.it/p/616301169"
                },
                "short_name": "60030",
                "station_id": "616301169",
                "vehicle_types_available": [
                    {
                        "count": 8,
                        "vehicle_type_id": "71"
                    }
                ]
            },
            "type": "Feature"
        },
        {
            "geometry": {
                "coordinates": [
                    18.679125,
                    53.027134
                ],
                "type": "Point"
            },
            "properties": {
                "is_installed": true,
                "is_renting": true,
                "is_returning": true,
                "is_virtual_station": false,
                "last_reported": 1789299436,
                "name": "Park&Ride - Dziewulskiego",
                "num_bikes_available": 5,
                "num_docks_available": 0,
                "region_id": "1264",
                "rental_uris": {
                    "android": "https://app.nextbike.net/station?id=616301884",
                    "ios": "https://app.nextbike.net/station?id=616301884",
                    "web": "https://nxtb.it/p/616301884"
                },
                "short_name": "60031",
                "station_id": "616301884",
                "vehicle_types_available": [
                    {
                        "count": 5,
                        "vehicle_type_id": "71"
                    }
                ]
            },
            "type": "Feature"
        },
        {
            "geometry": {
                "coordinates": [
                    18.649932,
                    53.021267
                ],
                "type": "Point"
            },
            "properties": {
                "is_installed": true,
                "is_renting": true,
                "is_returning": true,
                "is_virtual_station": false,
                "last_reported": 1789299436,
                "name": "pl. Daszy\u0144skiego",
                "num_bikes_available": 2,
                "num_docks_available": 0,
                "region_id": "1264",
                "rental_uris": {
                    "android": "https://app.nextbike.net/station?id=616302073",
                    "ios": "https://app.nextbike.net/station?id=616302073",
                    "web": "https://nxtb.it/p/616302073"
                },
                "short_name": "60032",
                "station_id": "616302073",
                "vehicle_types_available": [
                    {
                        "count": 2,
                        "vehicle_type_id": "71"
                    }
                ]
            },
            "type": "Feature"
        },
        {
            "geometry": {
                "coordinates": [
                    18.658923,
                    53.023603
                ],
                "type": "Point"
            },
            "properties": {
                "is_installed": true,
                "is_renting": true,
                "is_returning": true,
                "is_virtual_station": false,
                "last_reported": 1789299436,
                "name": "ul. Rydygiera/Szosa Lubicka",
                "num_bikes_available": 4,
                "num_docks_available": 0,
                "region_id": "1264",
                "rental_uris": {
                    "android": "https://app.nextbike.net/station?id=616302433",
                    "ios": "https://app.nextbike.net/station?id=616302433",
                    "web": "https://nxtb.it/p/616302433"
                },
                "short_name": "60033",
                "station_id": "616302433",
                "vehicle_types_available": [
                    {
                        "count": 4,
                        "vehicle_type_id": "71"
                    }
                ]
            },
            "type": "Feature"
        },
        {
            "geometry": {
                "coordinates": [
                    18.629488,
                    52.993495
                ],
                "type": "Point"
            },
            "properties": {
                "is_installed": true,
                "is_renting": true,
                "is_returning": true,
                "is_virtual_station": false,
                "last_reported": 1789299436,
                "name": "ul. \u0141\u00f3dzka/Ok\u00f3lna",
                "num_bikes_available": 7,
                "num_docks_available": 0,
                "region_id": "1264",
                "rental_uris": {
                    "android": "https://app.nextbike.net/station?id=616304928",
                    "ios": "https://app.nextbike.net/station?id=616304928",
                    "web": "https://nxtb.it/p/616304928"
                },
                "short_name": "60034",
                "station_id": "616304928",
                "vehicle_types_available": [
                    {
                        "count": 7,
                        "vehicle_type_id": "71"
                    }
                ]
            },
            "type": "Feature"
        },
        {
            "geometry": {
                "coordinates": [
                    18.600563,
                    52.992461
                ],
                "type": "Point"
            },
            "properties": {
                "is_installed": true,
                "is_renting": true,
                "is_returning": true,
                "is_virtual_station": false,
                "last_reported": 1789299436,
                "name": "ul. Iwanowskiej / Si\u0142ownia",
                "num_bikes_available": 4,
                "num_docks_available": 0,
                "region_id": "1264",
                "rental_uris": {
                    "android": "https://app.nextbike.net/station?id=616305269",
                    "ios": "https://app.nextbike.net/station?id=616305269",
                    "web": "https://nxtb.it/p/616305269"
                },
                "short_name": "60035",
                "station_id": "616305269",
                "vehicle_types_available": [
                    {
                        "count": 4,
                        "vehicle_type_id": "71"
                    }
                ]
            },
            "type": "Feature"
        },
        {
            "geometry": {
                "coordinates": [
                    18.623071,
                    53.019714
                ],
                "type": "Point"
            },
            "properties": {
                "is_installed": true,
                "is_renting": true,
                "is_returning": true,
                "is_virtual_station": false,
                "last_reported": 1789299436,
                "name": "Garbaty Mostek Jana Sobieskiego",
                "num_bikes_available": 7,
                "num_docks_available": 0,
                "region_id": "1264",
                "rental_uris": {
                    "android": "https://app.nextbike.net/station?id=616305510",
                    "ios": "https://app.nextbike.net/station?id=616305510",
                    "web": "https://nxtb.it/p/616305510"
                },
                "short_name": "60036",
                "station_id": "616305510",
                "vehicle_types_available": [
                    {
                        "count": 7,
                        "vehicle_type_id": "71"
                    }
                ]
            },
            "type": "Feature"
        },
        {
            "geometry": {
                "coordinates": [
                    18.621963,
                    52.998713
                ],
                "type": "Point"
            },
            "properties": {
                "is_installed": true,
                "is_renting": true,
                "is_returning": true,
                "is_virtual_station": false,
                "last_reported": 1789299436,
                "name": "ul. Kniaziewicza / \u0141odzka ",
                "num_bikes_available": 2,
                "num_docks_available": 0,
                "region_id": "1264",
                "rental_uris": {
                    "android": "https://app.nextbike.net/station?id=616305801",
                    "ios": "https://app.nextbike.net/station?id=616305801",
                    "web": "https://nxtb.it/p/616305801"
                },
                "short_name": "60037",
                "station_id": "616305801",
                "vehicle_types_available": [
                    {
                        "count": 2,
                        "vehicle_type_id": "71"
                    }
                ]
            },
            "type": "Feature"
        },
        {
            "geometry": {
                "coordinates": [
                    18.594656,
                    52.990979
                ],
                "type": "Point"
            },
            "properties": {
                "is_installed": true,
                "is_renting": true,
                "is_returning": true,
                "is_virtual_station": false,
                "last_reported": 1789299436,
                "name": "ul. Drzyma\u0142y",
                "num_bikes_available": 3,
                "num_docks_available": 0,
                "region_id": "1264",
                "rental_uris": {
                    "android": "https://app.nextbike.net/station?id=616306137",
                    "ios": "https://app.nextbike.net/station?id=616306137",
                    "web": "https://nxtb.it/p/616306137"
                },
                "short_name": "60038",
                "station_id": "616306137",
                "vehicle_types_available": [
                    {
                        "count": 3,
                        "vehicle_type_id": "71"
                    }
                ]
            },
            "type": "Feature"
        },
        {
            "geometry": {
                "coordinates": [
                    18.580403,
                    53.013672
                ],
                "type": "Point"
            },
            "properties": {
                "is_installed": true,
                "is_renting": true,
                "is_returning": true,
                "is_virtual_station": false,
                "last_reported": 1789299436,
                "name": "ul. Broniewskiego / Sienkiewicza",
                "num_bikes_available": 5,
                "num_docks_available": 0,
                "region_id": "1264",
                "rental_uris": {
                    "android": "https://app.nextbike.net/station?id=616306387",
                    "ios": "https://app.nextbike.net/station?id=616306387",
                    "web": "https://nxtb.it/p/616306387"
                },
                "short_name": "60039",
                "station_id": "616306387",
                "vehicle_types_available": [
                    {
                        "count": 5,
                        "vehicle_type_id": "71"
                    }
                ]
            },
            "type": "Feature"
        },
        {
            "geometry": {
                "coordinates": [
                    18.589841,
                    53.030124
                ],
                "type": "Point"
            },
            "properties": {
                "is_installed": true,
                "is_renting": true,
                "is_returning": true,
                "is_virtual_station": false,
                "last_reported": 1789299436,
                "name": "Szosa Che\u0142mi\u0144ska/P\u00f3\u0142noc",
                "num_bikes_available": 3,
                "num_docks_available": 0,
                "region_id": "1264",
                "rental_uris": {
                    "android": "https://app.nextbike.net/station?id=616307090",
                    "ios": "https://app.nextbike.net/station?id=616307090",
                    "web": "https://nxtb.it/p/616307090"
                },
                "short_name": "60040",
                "station_id": "616307090",
                "vehicle_types_available": [
                    {
                        "count": 3,
                        "vehicle_type_id": "71"
                    }
                ]
            },
            "type": "Feature"
        },
        {
            "geometry": {
                "coordinates": [
                    18.613356,
                    53.034252
                ],
                "type": "Point"
            },
            "properties": {
                "is_installed": true,
                "is_renting": true,
                "is_returning": true,
                "is_virtual_station": false,
                "last_reported": 1789299436,
                "name": "C.H. KOMETA",
                "num_bikes_available": 2,
                "num_docks_available": 0,
                "region_id": "1264",
                "rental_uris": {
                    "android": "https://app.nextbike.net/station?id=616307334",
                    "ios": "https://app.nextbike.net/station?id=616307334",
                    "web": "https://nxtb.it/p/616307334"
                },
                "short_name": "60041",
                "station_id": "616307334",
                "vehicle_types_available": [
                    {
                        "count": 2,
                        "vehicle_type_id": "71"
                    }
                ]
            },
            "type": "Feature"
        },
        {
            "geometry": {
                "coordinates": [
                    18.638417,
                    53.024439
                ],
                "type": "Point"
            },
            "properties": {
                "is_installed": true,
                "is_renting": true,
                "is_returning": true,
                "is_virtual_station": false,
                "last_reported": 1789299436,
                "name": "Galeria Copernicus",
                "num_bikes_available": 6,
                "num_docks_available": 0,
                "region_id": "1264",
                "rental_uris": {
                    "android": "https://app.nextbike.net/station?id=616307513",
                    "ios": "https://app.nextbike.net/station?id=616307513",
                    "web": "https://nxtb.it/p/616307513"
                },
                "short_name": "60042",
                "station_id": "616307513",
                "vehicle_types_available": [
                    {
                        "count": 6,
                        "vehicle_type_id": "71"
                    }
                ]
            },
            "type": "Feature"
        },
        {
            "geometry": {
                "coordinates": [
                    18.561521,
                    53.014047
                ],
                "type": "Point"
            },
            "properties": {
                "is_installed": true,
                "is_renting": true,
                "is_returning": true,
                "is_virtual_station": false,
                "last_reported": 1789299436,
                "name": "Toru\u0144 Plaza",
                "num_bikes_available": 7,
                "num_docks_available": 0,
                "region_id": "1264",
                "rental_uris": {
                    "android": "https://app.nextbike.net/station?id=616307704",
                    "ios": "https://app.nextbike.net/station?id=616307704",
                    "web": "https://nxtb.it/p/616307704"
                },
                "short_name": "60043",
                "station_id": "616307704",
                "vehicle_types_available": [
                    {
                        "count": 7,
                        "vehicle_type_id": "71"
                    }
                ]
            },
            "type": "Feature"
        },
        {
            "geometry": {
                "coordinates": [
                    18.617114,
                    53.055745
                ],
                "type": "Point"
            },
            "properties": {
                "is_installed": true,
                "is_renting": true,
                "is_returning": true,
                "is_virtual_station": false,
                "last_reported": 1789299436,
                "name": "Neuca / Forteczna",
                "num_bikes_available": 5,
                "num_docks_available": 0,
                "region_id": "1264",
                "rental_uris": {
                    "android": "https://app.nextbike.net/station?id=616308132",
                    "ios": "https://app.nextbike.net/station?id=616308132",
                    "web": "https://nxtb.it/p/616308132"
                },
                "short_name": "60044",
                "station_id": "616308132",
                "vehicle_types_available": [
                    {
                        "count": 5,
                        "vehicle_type_id": "71"
                    }
                ]
            },
            "type": "Feature"
        },
        {
            "geometry": {
                "coordinates": [
                    18.580503,
                    53.042312
                ],
                "type": "Point"
            },
            "properties": {
                "is_installed": true,
                "is_renting": true,
                "is_returning": true,
                "is_virtual_station": false,
                "last_reported": 1789299436,
                "name": "Kwiatowa",
                "num_bikes_available": 4,
                "num_docks_available": 0,
                "region_id": "1264",
                "rental_uris": {
                    "android": "https://app.nextbike.net/station?id=616308451",
                    "ios": "https://app.nextbike.net/station?id=616308451",
                    "web": "https://nxtb.it/p/616308451"
                },
                "short_name": "60045",
                "station_id": "616308451",
                "vehicle_types_available": [
                    {
                        "count": 4,
                        "vehicle_type_id": "71"
                    }
                ]
            },
            "type": "Feature"
        },
        {
            "geometry": {
                "coordinates": [
                    18.609214,
                    53.024066
                ],
                "type": "Point"
            },
            "properties": {
                "is_installed": true,
                "is_renting": true,
                "is_returning": true,
                "is_virtual_station": false,
                "last_reported": 1789299436,
                "name": "Centrum Bumar",
                "num_bikes_available": 6,
                "num_docks_available": 0,
                "region_id": "1264",
                "rental_uris": {
                    "android": "https://app.nextbike.net/station?id=616308749",
                    "ios": "https://app.nextbike.net/station?id=616308749",
                    "web": "https://nxtb.it/p/616308749"
                },
                "short_name": "60046",
                "station_id": "616308749",
                "vehicle_types_available": [
                    {
                        "count": 6,
                        "vehicle_type_id": "71"
                    }
                ]
            },
            "type": "Feature"
        },
        {
            "geometry": {
                "coordinates": [
                    18.60379,
                    53.050074
                ],
                "type": "Point"
            },
            "properties": {
                "is_installed": true,
                "is_renting": true,
                "is_returning": true,
                "is_virtual_station": false,
                "last_reported": 1789299436,
                "name": "Watzenrodego / Grasera",
                "num_bikes_available": 6,
                "num_docks_available": 0,
                "region_id": "1264",
                "rental_uris": {
                    "android": "https://app.nextbike.net/station?id=616309005",
                    "ios": "https://app.nextbike.net/station?id=616309005",
                    "web": "https://nxtb.it/p/616309005"
                },
                "short_name": "60047",
                "station_id": "616309005",
                "vehicle_types_available": [
                    {
                        "count": 6,
                        "vehicle_type_id": "71"
                    }
                ]
            },
            "type": "Feature"
        },
        {
            "geometry": {
                "coordinates": [
                    18.599717,
                    53.033278
                ],
                "type": "Point"
            },
            "properties": {
                "is_installed": true,
                "is_renting": true,
                "is_returning": true,
                "is_virtual_station": false,
                "last_reported": 1789299436,
                "name": "Rondo Czadcy",
                "num_bikes_available": 1,
                "num_docks_available": 0,
                "region_id": "1264",
                "rental_uris": {
                    "android": "https://app.nextbike.net/station?id=616309359",
                    "ios": "https://app.nextbike.net/station?id=616309359",
                    "web": "https://nxtb.it/p/616309359"
                },
                "short_name": "60048",
                "station_id": "616309359",
                "vehicle_types_available": [
                    {
                        "count": 1,
                        "vehicle_type_id": "71"
                    }
                ]
            },
            "type": "Feature"
        },
        {
            "geometry": {
                "coordinates": [
                    18.598711,
                    53.006705
                ],
                "type": "Point"
            },
            "properties": {
                "is_installed": true,
                "is_renting": true,
                "is_returning": true,
                "is_virtual_station": false,
                "last_reported": 1789299436,
                "name": "Bulwar Filadelfijski",
                "num_bikes_available": 1,
                "num_docks_available": 0,
                "region_id": "1264",
                "rental_uris": {
                    "android": "https://app.nextbike.net/station?id=616309551",
                    "ios": "https://app.nextbike.net/station?id=616309551",
                    "web": "https://nxtb.it/p/616309551"
                },
                "short_name": "60049",
                "station_id": "616309551",
                "vehicle_types_available": [
                    {
                        "count": 1,
                        "vehicle_type_id": "71"
                    }
                ]
            },
            "type": "Feature"
        },
        {
            "geometry": {
                "coordinates": [
                    18.54796,
                    53.017983
                ],
                "type": "Point"
            },
            "properties": {
                "is_installed": true,
                "is_renting": true,
                "is_returning": true,
                "is_virtual_station": false,
                "last_reported": 1789299436,
                "name": "Motoarena",
                "num_bikes_available": 6,
                "num_docks_available": 0,
                "region_id": "1264",
                "rental_uris": {
                    "android": "https://app.nextbike.net/station?id=616309708",
                    "ios": "https://app.nextbike.net/station?id=616309708",
                    "web": "https://nxtb.it/p/616309708"
                },
                "short_name": "60050",
                "station_id": "616309708",
                "vehicle_types_available": [
                    {
                        "count": 6,
                        "vehicle_type_id": "71"
                    }
                ]
            },
            "type": "Feature"
        },
        {
            "geometry": {
                "coordinates": [
                    18.541721,
                    53.054141
                ],
                "type": "Point"
            },
            "properties": {
                "is_installed": true,
                "is_renting": true,
                "is_returning": true,
                "is_virtual_station": false,
                "last_reported": 1789299436,
                "name": "Barbarka",
                "num_bikes_available": 2,
                "num_docks_available": 0,
                "region_id": "1264",
                "rental_uris": {
                    "android": "https://app.nextbike.net/station?id=616309939",
                    "ios": "https://app.nextbike.net/station?id=616309939",
                    "web": "https://nxtb.it/p/616309939"
                },
                "short_name": "60051",
                "station_id": "616309939",
                "vehicle_types_available": [
                    {
                        "count": 2,
                        "vehicle_type_id": "71"
                    }
                ]
            },
            "type": "Feature"
        },
        {
            "geometry": {
                "coordinates": [
                    18.679647,
                    53.018699
                ],
                "type": "Point"
            },
            "properties": {
                "is_installed": true,
                "is_renting": true,
                "is_returning": true,
                "is_virtual_station": false,
                "last_reported": 1789299436,
                "name": "Wyszy\u0144skiego/Przy Skarpie",
                "num_bikes_available": 3,
                "num_docks_available": 0,
                "region_id": "1264",
                "rental_uris": {
                    "android": "https://app.nextbike.net/station?id=616310098",
                    "ios": "https://app.nextbike.net/station?id=616310098",
                    "web": "https://nxtb.it/p/616310098"
                },
                "short_name": "60052",
                "station_id": "616310098",
                "vehicle_types_available": [
                    {
                        "count": 3,
                        "vehicle_type_id": "71"
                    }
                ]
            },
            "type": "Feature"
        },
        {
            "geometry": {
                "coordinates": [
                    18.641809,
                    53.0014
                ],
                "type": "Point"
            },
            "properties": {
                "is_installed": true,
                "is_renting": true,
                "is_returning": true,
                "is_virtual_station": false,
                "last_reported": 1789299436,
                "name": "Dom Muz Ok\u00f3lna Podg\u00f3rska",
                "num_bikes_available": 7,
                "num_docks_available": 0,
                "region_id": "1264",
                "rental_uris": {
                    "android": "https://app.nextbike.net/station?id=616310344",
                    "ios": "https://app.nextbike.net/station?id=616310344",
                    "web": "https://nxtb.it/p/616310344"
                },
                "short_name": "60053",
                "station_id": "616310344",
                "vehicle_types_available": [
                    {
                        "count": 7,
                        "vehicle_type_id": "71"
                    }
                ]
            },
            "type": "Feature"
        },
        {
            "geometry": {
                "coordinates": [
                    18.603792,
                    53.05288
                ],
                "type": "Point"
            },
            "properties": {
                "is_installed": true,
                "is_renting": true,
                "is_returning": true,
                "is_virtual_station": false,
                "last_reported": 1789299436,
                "name": "Strobanda",
                "num_bikes_available": 4,
                "num_docks_available": 0,
                "region_id": "1264",
                "rental_uris": {
                    "android": "https://app.nextbike.net/station?id=616310788",
                    "ios": "https://app.nextbike.net/station?id=616310788",
                    "web": "https://nxtb.it/p/616310788"
                },
                "short_name": "60055",
                "station_id": "616310788",
                "vehicle_types_available": [
                    {
                        "count": 4,
                        "vehicle_type_id": "71"
                    }
                ]
            },
            "type": "Feature"
        },
        {
            "geometry": {
                "coordinates": [
                    18.57369,
                    52.981508
                ],
                "type": "Point"
            },
            "properties": {
                "is_installed": true,
                "is_renting": true,
                "is_returning": true,
                "is_virtual_station": false,
                "last_reported": 1789299436,
                "name": "Kr\u0119ta Pozna\u0144ska",
                "num_bikes_available": 2,
                "num_docks_available": 0,
                "region_id": "1264",
                "rental_uris": {
                    "android": "https://app.nextbike.net/station?id=616310987",
                    "ios": "https://app.nextbike.net/station?id=616310987",
                    "web": "https://nxtb.it/p/616310987"
                },
                "short_name": "60056",
                "station_id": "616310987",
                "vehicle_types_available": [
                    {
                        "count": 2,
                        "vehicle_type_id": "71"
                    }
                ]
            },
            "type": "Feature"
        },
        {
            "geometry": {
                "coordinates": [
                    18.608813,
                    53.008522
                ],
                "type": "Point"
            },
            "properties": {
                "is_installed": true,
                "is_renting": true,
                "is_returning": true,
                "is_virtual_station": false,
                "last_reported": 1789299436,
                "name": "Bulwar/Mostowa",
                "num_bikes_available": 5,
                "num_docks_available": 0,
                "region_id": "1264",
                "rental_uris": {
                    "android": "https://app.nextbike.net/station?id=616311247",
                    "ios": "https://app.nextbike.net/station?id=616311247",
                    "web": "https://nxtb.it/p/616311247"
                },
                "short_name": "60057",
                "station_id": "616311247",
                "vehicle_types_available": [
                    {
                        "count": 5,
                        "vehicle_type_id": "71"
                    }
                ]
            },
            "type": "Feature"
        },
        {
            "geometry": {
                "coordinates": [
                    18.691832,
                    53.032594
                ],
                "type": "Point"
            },
            "properties": {
                "is_installed": true,
                "is_renting": true,
                "is_returning": true,
                "is_virtual_station": false,
                "last_reported": 1789299436,
                "name": "CH Bielawy",
                "num_bikes_available": 4,
                "num_docks_available": 0,
                "region_id": "1264",
                "rental_uris": {
                    "android": "https://app.nextbike.net/station?id=616311478",
                    "ios": "https://app.nextbike.net/station?id=616311478",
                    "web": "https://nxtb.it/p/616311478"
                },
                "short_name": "60058",
                "station_id": "616311478",
                "vehicle_types_available": [
                    {
                        "count": 4,
                        "vehicle_type_id": "71"
                    }
                ]
            },
            "type": "Feature"
        },
        {
            "geometry": {
                "coordinates": [
                    18.622016,
                    53.001307
                ],
                "type": "Point"
            },
            "properties": {
                "is_installed": true,
                "is_renting": true,
                "is_returning": true,
                "is_virtual_station": false,
                "last_reported": 1789299436,
                "name": "\u0141\u00f3dzka Podg\u00f3rska",
                "num_bikes_available": 3,
                "num_docks_available": 0,
                "region_id": "1264",
                "rental_uris": {
                    "android": "https://app.nextbike.net/station?id=616311733",
                    "ios": "https://app.nextbike.net/station?id=616311733",
                    "web": "https://nxtb.it/p/616311733"
                },
                "short_name": "60059",
                "station_id": "616311733",
                "vehicle_types_available": [
                    {
                        "count": 3,
                        "vehicle_type_id": "71"
                    }
                ]
            },
            "type": "Feature"
        },
        {
            "geometry": {
                "coordinates": [
                    18.59891,
                    53.009893
                ],
                "type": "Point"
            },
            "properties": {
                "is_installed": true,
                "is_renting": true,
                "is_returning": true,
                "is_virtual_station": false,
                "last_reported": 1789299436,
                "name": "Chopina Pl. Rapackiego",
                "num_bikes_available": 3,
                "num_docks_available": 0,
                "region_id": "1264",
                "rental_uris": {
                    "android": "https://app.nextbike.net/station?id=616322099",
                    "ios": "https://app.nextbike.net/station?id=616322099",
                    "web": "https://nxtb.it/p/616322099"
                },
                "short_name": "60060",
                "station_id": "616322099",
                "vehicle_types_available": [
                    {
                        "count": 3,
                        "vehicle_type_id": "71"
                    }
                ]
            },
            "type": "Feature"
        },
        {
            "geometry": {
                "coordinates": [
                    18.701112,
                    53.001669
                ],
                "type": "Point"
            },
            "properties": {
                "is_installed": true,
                "is_renting": true,
                "is_returning": true,
                "is_virtual_station": false,
                "last_reported": 1789299436,
                "name": "Kaszczorek",
                "num_bikes_available": 1,
                "num_docks_available": 0,
                "region_id": "1264",
                "rental_uris": {
                    "android": "https://app.nextbike.net/station?id=634861667",
                    "ios": "https://app.nextbike.net/station?id=634861667",
                    "web": "https://nxtb.it/p/634861667"
                },
                "short_name": "60061",
                "station_id": "634861667",
                "vehicle_types_available": [
                    {
                        "count": 1,
                        "vehicle_type_id": "71"
                    }
                ]
            },
            "type": "Feature"
        },
        {
            "geometry": {
                "coordinates": [
                    18.658154,
                    53.005292
                ],
                "type": "Point"
            },
            "properties": {
                "is_installed": true,
                "is_renting": true,
                "is_returning": true,
                "is_virtual_station": false,
                "last_reported": 1789299436,
                "name": "ul. Rudacka",
                "num_bikes_available": 5,
                "num_docks_available": 0,
                "region_id": "1264",
                "rental_uris": {
                    "android": "https://app.nextbike.net/station?id=634863522",
                    "ios": "https://app.nextbike.net/station?id=634863522",
                    "web": "https://nxtb.it/p/634863522"
                },
                "short_name": "60128",
                "station_id": "634863522",
                "vehicle_types_available": [
                    {
                        "count": 5,
                        "vehicle_type_id": "71"
                    }
                ]
            },
            "type": "Feature"
        },
        {
            "geometry": {
                "coordinates": [
                    18.684554,
                    52.977968
                ],
                "type": "Point"
            },
            "properties": {
                "is_installed": true,
                "is_renting": true,
                "is_returning": true,
                "is_virtual_station": false,
                "last_reported": 1789299436,
                "name": "ul. W\u0142oc\u0142awska",
                "num_bikes_available": 1,
                "num_docks_available": 0,
                "region_id": "1264",
                "rental_uris": {
                    "android": "https://app.nextbike.net/station?id=634864425",
                    "ios": "https://app.nextbike.net/station?id=634864425",
                    "web": "https://nxtb.it/p/634864425"
                },
                "short_name": "60129",
                "station_id": "634864425",
                "vehicle_types_available": [
                    {
                        "count": 1,
                        "vehicle_type_id": "71"
                    }
                ]
            },
            "type": "Feature"
        }
    ],
    "gbfs": {
        "station_information": {
            "last_updated": 1789299436,
            "ttl": 60,
            "version": "2.3"
        },
        "station_status": {
            "last_updated": 1789299436,
            "ttl": 60,
            "version": "2.3"
        }
    },
    "type": "FeatureCollection"
}