{
    "features": [
        {
            "geometry": {
                "coordinates": [
                    16.982569,
                    49.962503
                ],
                "type": "Point"
            },
            "properties": {
                "capacity": 5,
                "is_installed": true,
                "is_renting": true,
                "is_returning": true,
                "is_virtual_station": false,
                "last_reported": 1789295165,
                "name": "Vlakov\u00e9 n\u00e1dra\u017e\u00ed",
                "num_bikes_available": 0,
                "num_docks_available": 5,
                "region_id": "1315",
                "rental_uris": {
                    "android": "https://app.nextbike.net/station?id=610690436",
                    "ios": "https://app.nextbike.net/station?id=610690436",
                    "web": "https://nxtb.it/p/610690436"
                },
                "short_name": "495717",
                "station_id": "610690436",
                "vehicle_types_available": []
            },
            "type": "Feature"
        },
        {
            "geometry": {
                "coordinates": [
                    16.976496,
                    49.965162
                ],
                "type": "Point"
            },
            "properties": {
                "capacity": 5,
                "is_installed": true,
                "is_renting": true,
                "is_returning": true,
                "is_virtual_station": false,
                "last_reported": 1789295165,
                "name": "Komensk\u00e9ho, u divadla",
                "num_bikes_available": 0,
                "num_docks_available": 5,
                "region_id": "1315",
                "rental_uris": {
                    "android": "https://app.nextbike.net/station?id=610690516",
                    "ios": "https://app.nextbike.net/station?id=610690516",
                    "web": "https://nxtb.it/p/610690516"
                },
                "short_name": "495718",
                "station_id": "610690516",
                "vehicle_types_available": []
            },
            "type": "Feature"
        },
        {
            "geometry": {
                "coordinates": [
                    16.97796,
                    49.962233
                ],
                "type": "Point"
            },
            "properties": {
                "capacity": 5,
                "is_installed": true,
                "is_renting": true,
                "is_returning": true,
                "is_virtual_station": false,
                "last_reported": 1789295165,
                "name": "Gymn\u00e1zium, u t\u011blocvi\u010dny",
                "num_bikes_available": 0,
                "num_docks_available": 5,
                "region_id": "1315",
                "rental_uris": {
                    "android": "https://app.nextbike.net/station?id=610690587",
                    "ios": "https://app.nextbike.net/station?id=610690587",
                    "web": "https://nxtb.it/p/610690587"
                },
                "short_name": "495719",
                "station_id": "610690587",
                "vehicle_types_available": []
            },
            "type": "Feature"
        },
        {
            "geometry": {
                "coordinates": [
                    16.989439,
                    49.960731
                ],
                "type": "Point"
            },
            "properties": {
                "capacity": 5,
                "is_installed": true,
                "is_renting": true,
                "is_returning": true,
                "is_virtual_station": false,
                "last_reported": 1789295165,
                "name": "Aquacentrum Ben\u00e1tky ",
                "num_bikes_available": 7,
                "num_docks_available": 0,
                "region_id": "1315",
                "rental_uris": {
                    "android": "https://app.nextbike.net/station?id=610690657",
                    "ios": "https://app.nextbike.net/station?id=610690657",
                    "web": "https://nxtb.it/p/610690657"
                },
                "short_name": "495720",
                "station_id": "610690657",
                "vehicle_types_available": [
                    {
                        "count": 7,
                        "vehicle_type_id": "184"
                    }
                ]
            },
            "type": "Feature"
        },
        {
            "geometry": {
                "coordinates": [
                    16.977982,
                    49.956186
                ],
                "type": "Point"
            },
            "properties": {
                "capacity": 5,
                "is_installed": true,
                "is_renting": true,
                "is_returning": true,
                "is_virtual_station": false,
                "last_reported": 1789295165,
                "name": "Tyr\u0161\u016fv stadion",
                "num_bikes_available": 0,
                "num_docks_available": 5,
                "region_id": "1315",
                "rental_uris": {
                    "android": "https://app.nextbike.net/station?id=610690719",
                    "ios": "https://app.nextbike.net/station?id=610690719",
                    "web": "https://nxtb.it/p/610690719"
                },
                "short_name": "495721",
                "station_id": "610690719",
                "vehicle_types_available": []
            },
            "type": "Feature"
        },
        {
            "geometry": {
                "coordinates": [
                    16.970747,
                    49.965373
                ],
                "type": "Point"
            },
            "properties": {
                "capacity": 5,
                "is_installed": true,
                "is_renting": true,
                "is_returning": true,
                "is_virtual_station": false,
                "last_reported": 1789295165,
                "name": "N\u00e1m\u011bst\u00ed M\u00edru",
                "num_bikes_available": 0,
                "num_docks_available": 5,
                "region_id": "1315",
                "rental_uris": {
                    "android": "https://app.nextbike.net/station?id=610690780",
                    "ios": "https://app.nextbike.net/station?id=610690780",
                    "web": "https://nxtb.it/p/610690780"
                },
                "short_name": "495722",
                "station_id": "610690780",
                "vehicle_types_available": []
            },
            "type": "Feature"
        },
        {
            "geometry": {
                "coordinates": [
                    16.961832,
                    49.952271
                ],
                "type": "Point"
            },
            "properties": {
                "capacity": 5,
                "is_installed": true,
                "is_renting": true,
                "is_returning": true,
                "is_virtual_station": false,
                "last_reported": 1789295165,
                "name": "Feritov\u00e1 (TDK)",
                "num_bikes_available": 3,
                "num_docks_available": 2,
                "region_id": "1315",
                "rental_uris": {
                    "android": "https://app.nextbike.net/station?id=610690856",
                    "ios": "https://app.nextbike.net/station?id=610690856",
                    "web": "https://nxtb.it/p/610690856"
                },
                "short_name": "495723",
                "station_id": "610690856",
                "vehicle_types_available": [
                    {
                        "count": 3,
                        "vehicle_type_id": "184"
                    }
                ]
            },
            "type": "Feature"
        },
        {
            "geometry": {
                "coordinates": [
                    16.979871,
                    49.965714
                ],
                "type": "Point"
            },
            "properties": {
                "capacity": 5,
                "is_installed": true,
                "is_renting": true,
                "is_returning": true,
                "is_virtual_station": false,
                "last_reported": 1789295165,
                "name": "U Perku",
                "num_bikes_available": 0,
                "num_docks_available": 5,
                "region_id": "1315",
                "rental_uris": {
                    "android": "https://app.nextbike.net/station?id=610690909",
                    "ios": "https://app.nextbike.net/station?id=610690909",
                    "web": "https://nxtb.it/p/610690909"
                },
                "short_name": "495724",
                "station_id": "610690909",
                "vehicle_types_available": []
            },
            "type": "Feature"
        },
        {
            "geometry": {
                "coordinates": [
                    16.972289,
                    49.963361
                ],
                "type": "Point"
            },
            "properties": {
                "capacity": 5,
                "is_installed": true,
                "is_renting": true,
                "is_returning": true,
                "is_virtual_station": false,
                "last_reported": 1789295165,
                "name": "Husovo n\u00e1m\u011bst\u00ed",
                "num_bikes_available": 0,
                "num_docks_available": 5,
                "region_id": "1315",
                "rental_uris": {
                    "android": "https://app.nextbike.net/station?id=610690964",
                    "ios": "https://app.nextbike.net/station?id=610690964",
                    "web": "https://nxtb.it/p/610690964"
                },
                "short_name": "495725",
                "station_id": "610690964",
                "vehicle_types_available": []
            },
            "type": "Feature"
        },
        {
            "geometry": {
                "coordinates": [
                    16.972326,
                    49.966772
                ],
                "type": "Point"
            },
            "properties": {
                "capacity": 5,
                "is_installed": true,
                "is_renting": true,
                "is_returning": true,
                "is_virtual_station": false,
                "last_reported": 1789295165,
                "name": "U po\u0161ty",
                "num_bikes_available": 0,
                "num_docks_available": 4,
                "region_id": "1315",
                "rental_uris": {
                    "android": "https://app.nextbike.net/station?id=610691198",
                    "ios": "https://app.nextbike.net/station?id=610691198",
                    "web": "https://nxtb.it/p/610691198"
                },
                "short_name": "495726",
                "station_id": "610691198",
                "vehicle_types_available": []
            },
            "type": "Feature"
        },
        {
            "geometry": {
                "coordinates": [
                    16.96427,
                    49.959751
                ],
                "type": "Point"
            },
            "properties": {
                "capacity": 5,
                "is_installed": true,
                "is_renting": true,
                "is_returning": true,
                "is_virtual_station": false,
                "last_reported": 1789295165,
                "name": "Nemocnice",
                "num_bikes_available": 5,
                "num_docks_available": 0,
                "region_id": "1315",
                "rental_uris": {
                    "android": "https://app.nextbike.net/station?id=610691274",
                    "ios": "https://app.nextbike.net/station?id=610691274",
                    "web": "https://nxtb.it/p/610691274"
                },
                "short_name": "495727",
                "station_id": "610691274",
                "vehicle_types_available": [
                    {
                        "count": 5,
                        "vehicle_type_id": "184"
                    }
                ]
            },
            "type": "Feature"
        },
        {
            "geometry": {
                "coordinates": [
                    16.982825,
                    49.967149
                ],
                "type": "Point"
            },
            "properties": {
                "is_installed": true,
                "is_renting": true,
                "is_returning": true,
                "is_virtual_station": false,
                "last_reported": 1789295165,
                "name": "\u010csl. Arm\u00e1dy (Zaoral)",
                "num_bikes_available": 1,
                "num_docks_available": 0,
                "region_id": "1315",
                "rental_uris": {
                    "android": "https://app.nextbike.net/station?id=610691361",
                    "ios": "https://app.nextbike.net/station?id=610691361",
                    "web": "https://nxtb.it/p/610691361"
                },
                "short_name": "495728",
                "station_id": "610691361",
                "vehicle_types_available": [
                    {
                        "count": 1,
                        "vehicle_type_id": "184"
                    }
                ]
            },
            "type": "Feature"
        },
        {
            "geometry": {
                "coordinates": [
                    16.990182,
                    49.966025
                ],
                "type": "Point"
            },
            "properties": {
                "capacity": 5,
                "is_installed": true,
                "is_renting": true,
                "is_returning": true,
                "is_virtual_station": false,
                "last_reported": 1789295165,
                "name": "Jeremenkova, potraviny",
                "num_bikes_available": 2,
                "num_docks_available": 3,
                "region_id": "1315",
                "rental_uris": {
                    "android": "https://app.nextbike.net/station?id=610691440",
                    "ios": "https://app.nextbike.net/station?id=610691440",
                    "web": "https://nxtb.it/p/610691440"
                },
                "short_name": "495729",
                "station_id": "610691440",
                "vehicle_types_available": [
                    {
                        "count": 2,
                        "vehicle_type_id": "184"
                    }
                ]
            },
            "type": "Feature"
        },
        {
            "geometry": {
                "coordinates": [
                    16.974092,
                    49.970464
                ],
                "type": "Point"
            },
            "properties": {
                "capacity": 5,
                "is_installed": true,
                "is_renting": true,
                "is_returning": true,
                "is_virtual_station": false,
                "last_reported": 1789295165,
                "name": "Gen. Svobody, u Dacana",
                "num_bikes_available": 1,
                "num_docks_available": 4,
                "region_id": "1315",
                "rental_uris": {
                    "android": "https://app.nextbike.net/station?id=610691512",
                    "ios": "https://app.nextbike.net/station?id=610691512",
                    "web": "https://nxtb.it/p/610691512"
                },
                "short_name": "495730",
                "station_id": "610691512",
                "vehicle_types_available": [
                    {
                        "count": 1,
                        "vehicle_type_id": "184"
                    }
                ]
            },
            "type": "Feature"
        },
        {
            "geometry": {
                "coordinates": [
                    16.979927,
                    49.971151
                ],
                "type": "Point"
            },
            "properties": {
                "capacity": 5,
                "is_installed": true,
                "is_renting": true,
                "is_returning": true,
                "is_virtual_station": false,
                "last_reported": 1789295165,
                "name": "Vrchlick\u00e9ho, Z\u0160",
                "num_bikes_available": 2,
                "num_docks_available": 3,
                "region_id": "1315",
                "rental_uris": {
                    "android": "https://app.nextbike.net/station?id=610691611",
                    "ios": "https://app.nextbike.net/station?id=610691611",
                    "web": "https://nxtb.it/p/610691611"
                },
                "short_name": "495731",
                "station_id": "610691611",
                "vehicle_types_available": [
                    {
                        "count": 2,
                        "vehicle_type_id": "184"
                    }
                ]
            },
            "type": "Feature"
        },
        {
            "geometry": {
                "coordinates": [
                    16.965523,
                    49.969213
                ],
                "type": "Point"
            },
            "properties": {
                "capacity": 5,
                "is_installed": true,
                "is_renting": true,
                "is_returning": true,
                "is_virtual_station": false,
                "last_reported": 1789295165,
                "name": "Temenick\u00e1, Albert",
                "num_bikes_available": 1,
                "num_docks_available": 4,
                "region_id": "1315",
                "rental_uris": {
                    "android": "https://app.nextbike.net/station?id=610691710",
                    "ios": "https://app.nextbike.net/station?id=610691710",
                    "web": "https://nxtb.it/p/610691710"
                },
                "short_name": "495732",
                "station_id": "610691710",
                "vehicle_types_available": [
                    {
                        "count": 1,
                        "vehicle_type_id": "184"
                    }
                ]
            },
            "type": "Feature"
        },
        {
            "geometry": {
                "coordinates": [
                    16.957443,
                    49.974294
                ],
                "type": "Point"
            },
            "properties": {
                "capacity": 5,
                "is_installed": true,
                "is_renting": true,
                "is_returning": true,
                "is_virtual_station": false,
                "last_reported": 1789295165,
                "name": "Temenick\u00e1/Jugosl\u00e1vsk\u00e1",
                "num_bikes_available": 12,
                "num_docks_available": 0,
                "region_id": "1315",
                "rental_uris": {
                    "android": "https://app.nextbike.net/station?id=610691770",
                    "ios": "https://app.nextbike.net/station?id=610691770",
                    "web": "https://nxtb.it/p/610691770"
                },
                "short_name": "495733",
                "station_id": "610691770",
                "vehicle_types_available": [
                    {
                        "count": 12,
                        "vehicle_type_id": "184"
                    }
                ]
            },
            "type": "Feature"
        },
        {
            "geometry": {
                "coordinates": [
                    16.971758,
                    49.974728
                ],
                "type": "Point"
            },
            "properties": {
                "capacity": 5,
                "is_installed": true,
                "is_renting": true,
                "is_returning": true,
                "is_virtual_station": false,
                "last_reported": 1789295165,
                "name": "Gagarinova",
                "num_bikes_available": 7,
                "num_docks_available": 0,
                "region_id": "1315",
                "rental_uris": {
                    "android": "https://app.nextbike.net/station?id=610691824",
                    "ios": "https://app.nextbike.net/station?id=610691824",
                    "web": "https://nxtb.it/p/610691824"
                },
                "short_name": "495734",
                "station_id": "610691824",
                "vehicle_types_available": [
                    {
                        "count": 7,
                        "vehicle_type_id": "184"
                    }
                ]
            },
            "type": "Feature"
        },
        {
            "geometry": {
                "coordinates": [
                    16.965969,
                    49.97114
                ],
                "type": "Point"
            },
            "properties": {
                "capacity": 5,
                "is_installed": true,
                "is_renting": true,
                "is_returning": true,
                "is_virtual_station": false,
                "last_reported": 1789295165,
                "name": "Erbenova",
                "num_bikes_available": 4,
                "num_docks_available": 0,
                "region_id": "1315",
                "rental_uris": {
                    "android": "https://app.nextbike.net/station?id=610691914",
                    "ios": "https://app.nextbike.net/station?id=610691914",
                    "web": "https://nxtb.it/p/610691914"
                },
                "short_name": "495735",
                "station_id": "610691914",
                "vehicle_types_available": [
                    {
                        "count": 4,
                        "vehicle_type_id": "184"
                    }
                ]
            },
            "type": "Feature"
        },
        {
            "geometry": {
                "coordinates": [
                    16.975126,
                    49.966789
                ],
                "type": "Point"
            },
            "properties": {
                "capacity": 5,
                "is_installed": true,
                "is_renting": true,
                "is_returning": true,
                "is_virtual_station": false,
                "last_reported": 1789295165,
                "name": "Kozinova",
                "num_bikes_available": 0,
                "num_docks_available": 5,
                "region_id": "1315",
                "rental_uris": {
                    "android": "https://app.nextbike.net/station?id=610691991",
                    "ios": "https://app.nextbike.net/station?id=610691991",
                    "web": "https://nxtb.it/p/610691991"
                },
                "short_name": "495736",
                "station_id": "610691991",
                "vehicle_types_available": []
            },
            "type": "Feature"
        },
        {
            "geometry": {
                "coordinates": [
                    16.980496,
                    49.961929
                ],
                "type": "Point"
            },
            "properties": {
                "is_installed": true,
                "is_renting": true,
                "is_returning": true,
                "is_virtual_station": false,
                "last_reported": 1789295165,
                "name": "Jesenick\u00e1 (autobusov\u00e9 n\u00e1dra\u017e\u00ed)",
                "num_bikes_available": 0,
                "num_docks_available": 0,
                "region_id": "1315",
                "rental_uris": {
                    "android": "https://app.nextbike.net/station?id=644962802",
                    "ios": "https://app.nextbike.net/station?id=644962802",
                    "web": "https://nxtb.it/p/644962802"
                },
                "short_name": "495737",
                "station_id": "644962802",
                "vehicle_types_available": []
            },
            "type": "Feature"
        }
    ],
    "gbfs": {
        "station_information": {
            "last_updated": 1789295165,
            "ttl": 60,
            "version": "2.3"
        },
        "station_status": {
            "last_updated": 1789295165,
            "ttl": 60,
            "version": "2.3"
        }
    },
    "type": "FeatureCollection"
}