{
    "features": [
        {
            "geometry": {
                "coordinates": [
                    12.233523,
                    51.392508
                ],
                "type": "Point"
            },
            "properties": {
                "capacity": 5,
                "is_installed": true,
                "is_renting": true,
                "is_returning": true,
                "is_virtual_station": true,
                "last_reported": 1789133100,
                "name": "Altscherbitz",
                "num_bikes_available": 0,
                "num_docks_available": 5,
                "region_id": "867",
                "rental_uris": {
                    "android": "https://app.nextbike.net/station?id=168357177",
                    "ios": "https://app.nextbike.net/station?id=168357177",
                    "web": "https://nxtb.it/p/168357177"
                },
                "short_name": "40004",
                "station_area": {
                    "coordinates": [
                        [
                            [
                                [
                                    12.233523,
                                    51.392733
                                ],
                                [
                                    12.233835,
                                    51.39262
                                ],
                                [
                                    12.233835,
                                    51.392396
                                ],
                                [
                                    12.233523,
                                    51.392283
                                ],
                                [
                                    12.233211,
                                    51.392396
                                ],
                                [
                                    12.233211,
                                    51.39262
                                ],
                                [
                                    12.233523,
                                    51.392733
                                ]
                            ]
                        ]
                    ],
                    "type": "MultiPolygon"
                },
                "station_id": "168357177",
                "vehicle_types_available": []
            },
            "type": "Feature"
        },
        {
            "geometry": {
                "coordinates": [
                    12.226453,
                    51.399061
                ],
                "type": "Point"
            },
            "properties": {
                "capacity": 5,
                "is_installed": true,
                "is_renting": true,
                "is_returning": true,
                "is_virtual_station": true,
                "last_reported": 1789133100,
                "name": "Goethestra\u00dfe",
                "num_bikes_available": 0,
                "num_docks_available": 5,
                "region_id": "867",
                "rental_uris": {
                    "android": "https://app.nextbike.net/station?id=168357316",
                    "ios": "https://app.nextbike.net/station?id=168357316",
                    "web": "https://nxtb.it/p/168357316"
                },
                "short_name": "40005",
                "station_area": {
                    "coordinates": [
                        [
                            [
                                [
                                    12.226453,
                                    51.399286
                                ],
                                [
                                    12.226765,
                                    51.399173
                                ],
                                [
                                    12.226765,
                                    51.398949
                                ],
                                [
                                    12.226453,
                                    51.398836
                                ],
                                [
                                    12.226141,
                                    51.398949
                                ],
                                [
                                    12.226141,
                                    51.399173
                                ],
                                [
                                    12.226453,
                                    51.399286
                                ]
                            ]
                        ]
                    ],
                    "type": "MultiPolygon"
                },
                "station_id": "168357316",
                "vehicle_types_available": []
            },
            "type": "Feature"
        },
        {
            "geometry": {
                "coordinates": [
                    12.219978,
                    51.396115
                ],
                "type": "Point"
            },
            "properties": {
                "capacity": 5,
                "is_installed": true,
                "is_renting": true,
                "is_returning": true,
                "is_virtual_station": true,
                "last_reported": 1789133100,
                "name": "Rathausplatz Westseite",
                "num_bikes_available": 0,
                "num_docks_available": 5,
                "region_id": "867",
                "rental_uris": {
                    "android": "https://app.nextbike.net/station?id=168360282",
                    "ios": "https://app.nextbike.net/station?id=168360282",
                    "web": "https://nxtb.it/p/168360282"
                },
                "short_name": "40006",
                "station_area": {
                    "coordinates": [
                        [
                            [
                                [
                                    12.219978,
                                    51.39634
                                ],
                                [
                                    12.22029,
                                    51.396227
                                ],
                                [
                                    12.22029,
                                    51.396003
                                ],
                                [
                                    12.219978,
                                    51.39589
                                ],
                                [
                                    12.219666,
                                    51.396003
                                ],
                                [
                                    12.219666,
                                    51.396227
                                ],
                                [
                                    12.219978,
                                    51.39634
                                ]
                            ]
                        ]
                    ],
                    "type": "MultiPolygon"
                },
                "station_id": "168360282",
                "vehicle_types_available": []
            },
            "type": "Feature"
        },
        {
            "geometry": {
                "coordinates": [
                    12.218041,
                    51.399447
                ],
                "type": "Point"
            },
            "properties": {
                "capacity": 5,
                "is_installed": true,
                "is_renting": true,
                "is_returning": true,
                "is_virtual_station": true,
                "last_reported": 1789133100,
                "name": "Robert-Koch-Stra\u00dfe",
                "num_bikes_available": 0,
                "num_docks_available": 5,
                "region_id": "867",
                "rental_uris": {
                    "android": "https://app.nextbike.net/station?id=168360473",
                    "ios": "https://app.nextbike.net/station?id=168360473",
                    "web": "https://nxtb.it/p/168360473"
                },
                "short_name": "40007",
                "station_area": {
                    "coordinates": [
                        [
                            [
                                [
                                    12.218041,
                                    51.399672
                                ],
                                [
                                    12.218353,
                                    51.399559
                                ],
                                [
                                    12.218353,
                                    51.399335
                                ],
                                [
                                    12.218041,
                                    51.399222
                                ],
                                [
                                    12.217729,
                                    51.399335
                                ],
                                [
                                    12.217729,
                                    51.399559
                                ],
                                [
                                    12.218041,
                                    51.399672
                                ]
                            ]
                        ]
                    ],
                    "type": "MultiPolygon"
                },
                "station_id": "168360473",
                "vehicle_types_available": []
            },
            "type": "Feature"
        },
        {
            "geometry": {
                "coordinates": [
                    12.22111,
                    51.392286
                ],
                "type": "Point"
            },
            "properties": {
                "capacity": 5,
                "is_installed": true,
                "is_renting": true,
                "is_returning": true,
                "is_virtual_station": true,
                "last_reported": 1789133100,
                "name": "Topfmarkt",
                "num_bikes_available": 0,
                "num_docks_available": 5,
                "region_id": "867",
                "rental_uris": {
                    "android": "https://app.nextbike.net/station?id=168360618",
                    "ios": "https://app.nextbike.net/station?id=168360618",
                    "web": "https://nxtb.it/p/168360618"
                },
                "short_name": "40008",
                "station_area": {
                    "coordinates": [
                        [
                            [
                                [
                                    12.22111,
                                    51.392511
                                ],
                                [
                                    12.221422,
                                    51.392398
                                ],
                                [
                                    12.221422,
                                    51.392174
                                ],
                                [
                                    12.22111,
                                    51.392061
                                ],
                                [
                                    12.220798,
                                    51.392174
                                ],
                                [
                                    12.220798,
                                    51.392398
                                ],
                                [
                                    12.22111,
                                    51.392511
                                ]
                            ]
                        ]
                    ],
                    "type": "MultiPolygon"
                },
                "station_id": "168360618",
                "vehicle_types_available": []
            },
            "type": "Feature"
        },
        {
            "geometry": {
                "coordinates": [
                    12.221351,
                    51.39612
                ],
                "type": "Point"
            },
            "properties": {
                "capacity": 5,
                "is_installed": true,
                "is_renting": true,
                "is_returning": true,
                "is_virtual_station": true,
                "last_reported": 1789133100,
                "name": "Rathausplatz Ostseite",
                "num_bikes_available": 0,
                "num_docks_available": 5,
                "region_id": "867",
                "rental_uris": {
                    "android": "https://app.nextbike.net/station?id=168360773",
                    "ios": "https://app.nextbike.net/station?id=168360773",
                    "web": "https://nxtb.it/p/168360773"
                },
                "short_name": "40009",
                "station_area": {
                    "coordinates": [
                        [
                            [
                                [
                                    12.221351,
                                    51.396345
                                ],
                                [
                                    12.221663,
                                    51.396232
                                ],
                                [
                                    12.221663,
                                    51.396008
                                ],
                                [
                                    12.221351,
                                    51.395895
                                ],
                                [
                                    12.221039,
                                    51.396008
                                ],
                                [
                                    12.221039,
                                    51.396232
                                ],
                                [
                                    12.221351,
                                    51.396345
                                ]
                            ]
                        ]
                    ],
                    "type": "MultiPolygon"
                },
                "station_id": "168360773",
                "vehicle_types_available": []
            },
            "type": "Feature"
        },
        {
            "geometry": {
                "coordinates": [
                    12.221011,
                    51.402162
                ],
                "type": "Point"
            },
            "properties": {
                "capacity": 10,
                "is_installed": true,
                "is_renting": true,
                "is_returning": true,
                "is_virtual_station": true,
                "last_reported": 1789133100,
                "name": "S-Bahn Schkeuditz S\u00fcdseite",
                "num_bikes_available": 0,
                "num_docks_available": 10,
                "region_id": "867",
                "rental_uris": {
                    "android": "https://app.nextbike.net/station?id=168361352",
                    "ios": "https://app.nextbike.net/station?id=168361352",
                    "web": "https://nxtb.it/p/168361352"
                },
                "short_name": "40010",
                "station_area": {
                    "coordinates": [
                        [
                            [
                                [
                                    12.221011,
                                    51.402387
                                ],
                                [
                                    12.221323,
                                    51.402274
                                ],
                                [
                                    12.221323,
                                    51.40205
                                ],
                                [
                                    12.221011,
                                    51.401937
                                ],
                                [
                                    12.220699,
                                    51.40205
                                ],
                                [
                                    12.220699,
                                    51.402274
                                ],
                                [
                                    12.221011,
                                    51.402387
                                ]
                            ]
                        ]
                    ],
                    "type": "MultiPolygon"
                },
                "station_id": "168361352",
                "vehicle_types_available": []
            },
            "type": "Feature"
        },
        {
            "geometry": {
                "coordinates": [
                    12.221435,
                    51.402497
                ],
                "type": "Point"
            },
            "properties": {
                "capacity": 10,
                "is_installed": true,
                "is_renting": true,
                "is_returning": true,
                "is_virtual_station": true,
                "last_reported": 1789133100,
                "name": "S-Bahn Schkeuditz Nordseite",
                "num_bikes_available": 0,
                "num_docks_available": 10,
                "region_id": "867",
                "rental_uris": {
                    "android": "https://app.nextbike.net/station?id=168361504",
                    "ios": "https://app.nextbike.net/station?id=168361504",
                    "web": "https://nxtb.it/p/168361504"
                },
                "short_name": "40011",
                "station_area": {
                    "coordinates": [
                        [
                            [
                                [
                                    12.221435,
                                    51.402722
                                ],
                                [
                                    12.221747,
                                    51.402609
                                ],
                                [
                                    12.221747,
                                    51.402385
                                ],
                                [
                                    12.221435,
                                    51.402272
                                ],
                                [
                                    12.221123,
                                    51.402385
                                ],
                                [
                                    12.221123,
                                    51.402609
                                ],
                                [
                                    12.221435,
                                    51.402722
                                ]
                            ]
                        ]
                    ],
                    "type": "MultiPolygon"
                },
                "station_id": "168361504",
                "vehicle_types_available": []
            },
            "type": "Feature"
        },
        {
            "geometry": {
                "coordinates": [
                    12.210279,
                    51.402323
                ],
                "type": "Point"
            },
            "properties": {
                "capacity": 5,
                "is_installed": true,
                "is_renting": true,
                "is_returning": true,
                "is_virtual_station": true,
                "last_reported": 1789133100,
                "name": "Edisonstra\u00dfe",
                "num_bikes_available": 0,
                "num_docks_available": 5,
                "region_id": "867",
                "rental_uris": {
                    "android": "https://app.nextbike.net/station?id=168361656",
                    "ios": "https://app.nextbike.net/station?id=168361656",
                    "web": "https://nxtb.it/p/168361656"
                },
                "short_name": "40012",
                "station_area": {
                    "coordinates": [
                        [
                            [
                                [
                                    12.210279,
                                    51.402548
                                ],
                                [
                                    12.210591,
                                    51.402435
                                ],
                                [
                                    12.210591,
                                    51.402211
                                ],
                                [
                                    12.210279,
                                    51.402098
                                ],
                                [
                                    12.209967,
                                    51.402211
                                ],
                                [
                                    12.209967,
                                    51.402435
                                ],
                                [
                                    12.210279,
                                    51.402548
                                ]
                            ]
                        ]
                    ],
                    "type": "MultiPolygon"
                },
                "station_id": "168361656",
                "vehicle_types_available": []
            },
            "type": "Feature"
        },
        {
            "geometry": {
                "coordinates": [
                    12.195041,
                    51.403755
                ],
                "type": "Point"
            },
            "properties": {
                "capacity": 5,
                "is_installed": true,
                "is_renting": true,
                "is_returning": true,
                "is_virtual_station": true,
                "last_reported": 1789133100,
                "name": "S-Bahn West Nordseite",
                "num_bikes_available": 0,
                "num_docks_available": 5,
                "region_id": "867",
                "rental_uris": {
                    "android": "https://app.nextbike.net/station?id=168361809",
                    "ios": "https://app.nextbike.net/station?id=168361809",
                    "web": "https://nxtb.it/p/168361809"
                },
                "short_name": "40013",
                "station_area": {
                    "coordinates": [
                        [
                            [
                                [
                                    12.195041,
                                    51.40398
                                ],
                                [
                                    12.195353,
                                    51.403867
                                ],
                                [
                                    12.195353,
                                    51.403643
                                ],
                                [
                                    12.195041,
                                    51.40353
                                ],
                                [
                                    12.194729,
                                    51.403643
                                ],
                                [
                                    12.194729,
                                    51.403867
                                ],
                                [
                                    12.195041,
                                    51.40398
                                ]
                            ]
                        ]
                    ],
                    "type": "MultiPolygon"
                },
                "station_id": "168361809",
                "vehicle_types_available": []
            },
            "type": "Feature"
        },
        {
            "geometry": {
                "coordinates": [
                    12.216354,
                    51.404956
                ],
                "type": "Point"
            },
            "properties": {
                "capacity": 5,
                "is_installed": true,
                "is_renting": true,
                "is_returning": true,
                "is_virtual_station": true,
                "last_reported": 1789133100,
                "name": "Industriestra\u00dfe",
                "num_bikes_available": 0,
                "num_docks_available": 5,
                "region_id": "867",
                "rental_uris": {
                    "android": "https://app.nextbike.net/station?id=168361971",
                    "ios": "https://app.nextbike.net/station?id=168361971",
                    "web": "https://nxtb.it/p/168361971"
                },
                "short_name": "40014",
                "station_area": {
                    "coordinates": [
                        [
                            [
                                [
                                    12.216354,
                                    51.405181
                                ],
                                [
                                    12.216666,
                                    51.405068
                                ],
                                [
                                    12.216666,
                                    51.404844
                                ],
                                [
                                    12.216354,
                                    51.404731
                                ],
                                [
                                    12.216042,
                                    51.404844
                                ],
                                [
                                    12.216042,
                                    51.405068
                                ],
                                [
                                    12.216354,
                                    51.405181
                                ]
                            ]
                        ]
                    ],
                    "type": "MultiPolygon"
                },
                "station_id": "168361971",
                "vehicle_types_available": []
            },
            "type": "Feature"
        },
        {
            "geometry": {
                "coordinates": [
                    12.234046,
                    51.404945
                ],
                "type": "Point"
            },
            "properties": {
                "capacity": 5,
                "is_installed": true,
                "is_renting": true,
                "is_returning": true,
                "is_virtual_station": true,
                "last_reported": 1789133100,
                "name": "Hermann-K\u00f6hl-Stra\u00dfe",
                "num_bikes_available": 0,
                "num_docks_available": 5,
                "region_id": "867",
                "rental_uris": {
                    "android": "https://app.nextbike.net/station?id=168362105",
                    "ios": "https://app.nextbike.net/station?id=168362105",
                    "web": "https://nxtb.it/p/168362105"
                },
                "short_name": "40015",
                "station_area": {
                    "coordinates": [
                        [
                            [
                                [
                                    12.234046,
                                    51.40517
                                ],
                                [
                                    12.234358,
                                    51.405057
                                ],
                                [
                                    12.234358,
                                    51.404833
                                ],
                                [
                                    12.234046,
                                    51.40472
                                ],
                                [
                                    12.233734,
                                    51.404833
                                ],
                                [
                                    12.233734,
                                    51.405057
                                ],
                                [
                                    12.234046,
                                    51.40517
                                ]
                            ]
                        ]
                    ],
                    "type": "MultiPolygon"
                },
                "station_id": "168362105",
                "vehicle_types_available": []
            },
            "type": "Feature"
        },
        {
            "geometry": {
                "coordinates": [
                    12.211872,
                    51.398456
                ],
                "type": "Point"
            },
            "properties": {
                "capacity": 5,
                "is_installed": true,
                "is_renting": true,
                "is_returning": true,
                "is_virtual_station": true,
                "last_reported": 1789133100,
                "name": "Flughafenstra\u00dfe",
                "num_bikes_available": 0,
                "num_docks_available": 5,
                "region_id": "867",
                "rental_uris": {
                    "android": "https://app.nextbike.net/station?id=168362269",
                    "ios": "https://app.nextbike.net/station?id=168362269",
                    "web": "https://nxtb.it/p/168362269"
                },
                "short_name": "40016",
                "station_area": {
                    "coordinates": [
                        [
                            [
                                [
                                    12.211872,
                                    51.398681
                                ],
                                [
                                    12.212184,
                                    51.398568
                                ],
                                [
                                    12.212184,
                                    51.398344
                                ],
                                [
                                    12.211872,
                                    51.398231
                                ],
                                [
                                    12.21156,
                                    51.398344
                                ],
                                [
                                    12.21156,
                                    51.398568
                                ],
                                [
                                    12.211872,
                                    51.398681
                                ]
                            ]
                        ]
                    ],
                    "type": "MultiPolygon"
                },
                "station_id": "168362269",
                "vehicle_types_available": []
            },
            "type": "Feature"
        },
        {
            "geometry": {
                "coordinates": [
                    12.210296,
                    51.393366
                ],
                "type": "Point"
            },
            "properties": {
                "capacity": 5,
                "is_installed": true,
                "is_renting": true,
                "is_returning": true,
                "is_virtual_station": true,
                "last_reported": 1789133100,
                "name": "Merseburger Stra\u00dfe",
                "num_bikes_available": 0,
                "num_docks_available": 5,
                "region_id": "867",
                "rental_uris": {
                    "android": "https://app.nextbike.net/station?id=168362394",
                    "ios": "https://app.nextbike.net/station?id=168362394",
                    "web": "https://nxtb.it/p/168362394"
                },
                "short_name": "40017",
                "station_area": {
                    "coordinates": [
                        [
                            [
                                [
                                    12.210296,
                                    51.393591
                                ],
                                [
                                    12.210608,
                                    51.393478
                                ],
                                [
                                    12.210608,
                                    51.393254
                                ],
                                [
                                    12.210296,
                                    51.393141
                                ],
                                [
                                    12.209984,
                                    51.393254
                                ],
                                [
                                    12.209984,
                                    51.393478
                                ],
                                [
                                    12.210296,
                                    51.393591
                                ]
                            ]
                        ]
                    ],
                    "type": "MultiPolygon"
                },
                "station_id": "168362394",
                "vehicle_types_available": []
            },
            "type": "Feature"
        },
        {
            "geometry": {
                "coordinates": [
                    12.198805,
                    51.392381
                ],
                "type": "Point"
            },
            "properties": {
                "capacity": 5,
                "is_installed": true,
                "is_renting": true,
                "is_returning": true,
                "is_virtual_station": true,
                "last_reported": 1789133100,
                "name": "Hemmestra\u00dfe",
                "num_bikes_available": 0,
                "num_docks_available": 5,
                "region_id": "867",
                "rental_uris": {
                    "android": "https://app.nextbike.net/station?id=168362837",
                    "ios": "https://app.nextbike.net/station?id=168362837",
                    "web": "https://nxtb.it/p/168362837"
                },
                "short_name": "40018",
                "station_area": {
                    "coordinates": [
                        [
                            [
                                [
                                    12.198805,
                                    51.392606
                                ],
                                [
                                    12.199117,
                                    51.392493
                                ],
                                [
                                    12.199117,
                                    51.392269
                                ],
                                [
                                    12.198805,
                                    51.392156
                                ],
                                [
                                    12.198493,
                                    51.392269
                                ],
                                [
                                    12.198493,
                                    51.392493
                                ],
                                [
                                    12.198805,
                                    51.392606
                                ]
                            ]
                        ]
                    ],
                    "type": "MultiPolygon"
                },
                "station_id": "168362837",
                "vehicle_types_available": []
            },
            "type": "Feature"
        },
        {
            "geometry": {
                "coordinates": [
                    12.194466,
                    51.402976
                ],
                "type": "Point"
            },
            "properties": {
                "capacity": 5,
                "is_installed": true,
                "is_renting": true,
                "is_returning": true,
                "is_virtual_station": true,
                "last_reported": 1789133100,
                "name": "S-Bahn West S\u00fcdseite",
                "num_bikes_available": 0,
                "num_docks_available": 5,
                "region_id": "867",
                "rental_uris": {
                    "android": "https://app.nextbike.net/station?id=168362988",
                    "ios": "https://app.nextbike.net/station?id=168362988",
                    "web": "https://nxtb.it/p/168362988"
                },
                "short_name": "40019",
                "station_area": {
                    "coordinates": [
                        [
                            [
                                [
                                    12.194466,
                                    51.403201
                                ],
                                [
                                    12.194778,
                                    51.403088
                                ],
                                [
                                    12.194778,
                                    51.402864
                                ],
                                [
                                    12.194466,
                                    51.402751
                                ],
                                [
                                    12.194154,
                                    51.402864
                                ],
                                [
                                    12.194154,
                                    51.403088
                                ],
                                [
                                    12.194466,
                                    51.403201
                                ]
                            ]
                        ]
                    ],
                    "type": "MultiPolygon"
                },
                "station_id": "168362988",
                "vehicle_types_available": []
            },
            "type": "Feature"
        },
        {
            "geometry": {
                "coordinates": [
                    12.195687,
                    51.399438
                ],
                "type": "Point"
            },
            "properties": {
                "capacity": 5,
                "is_installed": true,
                "is_renting": true,
                "is_returning": true,
                "is_virtual_station": true,
                "last_reported": 1789133100,
                "name": "Frankfurter Stra\u00dfe",
                "num_bikes_available": 0,
                "num_docks_available": 5,
                "region_id": "867",
                "rental_uris": {
                    "android": "https://app.nextbike.net/station?id=168363139",
                    "ios": "https://app.nextbike.net/station?id=168363139",
                    "web": "https://nxtb.it/p/168363139"
                },
                "short_name": "40020",
                "station_area": {
                    "coordinates": [
                        [
                            [
                                [
                                    12.195687,
                                    51.399663
                                ],
                                [
                                    12.195999,
                                    51.39955
                                ],
                                [
                                    12.195999,
                                    51.399326
                                ],
                                [
                                    12.195687,
                                    51.399213
                                ],
                                [
                                    12.195375,
                                    51.399326
                                ],
                                [
                                    12.195375,
                                    51.39955
                                ],
                                [
                                    12.195687,
                                    51.399663
                                ]
                            ]
                        ]
                    ],
                    "type": "MultiPolygon"
                },
                "station_id": "168363139",
                "vehicle_types_available": []
            },
            "type": "Feature"
        },
        {
            "geometry": {
                "coordinates": [
                    12.193819,
                    51.390912
                ],
                "type": "Point"
            },
            "properties": {
                "capacity": 10,
                "is_installed": true,
                "is_renting": true,
                "is_returning": true,
                "is_virtual_station": true,
                "last_reported": 1789133100,
                "name": "Gut Wehlitz",
                "num_bikes_available": 0,
                "num_docks_available": 10,
                "region_id": "867",
                "rental_uris": {
                    "android": "https://app.nextbike.net/station?id=244696586",
                    "ios": "https://app.nextbike.net/station?id=244696586",
                    "web": "https://nxtb.it/p/244696586"
                },
                "short_name": "40023",
                "station_area": {
                    "coordinates": [
                        [
                            [
                                [
                                    12.193819,
                                    51.391137
                                ],
                                [
                                    12.194131,
                                    51.391024
                                ],
                                [
                                    12.194131,
                                    51.3908
                                ],
                                [
                                    12.193819,
                                    51.390687
                                ],
                                [
                                    12.193507,
                                    51.3908
                                ],
                                [
                                    12.193507,
                                    51.391024
                                ],
                                [
                                    12.193819,
                                    51.391137
                                ]
                            ]
                        ]
                    ],
                    "type": "MultiPolygon"
                },
                "station_id": "244696586",
                "vehicle_types_available": []
            },
            "type": "Feature"
        }
    ],
    "gbfs": {
        "station_information": {
            "last_updated": 1789133100,
            "ttl": 60,
            "version": "2.3"
        },
        "station_status": {
            "last_updated": 1789133100,
            "ttl": 60,
            "version": "2.3"
        }
    },
    "type": "FeatureCollection"
}