{
    "features": [
        {
            "geometry": {
                "coordinates": [
                    8.253932,
                    50.069332
                ],
                "type": "Point"
            },
            "properties": {
                "is_installed": true,
                "is_renting": true,
                "is_returning": true,
                "is_virtual_station": false,
                "last_reported": 1789285712,
                "name": "SOKA Bau",
                "num_bikes_available": 5,
                "num_docks_available": 0,
                "region_id": "7",
                "rental_uris": {
                    "android": "https://app.nextbike.net/station?id=126084480",
                    "ios": "https://app.nextbike.net/station?id=126084480",
                    "web": "https://nxtb.it/p/126084480"
                },
                "short_name": "51813",
                "station_id": "126084480",
                "vehicle_types_available": [
                    {
                        "count": 4,
                        "vehicle_type_id": "150"
                    },
                    {
                        "count": 1,
                        "vehicle_type_id": "196"
                    }
                ]
            },
            "type": "Feature"
        },
        {
            "geometry": {
                "coordinates": [
                    8.247916,
                    50.06673
                ],
                "type": "Point"
            },
            "properties": {
                "is_installed": true,
                "is_renting": true,
                "is_returning": true,
                "is_virtual_station": false,
                "last_reported": 1789285712,
                "name": "Alter Schlachthof",
                "num_bikes_available": 1,
                "num_docks_available": 0,
                "region_id": "7",
                "rental_uris": {
                    "android": "https://app.nextbike.net/station?id=143097087",
                    "ios": "https://app.nextbike.net/station?id=143097087",
                    "web": "https://nxtb.it/p/143097087"
                },
                "short_name": "51812",
                "station_id": "143097087",
                "vehicle_types_available": [
                    {
                        "count": 1,
                        "vehicle_type_id": "150"
                    }
                ]
            },
            "type": "Feature"
        },
        {
            "geometry": {
                "coordinates": [
                    8.21809,
                    50.080828
                ],
                "type": "Point"
            },
            "properties": {
                "capacity": 12,
                "is_installed": true,
                "is_renting": true,
                "is_returning": true,
                "is_virtual_station": false,
                "last_reported": 1789285712,
                "name": "Kurt-Schumacher-Ring (Campus Ost)",
                "num_bikes_available": 7,
                "num_docks_available": 5,
                "region_id": "7",
                "rental_uris": {
                    "android": "https://app.nextbike.net/station?id=4728239",
                    "ios": "https://app.nextbike.net/station?id=4728239",
                    "web": "https://nxtb.it/p/4728239"
                },
                "short_name": "5180",
                "station_id": "4728239",
                "vehicle_types_available": [
                    {
                        "count": 5,
                        "vehicle_type_id": "150"
                    },
                    {
                        "count": 2,
                        "vehicle_type_id": "196"
                    }
                ]
            },
            "type": "Feature"
        },
        {
            "geometry": {
                "coordinates": [
                    8.23052,
                    50.07956
                ],
                "type": "Point"
            },
            "properties": {
                "is_installed": true,
                "is_renting": true,
                "is_returning": true,
                "is_virtual_station": false,
                "last_reported": 1789285712,
                "name": "Bertramstra\u00dfe (Campus)",
                "num_bikes_available": 12,
                "num_docks_available": 0,
                "region_id": "7",
                "rental_uris": {
                    "android": "https://app.nextbike.net/station?id=4775065",
                    "ios": "https://app.nextbike.net/station?id=4775065",
                    "web": "https://nxtb.it/p/4775065"
                },
                "short_name": "5181",
                "station_id": "4775065",
                "vehicle_types_available": [
                    {
                        "count": 5,
                        "vehicle_type_id": "150"
                    },
                    {
                        "count": 7,
                        "vehicle_type_id": "196"
                    }
                ]
            },
            "type": "Feature"
        },
        {
            "geometry": {
                "coordinates": [
                    8.24349,
                    50.080666
                ],
                "type": "Point"
            },
            "properties": {
                "is_installed": true,
                "is_renting": true,
                "is_returning": true,
                "is_virtual_station": false,
                "last_reported": 1789285712,
                "name": "Dern\u2019sches Gel\u00e4nde",
                "num_bikes_available": 10,
                "num_docks_available": 0,
                "region_id": "7",
                "rental_uris": {
                    "android": "https://app.nextbike.net/station?id=4775074",
                    "ios": "https://app.nextbike.net/station?id=4775074",
                    "web": "https://nxtb.it/p/4775074"
                },
                "short_name": "5182",
                "station_id": "4775074",
                "vehicle_types_available": [
                    {
                        "count": 5,
                        "vehicle_type_id": "150"
                    },
                    {
                        "count": 5,
                        "vehicle_type_id": "196"
                    }
                ]
            },
            "type": "Feature"
        },
        {
            "geometry": {
                "coordinates": [
                    8.225514,
                    50.08564
                ],
                "type": "Point"
            },
            "properties": {
                "is_installed": true,
                "is_renting": true,
                "is_returning": true,
                "is_virtual_station": false,
                "last_reported": 1789285712,
                "name": "D\u00fcrerplatz",
                "num_bikes_available": 3,
                "num_docks_available": 0,
                "region_id": "7",
                "rental_uris": {
                    "android": "https://app.nextbike.net/station?id=4775082",
                    "ios": "https://app.nextbike.net/station?id=4775082",
                    "web": "https://nxtb.it/p/4775082"
                },
                "short_name": "5183",
                "station_id": "4775082",
                "vehicle_types_available": [
                    {
                        "count": 1,
                        "vehicle_type_id": "150"
                    },
                    {
                        "count": 1,
                        "vehicle_type_id": "71"
                    },
                    {
                        "count": 1,
                        "vehicle_type_id": "196"
                    }
                ]
            },
            "type": "Feature"
        },
        {
            "geometry": {
                "coordinates": [
                    8.226448,
                    50.076546
                ],
                "type": "Point"
            },
            "properties": {
                "is_installed": true,
                "is_renting": true,
                "is_returning": true,
                "is_virtual_station": false,
                "last_reported": 1789285712,
                "name": "Eltviller Stra\u00dfe",
                "num_bikes_available": 2,
                "num_docks_available": 0,
                "region_id": "7",
                "rental_uris": {
                    "android": "https://app.nextbike.net/station?id=4775087",
                    "ios": "https://app.nextbike.net/station?id=4775087",
                    "web": "https://nxtb.it/p/4775087"
                },
                "short_name": "5184",
                "station_id": "4775087",
                "vehicle_types_available": [
                    {
                        "count": 2,
                        "vehicle_type_id": "196"
                    }
                ]
            },
            "type": "Feature"
        },
        {
            "geometry": {
                "coordinates": [
                    8.21962,
                    50.082972
                ],
                "type": "Point"
            },
            "properties": {
                "is_installed": true,
                "is_renting": true,
                "is_returning": true,
                "is_virtual_station": false,
                "last_reported": 1789285712,
                "name": "Friedrich-Naumann-Stra\u00dfe (Studierendenwohnheim)",
                "num_bikes_available": 0,
                "num_docks_available": 0,
                "region_id": "7",
                "rental_uris": {
                    "android": "https://app.nextbike.net/station?id=4775102",
                    "ios": "https://app.nextbike.net/station?id=4775102",
                    "web": "https://nxtb.it/p/4775102"
                },
                "short_name": "5185",
                "station_id": "4775102",
                "vehicle_types_available": []
            },
            "type": "Feature"
        },
        {
            "geometry": {
                "coordinates": [
                    8.224286,
                    50.079672
                ],
                "type": "Point"
            },
            "properties": {
                "is_installed": true,
                "is_renting": true,
                "is_returning": true,
                "is_virtual_station": false,
                "last_reported": 1789285712,
                "name": "Gneisenaustra\u00dfe",
                "num_bikes_available": 6,
                "num_docks_available": 0,
                "region_id": "7",
                "rental_uris": {
                    "android": "https://app.nextbike.net/station?id=4775108",
                    "ios": "https://app.nextbike.net/station?id=4775108",
                    "web": "https://nxtb.it/p/4775108"
                },
                "short_name": "5186",
                "station_id": "4775108",
                "vehicle_types_available": [
                    {
                        "count": 1,
                        "vehicle_type_id": "150"
                    },
                    {
                        "count": 5,
                        "vehicle_type_id": "196"
                    }
                ]
            },
            "type": "Feature"
        },
        {
            "geometry": {
                "coordinates": [
                    8.233523,
                    50.074514
                ],
                "type": "Point"
            },
            "properties": {
                "is_installed": true,
                "is_renting": true,
                "is_returning": true,
                "is_virtual_station": false,
                "last_reported": 1789285712,
                "name": "Herderstra\u00dfe",
                "num_bikes_available": 9,
                "num_docks_available": 0,
                "region_id": "7",
                "rental_uris": {
                    "android": "https://app.nextbike.net/station?id=4775113",
                    "ios": "https://app.nextbike.net/station?id=4775113",
                    "web": "https://nxtb.it/p/4775113"
                },
                "short_name": "5187",
                "station_id": "4775113",
                "vehicle_types_available": [
                    {
                        "count": 4,
                        "vehicle_type_id": "150"
                    },
                    {
                        "count": 5,
                        "vehicle_type_id": "196"
                    }
                ]
            },
            "type": "Feature"
        },
        {
            "geometry": {
                "coordinates": [
                    8.216786,
                    50.080501
                ],
                "type": "Point"
            },
            "properties": {
                "capacity": 4,
                "is_installed": true,
                "is_renting": true,
                "is_returning": true,
                "is_virtual_station": false,
                "last_reported": 1789285712,
                "name": "Kurt-Schumacher-Ring (Campus Mitte)",
                "num_bikes_available": 1,
                "num_docks_available": 3,
                "region_id": "7",
                "rental_uris": {
                    "android": "https://app.nextbike.net/station?id=4775117",
                    "ios": "https://app.nextbike.net/station?id=4775117",
                    "web": "https://nxtb.it/p/4775117"
                },
                "short_name": "5188",
                "station_id": "4775117",
                "vehicle_types_available": [
                    {
                        "count": 1,
                        "vehicle_type_id": "196"
                    }
                ]
            },
            "type": "Feature"
        },
        {
            "geometry": {
                "coordinates": [
                    8.2347,
                    50.07978
                ],
                "type": "Point"
            },
            "properties": {
                "is_installed": true,
                "is_renting": true,
                "is_returning": true,
                "is_virtual_station": false,
                "last_reported": 1789285712,
                "name": "Platz der Deutschen Einheit",
                "num_bikes_available": 5,
                "num_docks_available": 0,
                "region_id": "7",
                "rental_uris": {
                    "android": "https://app.nextbike.net/station?id=4775126",
                    "ios": "https://app.nextbike.net/station?id=4775126",
                    "web": "https://nxtb.it/p/4775126"
                },
                "short_name": "5189",
                "station_id": "4775126",
                "vehicle_types_available": [
                    {
                        "count": 5,
                        "vehicle_type_id": "196"
                    }
                ]
            },
            "type": "Feature"
        },
        {
            "geometry": {
                "coordinates": [
                    8.24166,
                    50.08674
                ],
                "type": "Point"
            },
            "properties": {
                "is_installed": true,
                "is_renting": true,
                "is_returning": true,
                "is_virtual_station": false,
                "last_reported": 1789285712,
                "name": "Saalgasse ",
                "num_bikes_available": 4,
                "num_docks_available": 0,
                "region_id": "7",
                "rental_uris": {
                    "android": "https://app.nextbike.net/station?id=4775132",
                    "ios": "https://app.nextbike.net/station?id=4775132",
                    "web": "https://nxtb.it/p/4775132"
                },
                "short_name": "5190",
                "station_id": "4775132",
                "vehicle_types_available": [
                    {
                        "count": 2,
                        "vehicle_type_id": "150"
                    },
                    {
                        "count": 2,
                        "vehicle_type_id": "196"
                    }
                ]
            },
            "type": "Feature"
        },
        {
            "geometry": {
                "coordinates": [
                    8.228803,
                    50.082866
                ],
                "type": "Point"
            },
            "properties": {
                "is_installed": true,
                "is_renting": true,
                "is_returning": true,
                "is_virtual_station": false,
                "last_reported": 1789285712,
                "name": "Sedanplatz",
                "num_bikes_available": 1,
                "num_docks_available": 0,
                "region_id": "7",
                "rental_uris": {
                    "android": "https://app.nextbike.net/station?id=4775141",
                    "ios": "https://app.nextbike.net/station?id=4775141",
                    "web": "https://nxtb.it/p/4775141"
                },
                "short_name": "5191",
                "station_id": "4775141",
                "vehicle_types_available": [
                    {
                        "count": 1,
                        "vehicle_type_id": "196"
                    }
                ]
            },
            "type": "Feature"
        },
        {
            "geometry": {
                "coordinates": [
                    8.21618,
                    50.0957
                ],
                "type": "Point"
            },
            "properties": {
                "capacity": 8,
                "is_installed": true,
                "is_renting": true,
                "is_returning": true,
                "is_virtual_station": false,
                "last_reported": 1789285712,
                "name": "Unter den Eichen (Campus) ",
                "num_bikes_available": 35,
                "num_docks_available": 0,
                "region_id": "7",
                "rental_uris": {
                    "android": "https://app.nextbike.net/station?id=4775153",
                    "ios": "https://app.nextbike.net/station?id=4775153",
                    "web": "https://nxtb.it/p/4775153"
                },
                "short_name": "5192",
                "station_id": "4775153",
                "vehicle_types_available": [
                    {
                        "count": 14,
                        "vehicle_type_id": "150"
                    },
                    {
                        "count": 1,
                        "vehicle_type_id": "71"
                    },
                    {
                        "count": 20,
                        "vehicle_type_id": "196"
                    }
                ]
            },
            "type": "Feature"
        },
        {
            "geometry": {
                "coordinates": [
                    8.2426,
                    50.08464
                ],
                "type": "Point"
            },
            "properties": {
                "is_installed": true,
                "is_renting": true,
                "is_returning": true,
                "is_virtual_station": false,
                "last_reported": 1789285712,
                "name": "Webergasse",
                "num_bikes_available": 1,
                "num_docks_available": 0,
                "region_id": "7",
                "rental_uris": {
                    "android": "https://app.nextbike.net/station?id=4775162",
                    "ios": "https://app.nextbike.net/station?id=4775162",
                    "web": "https://nxtb.it/p/4775162"
                },
                "short_name": "5193",
                "station_id": "4775162",
                "vehicle_types_available": [
                    {
                        "count": 1,
                        "vehicle_type_id": "196"
                    }
                ]
            },
            "type": "Feature"
        },
        {
            "geometry": {
                "coordinates": [
                    8.22064,
                    50.07763
                ],
                "type": "Point"
            },
            "properties": {
                "is_installed": true,
                "is_renting": true,
                "is_returning": true,
                "is_virtual_station": false,
                "last_reported": 1789285712,
                "name": "Loreleiring",
                "num_bikes_available": 0,
                "num_docks_available": 0,
                "region_id": "7",
                "rental_uris": {
                    "android": "https://app.nextbike.net/station?id=4880650",
                    "ios": "https://app.nextbike.net/station?id=4880650",
                    "web": "https://nxtb.it/p/4880650"
                },
                "short_name": "5194",
                "station_id": "4880650",
                "vehicle_types_available": []
            },
            "type": "Feature"
        },
        {
            "geometry": {
                "coordinates": [
                    8.273445,
                    50.066637
                ],
                "type": "Point"
            },
            "properties": {
                "is_installed": true,
                "is_renting": true,
                "is_returning": true,
                "is_virtual_station": false,
                "last_reported": 1789285712,
                "name": "Raiffeisenplatz",
                "num_bikes_available": 3,
                "num_docks_available": 0,
                "region_id": "7",
                "rental_uris": {
                    "android": "https://app.nextbike.net/station?id=5029668",
                    "ios": "https://app.nextbike.net/station?id=5029668",
                    "web": "https://nxtb.it/p/5029668"
                },
                "short_name": "5195",
                "station_id": "5029668",
                "vehicle_types_available": [
                    {
                        "count": 3,
                        "vehicle_type_id": "196"
                    }
                ]
            },
            "type": "Feature"
        },
        {
            "geometry": {
                "coordinates": [
                    8.27154,
                    50.06291
                ],
                "type": "Point"
            },
            "properties": {
                "is_installed": true,
                "is_renting": true,
                "is_returning": true,
                "is_virtual_station": false,
                "last_reported": 1789285712,
                "name": "Abraham-Lincoln-Park",
                "num_bikes_available": 1,
                "num_docks_available": 0,
                "region_id": "7",
                "rental_uris": {
                    "android": "https://app.nextbike.net/station?id=5029742",
                    "ios": "https://app.nextbike.net/station?id=5029742",
                    "web": "https://nxtb.it/p/5029742"
                },
                "short_name": "5196",
                "station_id": "5029742",
                "vehicle_types_available": [
                    {
                        "count": 1,
                        "vehicle_type_id": "196"
                    }
                ]
            },
            "type": "Feature"
        },
        {
            "geometry": {
                "coordinates": [
                    8.255228,
                    50.073805
                ],
                "type": "Point"
            },
            "properties": {
                "is_installed": true,
                "is_renting": true,
                "is_returning": true,
                "is_virtual_station": false,
                "last_reported": 1789285712,
                "name": "Frankfurter Stra\u00dfe",
                "num_bikes_available": 5,
                "num_docks_available": 0,
                "region_id": "7",
                "rental_uris": {
                    "android": "https://app.nextbike.net/station?id=5301942",
                    "ios": "https://app.nextbike.net/station?id=5301942",
                    "web": "https://nxtb.it/p/5301942"
                },
                "short_name": "5198",
                "station_id": "5301942",
                "vehicle_types_available": [
                    {
                        "count": 2,
                        "vehicle_type_id": "150"
                    },
                    {
                        "count": 3,
                        "vehicle_type_id": "196"
                    }
                ]
            },
            "type": "Feature"
        },
        {
            "geometry": {
                "coordinates": [
                    8.226126,
                    50.094966
                ],
                "type": "Point"
            },
            "properties": {
                "is_installed": true,
                "is_renting": true,
                "is_returning": true,
                "is_virtual_station": false,
                "last_reported": 1789285712,
                "name": "Neroberg Talstation",
                "num_bikes_available": 0,
                "num_docks_available": 0,
                "region_id": "7",
                "rental_uris": {
                    "android": "https://app.nextbike.net/station?id=53173847",
                    "ios": "https://app.nextbike.net/station?id=53173847",
                    "web": "https://nxtb.it/p/53173847"
                },
                "short_name": "51800",
                "station_id": "53173847",
                "vehicle_types_available": []
            },
            "type": "Feature"
        },
        {
            "geometry": {
                "coordinates": [
                    8.236082,
                    50.091216
                ],
                "type": "Point"
            },
            "properties": {
                "is_installed": true,
                "is_renting": true,
                "is_returning": true,
                "is_virtual_station": false,
                "last_reported": 1789285712,
                "name": "Nerotal",
                "num_bikes_available": 0,
                "num_docks_available": 0,
                "region_id": "7",
                "rental_uris": {
                    "android": "https://app.nextbike.net/station?id=53279454",
                    "ios": "https://app.nextbike.net/station?id=53279454",
                    "web": "https://nxtb.it/p/53279454"
                },
                "short_name": "5197",
                "station_id": "53279454",
                "vehicle_types_available": []
            },
            "type": "Feature"
        },
        {
            "geometry": {
                "coordinates": [
                    8.255213,
                    50.058507
                ],
                "type": "Point"
            },
            "properties": {
                "is_installed": true,
                "is_renting": true,
                "is_returning": true,
                "is_virtual_station": false,
                "last_reported": 1789285712,
                "name": "Mainzer Stra\u00dfe",
                "num_bikes_available": 1,
                "num_docks_available": 0,
                "region_id": "7",
                "rental_uris": {
                    "android": "https://app.nextbike.net/station?id=53697507",
                    "ios": "https://app.nextbike.net/station?id=53697507",
                    "web": "https://nxtb.it/p/53697507"
                },
                "short_name": "51801",
                "station_id": "53697507",
                "vehicle_types_available": [
                    {
                        "count": 1,
                        "vehicle_type_id": "196"
                    }
                ]
            },
            "type": "Feature"
        },
        {
            "geometry": {
                "coordinates": [
                    8.24563,
                    50.076204
                ],
                "type": "Point"
            },
            "properties": {
                "is_installed": true,
                "is_renting": true,
                "is_returning": true,
                "is_virtual_station": false,
                "last_reported": 1789285712,
                "name": "Friedrich-Ebert-Allee",
                "num_bikes_available": 2,
                "num_docks_available": 0,
                "region_id": "7",
                "rental_uris": {
                    "android": "https://app.nextbike.net/station?id=53699259",
                    "ios": "https://app.nextbike.net/station?id=53699259",
                    "web": "https://nxtb.it/p/53699259"
                },
                "short_name": "51802",
                "station_id": "53699259",
                "vehicle_types_available": [
                    {
                        "count": 1,
                        "vehicle_type_id": "150"
                    },
                    {
                        "count": 1,
                        "vehicle_type_id": "196"
                    }
                ]
            },
            "type": "Feature"
        },
        {
            "geometry": {
                "coordinates": [
                    8.239901,
                    50.076168
                ],
                "type": "Point"
            },
            "properties": {
                "is_installed": true,
                "is_renting": true,
                "is_returning": true,
                "is_virtual_station": false,
                "last_reported": 1789285712,
                "name": "Adolfsallee",
                "num_bikes_available": 19,
                "num_docks_available": 0,
                "region_id": "7",
                "rental_uris": {
                    "android": "https://app.nextbike.net/station?id=53701912",
                    "ios": "https://app.nextbike.net/station?id=53701912",
                    "web": "https://nxtb.it/p/53701912"
                },
                "short_name": "51803",
                "station_id": "53701912",
                "vehicle_types_available": [
                    {
                        "count": 7,
                        "vehicle_type_id": "150"
                    },
                    {
                        "count": 12,
                        "vehicle_type_id": "196"
                    }
                ]
            },
            "type": "Feature"
        },
        {
            "geometry": {
                "coordinates": [
                    8.220322,
                    50.089468
                ],
                "type": "Point"
            },
            "properties": {
                "is_installed": true,
                "is_renting": true,
                "is_returning": true,
                "is_virtual_station": false,
                "last_reported": 1789285712,
                "name": "Albrecht-D\u00fcrer-Anlagen",
                "num_bikes_available": 1,
                "num_docks_available": 0,
                "region_id": "7",
                "rental_uris": {
                    "android": "https://app.nextbike.net/station?id=54069261",
                    "ios": "https://app.nextbike.net/station?id=54069261",
                    "web": "https://nxtb.it/p/54069261"
                },
                "short_name": "51804",
                "station_id": "54069261",
                "vehicle_types_available": [
                    {
                        "count": 1,
                        "vehicle_type_id": "196"
                    }
                ]
            },
            "type": "Feature"
        },
        {
            "geometry": {
                "coordinates": [
                    8.236345,
                    50.083286
                ],
                "type": "Point"
            },
            "properties": {
                "is_installed": true,
                "is_renting": true,
                "is_returning": true,
                "is_virtual_station": false,
                "last_reported": 1789285712,
                "name": "Coulinstra\u00dfe",
                "num_bikes_available": 1,
                "num_docks_available": 0,
                "region_id": "7",
                "rental_uris": {
                    "android": "https://app.nextbike.net/station?id=87795417",
                    "ios": "https://app.nextbike.net/station?id=87795417",
                    "web": "https://nxtb.it/p/87795417"
                },
                "short_name": "51805",
                "station_id": "87795417",
                "vehicle_types_available": [
                    {
                        "count": 1,
                        "vehicle_type_id": "196"
                    }
                ]
            },
            "type": "Feature"
        },
        {
            "geometry": {
                "coordinates": [
                    8.23976,
                    50.081525
                ],
                "type": "Point"
            },
            "properties": {
                "is_installed": true,
                "is_renting": true,
                "is_returning": true,
                "is_virtual_station": false,
                "last_reported": 1789285712,
                "name": "Neugasse",
                "num_bikes_available": 7,
                "num_docks_available": 0,
                "region_id": "7",
                "rental_uris": {
                    "android": "https://app.nextbike.net/station?id=87795984",
                    "ios": "https://app.nextbike.net/station?id=87795984",
                    "web": "https://nxtb.it/p/87795984"
                },
                "short_name": "51806",
                "station_id": "87795984",
                "vehicle_types_available": [
                    {
                        "count": 3,
                        "vehicle_type_id": "150"
                    },
                    {
                        "count": 4,
                        "vehicle_type_id": "196"
                    }
                ]
            },
            "type": "Feature"
        },
        {
            "geometry": {
                "coordinates": [
                    8.240044,
                    50.079147
                ],
                "type": "Point"
            },
            "properties": {
                "is_installed": true,
                "is_renting": true,
                "is_returning": true,
                "is_virtual_station": false,
                "last_reported": 1789285712,
                "name": "Luisenplatz",
                "num_bikes_available": 12,
                "num_docks_available": 0,
                "region_id": "7",
                "rental_uris": {
                    "android": "https://app.nextbike.net/station?id=87796213",
                    "ios": "https://app.nextbike.net/station?id=87796213",
                    "web": "https://nxtb.it/p/87796213"
                },
                "short_name": "51807",
                "station_id": "87796213",
                "vehicle_types_available": [
                    {
                        "count": 5,
                        "vehicle_type_id": "150"
                    },
                    {
                        "count": 7,
                        "vehicle_type_id": "196"
                    }
                ]
            },
            "type": "Feature"
        },
        {
            "geometry": {
                "coordinates": [
                    8.242933,
                    50.072318
                ],
                "type": "Point"
            },
            "properties": {
                "is_installed": true,
                "is_renting": true,
                "is_returning": true,
                "is_virtual_station": false,
                "last_reported": 1789285712,
                "name": "Bahnhofstra\u00dfe",
                "num_bikes_available": 5,
                "num_docks_available": 0,
                "region_id": "7",
                "rental_uris": {
                    "android": "https://app.nextbike.net/station?id=87796369",
                    "ios": "https://app.nextbike.net/station?id=87796369",
                    "web": "https://nxtb.it/p/87796369"
                },
                "short_name": "51808",
                "station_id": "87796369",
                "vehicle_types_available": [
                    {
                        "count": 1,
                        "vehicle_type_id": "150"
                    },
                    {
                        "count": 4,
                        "vehicle_type_id": "196"
                    }
                ]
            },
            "type": "Feature"
        },
        {
            "geometry": {
                "coordinates": [
                    8.242628,
                    50.071337
                ],
                "type": "Point"
            },
            "properties": {
                "is_installed": true,
                "is_renting": true,
                "is_returning": true,
                "is_virtual_station": false,
                "last_reported": 1789285712,
                "name": "Hauptbahnhof",
                "num_bikes_available": 23,
                "num_docks_available": 0,
                "region_id": "7",
                "rental_uris": {
                    "android": "https://app.nextbike.net/station?id=87796472",
                    "ios": "https://app.nextbike.net/station?id=87796472",
                    "web": "https://nxtb.it/p/87796472"
                },
                "short_name": "51809",
                "station_id": "87796472",
                "vehicle_types_available": [
                    {
                        "count": 8,
                        "vehicle_type_id": "150"
                    },
                    {
                        "count": 15,
                        "vehicle_type_id": "196"
                    }
                ]
            },
            "type": "Feature"
        },
        {
            "geometry": {
                "coordinates": [
                    8.226985,
                    50.071167
                ],
                "type": "Point"
            },
            "properties": {
                "is_installed": true,
                "is_renting": true,
                "is_returning": true,
                "is_virtual_station": false,
                "last_reported": 1789285712,
                "name": "Konrad-Adenauer-Stra\u00dfe/ Schiersteiner Stra\u00dfe",
                "num_bikes_available": 1,
                "num_docks_available": 0,
                "region_id": "7",
                "rental_uris": {
                    "android": "https://app.nextbike.net/station?id=87796596",
                    "ios": "https://app.nextbike.net/station?id=87796596",
                    "web": "https://nxtb.it/p/87796596"
                },
                "short_name": "51810",
                "station_id": "87796596",
                "vehicle_types_available": [
                    {
                        "count": 1,
                        "vehicle_type_id": "150"
                    }
                ]
            },
            "type": "Feature"
        },
        {
            "geometry": {
                "coordinates": [
                    8.223887,
                    50.074863
                ],
                "type": "Point"
            },
            "properties": {
                "is_installed": true,
                "is_renting": true,
                "is_returning": true,
                "is_virtual_station": false,
                "last_reported": 1789285712,
                "name": "Karlsbader Platz",
                "num_bikes_available": 1,
                "num_docks_available": 0,
                "region_id": "7",
                "rental_uris": {
                    "android": "https://app.nextbike.net/station?id=87796717",
                    "ios": "https://app.nextbike.net/station?id=87796717",
                    "web": "https://nxtb.it/p/87796717"
                },
                "short_name": "51811",
                "station_id": "87796717",
                "vehicle_types_available": [
                    {
                        "count": 1,
                        "vehicle_type_id": "196"
                    }
                ]
            },
            "type": "Feature"
        },
        {
            "geometry": {
                "coordinates": [
                    8.249343,
                    50.07816
                ],
                "type": "Point"
            },
            "properties": {
                "is_installed": true,
                "is_renting": true,
                "is_returning": true,
                "is_virtual_station": false,
                "last_reported": 1789285712,
                "name": "Frankfurter Stra\u00dfe/ Humboldtstra\u00dfe",
                "num_bikes_available": 3,
                "num_docks_available": 0,
                "region_id": "7",
                "rental_uris": {
                    "android": "https://app.nextbike.net/station?id=87796883",
                    "ios": "https://app.nextbike.net/station?id=87796883",
                    "web": "https://nxtb.it/p/87796883"
                },
                "short_name": "51814",
                "station_id": "87796883",
                "vehicle_types_available": [
                    {
                        "count": 3,
                        "vehicle_type_id": "196"
                    }
                ]
            },
            "type": "Feature"
        },
        {
            "geometry": {
                "coordinates": [
                    8.252207,
                    50.071756
                ],
                "type": "Point"
            },
            "properties": {
                "is_installed": true,
                "is_renting": true,
                "is_returning": true,
                "is_virtual_station": false,
                "last_reported": 1789285712,
                "name": "Gustav-Stresemann-Ring",
                "num_bikes_available": 2,
                "num_docks_available": 0,
                "region_id": "7",
                "rental_uris": {
                    "android": "https://app.nextbike.net/station?id=87797085",
                    "ios": "https://app.nextbike.net/station?id=87797085",
                    "web": "https://nxtb.it/p/87797085"
                },
                "short_name": "51815",
                "station_id": "87797085",
                "vehicle_types_available": [
                    {
                        "count": 1,
                        "vehicle_type_id": "150"
                    },
                    {
                        "count": 1,
                        "vehicle_type_id": "196"
                    }
                ]
            },
            "type": "Feature"
        }
    ],
    "gbfs": {
        "station_information": {
            "last_updated": 1789285712,
            "ttl": 60,
            "version": "2.3"
        },
        "station_status": {
            "last_updated": 1789285712,
            "ttl": 60,
            "version": "2.3"
        }
    },
    "type": "FeatureCollection"
}