{
    "features": [
        {
            "geometry": {
                "coordinates": [
                    15.881113,
                    49.216146
                ],
                "type": "Point"
            },
            "properties": {
                "is_installed": true,
                "is_renting": true,
                "is_returning": true,
                "is_virtual_station": false,
                "last_reported": 1789275707,
                "name": "Karlovo n\u00e1m\u011bst\u00ed - parkovi\u0161t\u011b",
                "num_bikes_available": 6,
                "num_docks_available": 0,
                "region_id": "863",
                "rental_uris": {
                    "android": "https://app.nextbike.net/station?id=158023490",
                    "ios": "https://app.nextbike.net/station?id=158023490",
                    "web": "https://nxtb.it/p/158023490"
                },
                "short_name": "49218",
                "station_id": "158023490",
                "vehicle_types_available": [
                    {
                        "count": 6,
                        "vehicle_type_id": "254"
                    }
                ]
            },
            "type": "Feature"
        },
        {
            "geometry": {
                "coordinates": [
                    15.88448,
                    49.215208
                ],
                "type": "Point"
            },
            "properties": {
                "is_installed": true,
                "is_renting": true,
                "is_returning": true,
                "is_virtual_station": false,
                "last_reported": 1789275707,
                "name": "Smila Osovsk\u00e9ho",
                "num_bikes_available": 8,
                "num_docks_available": 0,
                "region_id": "863",
                "rental_uris": {
                    "android": "https://app.nextbike.net/station?id=159216163",
                    "ios": "https://app.nextbike.net/station?id=159216163",
                    "web": "https://nxtb.it/p/159216163"
                },
                "short_name": "49219",
                "station_id": "159216163",
                "vehicle_types_available": [
                    {
                        "count": 8,
                        "vehicle_type_id": "254"
                    }
                ]
            },
            "type": "Feature"
        },
        {
            "geometry": {
                "coordinates": [
                    15.882682,
                    49.214915
                ],
                "type": "Point"
            },
            "properties": {
                "is_installed": true,
                "is_renting": true,
                "is_returning": true,
                "is_virtual_station": false,
                "last_reported": 1789275707,
                "name": "Soukupova",
                "num_bikes_available": 1,
                "num_docks_available": 0,
                "region_id": "863",
                "rental_uris": {
                    "android": "https://app.nextbike.net/station?id=159218494",
                    "ios": "https://app.nextbike.net/station?id=159218494",
                    "web": "https://nxtb.it/p/159218494"
                },
                "short_name": "49220",
                "station_id": "159218494",
                "vehicle_types_available": [
                    {
                        "count": 1,
                        "vehicle_type_id": "254"
                    }
                ]
            },
            "type": "Feature"
        },
        {
            "geometry": {
                "coordinates": [
                    15.880684,
                    49.214393
                ],
                "type": "Point"
            },
            "properties": {
                "is_installed": true,
                "is_renting": true,
                "is_returning": true,
                "is_virtual_station": false,
                "last_reported": 1789275707,
                "name": "Masarykovo n\u00e1m\u011bst\u00ed - m\u011bstsk\u00fd \u00fa\u0159ad",
                "num_bikes_available": 0,
                "num_docks_available": 0,
                "region_id": "863",
                "rental_uris": {
                    "android": "https://app.nextbike.net/station?id=159220926",
                    "ios": "https://app.nextbike.net/station?id=159220926",
                    "web": "https://nxtb.it/p/159220926"
                },
                "short_name": "49221",
                "station_id": "159220926",
                "vehicle_types_available": []
            },
            "type": "Feature"
        },
        {
            "geometry": {
                "coordinates": [
                    15.875893,
                    49.214819
                ],
                "type": "Point"
            },
            "properties": {
                "is_installed": true,
                "is_renting": true,
                "is_returning": true,
                "is_virtual_station": false,
                "last_reported": 1789275707,
                "name": "Autobusov\u00e9 n\u00e1dra\u017e\u00ed",
                "num_bikes_available": 6,
                "num_docks_available": 0,
                "region_id": "863",
                "rental_uris": {
                    "android": "https://app.nextbike.net/station?id=159224554",
                    "ios": "https://app.nextbike.net/station?id=159224554",
                    "web": "https://nxtb.it/p/159224554"
                },
                "short_name": "49222",
                "station_id": "159224554",
                "vehicle_types_available": [
                    {
                        "count": 6,
                        "vehicle_type_id": "254"
                    }
                ]
            },
            "type": "Feature"
        },
        {
            "geometry": {
                "coordinates": [
                    15.8764,
                    49.21223
                ],
                "type": "Point"
            },
            "properties": {
                "is_installed": true,
                "is_renting": true,
                "is_returning": true,
                "is_virtual_station": false,
                "last_reported": 1789275707,
                "name": "Sportovn\u00ed hala L. Pokorn\u00e9ho",
                "num_bikes_available": 2,
                "num_docks_available": 0,
                "region_id": "863",
                "rental_uris": {
                    "android": "https://app.nextbike.net/station?id=159230716",
                    "ios": "https://app.nextbike.net/station?id=159230716",
                    "web": "https://nxtb.it/p/159230716"
                },
                "short_name": "49223",
                "station_id": "159230716",
                "vehicle_types_available": [
                    {
                        "count": 2,
                        "vehicle_type_id": "254"
                    }
                ]
            },
            "type": "Feature"
        },
        {
            "geometry": {
                "coordinates": [
                    15.877615,
                    49.209924
                ],
                "type": "Point"
            },
            "properties": {
                "is_installed": true,
                "is_renting": true,
                "is_returning": true,
                "is_virtual_station": false,
                "last_reported": 1789275707,
                "name": "Jir\u00e1skova - obchod",
                "num_bikes_available": 0,
                "num_docks_available": 0,
                "region_id": "863",
                "rental_uris": {
                    "android": "https://app.nextbike.net/station?id=159233102",
                    "ios": "https://app.nextbike.net/station?id=159233102",
                    "web": "https://nxtb.it/p/159233102"
                },
                "short_name": "49224",
                "station_id": "159233102",
                "vehicle_types_available": []
            },
            "type": "Feature"
        },
        {
            "geometry": {
                "coordinates": [
                    15.879605,
                    49.20672
                ],
                "type": "Point"
            },
            "properties": {
                "is_installed": true,
                "is_renting": true,
                "is_returning": true,
                "is_virtual_station": false,
                "last_reported": 1789275707,
                "name": "V\u00e1clavsk\u00e9 n\u00e1m\u011bst\u00ed - Z\u0160",
                "num_bikes_available": 0,
                "num_docks_available": 0,
                "region_id": "863",
                "rental_uris": {
                    "android": "https://app.nextbike.net/station?id=159259126",
                    "ios": "https://app.nextbike.net/station?id=159259126",
                    "web": "https://nxtb.it/p/159259126"
                },
                "short_name": "49225",
                "station_id": "159259126",
                "vehicle_types_available": []
            },
            "type": "Feature"
        },
        {
            "geometry": {
                "coordinates": [
                    15.882864,
                    49.20705
                ],
                "type": "Point"
            },
            "properties": {
                "is_installed": true,
                "is_renting": true,
                "is_returning": true,
                "is_virtual_station": false,
                "last_reported": 1789275707,
                "name": "Demlova",
                "num_bikes_available": 0,
                "num_docks_available": 0,
                "region_id": "863",
                "rental_uris": {
                    "android": "https://app.nextbike.net/station?id=159263393",
                    "ios": "https://app.nextbike.net/station?id=159263393",
                    "web": "https://nxtb.it/p/159263393"
                },
                "short_name": "49227",
                "station_id": "159263393",
                "vehicle_types_available": []
            },
            "type": "Feature"
        },
        {
            "geometry": {
                "coordinates": [
                    15.893027,
                    49.209786
                ],
                "type": "Point"
            },
            "properties": {
                "is_installed": true,
                "is_renting": true,
                "is_returning": true,
                "is_virtual_station": false,
                "last_reported": 1789275707,
                "name": "Kosm\u00e1kova",
                "num_bikes_available": 2,
                "num_docks_available": 0,
                "region_id": "863",
                "rental_uris": {
                    "android": "https://app.nextbike.net/station?id=159265586",
                    "ios": "https://app.nextbike.net/station?id=159265586",
                    "web": "https://nxtb.it/p/159265586"
                },
                "short_name": "49228",
                "station_id": "159265586",
                "vehicle_types_available": [
                    {
                        "count": 2,
                        "vehicle_type_id": "254"
                    }
                ]
            },
            "type": "Feature"
        },
        {
            "geometry": {
                "coordinates": [
                    15.886666,
                    49.206054
                ],
                "type": "Point"
            },
            "properties": {
                "is_installed": true,
                "is_renting": true,
                "is_returning": true,
                "is_virtual_station": false,
                "last_reported": 1789275707,
                "name": "Alfa",
                "num_bikes_available": 0,
                "num_docks_available": 0,
                "region_id": "863",
                "rental_uris": {
                    "android": "https://app.nextbike.net/station?id=159269095",
                    "ios": "https://app.nextbike.net/station?id=159269095",
                    "web": "https://nxtb.it/p/159269095"
                },
                "short_name": "49229",
                "station_id": "159269095",
                "vehicle_types_available": []
            },
            "type": "Feature"
        },
        {
            "geometry": {
                "coordinates": [
                    15.894874,
                    49.206569
                ],
                "type": "Point"
            },
            "properties": {
                "is_installed": true,
                "is_renting": true,
                "is_returning": true,
                "is_virtual_station": false,
                "last_reported": 1789275707,
                "name": "Hrotovick\u00e1",
                "num_bikes_available": 2,
                "num_docks_available": 0,
                "region_id": "863",
                "rental_uris": {
                    "android": "https://app.nextbike.net/station?id=159269929",
                    "ios": "https://app.nextbike.net/station?id=159269929",
                    "web": "https://nxtb.it/p/159269929"
                },
                "short_name": "49231",
                "station_id": "159269929",
                "vehicle_types_available": [
                    {
                        "count": 2,
                        "vehicle_type_id": "254"
                    }
                ]
            },
            "type": "Feature"
        },
        {
            "geometry": {
                "coordinates": [
                    15.890683,
                    49.200327
                ],
                "type": "Point"
            },
            "properties": {
                "is_installed": true,
                "is_renting": true,
                "is_returning": true,
                "is_virtual_station": false,
                "last_reported": 1789275707,
                "name": "Obchodn\u00ed z\u00f3na",
                "num_bikes_available": 0,
                "num_docks_available": 0,
                "region_id": "863",
                "rental_uris": {
                    "android": "https://app.nextbike.net/station?id=159278599",
                    "ios": "https://app.nextbike.net/station?id=159278599",
                    "web": "https://nxtb.it/p/159278599"
                },
                "short_name": "49232",
                "station_id": "159278599",
                "vehicle_types_available": []
            },
            "type": "Feature"
        },
        {
            "geometry": {
                "coordinates": [
                    15.8892,
                    49.212573
                ],
                "type": "Point"
            },
            "properties": {
                "is_installed": true,
                "is_renting": true,
                "is_returning": true,
                "is_virtual_station": false,
                "last_reported": 1789275707,
                "name": "Nemocnice",
                "num_bikes_available": 1,
                "num_docks_available": 0,
                "region_id": "863",
                "rental_uris": {
                    "android": "https://app.nextbike.net/station?id=159295212",
                    "ios": "https://app.nextbike.net/station?id=159295212",
                    "web": "https://nxtb.it/p/159295212"
                },
                "short_name": "49233",
                "station_id": "159295212",
                "vehicle_types_available": [
                    {
                        "count": 1,
                        "vehicle_type_id": "254"
                    }
                ]
            },
            "type": "Feature"
        },
        {
            "geometry": {
                "coordinates": [
                    15.885221,
                    49.21163
                ],
                "type": "Point"
            },
            "properties": {
                "is_installed": true,
                "is_renting": true,
                "is_returning": true,
                "is_virtual_station": false,
                "last_reported": 1789275707,
                "name": "Vlakov\u00e9 n\u00e1dra\u017e\u00ed",
                "num_bikes_available": 0,
                "num_docks_available": 0,
                "region_id": "863",
                "rental_uris": {
                    "android": "https://app.nextbike.net/station?id=159298381",
                    "ios": "https://app.nextbike.net/station?id=159298381",
                    "web": "https://nxtb.it/p/159298381"
                },
                "short_name": "49235",
                "station_id": "159298381",
                "vehicle_types_available": []
            },
            "type": "Feature"
        },
        {
            "geometry": {
                "coordinates": [
                    15.886523,
                    49.213186
                ],
                "type": "Point"
            },
            "properties": {
                "is_installed": true,
                "is_renting": true,
                "is_returning": true,
                "is_virtual_station": false,
                "last_reported": 1789275707,
                "name": "Zimn\u00ed stadion",
                "num_bikes_available": 2,
                "num_docks_available": 0,
                "region_id": "863",
                "rental_uris": {
                    "android": "https://app.nextbike.net/station?id=159310636",
                    "ios": "https://app.nextbike.net/station?id=159310636",
                    "web": "https://nxtb.it/p/159310636"
                },
                "short_name": "49237",
                "station_id": "159310636",
                "vehicle_types_available": [
                    {
                        "count": 2,
                        "vehicle_type_id": "254"
                    }
                ]
            },
            "type": "Feature"
        },
        {
            "geometry": {
                "coordinates": [
                    15.887625,
                    49.217061
                ],
                "type": "Point"
            },
            "properties": {
                "is_installed": true,
                "is_renting": true,
                "is_returning": true,
                "is_virtual_station": false,
                "last_reported": 1789275707,
                "name": "Obr\u00e1nc\u016f m\u00edru",
                "num_bikes_available": 0,
                "num_docks_available": 0,
                "region_id": "863",
                "rental_uris": {
                    "android": "https://app.nextbike.net/station?id=159313752",
                    "ios": "https://app.nextbike.net/station?id=159313752",
                    "web": "https://nxtb.it/p/159313752"
                },
                "short_name": "49238",
                "station_id": "159313752",
                "vehicle_types_available": []
            },
            "type": "Feature"
        },
        {
            "geometry": {
                "coordinates": [
                    15.891342,
                    49.218333
                ],
                "type": "Point"
            },
            "properties": {
                "is_installed": true,
                "is_renting": true,
                "is_returning": true,
                "is_virtual_station": false,
                "last_reported": 1789275707,
                "name": "Viktorinova",
                "num_bikes_available": 0,
                "num_docks_available": 0,
                "region_id": "863",
                "rental_uris": {
                    "android": "https://app.nextbike.net/station?id=159316007",
                    "ios": "https://app.nextbike.net/station?id=159316007",
                    "web": "https://nxtb.it/p/159316007"
                },
                "short_name": "49239",
                "station_id": "159316007",
                "vehicle_types_available": []
            },
            "type": "Feature"
        },
        {
            "geometry": {
                "coordinates": [
                    15.881309,
                    49.222115
                ],
                "type": "Point"
            },
            "properties": {
                "is_installed": true,
                "is_renting": true,
                "is_returning": true,
                "is_virtual_station": false,
                "last_reported": 1789275707,
                "name": "Franti\u0161ka Hrub\u00edna",
                "num_bikes_available": 0,
                "num_docks_available": 0,
                "region_id": "863",
                "rental_uris": {
                    "android": "https://app.nextbike.net/station?id=159323808",
                    "ios": "https://app.nextbike.net/station?id=159323808",
                    "web": "https://nxtb.it/p/159323808"
                },
                "short_name": "49241",
                "station_id": "159323808",
                "vehicle_types_available": []
            },
            "type": "Feature"
        },
        {
            "geometry": {
                "coordinates": [
                    15.87651,
                    49.21665
                ],
                "type": "Point"
            },
            "properties": {
                "is_installed": true,
                "is_renting": true,
                "is_returning": true,
                "is_virtual_station": false,
                "last_reported": 1789275707,
                "name": "\u017derot\u00ednovo n\u00e1m\u011bst\u00ed",
                "num_bikes_available": 9,
                "num_docks_available": 0,
                "region_id": "863",
                "rental_uris": {
                    "android": "https://app.nextbike.net/station?id=159919848",
                    "ios": "https://app.nextbike.net/station?id=159919848",
                    "web": "https://nxtb.it/p/159919848"
                },
                "short_name": "49243",
                "station_id": "159919848",
                "vehicle_types_available": [
                    {
                        "count": 9,
                        "vehicle_type_id": "254"
                    }
                ]
            },
            "type": "Feature"
        },
        {
            "geometry": {
                "coordinates": [
                    15.86817,
                    49.21434
                ],
                "type": "Point"
            },
            "properties": {
                "is_installed": true,
                "is_renting": true,
                "is_returning": true,
                "is_virtual_station": false,
                "last_reported": 1789275707,
                "name": "Polanka",
                "num_bikes_available": 5,
                "num_docks_available": 0,
                "region_id": "863",
                "rental_uris": {
                    "android": "https://app.nextbike.net/station?id=159920233",
                    "ios": "https://app.nextbike.net/station?id=159920233",
                    "web": "https://nxtb.it/p/159920233"
                },
                "short_name": "49244",
                "station_id": "159920233",
                "vehicle_types_available": [
                    {
                        "count": 5,
                        "vehicle_type_id": "254"
                    }
                ]
            },
            "type": "Feature"
        },
        {
            "geometry": {
                "coordinates": [
                    15.876832,
                    49.226064
                ],
                "type": "Point"
            },
            "properties": {
                "is_installed": true,
                "is_renting": true,
                "is_returning": true,
                "is_virtual_station": false,
                "last_reported": 1789275707,
                "name": "Marie Majerov\u00e9 - Billa",
                "num_bikes_available": 0,
                "num_docks_available": 0,
                "region_id": "863",
                "rental_uris": {
                    "android": "https://app.nextbike.net/station?id=159920565",
                    "ios": "https://app.nextbike.net/station?id=159920565",
                    "web": "https://nxtb.it/p/159920565"
                },
                "short_name": "49246",
                "station_id": "159920565",
                "vehicle_types_available": []
            },
            "type": "Feature"
        },
        {
            "geometry": {
                "coordinates": [
                    15.887222,
                    49.220937
                ],
                "type": "Point"
            },
            "properties": {
                "is_installed": true,
                "is_renting": true,
                "is_returning": true,
                "is_virtual_station": false,
                "last_reported": 1789275707,
                "name": "Aquapark Laguna",
                "num_bikes_available": 0,
                "num_docks_available": 0,
                "region_id": "863",
                "rental_uris": {
                    "android": "https://app.nextbike.net/station?id=159924626",
                    "ios": "https://app.nextbike.net/station?id=159924626",
                    "web": "https://nxtb.it/p/159924626"
                },
                "short_name": "49247",
                "station_id": "159924626",
                "vehicle_types_available": []
            },
            "type": "Feature"
        },
        {
            "geometry": {
                "coordinates": [
                    15.865738,
                    49.209891
                ],
                "type": "Point"
            },
            "properties": {
                "is_installed": true,
                "is_renting": true,
                "is_returning": true,
                "is_virtual_station": false,
                "last_reported": 1789275707,
                "name": "D\u011blnick\u00e9 n\u00e1m\u011bst\u00ed",
                "num_bikes_available": 1,
                "num_docks_available": 0,
                "region_id": "863",
                "rental_uris": {
                    "android": "https://app.nextbike.net/station?id=159926163",
                    "ios": "https://app.nextbike.net/station?id=159926163",
                    "web": "https://nxtb.it/p/159926163"
                },
                "short_name": "49248",
                "station_id": "159926163",
                "vehicle_types_available": [
                    {
                        "count": 1,
                        "vehicle_type_id": "254"
                    }
                ]
            },
            "type": "Feature"
        },
        {
            "geometry": {
                "coordinates": [
                    15.8623,
                    49.209404
                ],
                "type": "Point"
            },
            "properties": {
                "is_installed": true,
                "is_renting": true,
                "is_returning": true,
                "is_virtual_station": false,
                "last_reported": 1789275707,
                "name": "U Kapli\u010dky",
                "num_bikes_available": 0,
                "num_docks_available": 0,
                "region_id": "863",
                "rental_uris": {
                    "android": "https://app.nextbike.net/station?id=159927104",
                    "ios": "https://app.nextbike.net/station?id=159927104",
                    "web": "https://nxtb.it/p/159927104"
                },
                "short_name": "49249",
                "station_id": "159927104",
                "vehicle_types_available": []
            },
            "type": "Feature"
        },
        {
            "geometry": {
                "coordinates": [
                    15.891009,
                    49.224373
                ],
                "type": "Point"
            },
            "properties": {
                "is_installed": true,
                "is_renting": true,
                "is_returning": true,
                "is_virtual_station": false,
                "last_reported": 1789275707,
                "name": "St\u0159edn\u00ed pr\u016fmyslov\u00e1 \u0161kola",
                "num_bikes_available": 0,
                "num_docks_available": 0,
                "region_id": "863",
                "rental_uris": {
                    "android": "https://app.nextbike.net/station?id=159932795",
                    "ios": "https://app.nextbike.net/station?id=159932795",
                    "web": "https://nxtb.it/p/159932795"
                },
                "short_name": "49252",
                "station_id": "159932795",
                "vehicle_types_available": []
            },
            "type": "Feature"
        },
        {
            "geometry": {
                "coordinates": [
                    15.845788,
                    49.206236
                ],
                "type": "Point"
            },
            "properties": {
                "is_installed": true,
                "is_renting": true,
                "is_returning": true,
                "is_virtual_station": false,
                "last_reported": 1789275707,
                "name": "Okru\u017en\u00ed",
                "num_bikes_available": 7,
                "num_docks_available": 0,
                "region_id": "863",
                "rental_uris": {
                    "android": "https://app.nextbike.net/station?id=160411850",
                    "ios": "https://app.nextbike.net/station?id=160411850",
                    "web": "https://nxtb.it/p/160411850"
                },
                "short_name": "49253",
                "station_id": "160411850",
                "vehicle_types_available": [
                    {
                        "count": 7,
                        "vehicle_type_id": "254"
                    }
                ]
            },
            "type": "Feature"
        },
        {
            "geometry": {
                "coordinates": [
                    15.865827,
                    49.211727
                ],
                "type": "Point"
            },
            "properties": {
                "is_installed": true,
                "is_renting": true,
                "is_returning": true,
                "is_virtual_station": false,
                "last_reported": 1789275707,
                "name": "Kraj\u00ed\u010dkova",
                "num_bikes_available": 4,
                "num_docks_available": 0,
                "region_id": "863",
                "rental_uris": {
                    "android": "https://app.nextbike.net/station?id=160414621",
                    "ios": "https://app.nextbike.net/station?id=160414621",
                    "web": "https://nxtb.it/p/160414621"
                },
                "short_name": "49254",
                "station_id": "160414621",
                "vehicle_types_available": [
                    {
                        "count": 4,
                        "vehicle_type_id": "254"
                    }
                ]
            },
            "type": "Feature"
        },
        {
            "geometry": {
                "coordinates": [
                    15.86678,
                    49.221352
                ],
                "type": "Point"
            },
            "properties": {
                "is_installed": true,
                "is_renting": true,
                "is_returning": true,
                "is_virtual_station": false,
                "last_reported": 1789275707,
                "name": "Ra\u010derovick\u00e1",
                "num_bikes_available": 3,
                "num_docks_available": 0,
                "region_id": "863",
                "rental_uris": {
                    "android": "https://app.nextbike.net/station?id=160417867",
                    "ios": "https://app.nextbike.net/station?id=160417867",
                    "web": "https://nxtb.it/p/160417867"
                },
                "short_name": "49255",
                "station_id": "160417867",
                "vehicle_types_available": [
                    {
                        "count": 2,
                        "vehicle_type_id": "254"
                    },
                    {
                        "count": 1,
                        "vehicle_type_id": "419"
                    }
                ]
            },
            "type": "Feature"
        },
        {
            "geometry": {
                "coordinates": [
                    15.885639,
                    49.223538
                ],
                "type": "Point"
            },
            "properties": {
                "is_installed": true,
                "is_renting": true,
                "is_returning": true,
                "is_virtual_station": false,
                "last_reported": 1789275707,
                "name": "Kapit\u00e1na Jaro\u0161e - Albert",
                "num_bikes_available": 1,
                "num_docks_available": 0,
                "region_id": "863",
                "rental_uris": {
                    "android": "https://app.nextbike.net/station?id=160418670",
                    "ios": "https://app.nextbike.net/station?id=160418670",
                    "web": "https://nxtb.it/p/160418670"
                },
                "short_name": "49256",
                "station_id": "160418670",
                "vehicle_types_available": [
                    {
                        "count": 1,
                        "vehicle_type_id": "419"
                    }
                ]
            },
            "type": "Feature"
        },
        {
            "geometry": {
                "coordinates": [
                    15.893818,
                    49.221853
                ],
                "type": "Point"
            },
            "properties": {
                "is_installed": true,
                "is_renting": true,
                "is_returning": true,
                "is_virtual_station": false,
                "last_reported": 1789275707,
                "name": "Bene\u0161ova",
                "num_bikes_available": 1,
                "num_docks_available": 0,
                "region_id": "863",
                "rental_uris": {
                    "android": "https://app.nextbike.net/station?id=160419746",
                    "ios": "https://app.nextbike.net/station?id=160419746",
                    "web": "https://nxtb.it/p/160419746"
                },
                "short_name": "49257",
                "station_id": "160419746",
                "vehicle_types_available": [
                    {
                        "count": 1,
                        "vehicle_type_id": "419"
                    }
                ]
            },
            "type": "Feature"
        },
        {
            "geometry": {
                "coordinates": [
                    15.90134,
                    49.217921
                ],
                "type": "Point"
            },
            "properties": {
                "is_installed": true,
                "is_renting": true,
                "is_returning": true,
                "is_virtual_station": false,
                "last_reported": 1789275707,
                "name": "Mod\u0159\u00ednov\u00e1 - to\u010dna",
                "num_bikes_available": 2,
                "num_docks_available": 0,
                "region_id": "863",
                "rental_uris": {
                    "android": "https://app.nextbike.net/station?id=160421298",
                    "ios": "https://app.nextbike.net/station?id=160421298",
                    "web": "https://nxtb.it/p/160421298"
                },
                "short_name": "49258",
                "station_id": "160421298",
                "vehicle_types_available": [
                    {
                        "count": 1,
                        "vehicle_type_id": "254"
                    },
                    {
                        "count": 1,
                        "vehicle_type_id": "419"
                    }
                ]
            },
            "type": "Feature"
        },
        {
            "geometry": {
                "coordinates": [
                    15.895509,
                    49.216651
                ],
                "type": "Point"
            },
            "properties": {
                "is_installed": true,
                "is_renting": true,
                "is_returning": true,
                "is_virtual_station": false,
                "last_reported": 1789275707,
                "name": "Novodvorsk\u00e1",
                "num_bikes_available": 0,
                "num_docks_available": 0,
                "region_id": "863",
                "rental_uris": {
                    "android": "https://app.nextbike.net/station?id=160423590",
                    "ios": "https://app.nextbike.net/station?id=160423590",
                    "web": "https://nxtb.it/p/160423590"
                },
                "short_name": "49259",
                "station_id": "160423590",
                "vehicle_types_available": []
            },
            "type": "Feature"
        },
        {
            "geometry": {
                "coordinates": [
                    15.895709,
                    49.215305
                ],
                "type": "Point"
            },
            "properties": {
                "is_installed": true,
                "is_renting": true,
                "is_returning": true,
                "is_virtual_station": false,
                "last_reported": 1789275707,
                "name": "Brn\u011bnsk\u00e1 - Kaufland",
                "num_bikes_available": 4,
                "num_docks_available": 0,
                "region_id": "863",
                "rental_uris": {
                    "android": "https://app.nextbike.net/station?id=160424057",
                    "ios": "https://app.nextbike.net/station?id=160424057",
                    "web": "https://nxtb.it/p/160424057"
                },
                "short_name": "49260",
                "station_id": "160424057",
                "vehicle_types_available": [
                    {
                        "count": 4,
                        "vehicle_type_id": "254"
                    }
                ]
            },
            "type": "Feature"
        },
        {
            "geometry": {
                "coordinates": [
                    15.876097,
                    49.219981
                ],
                "type": "Point"
            },
            "properties": {
                "is_installed": true,
                "is_renting": true,
                "is_returning": true,
                "is_virtual_station": false,
                "last_reported": 1789275707,
                "name": "Z\u0160 T\u00fdnsk\u00e1",
                "num_bikes_available": 0,
                "num_docks_available": 0,
                "region_id": "863",
                "rental_uris": {
                    "android": "https://app.nextbike.net/station?id=160427538",
                    "ios": "https://app.nextbike.net/station?id=160427538",
                    "web": "https://nxtb.it/p/160427538"
                },
                "short_name": "49261",
                "station_id": "160427538",
                "vehicle_types_available": []
            },
            "type": "Feature"
        },
        {
            "geometry": {
                "coordinates": [
                    15.879346,
                    49.204455
                ],
                "type": "Point"
            },
            "properties": {
                "is_installed": true,
                "is_renting": true,
                "is_returning": true,
                "is_virtual_station": false,
                "last_reported": 1789275707,
                "name": "L\u00e9ka\u0159sk\u00fd d\u016fm",
                "num_bikes_available": 0,
                "num_docks_available": 0,
                "region_id": "863",
                "rental_uris": {
                    "android": "https://app.nextbike.net/station?id=171649007",
                    "ios": "https://app.nextbike.net/station?id=171649007",
                    "web": "https://nxtb.it/p/171649007"
                },
                "short_name": "49262",
                "station_id": "171649007",
                "vehicle_types_available": []
            },
            "type": "Feature"
        },
        {
            "geometry": {
                "coordinates": [
                    15.861399,
                    49.207172
                ],
                "type": "Point"
            },
            "properties": {
                "is_installed": true,
                "is_renting": true,
                "is_returning": true,
                "is_virtual_station": false,
                "last_reported": 1789275707,
                "name": "DDM",
                "num_bikes_available": 3,
                "num_docks_available": 0,
                "region_id": "863",
                "rental_uris": {
                    "android": "https://app.nextbike.net/station?id=203181314",
                    "ios": "https://app.nextbike.net/station?id=203181314",
                    "web": "https://nxtb.it/p/203181314"
                },
                "short_name": "49263",
                "station_id": "203181314",
                "vehicle_types_available": [
                    {
                        "count": 3,
                        "vehicle_type_id": "254"
                    }
                ]
            },
            "type": "Feature"
        },
        {
            "geometry": {
                "coordinates": [
                    15.855144,
                    49.206779
                ],
                "type": "Point"
            },
            "properties": {
                "is_installed": true,
                "is_renting": true,
                "is_returning": true,
                "is_virtual_station": false,
                "last_reported": 1789275707,
                "name": "Ko\u017eelu\u017esk\u00e1 - mini market",
                "num_bikes_available": 1,
                "num_docks_available": 0,
                "region_id": "863",
                "rental_uris": {
                    "android": "https://app.nextbike.net/station?id=203182496",
                    "ios": "https://app.nextbike.net/station?id=203182496",
                    "web": "https://nxtb.it/p/203182496"
                },
                "short_name": "49264",
                "station_id": "203182496",
                "vehicle_types_available": [
                    {
                        "count": 1,
                        "vehicle_type_id": "254"
                    }
                ]
            },
            "type": "Feature"
        },
        {
            "geometry": {
                "coordinates": [
                    15.89108,
                    49.21086
                ],
                "type": "Point"
            },
            "properties": {
                "is_installed": true,
                "is_renting": true,
                "is_returning": true,
                "is_virtual_station": false,
                "last_reported": 1789275707,
                "name": "Riegrova",
                "num_bikes_available": 1,
                "num_docks_available": 0,
                "region_id": "863",
                "rental_uris": {
                    "android": "https://app.nextbike.net/station?id=469100753",
                    "ios": "https://app.nextbike.net/station?id=469100753",
                    "web": "https://nxtb.it/p/469100753"
                },
                "short_name": "49266",
                "station_id": "469100753",
                "vehicle_types_available": [
                    {
                        "count": 1,
                        "vehicle_type_id": "254"
                    }
                ]
            },
            "type": "Feature"
        },
        {
            "geometry": {
                "coordinates": [
                    15.87126,
                    49.2236
                ],
                "type": "Point"
            },
            "properties": {
                "is_installed": true,
                "is_renting": true,
                "is_returning": true,
                "is_virtual_station": false,
                "last_reported": 1789275707,
                "name": "T\u00e1borsk\u00e1 - COOP",
                "num_bikes_available": 1,
                "num_docks_available": 0,
                "region_id": "863",
                "rental_uris": {
                    "android": "https://app.nextbike.net/station?id=488632567",
                    "ios": "https://app.nextbike.net/station?id=488632567",
                    "web": "https://nxtb.it/p/488632567"
                },
                "short_name": "49621",
                "station_id": "488632567",
                "vehicle_types_available": [
                    {
                        "count": 1,
                        "vehicle_type_id": "419"
                    }
                ]
            },
            "type": "Feature"
        },
        {
            "geometry": {
                "coordinates": [
                    15.8641,
                    49.21731
                ],
                "type": "Point"
            },
            "properties": {
                "is_installed": true,
                "is_renting": true,
                "is_returning": true,
                "is_virtual_station": false,
                "last_reported": 1789275707,
                "name": "U Ob\u016frky",
                "num_bikes_available": 0,
                "num_docks_available": 0,
                "region_id": "863",
                "rental_uris": {
                    "android": "https://app.nextbike.net/station?id=488632592",
                    "ios": "https://app.nextbike.net/station?id=488632592",
                    "web": "https://nxtb.it/p/488632592"
                },
                "short_name": "49269",
                "station_id": "488632592",
                "vehicle_types_available": []
            },
            "type": "Feature"
        },
        {
            "geometry": {
                "coordinates": [
                    15.88574,
                    49.20418
                ],
                "type": "Point"
            },
            "properties": {
                "is_installed": true,
                "is_renting": true,
                "is_returning": true,
                "is_virtual_station": false,
                "last_reported": 1789275707,
                "name": "Na Hv\u011bzd\u011b",
                "num_bikes_available": 0,
                "num_docks_available": 0,
                "region_id": "863",
                "rental_uris": {
                    "android": "https://app.nextbike.net/station?id=561353264",
                    "ios": "https://app.nextbike.net/station?id=561353264",
                    "web": "https://nxtb.it/p/561353264"
                },
                "short_name": "48750",
                "station_id": "561353264",
                "vehicle_types_available": []
            },
            "type": "Feature"
        },
        {
            "geometry": {
                "coordinates": [
                    15.88956,
                    49.21499
                ],
                "type": "Point"
            },
            "properties": {
                "capacity": 3,
                "is_installed": true,
                "is_renting": true,
                "is_returning": true,
                "is_virtual_station": false,
                "last_reported": 1789275707,
                "name": "Cyrilometod\u011bjsk\u00e1, bus",
                "num_bikes_available": 2,
                "num_docks_available": 1,
                "region_id": "863",
                "rental_uris": {
                    "android": "https://app.nextbike.net/station?id=612035757",
                    "ios": "https://app.nextbike.net/station?id=612035757",
                    "web": "https://nxtb.it/p/612035757"
                },
                "short_name": "49729",
                "station_id": "612035757",
                "vehicle_types_available": [
                    {
                        "count": 2,
                        "vehicle_type_id": "254"
                    }
                ]
            },
            "type": "Feature"
        },
        {
            "geometry": {
                "coordinates": [
                    15.882555,
                    49.213762
                ],
                "type": "Point"
            },
            "properties": {
                "is_installed": true,
                "is_renting": true,
                "is_returning": true,
                "is_virtual_station": false,
                "last_reported": 1789275707,
                "name": "Centr\u00e1ln\u00ed \u0161koln\u00ed j\u00eddelna",
                "num_bikes_available": 0,
                "num_docks_available": 0,
                "region_id": "863",
                "rental_uris": {
                    "android": "https://app.nextbike.net/station?id=634576418",
                    "ios": "https://app.nextbike.net/station?id=634576418",
                    "web": "https://nxtb.it/p/634576418"
                },
                "short_name": "49730",
                "station_id": "634576418",
                "vehicle_types_available": []
            },
            "type": "Feature"
        },
        {
            "geometry": {
                "coordinates": [
                    15.896093,
                    49.212986
                ],
                "type": "Point"
            },
            "properties": {
                "is_installed": true,
                "is_renting": true,
                "is_returning": true,
                "is_virtual_station": false,
                "last_reported": 1789275707,
                "name": "HFK T\u0159eb\u00ed\u010d a tenisov\u00e9 kurty",
                "num_bikes_available": 2,
                "num_docks_available": 0,
                "region_id": "863",
                "rental_uris": {
                    "android": "https://app.nextbike.net/station?id=634577815",
                    "ios": "https://app.nextbike.net/station?id=634577815",
                    "web": "https://nxtb.it/p/634577815"
                },
                "short_name": "495632",
                "station_id": "634577815",
                "vehicle_types_available": [
                    {
                        "count": 2,
                        "vehicle_type_id": "254"
                    }
                ]
            },
            "type": "Feature"
        },
        {
            "geometry": {
                "coordinates": [
                    15.878455,
                    49.215507
                ],
                "type": "Point"
            },
            "properties": {
                "is_installed": true,
                "is_renting": true,
                "is_returning": true,
                "is_virtual_station": false,
                "last_reported": 1789275707,
                "name": "Hasskova",
                "num_bikes_available": 1,
                "num_docks_available": 0,
                "region_id": "863",
                "rental_uris": {
                    "android": "https://app.nextbike.net/station?id=634578605",
                    "ios": "https://app.nextbike.net/station?id=634578605",
                    "web": "https://nxtb.it/p/634578605"
                },
                "short_name": "495634",
                "station_id": "634578605",
                "vehicle_types_available": [
                    {
                        "count": 1,
                        "vehicle_type_id": "254"
                    }
                ]
            },
            "type": "Feature"
        },
        {
            "geometry": {
                "coordinates": [
                    15.88551,
                    49.21445
                ],
                "type": "Point"
            },
            "properties": {
                "is_installed": true,
                "is_renting": true,
                "is_returning": true,
                "is_virtual_station": false,
                "last_reported": 1789275707,
                "name": "Katolick\u00e9 gymn\u00e1zium",
                "num_bikes_available": 0,
                "num_docks_available": 0,
                "region_id": "863",
                "rental_uris": {
                    "android": "https://app.nextbike.net/station?id=634579177",
                    "ios": "https://app.nextbike.net/station?id=634579177",
                    "web": "https://nxtb.it/p/634579177"
                },
                "short_name": "495633",
                "station_id": "634579177",
                "vehicle_types_available": []
            },
            "type": "Feature"
        },
        {
            "geometry": {
                "coordinates": [
                    15.89465,
                    49.218717
                ],
                "type": "Point"
            },
            "properties": {
                "is_installed": true,
                "is_renting": true,
                "is_returning": true,
                "is_virtual_station": false,
                "last_reported": 1789275707,
                "name": "M\u011bstsk\u00e1 knihovna",
                "num_bikes_available": 0,
                "num_docks_available": 0,
                "region_id": "863",
                "rental_uris": {
                    "android": "https://app.nextbike.net/station?id=644505335",
                    "ios": "https://app.nextbike.net/station?id=644505335",
                    "web": "https://nxtb.it/p/644505335"
                },
                "short_name": "49251",
                "station_id": "644505335",
                "vehicle_types_available": []
            },
            "type": "Feature"
        }
    ],
    "gbfs": {
        "station_information": {
            "last_updated": 1789275707,
            "ttl": 60,
            "version": "2.3"
        },
        "station_status": {
            "last_updated": 1789275707,
            "ttl": 60,
            "version": "2.3"
        }
    },
    "type": "FeatureCollection"
}