{
    "features": [
        {
            "geometry": {
                "coordinates": [
                    14.307541,
                    48.29253
                ],
                "type": "Point"
            },
            "properties": {
                "capacity": 10,
                "is_installed": true,
                "is_renting": true,
                "is_returning": true,
                "is_virtual_station": false,
                "last_reported": 1789296501,
                "name": "Edeltraud-Hofer-Stra\u00dfe",
                "num_bikes_available": 12,
                "num_docks_available": 0,
                "region_id": "692",
                "rental_uris": {
                    "android": "https://app.nextbike.net/station?id=382278401",
                    "ios": "https://app.nextbike.net/station?id=382278401",
                    "web": "https://nxtb.it/p/382278401"
                },
                "short_name": "41649",
                "station_id": "382278401",
                "vehicle_types_available": [
                    {
                        "count": 12,
                        "vehicle_type_id": "150"
                    }
                ]
            },
            "type": "Feature"
        },
        {
            "geometry": {
                "coordinates": [
                    14.299002,
                    48.311362
                ],
                "type": "Point"
            },
            "properties": {
                "capacity": 9,
                "is_installed": true,
                "is_renting": true,
                "is_returning": true,
                "is_virtual_station": false,
                "last_reported": 1789296501,
                "name": "Ludlgasse",
                "num_bikes_available": 9,
                "num_docks_available": 0,
                "region_id": "692",
                "rental_uris": {
                    "android": "https://app.nextbike.net/station?id=382286268",
                    "ios": "https://app.nextbike.net/station?id=382286268",
                    "web": "https://nxtb.it/p/382286268"
                },
                "short_name": "41642",
                "station_id": "382286268",
                "vehicle_types_available": [
                    {
                        "count": 9,
                        "vehicle_type_id": "150"
                    }
                ]
            },
            "type": "Feature"
        },
        {
            "geometry": {
                "coordinates": [
                    14.312946,
                    48.313162
                ],
                "type": "Point"
            },
            "properties": {
                "capacity": 9,
                "is_installed": true,
                "is_renting": true,
                "is_returning": true,
                "is_virtual_station": false,
                "last_reported": 1789296501,
                "name": "Industriezeile",
                "num_bikes_available": 10,
                "num_docks_available": 0,
                "region_id": "692",
                "rental_uris": {
                    "android": "https://app.nextbike.net/station?id=382287676",
                    "ios": "https://app.nextbike.net/station?id=382287676",
                    "web": "https://nxtb.it/p/382287676"
                },
                "short_name": "41644",
                "station_id": "382287676",
                "vehicle_types_available": [
                    {
                        "count": 10,
                        "vehicle_type_id": "150"
                    }
                ]
            },
            "type": "Feature"
        },
        {
            "geometry": {
                "coordinates": [
                    14.288616,
                    48.305403
                ],
                "type": "Point"
            },
            "properties": {
                "is_installed": true,
                "is_renting": true,
                "is_returning": true,
                "is_virtual_station": false,
                "last_reported": 1789296501,
                "name": "Domgasse",
                "num_bikes_available": 3,
                "num_docks_available": 0,
                "region_id": "692",
                "rental_uris": {
                    "android": "https://app.nextbike.net/station?id=386613198",
                    "ios": "https://app.nextbike.net/station?id=386613198",
                    "web": "https://nxtb.it/p/386613198"
                },
                "short_name": "41650",
                "station_id": "386613198",
                "vehicle_types_available": [
                    {
                        "count": 2,
                        "vehicle_type_id": "150"
                    },
                    {
                        "count": 1,
                        "vehicle_type_id": "29"
                    }
                ]
            },
            "type": "Feature"
        },
        {
            "geometry": {
                "coordinates": [
                    14.284723,
                    48.305517
                ],
                "type": "Point"
            },
            "properties": {
                "capacity": 8,
                "is_installed": true,
                "is_renting": true,
                "is_returning": true,
                "is_virtual_station": false,
                "last_reported": 1789296501,
                "name": "Alter Markt",
                "num_bikes_available": 10,
                "num_docks_available": 0,
                "region_id": "692",
                "rental_uris": {
                    "android": "https://app.nextbike.net/station?id=40710391",
                    "ios": "https://app.nextbike.net/station?id=40710391",
                    "web": "https://nxtb.it/p/40710391"
                },
                "short_name": "41600",
                "station_id": "40710391",
                "vehicle_types_available": [
                    {
                        "count": 10,
                        "vehicle_type_id": "150"
                    }
                ]
            },
            "type": "Feature"
        },
        {
            "geometry": {
                "coordinates": [
                    14.292721,
                    48.294923
                ],
                "type": "Point"
            },
            "properties": {
                "capacity": 10,
                "is_installed": true,
                "is_renting": true,
                "is_returning": true,
                "is_virtual_station": false,
                "last_reported": 1789296501,
                "name": "Am Volksgarten",
                "num_bikes_available": 2,
                "num_docks_available": 8,
                "region_id": "692",
                "rental_uris": {
                    "android": "https://app.nextbike.net/station?id=40710423",
                    "ios": "https://app.nextbike.net/station?id=40710423",
                    "web": "https://nxtb.it/p/40710423"
                },
                "short_name": "41601",
                "station_id": "40710423",
                "vehicle_types_available": [
                    {
                        "count": 2,
                        "vehicle_type_id": "150"
                    }
                ]
            },
            "type": "Feature"
        },
        {
            "geometry": {
                "coordinates": [
                    14.291205,
                    48.291216
                ],
                "type": "Point"
            },
            "properties": {
                "capacity": 13,
                "is_installed": true,
                "is_renting": true,
                "is_returning": true,
                "is_virtual_station": false,
                "last_reported": 1789296501,
                "name": "Bahnhofplatz",
                "num_bikes_available": 11,
                "num_docks_available": 2,
                "region_id": "692",
                "rental_uris": {
                    "android": "https://app.nextbike.net/station?id=40710444",
                    "ios": "https://app.nextbike.net/station?id=40710444",
                    "web": "https://nxtb.it/p/40710444"
                },
                "short_name": "41602",
                "station_id": "40710444",
                "vehicle_types_available": [
                    {
                        "count": 11,
                        "vehicle_type_id": "150"
                    }
                ]
            },
            "type": "Feature"
        },
        {
            "geometry": {
                "coordinates": [
                    14.289322,
                    48.303189
                ],
                "type": "Point"
            },
            "properties": {
                "capacity": 10,
                "is_installed": true,
                "is_renting": true,
                "is_returning": true,
                "is_virtual_station": false,
                "last_reported": 1789296501,
                "name": "Bethlehemstra\u00dfe ",
                "num_bikes_available": 9,
                "num_docks_available": 1,
                "region_id": "692",
                "rental_uris": {
                    "android": "https://app.nextbike.net/station?id=40710467",
                    "ios": "https://app.nextbike.net/station?id=40710467",
                    "web": "https://nxtb.it/p/40710467"
                },
                "short_name": "41603",
                "station_id": "40710467",
                "vehicle_types_available": [
                    {
                        "count": 9,
                        "vehicle_type_id": "150"
                    }
                ]
            },
            "type": "Feature"
        },
        {
            "geometry": {
                "coordinates": [
                    14.295369,
                    48.295463
                ],
                "type": "Point"
            },
            "properties": {
                "capacity": 10,
                "is_installed": true,
                "is_renting": true,
                "is_returning": true,
                "is_virtual_station": false,
                "last_reported": 1789296501,
                "name": "Blumauerstra\u00dfe",
                "num_bikes_available": 5,
                "num_docks_available": 5,
                "region_id": "692",
                "rental_uris": {
                    "android": "https://app.nextbike.net/station?id=40710477",
                    "ios": "https://app.nextbike.net/station?id=40710477",
                    "web": "https://nxtb.it/p/40710477"
                },
                "short_name": "41604",
                "station_id": "40710477",
                "vehicle_types_available": [
                    {
                        "count": 5,
                        "vehicle_type_id": "150"
                    }
                ]
            },
            "type": "Feature"
        },
        {
            "geometry": {
                "coordinates": [
                    14.299051,
                    48.297034
                ],
                "type": "Point"
            },
            "properties": {
                "capacity": 8,
                "is_installed": true,
                "is_renting": true,
                "is_returning": true,
                "is_virtual_station": false,
                "last_reported": 1789296501,
                "name": "Dinghoferstra\u00dfe ",
                "num_bikes_available": 6,
                "num_docks_available": 2,
                "region_id": "692",
                "rental_uris": {
                    "android": "https://app.nextbike.net/station?id=40710506",
                    "ios": "https://app.nextbike.net/station?id=40710506",
                    "web": "https://nxtb.it/p/40710506"
                },
                "short_name": "41605",
                "station_id": "40710506",
                "vehicle_types_available": [
                    {
                        "count": 6,
                        "vehicle_type_id": "150"
                    }
                ]
            },
            "type": "Feature"
        },
        {
            "geometry": {
                "coordinates": [
                    14.288913,
                    48.308325
                ],
                "type": "Point"
            },
            "properties": {
                "capacity": 8,
                "is_installed": true,
                "is_renting": true,
                "is_returning": true,
                "is_virtual_station": false,
                "last_reported": 1789296501,
                "name": "E. Koref-Promenade",
                "num_bikes_available": 4,
                "num_docks_available": 4,
                "region_id": "692",
                "rental_uris": {
                    "android": "https://app.nextbike.net/station?id=40710537",
                    "ios": "https://app.nextbike.net/station?id=40710537",
                    "web": "https://nxtb.it/p/40710537"
                },
                "short_name": "41606",
                "station_id": "40710537",
                "vehicle_types_available": [
                    {
                        "count": 4,
                        "vehicle_type_id": "150"
                    }
                ]
            },
            "type": "Feature"
        },
        {
            "geometry": {
                "coordinates": [
                    14.292881,
                    48.308668
                ],
                "type": "Point"
            },
            "properties": {
                "capacity": 8,
                "is_installed": true,
                "is_renting": true,
                "is_returning": true,
                "is_virtual_station": false,
                "last_reported": 1789296501,
                "name": "Fabrikstra\u00dfe ",
                "num_bikes_available": 3,
                "num_docks_available": 5,
                "region_id": "692",
                "rental_uris": {
                    "android": "https://app.nextbike.net/station?id=40710555",
                    "ios": "https://app.nextbike.net/station?id=40710555",
                    "web": "https://nxtb.it/p/40710555"
                },
                "short_name": "41607",
                "station_id": "40710555",
                "vehicle_types_available": [
                    {
                        "count": 3,
                        "vehicle_type_id": "150"
                    }
                ]
            },
            "type": "Feature"
        },
        {
            "geometry": {
                "coordinates": [
                    14.287499,
                    48.313245
                ],
                "type": "Point"
            },
            "properties": {
                "capacity": 10,
                "is_installed": true,
                "is_renting": true,
                "is_returning": true,
                "is_virtual_station": false,
                "last_reported": 1789296501,
                "name": "Ferihumerstra\u00dfe ",
                "num_bikes_available": 5,
                "num_docks_available": 5,
                "region_id": "692",
                "rental_uris": {
                    "android": "https://app.nextbike.net/station?id=40710568",
                    "ios": "https://app.nextbike.net/station?id=40710568",
                    "web": "https://nxtb.it/p/40710568"
                },
                "short_name": "41608",
                "station_id": "40710568",
                "vehicle_types_available": [
                    {
                        "count": 5,
                        "vehicle_type_id": "150"
                    }
                ]
            },
            "type": "Feature"
        },
        {
            "geometry": {
                "coordinates": [
                    14.288108,
                    48.2935
                ],
                "type": "Point"
            },
            "properties": {
                "capacity": 10,
                "is_installed": true,
                "is_renting": true,
                "is_returning": true,
                "is_virtual_station": false,
                "last_reported": 1789296501,
                "name": "Figulystra\u00dfe ",
                "num_bikes_available": 4,
                "num_docks_available": 6,
                "region_id": "692",
                "rental_uris": {
                    "android": "https://app.nextbike.net/station?id=40710582",
                    "ios": "https://app.nextbike.net/station?id=40710582",
                    "web": "https://nxtb.it/p/40710582"
                },
                "short_name": "41609",
                "station_id": "40710582",
                "vehicle_types_available": [
                    {
                        "count": 4,
                        "vehicle_type_id": "150"
                    }
                ]
            },
            "type": "Feature"
        },
        {
            "geometry": {
                "coordinates": [
                    14.289658,
                    48.299886
                ],
                "type": "Point"
            },
            "properties": {
                "capacity": 6,
                "is_installed": true,
                "is_renting": true,
                "is_returning": true,
                "is_virtual_station": false,
                "last_reported": 1789296501,
                "name": "Friedensplatz",
                "num_bikes_available": 0,
                "num_docks_available": 6,
                "region_id": "692",
                "rental_uris": {
                    "android": "https://app.nextbike.net/station?id=40710599",
                    "ios": "https://app.nextbike.net/station?id=40710599",
                    "web": "https://nxtb.it/p/40710599"
                },
                "short_name": "41610",
                "station_id": "40710599",
                "vehicle_types_available": []
            },
            "type": "Feature"
        },
        {
            "geometry": {
                "coordinates": [
                    14.304002,
                    48.299257
                ],
                "type": "Point"
            },
            "properties": {
                "capacity": 10,
                "is_installed": true,
                "is_renting": true,
                "is_returning": true,
                "is_virtual_station": false,
                "last_reported": 1789296501,
                "name": "Europaplatz",
                "num_bikes_available": 0,
                "num_docks_available": 10,
                "region_id": "692",
                "rental_uris": {
                    "android": "https://app.nextbike.net/station?id=40710638",
                    "ios": "https://app.nextbike.net/station?id=40710638",
                    "web": "https://nxtb.it/p/40710638"
                },
                "short_name": "41611",
                "station_id": "40710638",
                "vehicle_types_available": []
            },
            "type": "Feature"
        },
        {
            "geometry": {
                "coordinates": [
                    14.300319,
                    48.303025
                ],
                "type": "Point"
            },
            "properties": {
                "capacity": 10,
                "is_installed": true,
                "is_renting": true,
                "is_returning": true,
                "is_virtual_station": false,
                "last_reported": 1789296501,
                "name": "Gruberstra\u00dfe",
                "num_bikes_available": 0,
                "num_docks_available": 9,
                "region_id": "692",
                "rental_uris": {
                    "android": "https://app.nextbike.net/station?id=40710644",
                    "ios": "https://app.nextbike.net/station?id=40710644",
                    "web": "https://nxtb.it/p/40710644"
                },
                "short_name": "41612",
                "station_id": "40710644",
                "vehicle_types_available": []
            },
            "type": "Feature"
        },
        {
            "geometry": {
                "coordinates": [
                    14.290203,
                    48.301995
                ],
                "type": "Point"
            },
            "properties": {
                "capacity": 8,
                "is_installed": true,
                "is_renting": true,
                "is_returning": true,
                "is_virtual_station": false,
                "last_reported": 1789296501,
                "name": "Harrachstra\u00dfe-Landstra\u00dfe",
                "num_bikes_available": 5,
                "num_docks_available": 3,
                "region_id": "692",
                "rental_uris": {
                    "android": "https://app.nextbike.net/station?id=40710691",
                    "ios": "https://app.nextbike.net/station?id=40710691",
                    "web": "https://nxtb.it/p/40710691"
                },
                "short_name": "41613",
                "station_id": "40710691",
                "vehicle_types_available": [
                    {
                        "count": 5,
                        "vehicle_type_id": "150"
                    }
                ]
            },
            "type": "Feature"
        },
        {
            "geometry": {
                "coordinates": [
                    14.297983,
                    48.303513
                ],
                "type": "Point"
            },
            "properties": {
                "capacity": 10,
                "is_installed": true,
                "is_renting": true,
                "is_returning": true,
                "is_virtual_station": false,
                "last_reported": 1789296501,
                "name": "Harrachstra\u00dfe",
                "num_bikes_available": 3,
                "num_docks_available": 7,
                "region_id": "692",
                "rental_uris": {
                    "android": "https://app.nextbike.net/station?id=40710709",
                    "ios": "https://app.nextbike.net/station?id=40710709",
                    "web": "https://nxtb.it/p/40710709"
                },
                "short_name": "41614",
                "station_id": "40710709",
                "vehicle_types_available": [
                    {
                        "count": 3,
                        "vehicle_type_id": "150"
                    }
                ]
            },
            "type": "Feature"
        },
        {
            "geometry": {
                "coordinates": [
                    14.285867,
                    48.306422
                ],
                "type": "Point"
            },
            "properties": {
                "capacity": 10,
                "is_installed": true,
                "is_renting": false,
                "is_returning": false,
                "is_virtual_station": false,
                "last_reported": 1789296501,
                "name": "Hauptplatz ",
                "num_bikes_available": 20,
                "num_docks_available": 0,
                "region_id": "692",
                "rental_uris": {
                    "android": "https://app.nextbike.net/station?id=40710961",
                    "ios": "https://app.nextbike.net/station?id=40710961",
                    "web": "https://nxtb.it/p/40710961"
                },
                "short_name": "41615",
                "station_id": "40710961",
                "vehicle_types_available": [
                    {
                        "count": 20,
                        "vehicle_type_id": "150"
                    }
                ]
            },
            "type": "Feature"
        },
        {
            "geometry": {
                "coordinates": [
                    14.283313,
                    48.309444
                ],
                "type": "Point"
            },
            "properties": {
                "capacity": 10,
                "is_installed": true,
                "is_renting": true,
                "is_returning": true,
                "is_virtual_station": false,
                "last_reported": 1789296501,
                "name": "Neues Rathaus",
                "num_bikes_available": 9,
                "num_docks_available": 1,
                "region_id": "692",
                "rental_uris": {
                    "android": "https://app.nextbike.net/station?id=40710976",
                    "ios": "https://app.nextbike.net/station?id=40710976",
                    "web": "https://nxtb.it/p/40710976"
                },
                "short_name": "41616",
                "station_id": "40710976",
                "vehicle_types_available": [
                    {
                        "count": 9,
                        "vehicle_type_id": "150"
                    }
                ]
            },
            "type": "Feature"
        },
        {
            "geometry": {
                "coordinates": [
                    14.281126,
                    48.314385
                ],
                "type": "Point"
            },
            "properties": {
                "capacity": 10,
                "is_installed": true,
                "is_renting": true,
                "is_returning": true,
                "is_virtual_station": false,
                "last_reported": 1789296501,
                "name": "Hauptstra\u00dfe ",
                "num_bikes_available": 10,
                "num_docks_available": 0,
                "region_id": "692",
                "rental_uris": {
                    "android": "https://app.nextbike.net/station?id=40711044",
                    "ios": "https://app.nextbike.net/station?id=40711044",
                    "web": "https://nxtb.it/p/40711044"
                },
                "short_name": "41617",
                "station_id": "40711044",
                "vehicle_types_available": [
                    {
                        "count": 10,
                        "vehicle_type_id": "150"
                    }
                ]
            },
            "type": "Feature"
        },
        {
            "geometry": {
                "coordinates": [
                    14.287215,
                    48.300711
                ],
                "type": "Point"
            },
            "properties": {
                "capacity": 10,
                "is_installed": true,
                "is_renting": true,
                "is_returning": true,
                "is_virtual_station": false,
                "last_reported": 1789296501,
                "name": "Herrenstra\u00dfe",
                "num_bikes_available": 0,
                "num_docks_available": 10,
                "region_id": "692",
                "rental_uris": {
                    "android": "https://app.nextbike.net/station?id=40711056",
                    "ios": "https://app.nextbike.net/station?id=40711056",
                    "web": "https://nxtb.it/p/40711056"
                },
                "short_name": "41618",
                "station_id": "40711056",
                "vehicle_types_available": []
            },
            "type": "Feature"
        },
        {
            "geometry": {
                "coordinates": [
                    14.29487,
                    48.300954
                ],
                "type": "Point"
            },
            "properties": {
                "capacity": 7,
                "is_installed": true,
                "is_renting": true,
                "is_returning": true,
                "is_virtual_station": false,
                "last_reported": 1789296501,
                "name": "Hessenplatz ",
                "num_bikes_available": 12,
                "num_docks_available": 0,
                "region_id": "692",
                "rental_uris": {
                    "android": "https://app.nextbike.net/station?id=40711171",
                    "ios": "https://app.nextbike.net/station?id=40711171",
                    "web": "https://nxtb.it/p/40711171"
                },
                "short_name": "41619",
                "station_id": "40711171",
                "vehicle_types_available": [
                    {
                        "count": 12,
                        "vehicle_type_id": "150"
                    }
                ]
            },
            "type": "Feature"
        },
        {
            "geometry": {
                "coordinates": [
                    14.2983,
                    48.30588
                ],
                "type": "Point"
            },
            "properties": {
                "capacity": 10,
                "is_installed": true,
                "is_renting": true,
                "is_returning": true,
                "is_virtual_station": false,
                "last_reported": 1789296501,
                "name": "Huemerstra\u00dfe ",
                "num_bikes_available": 1,
                "num_docks_available": 8,
                "region_id": "692",
                "rental_uris": {
                    "android": "https://app.nextbike.net/station?id=40711187",
                    "ios": "https://app.nextbike.net/station?id=40711187",
                    "web": "https://nxtb.it/p/40711187"
                },
                "short_name": "41620",
                "station_id": "40711187",
                "vehicle_types_available": [
                    {
                        "count": 1,
                        "vehicle_type_id": "150"
                    }
                ]
            },
            "type": "Feature"
        },
        {
            "geometry": {
                "coordinates": [
                    14.280559,
                    48.315764
                ],
                "type": "Point"
            },
            "properties": {
                "capacity": 10,
                "is_installed": true,
                "is_renting": true,
                "is_returning": true,
                "is_virtual_station": false,
                "last_reported": 1789296501,
                "name": "Knabenseminarstra\u00dfe ",
                "num_bikes_available": 7,
                "num_docks_available": 3,
                "region_id": "692",
                "rental_uris": {
                    "android": "https://app.nextbike.net/station?id=40711199",
                    "ios": "https://app.nextbike.net/station?id=40711199",
                    "web": "https://nxtb.it/p/40711199"
                },
                "short_name": "41621",
                "station_id": "40711199",
                "vehicle_types_available": [
                    {
                        "count": 7,
                        "vehicle_type_id": "150"
                    }
                ]
            },
            "type": "Feature"
        },
        {
            "geometry": {
                "coordinates": [
                    14.305256,
                    48.302127
                ],
                "type": "Point"
            },
            "properties": {
                "capacity": 10,
                "is_installed": true,
                "is_renting": true,
                "is_returning": true,
                "is_virtual_station": false,
                "last_reported": 1789296501,
                "name": "Krankenhausstra\u00dfe ",
                "num_bikes_available": 5,
                "num_docks_available": 5,
                "region_id": "692",
                "rental_uris": {
                    "android": "https://app.nextbike.net/station?id=40711363",
                    "ios": "https://app.nextbike.net/station?id=40711363",
                    "web": "https://nxtb.it/p/40711363"
                },
                "short_name": "41622",
                "station_id": "40711363",
                "vehicle_types_available": [
                    {
                        "count": 5,
                        "vehicle_type_id": "150"
                    }
                ]
            },
            "type": "Feature"
        },
        {
            "geometry": {
                "coordinates": [
                    14.292443,
                    48.295773
                ],
                "type": "Point"
            },
            "properties": {
                "capacity": 8,
                "is_installed": true,
                "is_renting": true,
                "is_returning": true,
                "is_virtual_station": false,
                "last_reported": 1789296501,
                "name": "Landstra\u00dfe",
                "num_bikes_available": 3,
                "num_docks_available": 5,
                "region_id": "692",
                "rental_uris": {
                    "android": "https://app.nextbike.net/station?id=40711470",
                    "ios": "https://app.nextbike.net/station?id=40711470",
                    "web": "https://nxtb.it/p/40711470"
                },
                "short_name": "41623",
                "station_id": "40711470",
                "vehicle_types_available": [
                    {
                        "count": 3,
                        "vehicle_type_id": "150"
                    }
                ]
            },
            "type": "Feature"
        },
        {
            "geometry": {
                "coordinates": [
                    14.297667,
                    48.308329
                ],
                "type": "Point"
            },
            "properties": {
                "capacity": 10,
                "is_installed": true,
                "is_renting": true,
                "is_returning": true,
                "is_virtual_station": false,
                "last_reported": 1789296501,
                "name": "Lederergasse",
                "num_bikes_available": 0,
                "num_docks_available": 10,
                "region_id": "692",
                "rental_uris": {
                    "android": "https://app.nextbike.net/station?id=40711494",
                    "ios": "https://app.nextbike.net/station?id=40711494",
                    "web": "https://nxtb.it/p/40711494"
                },
                "short_name": "41624",
                "station_id": "40711494",
                "vehicle_types_available": []
            },
            "type": "Feature"
        },
        {
            "geometry": {
                "coordinates": [
                    14.300073,
                    48.300678
                ],
                "type": "Point"
            },
            "properties": {
                "capacity": 9,
                "is_installed": true,
                "is_renting": true,
                "is_returning": true,
                "is_virtual_station": false,
                "last_reported": 1789296501,
                "name": "Marktplatz",
                "num_bikes_available": 1,
                "num_docks_available": 7,
                "region_id": "692",
                "rental_uris": {
                    "android": "https://app.nextbike.net/station?id=40711532",
                    "ios": "https://app.nextbike.net/station?id=40711532",
                    "web": "https://nxtb.it/p/40711532"
                },
                "short_name": "41625",
                "station_id": "40711532",
                "vehicle_types_available": [
                    {
                        "count": 1,
                        "vehicle_type_id": "150"
                    }
                ]
            },
            "type": "Feature"
        },
        {
            "geometry": {
                "coordinates": [
                    14.280062,
                    48.311548
                ],
                "type": "Point"
            },
            "properties": {
                "capacity": 10,
                "is_installed": true,
                "is_renting": true,
                "is_returning": true,
                "is_virtual_station": false,
                "last_reported": 1789296501,
                "name": "M\u00fchlkreisbahnstra\u00dfe",
                "num_bikes_available": 17,
                "num_docks_available": 0,
                "region_id": "692",
                "rental_uris": {
                    "android": "https://app.nextbike.net/station?id=40711568",
                    "ios": "https://app.nextbike.net/station?id=40711568",
                    "web": "https://nxtb.it/p/40711568"
                },
                "short_name": "41627",
                "station_id": "40711568",
                "vehicle_types_available": [
                    {
                        "count": 17,
                        "vehicle_type_id": "150"
                    }
                ]
            },
            "type": "Feature"
        },
        {
            "geometry": {
                "coordinates": [
                    14.289578,
                    48.306352
                ],
                "type": "Point"
            },
            "properties": {
                "capacity": 10,
                "is_installed": true,
                "is_renting": true,
                "is_returning": true,
                "is_virtual_station": false,
                "last_reported": 1789296501,
                "name": "Pfarrplatz",
                "num_bikes_available": 1,
                "num_docks_available": 9,
                "region_id": "692",
                "rental_uris": {
                    "android": "https://app.nextbike.net/station?id=40711583",
                    "ios": "https://app.nextbike.net/station?id=40711583",
                    "web": "https://nxtb.it/p/40711583"
                },
                "short_name": "41628",
                "station_id": "40711583",
                "vehicle_types_available": [
                    {
                        "count": 1,
                        "vehicle_type_id": "150"
                    }
                ]
            },
            "type": "Feature"
        },
        {
            "geometry": {
                "coordinates": [
                    14.293088,
                    48.304947
                ],
                "type": "Point"
            },
            "properties": {
                "capacity": 10,
                "is_installed": true,
                "is_renting": true,
                "is_returning": true,
                "is_virtual_station": false,
                "last_reported": 1789296501,
                "name": "Pochestra\u00dfe",
                "num_bikes_available": 7,
                "num_docks_available": 3,
                "region_id": "692",
                "rental_uris": {
                    "android": "https://app.nextbike.net/station?id=40711595",
                    "ios": "https://app.nextbike.net/station?id=40711595",
                    "web": "https://nxtb.it/p/40711595"
                },
                "short_name": "41629",
                "station_id": "40711595",
                "vehicle_types_available": [
                    {
                        "count": 7,
                        "vehicle_type_id": "150"
                    }
                ]
            },
            "type": "Feature"
        },
        {
            "geometry": {
                "coordinates": [
                    14.287203,
                    48.304193
                ],
                "type": "Point"
            },
            "properties": {
                "capacity": 8,
                "is_installed": true,
                "is_renting": true,
                "is_returning": true,
                "is_virtual_station": false,
                "last_reported": 1789296501,
                "name": "Promenade ",
                "num_bikes_available": 12,
                "num_docks_available": 0,
                "region_id": "692",
                "rental_uris": {
                    "android": "https://app.nextbike.net/station?id=40711732",
                    "ios": "https://app.nextbike.net/station?id=40711732",
                    "web": "https://nxtb.it/p/40711732"
                },
                "short_name": "41630",
                "station_id": "40711732",
                "vehicle_types_available": [
                    {
                        "count": 12,
                        "vehicle_type_id": "150"
                    }
                ]
            },
            "type": "Feature"
        },
        {
            "geometry": {
                "coordinates": [
                    14.284538,
                    48.303338
                ],
                "type": "Point"
            },
            "properties": {
                "capacity": 10,
                "is_installed": true,
                "is_renting": true,
                "is_returning": true,
                "is_virtual_station": false,
                "last_reported": 1789296501,
                "name": "Klammstra\u00dfe",
                "num_bikes_available": 11,
                "num_docks_available": 0,
                "region_id": "692",
                "rental_uris": {
                    "android": "https://app.nextbike.net/station?id=40711754",
                    "ios": "https://app.nextbike.net/station?id=40711754",
                    "web": "https://nxtb.it/p/40711754"
                },
                "short_name": "41631",
                "station_id": "40711754",
                "vehicle_types_available": [
                    {
                        "count": 11,
                        "vehicle_type_id": "150"
                    }
                ]
            },
            "type": "Feature"
        },
        {
            "geometry": {
                "coordinates": [
                    14.280581,
                    48.304607
                ],
                "type": "Point"
            },
            "properties": {
                "capacity": 10,
                "is_installed": true,
                "is_renting": true,
                "is_returning": true,
                "is_virtual_station": false,
                "last_reported": 1789296501,
                "name": "R\u00f6merstra\u00dfe ",
                "num_bikes_available": 7,
                "num_docks_available": 3,
                "region_id": "692",
                "rental_uris": {
                    "android": "https://app.nextbike.net/station?id=40711782",
                    "ios": "https://app.nextbike.net/station?id=40711782",
                    "web": "https://nxtb.it/p/40711782"
                },
                "short_name": "41632",
                "station_id": "40711782",
                "vehicle_types_available": [
                    {
                        "count": 7,
                        "vehicle_type_id": "150"
                    }
                ]
            },
            "type": "Feature"
        },
        {
            "geometry": {
                "coordinates": [
                    14.290877,
                    48.297494
                ],
                "type": "Point"
            },
            "properties": {
                "capacity": 10,
                "is_installed": true,
                "is_renting": true,
                "is_returning": true,
                "is_virtual_station": false,
                "last_reported": 1789296501,
                "name": "Schillerplatz ",
                "num_bikes_available": 7,
                "num_docks_available": 3,
                "region_id": "692",
                "rental_uris": {
                    "android": "https://app.nextbike.net/station?id=40711981",
                    "ios": "https://app.nextbike.net/station?id=40711981",
                    "web": "https://nxtb.it/p/40711981"
                },
                "short_name": "41633",
                "station_id": "40711981",
                "vehicle_types_available": [
                    {
                        "count": 7,
                        "vehicle_type_id": "150"
                    }
                ]
            },
            "type": "Feature"
        },
        {
            "geometry": {
                "coordinates": [
                    14.296241,
                    48.298802
                ],
                "type": "Point"
            },
            "properties": {
                "capacity": 8,
                "is_installed": true,
                "is_renting": true,
                "is_returning": true,
                "is_virtual_station": false,
                "last_reported": 1789296501,
                "name": "Schubertstra\u00dfe ",
                "num_bikes_available": 1,
                "num_docks_available": 7,
                "region_id": "692",
                "rental_uris": {
                    "android": "https://app.nextbike.net/station?id=40711991",
                    "ios": "https://app.nextbike.net/station?id=40711991",
                    "web": "https://nxtb.it/p/40711991"
                },
                "short_name": "41634",
                "station_id": "40711991",
                "vehicle_types_available": [
                    {
                        "count": 1,
                        "vehicle_type_id": "150"
                    }
                ]
            },
            "type": "Feature"
        },
        {
            "geometry": {
                "coordinates": [
                    14.28683,
                    48.302161
                ],
                "type": "Point"
            },
            "properties": {
                "capacity": 8,
                "is_installed": true,
                "is_renting": true,
                "is_returning": true,
                "is_virtual_station": false,
                "last_reported": 1789296501,
                "name": "Spittelwiese ",
                "num_bikes_available": 1,
                "num_docks_available": 7,
                "region_id": "692",
                "rental_uris": {
                    "android": "https://app.nextbike.net/station?id=40712025",
                    "ios": "https://app.nextbike.net/station?id=40712025",
                    "web": "https://nxtb.it/p/40712025"
                },
                "short_name": "41635",
                "station_id": "40712025",
                "vehicle_types_available": [
                    {
                        "count": 1,
                        "vehicle_type_id": "150"
                    }
                ]
            },
            "type": "Feature"
        },
        {
            "geometry": {
                "coordinates": [
                    14.286804,
                    48.295649
                ],
                "type": "Point"
            },
            "properties": {
                "capacity": 8,
                "is_installed": true,
                "is_renting": true,
                "is_returning": true,
                "is_virtual_station": false,
                "last_reported": 1789296501,
                "name": "Stockhofstra\u00dfe ",
                "num_bikes_available": 1,
                "num_docks_available": 7,
                "region_id": "692",
                "rental_uris": {
                    "android": "https://app.nextbike.net/station?id=40712034",
                    "ios": "https://app.nextbike.net/station?id=40712034",
                    "web": "https://nxtb.it/p/40712034"
                },
                "short_name": "41636",
                "station_id": "40712034",
                "vehicle_types_available": [
                    {
                        "count": 1,
                        "vehicle_type_id": "150"
                    }
                ]
            },
            "type": "Feature"
        },
        {
            "geometry": {
                "coordinates": [
                    14.293853,
                    48.310395
                ],
                "type": "Point"
            },
            "properties": {
                "capacity": 10,
                "is_installed": true,
                "is_renting": true,
                "is_returning": true,
                "is_virtual_station": false,
                "last_reported": 1789296501,
                "name": "Untere Donaul\u00e4nde ",
                "num_bikes_available": 6,
                "num_docks_available": 4,
                "region_id": "692",
                "rental_uris": {
                    "android": "https://app.nextbike.net/station?id=40712054",
                    "ios": "https://app.nextbike.net/station?id=40712054",
                    "web": "https://nxtb.it/p/40712054"
                },
                "short_name": "41637",
                "station_id": "40712054",
                "vehicle_types_available": [
                    {
                        "count": 6,
                        "vehicle_type_id": "150"
                    }
                ]
            },
            "type": "Feature"
        },
        {
            "geometry": {
                "coordinates": [
                    14.28794,
                    48.297738
                ],
                "type": "Point"
            },
            "properties": {
                "capacity": 10,
                "is_installed": true,
                "is_renting": true,
                "is_returning": true,
                "is_virtual_station": false,
                "last_reported": 1789296501,
                "name": "Volksgartenstra\u00dfe ",
                "num_bikes_available": 4,
                "num_docks_available": 6,
                "region_id": "692",
                "rental_uris": {
                    "android": "https://app.nextbike.net/station?id=40712068",
                    "ios": "https://app.nextbike.net/station?id=40712068",
                    "web": "https://nxtb.it/p/40712068"
                },
                "short_name": "41638",
                "station_id": "40712068",
                "vehicle_types_available": [
                    {
                        "count": 4,
                        "vehicle_type_id": "150"
                    }
                ]
            },
            "type": "Feature"
        },
        {
            "geometry": {
                "coordinates": [
                    14.28793,
                    48.291103
                ],
                "type": "Point"
            },
            "properties": {
                "capacity": 10,
                "is_installed": true,
                "is_renting": true,
                "is_returning": true,
                "is_virtual_station": false,
                "last_reported": 1789296501,
                "name": "Weingartshofstra\u00dfe ",
                "num_bikes_available": 12,
                "num_docks_available": 0,
                "region_id": "692",
                "rental_uris": {
                    "android": "https://app.nextbike.net/station?id=40712074",
                    "ios": "https://app.nextbike.net/station?id=40712074",
                    "web": "https://nxtb.it/p/40712074"
                },
                "short_name": "41639",
                "station_id": "40712074",
                "vehicle_types_available": [
                    {
                        "count": 12,
                        "vehicle_type_id": "150"
                    }
                ]
            },
            "type": "Feature"
        },
        {
            "geometry": {
                "coordinates": [
                    14.320386,
                    48.335415
                ],
                "type": "Point"
            },
            "properties": {
                "capacity": 10,
                "is_installed": true,
                "is_renting": true,
                "is_returning": true,
                "is_virtual_station": false,
                "last_reported": 1789296501,
                "name": "JKU Kepler Hall",
                "num_bikes_available": 8,
                "num_docks_available": 2,
                "region_id": "692",
                "rental_uris": {
                    "android": "https://app.nextbike.net/station?id=48348290",
                    "ios": "https://app.nextbike.net/station?id=48348290",
                    "web": "https://nxtb.it/p/48348290"
                },
                "short_name": "41640",
                "station_id": "48348290",
                "vehicle_types_available": [
                    {
                        "count": 8,
                        "vehicle_type_id": "150"
                    }
                ]
            },
            "type": "Feature"
        },
        {
            "geometry": {
                "coordinates": [
                    14.304418,
                    48.307916
                ],
                "type": "Point"
            },
            "properties": {
                "capacity": 9,
                "is_installed": true,
                "is_renting": true,
                "is_returning": true,
                "is_virtual_station": false,
                "last_reported": 1789296501,
                "name": "Kaplanhofstra\u00dfe",
                "num_bikes_available": 8,
                "num_docks_available": 1,
                "region_id": "692",
                "rental_uris": {
                    "android": "https://app.nextbike.net/station?id=488332336",
                    "ios": "https://app.nextbike.net/station?id=488332336",
                    "web": "https://nxtb.it/p/488332336"
                },
                "short_name": "41643",
                "station_id": "488332336",
                "vehicle_types_available": [
                    {
                        "count": 8,
                        "vehicle_type_id": "150"
                    }
                ]
            },
            "type": "Feature"
        },
        {
            "geometry": {
                "coordinates": [
                    14.304487,
                    48.306188
                ],
                "type": "Point"
            },
            "properties": {
                "capacity": 7,
                "is_installed": true,
                "is_renting": true,
                "is_returning": true,
                "is_virtual_station": false,
                "last_reported": 1789296501,
                "name": "Nietzschestra\u00dfe",
                "num_bikes_available": 5,
                "num_docks_available": 2,
                "region_id": "692",
                "rental_uris": {
                    "android": "https://app.nextbike.net/station?id=488332686",
                    "ios": "https://app.nextbike.net/station?id=488332686",
                    "web": "https://nxtb.it/p/488332686"
                },
                "short_name": "41645",
                "station_id": "488332686",
                "vehicle_types_available": [
                    {
                        "count": 5,
                        "vehicle_type_id": "150"
                    }
                ]
            },
            "type": "Feature"
        },
        {
            "geometry": {
                "coordinates": [
                    14.309856,
                    48.307305
                ],
                "type": "Point"
            },
            "properties": {
                "capacity": 9,
                "is_installed": true,
                "is_renting": true,
                "is_returning": true,
                "is_virtual_station": false,
                "last_reported": 1789296501,
                "name": "Paul Hahn-Stra\u00dfe",
                "num_bikes_available": 7,
                "num_docks_available": 2,
                "region_id": "692",
                "rental_uris": {
                    "android": "https://app.nextbike.net/station?id=488333993",
                    "ios": "https://app.nextbike.net/station?id=488333993",
                    "web": "https://nxtb.it/p/488333993"
                },
                "short_name": "41646",
                "station_id": "488333993",
                "vehicle_types_available": [
                    {
                        "count": 7,
                        "vehicle_type_id": "150"
                    }
                ]
            },
            "type": "Feature"
        },
        {
            "geometry": {
                "coordinates": [
                    14.310759,
                    48.301318
                ],
                "type": "Point"
            },
            "properties": {
                "capacity": 9,
                "is_installed": true,
                "is_renting": true,
                "is_returning": true,
                "is_virtual_station": false,
                "last_reported": 1789296501,
                "name": "Garnisonstra\u00dfe",
                "num_bikes_available": 13,
                "num_docks_available": 0,
                "region_id": "692",
                "rental_uris": {
                    "android": "https://app.nextbike.net/station?id=488334318",
                    "ios": "https://app.nextbike.net/station?id=488334318",
                    "web": "https://nxtb.it/p/488334318"
                },
                "short_name": "41647",
                "station_id": "488334318",
                "vehicle_types_available": [
                    {
                        "count": 13,
                        "vehicle_type_id": "150"
                    }
                ]
            },
            "type": "Feature"
        },
        {
            "geometry": {
                "coordinates": [
                    14.313111,
                    48.29672
                ],
                "type": "Point"
            },
            "properties": {
                "capacity": 9,
                "is_installed": true,
                "is_renting": true,
                "is_returning": true,
                "is_virtual_station": false,
                "last_reported": 1789296501,
                "name": "Stieglbauernstra\u00dfe",
                "num_bikes_available": 5,
                "num_docks_available": 3,
                "region_id": "692",
                "rental_uris": {
                    "android": "https://app.nextbike.net/station?id=488334635",
                    "ios": "https://app.nextbike.net/station?id=488334635",
                    "web": "https://nxtb.it/p/488334635"
                },
                "short_name": "41648",
                "station_id": "488334635",
                "vehicle_types_available": [
                    {
                        "count": 5,
                        "vehicle_type_id": "150"
                    }
                ]
            },
            "type": "Feature"
        },
        {
            "geometry": {
                "coordinates": [
                    14.315985,
                    48.337237
                ],
                "type": "Point"
            },
            "properties": {
                "capacity": 10,
                "is_installed": true,
                "is_renting": true,
                "is_returning": true,
                "is_virtual_station": false,
                "last_reported": 1789296501,
                "name": "JKU OIC",
                "num_bikes_available": 6,
                "num_docks_available": 4,
                "region_id": "692",
                "rental_uris": {
                    "android": "https://app.nextbike.net/station?id=60284404",
                    "ios": "https://app.nextbike.net/station?id=60284404",
                    "web": "https://nxtb.it/p/60284404"
                },
                "short_name": "41641",
                "station_id": "60284404",
                "vehicle_types_available": [
                    {
                        "count": 6,
                        "vehicle_type_id": "150"
                    }
                ]
            },
            "type": "Feature"
        },
        {
            "geometry": {
                "coordinates": [
                    14.289698,
                    48.320154
                ],
                "type": "Point"
            },
            "properties": {
                "capacity": 5,
                "is_installed": true,
                "is_renting": true,
                "is_returning": true,
                "is_virtual_station": false,
                "last_reported": 1789296501,
                "name": "Linke Br\u00fcckenstra\u00dfe",
                "num_bikes_available": 1,
                "num_docks_available": 4,
                "region_id": "692",
                "rental_uris": {
                    "android": "https://app.nextbike.net/station?id=621276184",
                    "ios": "https://app.nextbike.net/station?id=621276184",
                    "web": "https://nxtb.it/p/621276184"
                },
                "short_name": "41651",
                "station_id": "621276184",
                "vehicle_types_available": [
                    {
                        "count": 1,
                        "vehicle_type_id": "150"
                    }
                ]
            },
            "type": "Feature"
        },
        {
            "geometry": {
                "coordinates": [
                    14.290394,
                    48.332373
                ],
                "type": "Point"
            },
            "properties": {
                "capacity": 7,
                "is_installed": true,
                "is_renting": true,
                "is_returning": true,
                "is_virtual_station": false,
                "last_reported": 1789296501,
                "name": "Leonfeldner Stra\u00dfe nahe 132",
                "num_bikes_available": 10,
                "num_docks_available": 0,
                "region_id": "692",
                "rental_uris": {
                    "android": "https://app.nextbike.net/station?id=621276970",
                    "ios": "https://app.nextbike.net/station?id=621276970",
                    "web": "https://nxtb.it/p/621276970"
                },
                "short_name": "41652",
                "station_id": "621276970",
                "vehicle_types_available": [
                    {
                        "count": 10,
                        "vehicle_type_id": "150"
                    }
                ]
            },
            "type": "Feature"
        },
        {
            "geometry": {
                "coordinates": [
                    14.300829,
                    48.333953
                ],
                "type": "Point"
            },
            "properties": {
                "capacity": 7,
                "is_installed": true,
                "is_renting": true,
                "is_returning": true,
                "is_virtual_station": false,
                "last_reported": 1789296501,
                "name": "Pulverm\u00fchlstra\u00dfe",
                "num_bikes_available": 4,
                "num_docks_available": 3,
                "region_id": "692",
                "rental_uris": {
                    "android": "https://app.nextbike.net/station?id=621277367",
                    "ios": "https://app.nextbike.net/station?id=621277367",
                    "web": "https://nxtb.it/p/621277367"
                },
                "short_name": "41653",
                "station_id": "621277367",
                "vehicle_types_available": [
                    {
                        "count": 4,
                        "vehicle_type_id": "150"
                    }
                ]
            },
            "type": "Feature"
        },
        {
            "geometry": {
                "coordinates": [
                    14.308532,
                    48.332696
                ],
                "type": "Point"
            },
            "properties": {
                "capacity": 7,
                "is_installed": true,
                "is_renting": true,
                "is_returning": true,
                "is_virtual_station": false,
                "last_reported": 1789296501,
                "name": "Dornacher Stra\u00dfe",
                "num_bikes_available": 18,
                "num_docks_available": 0,
                "region_id": "692",
                "rental_uris": {
                    "android": "https://app.nextbike.net/station?id=621277666",
                    "ios": "https://app.nextbike.net/station?id=621277666",
                    "web": "https://nxtb.it/p/621277666"
                },
                "short_name": "41654",
                "station_id": "621277666",
                "vehicle_types_available": [
                    {
                        "count": 18,
                        "vehicle_type_id": "150"
                    }
                ]
            },
            "type": "Feature"
        },
        {
            "geometry": {
                "coordinates": [
                    14.304644,
                    48.318602
                ],
                "type": "Point"
            },
            "properties": {
                "capacity": 7,
                "is_installed": true,
                "is_renting": true,
                "is_returning": true,
                "is_virtual_station": false,
                "last_reported": 1789296501,
                "name": "Am Winterhafen",
                "num_bikes_available": 15,
                "num_docks_available": 0,
                "region_id": "692",
                "rental_uris": {
                    "android": "https://app.nextbike.net/station?id=621277926",
                    "ios": "https://app.nextbike.net/station?id=621277926",
                    "web": "https://nxtb.it/p/621277926"
                },
                "short_name": "41655",
                "station_id": "621277926",
                "vehicle_types_available": [
                    {
                        "count": 15,
                        "vehicle_type_id": "150"
                    }
                ]
            },
            "type": "Feature"
        }
    ],
    "gbfs": {
        "station_information": {
            "last_updated": 1789296501,
            "ttl": 60,
            "version": "2.3"
        },
        "station_status": {
            "last_updated": 1789296501,
            "ttl": 60,
            "version": "2.3"
        }
    },
    "type": "FeatureCollection"
}