{
    "features": [
        {
            "geometry": {
                "coordinates": [
                    -0.17791,
                    45.6715
                ],
                "type": "Point"
            },
            "properties": {
                "capacity": 10,
                "is_charging_station": false,
                "is_installed": true,
                "is_renting": true,
                "is_returning": true,
                "is_valet_station": false,
                "is_virtual_station": false,
                "last_reported": 1789246902,
                "name": "Gare SNCF Jarnac",
                "num_bikes_available": 4,
                "num_docks_available": 6,
                "rental_uris": {
                    "android": "todo://app?sid=ciaq8q0k59geca2m8a90",
                    "ios": "todo://app?sid=ciaq8q0k59geca2m8a90"
                },
                "station_id": "ciaq8q0k59geca2m8a90",
                "vehicle_type_capacity": {
                    "1": 6,
                    "10": 0,
                    "14": 0,
                    "15": 0,
                    "2": 6,
                    "4": 6,
                    "5": 0,
                    "6": 0,
                    "7": 6
                },
                "vehicle_types_available": [
                    {
                        "count": 0,
                        "vehicle_type_id": "7"
                    },
                    {
                        "count": 0,
                        "vehicle_type_id": "1"
                    },
                    {
                        "count": 0,
                        "vehicle_type_id": "2"
                    },
                    {
                        "count": 0,
                        "vehicle_type_id": "10"
                    },
                    {
                        "count": 4,
                        "vehicle_type_id": "4"
                    }
                ]
            },
            "type": "Feature"
        },
        {
            "geometry": {
                "coordinates": [
                    -0.325847,
                    45.684779
                ],
                "type": "Point"
            },
            "properties": {
                "capacity": 10,
                "is_charging_station": true,
                "is_installed": true,
                "is_renting": true,
                "is_returning": true,
                "is_valet_station": false,
                "is_virtual_station": false,
                "last_reported": 1789246902,
                "name": "Gare SNCF Cognac",
                "num_bikes_available": 4,
                "num_docks_available": 5,
                "rental_uris": {
                    "android": "todo://app?sid=ciaq8qgk59geca2m8am0",
                    "ios": "todo://app?sid=ciaq8qgk59geca2m8am0"
                },
                "station_id": "ciaq8qgk59geca2m8am0",
                "vehicle_type_capacity": {
                    "1": 7,
                    "10": 0,
                    "14": 0,
                    "15": 0,
                    "2": 7,
                    "4": 7,
                    "5": 0,
                    "6": 0,
                    "7": 7
                },
                "vehicle_types_available": [
                    {
                        "count": 4,
                        "vehicle_type_id": "4"
                    },
                    {
                        "count": 0,
                        "vehicle_type_id": "1"
                    },
                    {
                        "count": 0,
                        "vehicle_type_id": "2"
                    },
                    {
                        "count": 0,
                        "vehicle_type_id": "7"
                    },
                    {
                        "count": 0,
                        "vehicle_type_id": "10"
                    }
                ]
            },
            "type": "Feature"
        },
        {
            "geometry": {
                "coordinates": [
                    -0.35108,
                    45.68983
                ],
                "type": "Point"
            },
            "properties": {
                "capacity": 10,
                "is_charging_station": true,
                "is_installed": true,
                "is_renting": true,
                "is_returning": true,
                "is_valet_station": false,
                "is_virtual_station": false,
                "last_reported": 1789246902,
                "name": "Cognac Borderies",
                "num_bikes_available": 12,
                "num_docks_available": 0,
                "rental_uris": {
                    "android": "todo://app?sid=ciaq8r0k59geca2m8b00",
                    "ios": "todo://app?sid=ciaq8r0k59geca2m8b00"
                },
                "station_id": "ciaq8r0k59geca2m8b00",
                "vehicle_type_capacity": {
                    "1": 0,
                    "10": 0,
                    "14": 0,
                    "15": 0,
                    "2": 0,
                    "4": 0,
                    "5": 0,
                    "6": 0,
                    "7": 0
                },
                "vehicle_types_available": [
                    {
                        "count": 0,
                        "vehicle_type_id": "2"
                    },
                    {
                        "count": 0,
                        "vehicle_type_id": "10"
                    },
                    {
                        "count": 12,
                        "vehicle_type_id": "4"
                    },
                    {
                        "count": 0,
                        "vehicle_type_id": "1"
                    },
                    {
                        "count": 0,
                        "vehicle_type_id": "7"
                    }
                ]
            },
            "type": "Feature"
        },
        {
            "geometry": {
                "coordinates": [
                    -0.32985,
                    45.69871
                ],
                "type": "Point"
            },
            "properties": {
                "capacity": 10,
                "is_charging_station": true,
                "is_installed": true,
                "is_renting": true,
                "is_returning": true,
                "is_valet_station": false,
                "is_virtual_station": false,
                "last_reported": 1789246902,
                "name": "Cognac Tour Saint-Jacques",
                "num_bikes_available": 0,
                "num_docks_available": 10,
                "rental_uris": {
                    "android": "todo://app?sid=ciaq8rgk59geca2m8b9g",
                    "ios": "todo://app?sid=ciaq8rgk59geca2m8b9g"
                },
                "station_id": "ciaq8rgk59geca2m8b9g",
                "vehicle_type_capacity": {
                    "1": 10,
                    "10": 0,
                    "14": 0,
                    "15": 0,
                    "2": 10,
                    "4": 10,
                    "5": 0,
                    "6": 0,
                    "7": 10
                },
                "vehicle_types_available": [
                    {
                        "count": 0,
                        "vehicle_type_id": "2"
                    },
                    {
                        "count": 0,
                        "vehicle_type_id": "7"
                    },
                    {
                        "count": 0,
                        "vehicle_type_id": "1"
                    },
                    {
                        "count": 0,
                        "vehicle_type_id": "4"
                    },
                    {
                        "count": 0,
                        "vehicle_type_id": "10"
                    }
                ]
            },
            "type": "Feature"
        },
        {
            "geometry": {
                "coordinates": [
                    -0.31143,
                    45.67451
                ],
                "type": "Point"
            },
            "properties": {
                "capacity": 10,
                "is_charging_station": true,
                "is_installed": true,
                "is_renting": true,
                "is_returning": true,
                "is_valet_station": false,
                "is_virtual_station": false,
                "last_reported": 1789246902,
                "name": "Cognac Le Castel",
                "num_bikes_available": 0,
                "num_docks_available": 10,
                "rental_uris": {
                    "android": "todo://app?sid=ciaq8s0k59geca2m8bog",
                    "ios": "todo://app?sid=ciaq8s0k59geca2m8bog"
                },
                "station_id": "ciaq8s0k59geca2m8bog",
                "vehicle_type_capacity": {
                    "1": 10,
                    "10": 0,
                    "14": 0,
                    "15": 0,
                    "2": 10,
                    "4": 10,
                    "5": 0,
                    "6": 0,
                    "7": 10
                },
                "vehicle_types_available": [
                    {
                        "count": 0,
                        "vehicle_type_id": "4"
                    },
                    {
                        "count": 0,
                        "vehicle_type_id": "2"
                    },
                    {
                        "count": 0,
                        "vehicle_type_id": "7"
                    },
                    {
                        "count": 0,
                        "vehicle_type_id": "10"
                    },
                    {
                        "count": 0,
                        "vehicle_type_id": "1"
                    }
                ]
            },
            "type": "Feature"
        },
        {
            "geometry": {
                "coordinates": [
                    -0.3071,
                    45.68884
                ],
                "type": "Point"
            },
            "properties": {
                "capacity": 10,
                "is_charging_station": true,
                "is_installed": true,
                "is_renting": true,
                "is_returning": true,
                "is_valet_station": false,
                "is_virtual_station": false,
                "last_reported": 1789246902,
                "name": "Cognac X'eau",
                "num_bikes_available": 2,
                "num_docks_available": 8,
                "rental_uris": {
                    "android": "todo://app?sid=ciaq8sok59geca2m8ce0",
                    "ios": "todo://app?sid=ciaq8sok59geca2m8ce0"
                },
                "station_id": "ciaq8sok59geca2m8ce0",
                "vehicle_type_capacity": {
                    "1": 8,
                    "10": 0,
                    "14": 0,
                    "15": 0,
                    "2": 8,
                    "4": 8,
                    "5": 0,
                    "6": 0,
                    "7": 8
                },
                "vehicle_types_available": [
                    {
                        "count": 0,
                        "vehicle_type_id": "2"
                    },
                    {
                        "count": 0,
                        "vehicle_type_id": "7"
                    },
                    {
                        "count": 0,
                        "vehicle_type_id": "1"
                    },
                    {
                        "count": 0,
                        "vehicle_type_id": "10"
                    },
                    {
                        "count": 2,
                        "vehicle_type_id": "4"
                    }
                ]
            },
            "type": "Feature"
        },
        {
            "geometry": {
                "coordinates": [
                    -0.3286,
                    45.69224
                ],
                "type": "Point"
            },
            "properties": {
                "capacity": 10,
                "is_charging_station": true,
                "is_installed": true,
                "is_renting": true,
                "is_returning": true,
                "is_valet_station": false,
                "is_virtual_station": false,
                "last_reported": 1789246902,
                "name": "Cognac P\u00f4le Gambetta",
                "num_bikes_available": 2,
                "num_docks_available": 8,
                "rental_uris": {
                    "android": "todo://app?sid=ciaq8tok59geca2m8d10",
                    "ios": "todo://app?sid=ciaq8tok59geca2m8d10"
                },
                "station_id": "ciaq8tok59geca2m8d10",
                "vehicle_type_capacity": {
                    "1": 9,
                    "10": 0,
                    "14": 0,
                    "15": 0,
                    "2": 9,
                    "4": 9,
                    "5": 0,
                    "6": 0,
                    "7": 9
                },
                "vehicle_types_available": [
                    {
                        "count": 0,
                        "vehicle_type_id": "1"
                    },
                    {
                        "count": 0,
                        "vehicle_type_id": "2"
                    },
                    {
                        "count": 0,
                        "vehicle_type_id": "10"
                    },
                    {
                        "count": 2,
                        "vehicle_type_id": "4"
                    },
                    {
                        "count": 0,
                        "vehicle_type_id": "7"
                    }
                ]
            },
            "type": "Feature"
        },
        {
            "geometry": {
                "coordinates": [
                    -0.17386,
                    45.67922
                ],
                "type": "Point"
            },
            "properties": {
                "capacity": 10,
                "is_charging_station": false,
                "is_installed": true,
                "is_renting": true,
                "is_returning": true,
                "is_valet_station": false,
                "is_virtual_station": false,
                "last_reported": 1789246902,
                "name": "Jarnac - Place du Ch\u00e2teau ",
                "num_bikes_available": 5,
                "num_docks_available": 5,
                "rental_uris": {
                    "android": "todo://app?sid=st_d2vuo314mrmajg30nncg",
                    "ios": "todo://app?sid=st_d2vuo314mrmajg30nncg"
                },
                "station_id": "st_d2vuo314mrmajg30nncg",
                "vehicle_type_capacity": {
                    "1": 5,
                    "10": 0,
                    "14": 0,
                    "15": 0,
                    "2": 5,
                    "4": 5,
                    "5": 0,
                    "6": 0,
                    "7": 5
                },
                "vehicle_types_available": [
                    {
                        "count": 5,
                        "vehicle_type_id": "4"
                    },
                    {
                        "count": 0,
                        "vehicle_type_id": "1"
                    },
                    {
                        "count": 0,
                        "vehicle_type_id": "2"
                    },
                    {
                        "count": 0,
                        "vehicle_type_id": "7"
                    },
                    {
                        "count": 0,
                        "vehicle_type_id": "10"
                    }
                ]
            },
            "type": "Feature"
        },
        {
            "geometry": {
                "coordinates": [
                    -0.3371,
                    45.6799
                ],
                "type": "Point"
            },
            "properties": {
                "capacity": 10,
                "is_charging_station": true,
                "is_installed": true,
                "is_renting": true,
                "is_returning": true,
                "is_valet_station": false,
                "is_virtual_station": false,
                "last_reported": 1789246902,
                "name": "Cognac Ancien H\u00f4pital",
                "num_bikes_available": 4,
                "num_docks_available": 6,
                "rental_uris": {
                    "android": "todo://app?sid=st_d72hn68ht8vs73alo5dg",
                    "ios": "todo://app?sid=st_d72hn68ht8vs73alo5dg"
                },
                "station_id": "st_d72hn68ht8vs73alo5dg",
                "vehicle_type_capacity": {
                    "1": 6,
                    "10": 0,
                    "14": 0,
                    "15": 0,
                    "2": 6,
                    "4": 6,
                    "5": 0,
                    "6": 0,
                    "7": 6
                },
                "vehicle_types_available": [
                    {
                        "count": 0,
                        "vehicle_type_id": "1"
                    },
                    {
                        "count": 0,
                        "vehicle_type_id": "7"
                    },
                    {
                        "count": 0,
                        "vehicle_type_id": "2"
                    },
                    {
                        "count": 4,
                        "vehicle_type_id": "4"
                    },
                    {
                        "count": 0,
                        "vehicle_type_id": "10"
                    }
                ]
            },
            "type": "Feature"
        },
        {
            "geometry": {
                "coordinates": [
                    -0.04359,
                    45.59842
                ],
                "type": "Point"
            },
            "properties": {
                "capacity": 10,
                "is_charging_station": false,
                "is_installed": true,
                "is_renting": false,
                "is_returning": false,
                "is_valet_station": false,
                "is_virtual_station": true,
                "last_reported": 1789246902,
                "name": "Ch\u00e2teauneuf-sur-Charente-Le Bain des Dames",
                "num_bikes_available": 0,
                "num_docks_available": 0,
                "rental_uris": {
                    "android": "todo://app?sid=st_d7pn4cacetsc73a5fth0",
                    "ios": "todo://app?sid=st_d7pn4cacetsc73a5fth0"
                },
                "station_id": "st_d7pn4cacetsc73a5fth0",
                "vehicle_type_capacity": {
                    "1": 0,
                    "10": 0,
                    "14": 0,
                    "15": 0,
                    "2": 0,
                    "4": 0,
                    "5": 0,
                    "6": 0,
                    "7": 0
                },
                "vehicle_types_available": [
                    {
                        "count": 0,
                        "vehicle_type_id": "7"
                    },
                    {
                        "count": 0,
                        "vehicle_type_id": "2"
                    },
                    {
                        "count": 0,
                        "vehicle_type_id": "10"
                    },
                    {
                        "count": 0,
                        "vehicle_type_id": "4"
                    },
                    {
                        "count": 0,
                        "vehicle_type_id": "1"
                    }
                ]
            },
            "type": "Feature"
        },
        {
            "geometry": {
                "coordinates": [
                    -0.3148,
                    45.6886
                ],
                "type": "Point"
            },
            "properties": {
                "capacity": 10,
                "is_charging_station": true,
                "is_installed": true,
                "is_renting": true,
                "is_returning": true,
                "is_valet_station": false,
                "is_virtual_station": false,
                "last_reported": 1789246902,
                "name": "Cognac-Lyc\u00e9e Delage",
                "num_bikes_available": 3,
                "num_docks_available": 7,
                "rental_uris": {
                    "android": "todo://app?sid=st_d864beg73qic73ajf5a0",
                    "ios": "todo://app?sid=st_d864beg73qic73ajf5a0"
                },
                "station_id": "st_d864beg73qic73ajf5a0",
                "vehicle_type_capacity": {
                    "1": 7,
                    "10": 0,
                    "14": 0,
                    "15": 0,
                    "2": 7,
                    "4": 7,
                    "5": 0,
                    "6": 0,
                    "7": 7
                },
                "vehicle_types_available": [
                    {
                        "count": 0,
                        "vehicle_type_id": "2"
                    },
                    {
                        "count": 0,
                        "vehicle_type_id": "7"
                    },
                    {
                        "count": 0,
                        "vehicle_type_id": "10"
                    },
                    {
                        "count": 3,
                        "vehicle_type_id": "4"
                    },
                    {
                        "count": 0,
                        "vehicle_type_id": "1"
                    }
                ]
            },
            "type": "Feature"
        },
        {
            "geometry": {
                "coordinates": [
                    -0.3185,
                    45.7
                ],
                "type": "Point"
            },
            "properties": {
                "capacity": 10,
                "is_charging_station": true,
                "is_installed": true,
                "is_renting": true,
                "is_returning": true,
                "is_valet_station": false,
                "is_virtual_station": false,
                "last_reported": 1789246902,
                "name": "Cognac-Lyc\u00e9e Jean Monnet",
                "num_bikes_available": 3,
                "num_docks_available": 7,
                "rental_uris": {
                    "android": "todo://app?sid=st_d864se1m95pc73drltu0",
                    "ios": "todo://app?sid=st_d864se1m95pc73drltu0"
                },
                "station_id": "st_d864se1m95pc73drltu0",
                "vehicle_type_capacity": {
                    "1": 7,
                    "10": 0,
                    "14": 0,
                    "15": 0,
                    "2": 7,
                    "4": 7,
                    "5": 0,
                    "6": 0,
                    "7": 7
                },
                "vehicle_types_available": [
                    {
                        "count": 3,
                        "vehicle_type_id": "4"
                    },
                    {
                        "count": 0,
                        "vehicle_type_id": "7"
                    },
                    {
                        "count": 0,
                        "vehicle_type_id": "1"
                    },
                    {
                        "count": 0,
                        "vehicle_type_id": "2"
                    },
                    {
                        "count": 0,
                        "vehicle_type_id": "10"
                    }
                ]
            },
            "type": "Feature"
        },
        {
            "geometry": {
                "coordinates": [
                    -0.2981,
                    45.6831
                ],
                "type": "Point"
            },
            "properties": {
                "capacity": 10,
                "is_charging_station": true,
                "is_installed": true,
                "is_renting": true,
                "is_returning": true,
                "is_valet_station": false,
                "is_virtual_station": false,
                "last_reported": 1789246902,
                "name": "Ch\u00e2teaubernard - P\u00f4le Sant\u00e9",
                "num_bikes_available": 1,
                "num_docks_available": 9,
                "rental_uris": {
                    "android": "todo://app?sid=st_d9jjjufk431s73chpna0",
                    "ios": "todo://app?sid=st_d9jjjufk431s73chpna0"
                },
                "station_id": "st_d9jjjufk431s73chpna0",
                "vehicle_type_capacity": {
                    "1": 9,
                    "10": 0,
                    "14": 0,
                    "15": 0,
                    "2": 9,
                    "4": 9,
                    "5": 0,
                    "6": 0,
                    "7": 9
                },
                "vehicle_types_available": [
                    {
                        "count": 0,
                        "vehicle_type_id": "10"
                    },
                    {
                        "count": 1,
                        "vehicle_type_id": "4"
                    },
                    {
                        "count": 0,
                        "vehicle_type_id": "1"
                    },
                    {
                        "count": 0,
                        "vehicle_type_id": "2"
                    },
                    {
                        "count": 0,
                        "vehicle_type_id": "7"
                    }
                ]
            },
            "type": "Feature"
        },
        {
            "geometry": {
                "coordinates": [
                    -0.325,
                    45.6958
                ],
                "type": "Point"
            },
            "properties": {
                "capacity": 10,
                "is_charging_station": false,
                "is_installed": true,
                "is_renting": false,
                "is_returning": false,
                "is_valet_station": false,
                "is_virtual_station": true,
                "last_reported": 1789246902,
                "name": "Cognac - Coup de Chauffe",
                "num_bikes_available": 0,
                "num_docks_available": 0,
                "rental_uris": {
                    "android": "todo://app?sid=st_dabti7mppnds7389qq30",
                    "ios": "todo://app?sid=st_dabti7mppnds7389qq30"
                },
                "station_id": "st_dabti7mppnds7389qq30",
                "vehicle_type_capacity": {
                    "1": 0,
                    "10": 0,
                    "14": 0,
                    "15": 0,
                    "2": 0,
                    "4": 0,
                    "5": 0,
                    "6": 0,
                    "7": 0
                },
                "vehicle_types_available": [
                    {
                        "count": 0,
                        "vehicle_type_id": "4"
                    },
                    {
                        "count": 0,
                        "vehicle_type_id": "10"
                    },
                    {
                        "count": 0,
                        "vehicle_type_id": "7"
                    },
                    {
                        "count": 0,
                        "vehicle_type_id": "1"
                    },
                    {
                        "count": 0,
                        "vehicle_type_id": "2"
                    }
                ]
            },
            "type": "Feature"
        }
    ],
    "gbfs": {
        "station_information": {
            "last_updated": 1789246932,
            "ttl": 60,
            "version": "2.2"
        },
        "station_status": {
            "last_updated": 1789246902,
            "ttl": 60,
            "version": "2.2"
        }
    },
    "type": "FeatureCollection"
}