{
    "features": [
        {
            "geometry": {
                "coordinates": [
                    -8.507216,
                    43.307001
                ],
                "type": "Point"
            },
            "properties": {
                "capacity": 16,
                "is_installed": true,
                "is_renting": true,
                "is_returning": true,
                "is_virtual_station": false,
                "last_reported": 1789282898,
                "name": "OFICINA DE TURISMO OFICINA DE TURISMO - PL SABON 30",
                "num_bikes_available": 17,
                "num_docks_available": 0,
                "region_id": "874",
                "rental_uris": {
                    "android": "https://app.nextbike.net/station?id=193706823",
                    "ios": "https://app.nextbike.net/station?id=193706823",
                    "web": "https://nxtb.it/p/193706823"
                },
                "short_name": "34453",
                "station_id": "193706823",
                "vehicle_types_available": [
                    {
                        "count": 13,
                        "vehicle_type_id": "196"
                    },
                    {
                        "count": 4,
                        "vehicle_type_id": "143"
                    }
                ]
            },
            "type": "Feature"
        },
        {
            "geometry": {
                "coordinates": [
                    -8.50775,
                    43.300558
                ],
                "type": "Point"
            },
            "properties": {
                "capacity": 14,
                "is_installed": true,
                "is_renting": true,
                "is_returning": true,
                "is_virtual_station": false,
                "last_reported": 1789282898,
                "name": "CENTRO DE SA\u00daDE - PARQUE CENTRAL CENTRO DE SA\u00daDE - PARQUE CENTRAL - CM CABALOS 1",
                "num_bikes_available": 6,
                "num_docks_available": 8,
                "region_id": "874",
                "rental_uris": {
                    "android": "https://app.nextbike.net/station?id=193708042",
                    "ios": "https://app.nextbike.net/station?id=193708042",
                    "web": "https://nxtb.it/p/193708042"
                },
                "short_name": "34454",
                "station_id": "193708042",
                "vehicle_types_available": [
                    {
                        "count": 6,
                        "vehicle_type_id": "143"
                    }
                ]
            },
            "type": "Feature"
        },
        {
            "geometry": {
                "coordinates": [
                    -8.500041,
                    43.317543
                ],
                "type": "Point"
            },
            "properties": {
                "capacity": 4,
                "is_installed": true,
                "is_renting": true,
                "is_returning": true,
                "is_virtual_station": false,
                "last_reported": 1789282898,
                "name": "P. SAB\u00d3N - AVDA. DA DEPUTACI\u00d3N P. SAB\u00d3N - AVDA. DA DEPUTACI\u00d3N - PL SABON 75",
                "num_bikes_available": 2,
                "num_docks_available": 2,
                "region_id": "874",
                "rental_uris": {
                    "android": "https://app.nextbike.net/station?id=193709273",
                    "ios": "https://app.nextbike.net/station?id=193709273",
                    "web": "https://nxtb.it/p/193709273"
                },
                "short_name": "34450",
                "station_id": "193709273",
                "vehicle_types_available": [
                    {
                        "count": 1,
                        "vehicle_type_id": "196"
                    },
                    {
                        "count": 1,
                        "vehicle_type_id": "143"
                    }
                ]
            },
            "type": "Feature"
        },
        {
            "geometry": {
                "coordinates": [
                    -8.509929,
                    43.323618
                ],
                "type": "Point"
            },
            "properties": {
                "capacity": 10,
                "is_installed": true,
                "is_renting": true,
                "is_returning": true,
                "is_virtual_station": false,
                "last_reported": 1789282898,
                "name": "PRAIA DE ALBA-SAB\u00d3N PRAIA DE ALBA-SAB\u00d3N Poligono 3 Parcela 396",
                "num_bikes_available": 5,
                "num_docks_available": 5,
                "region_id": "874",
                "rental_uris": {
                    "android": "https://app.nextbike.net/station?id=193709628",
                    "ios": "https://app.nextbike.net/station?id=193709628",
                    "web": "https://nxtb.it/p/193709628"
                },
                "short_name": "34451",
                "station_id": "193709628",
                "vehicle_types_available": [
                    {
                        "count": 5,
                        "vehicle_type_id": "196"
                    }
                ]
            },
            "type": "Feature"
        },
        {
            "geometry": {
                "coordinates": [
                    -8.48009,
                    43.316567
                ],
                "type": "Point"
            },
            "properties": {
                "capacity": 10,
                "is_installed": true,
                "is_renting": true,
                "is_returning": true,
                "is_virtual_station": false,
                "last_reported": 1789282898,
                "name": "CENTRO DE SA\u00daDE DE VILARROD\u00cdS CENTRO DE SA\u00daDE DE VILARROD\u00cdS - R\u00faa Aguceira, 2-8",
                "num_bikes_available": 9,
                "num_docks_available": 1,
                "region_id": "874",
                "rental_uris": {
                    "android": "https://app.nextbike.net/station?id=193709970",
                    "ios": "https://app.nextbike.net/station?id=193709970",
                    "web": "https://nxtb.it/p/193709970"
                },
                "short_name": "34452",
                "station_id": "193709970",
                "vehicle_types_available": [
                    {
                        "count": 6,
                        "vehicle_type_id": "196"
                    },
                    {
                        "count": 3,
                        "vehicle_type_id": "143"
                    }
                ]
            },
            "type": "Feature"
        },
        {
            "geometry": {
                "coordinates": [
                    -8.503771,
                    43.329012
                ],
                "type": "Point"
            },
            "properties": {
                "capacity": 10,
                "is_installed": true,
                "is_renting": true,
                "is_returning": true,
                "is_virtual_station": false,
                "last_reported": 1789282898,
                "name": "PRAIA DE SAB\u00d3N",
                "num_bikes_available": 7,
                "num_docks_available": 3,
                "region_id": "874",
                "rental_uris": {
                    "android": "https://app.nextbike.net/station?id=427141525",
                    "ios": "https://app.nextbike.net/station?id=427141525",
                    "web": "https://nxtb.it/p/427141525"
                },
                "short_name": "34455",
                "station_id": "427141525",
                "vehicle_types_available": [
                    {
                        "count": 3,
                        "vehicle_type_id": "196"
                    },
                    {
                        "count": 4,
                        "vehicle_type_id": "143"
                    }
                ]
            },
            "type": "Feature"
        },
        {
            "geometry": {
                "coordinates": [
                    -8.55181,
                    43.308912
                ],
                "type": "Point"
            },
            "properties": {
                "capacity": 10,
                "is_installed": true,
                "is_renting": true,
                "is_returning": true,
                "is_virtual_station": false,
                "last_reported": 1789282898,
                "name": "PRAIA DE BARRA\u00d1\u00c1N",
                "num_bikes_available": 11,
                "num_docks_available": 0,
                "region_id": "874",
                "rental_uris": {
                    "android": "https://app.nextbike.net/station?id=427141973",
                    "ios": "https://app.nextbike.net/station?id=427141973",
                    "web": "https://nxtb.it/p/427141973"
                },
                "short_name": "34456",
                "station_id": "427141973",
                "vehicle_types_available": [
                    {
                        "count": 5,
                        "vehicle_type_id": "196"
                    },
                    {
                        "count": 6,
                        "vehicle_type_id": "143"
                    }
                ]
            },
            "type": "Feature"
        },
        {
            "geometry": {
                "coordinates": [
                    -8.489304,
                    43.294193
                ],
                "type": "Point"
            },
            "properties": {
                "capacity": 4,
                "is_installed": true,
                "is_renting": true,
                "is_returning": true,
                "is_virtual_station": false,
                "last_reported": 1789282898,
                "name": "IGREXARIO DE LOUREDA",
                "num_bikes_available": 3,
                "num_docks_available": 1,
                "region_id": "874",
                "rental_uris": {
                    "android": "https://app.nextbike.net/station?id=427142505",
                    "ios": "https://app.nextbike.net/station?id=427142505",
                    "web": "https://nxtb.it/p/427142505"
                },
                "short_name": "34457",
                "station_id": "427142505",
                "vehicle_types_available": [
                    {
                        "count": 3,
                        "vehicle_type_id": "196"
                    }
                ]
            },
            "type": "Feature"
        },
        {
            "geometry": {
                "coordinates": [
                    -8.457599,
                    43.339106
                ],
                "type": "Point"
            },
            "properties": {
                "capacity": 8,
                "is_installed": true,
                "is_renting": true,
                "is_returning": true,
                "is_virtual_station": false,
                "last_reported": 1789282898,
                "name": "COMPLEXO DEPORTIVO MUNICIPAL PASTORIZA-MEICENDE",
                "num_bikes_available": 4,
                "num_docks_available": 4,
                "region_id": "874",
                "rental_uris": {
                    "android": "https://app.nextbike.net/station?id=586781258",
                    "ios": "https://app.nextbike.net/station?id=586781258",
                    "web": "https://nxtb.it/p/586781258"
                },
                "short_name": "34458",
                "station_id": "586781258",
                "vehicle_types_available": [
                    {
                        "count": 3,
                        "vehicle_type_id": "196"
                    },
                    {
                        "count": 1,
                        "vehicle_type_id": "143"
                    }
                ]
            },
            "type": "Feature"
        },
        {
            "geometry": {
                "coordinates": [
                    -8.449119,
                    43.344847
                ],
                "type": "Point"
            },
            "properties": {
                "capacity": 8,
                "is_installed": true,
                "is_renting": true,
                "is_returning": true,
                "is_virtual_station": false,
                "last_reported": 1789282898,
                "name": "CENTRO SOCIO CULTURAL MEICENDE",
                "num_bikes_available": 10,
                "num_docks_available": 0,
                "region_id": "874",
                "rental_uris": {
                    "android": "https://app.nextbike.net/station?id=586785054",
                    "ios": "https://app.nextbike.net/station?id=586785054",
                    "web": "https://nxtb.it/p/586785054"
                },
                "short_name": "34459",
                "station_id": "586785054",
                "vehicle_types_available": [
                    {
                        "count": 7,
                        "vehicle_type_id": "196"
                    },
                    {
                        "count": 3,
                        "vehicle_type_id": "143"
                    }
                ]
            },
            "type": "Feature"
        },
        {
            "geometry": {
                "coordinates": [
                    -8.463862,
                    43.333777
                ],
                "type": "Point"
            },
            "properties": {
                "capacity": 9,
                "is_installed": true,
                "is_renting": true,
                "is_returning": true,
                "is_virtual_station": false,
                "last_reported": 1789282898,
                "name": "INSTITUTO DE PASTORIZA",
                "num_bikes_available": 4,
                "num_docks_available": 5,
                "region_id": "874",
                "rental_uris": {
                    "android": "https://app.nextbike.net/station?id=586786726",
                    "ios": "https://app.nextbike.net/station?id=586786726",
                    "web": "https://nxtb.it/p/586786726"
                },
                "short_name": "34461",
                "station_id": "586786726",
                "vehicle_types_available": [
                    {
                        "count": 4,
                        "vehicle_type_id": "143"
                    }
                ]
            },
            "type": "Feature"
        },
        {
            "geometry": {
                "coordinates": [
                    -8.46836,
                    43.333844
                ],
                "type": "Point"
            },
            "properties": {
                "capacity": 9,
                "is_installed": true,
                "is_renting": true,
                "is_returning": true,
                "is_virtual_station": false,
                "last_reported": 1789282898,
                "name": "CAMPO DE FUTBOL DE PASTORIZA",
                "num_bikes_available": 2,
                "num_docks_available": 7,
                "region_id": "874",
                "rental_uris": {
                    "android": "https://app.nextbike.net/station?id=586787397",
                    "ios": "https://app.nextbike.net/station?id=586787397",
                    "web": "https://nxtb.it/p/586787397"
                },
                "short_name": "34462",
                "station_id": "586787397",
                "vehicle_types_available": [
                    {
                        "count": 1,
                        "vehicle_type_id": "196"
                    },
                    {
                        "count": 1,
                        "vehicle_type_id": "143"
                    }
                ]
            },
            "type": "Feature"
        },
        {
            "geometry": {
                "coordinates": [
                    -8.47976,
                    43.324951
                ],
                "type": "Point"
            },
            "properties": {
                "capacity": 9,
                "is_installed": true,
                "is_renting": true,
                "is_returning": true,
                "is_virtual_station": false,
                "last_reported": 1789282898,
                "name": "SOL Y MAR",
                "num_bikes_available": 4,
                "num_docks_available": 5,
                "region_id": "874",
                "rental_uris": {
                    "android": "https://app.nextbike.net/station?id=586788993",
                    "ios": "https://app.nextbike.net/station?id=586788993",
                    "web": "https://nxtb.it/p/586788993"
                },
                "short_name": "34464",
                "station_id": "586788993",
                "vehicle_types_available": [
                    {
                        "count": 4,
                        "vehicle_type_id": "196"
                    }
                ]
            },
            "type": "Feature"
        },
        {
            "geometry": {
                "coordinates": [
                    -8.444225,
                    43.34808
                ],
                "type": "Point"
            },
            "properties": {
                "capacity": 7,
                "is_installed": true,
                "is_renting": true,
                "is_returning": true,
                "is_virtual_station": false,
                "last_reported": 1789282898,
                "name": "MEICENDE N\u00b0229",
                "num_bikes_available": 12,
                "num_docks_available": 0,
                "region_id": "874",
                "rental_uris": {
                    "android": "https://app.nextbike.net/station?id=586789893",
                    "ios": "https://app.nextbike.net/station?id=586789893",
                    "web": "https://nxtb.it/p/586789893"
                },
                "short_name": "34460",
                "station_id": "586789893",
                "vehicle_types_available": [
                    {
                        "count": 1,
                        "vehicle_type_id": "196"
                    },
                    {
                        "count": 11,
                        "vehicle_type_id": "143"
                    }
                ]
            },
            "type": "Feature"
        },
        {
            "geometry": {
                "coordinates": [
                    -8.531075,
                    43.316071
                ],
                "type": "Point"
            },
            "properties": {
                "capacity": 10,
                "is_installed": true,
                "is_renting": true,
                "is_returning": true,
                "is_virtual_station": false,
                "last_reported": 1789282898,
                "name": "PRAIA DE VALCOVO",
                "num_bikes_available": 6,
                "num_docks_available": 3,
                "region_id": "874",
                "rental_uris": {
                    "android": "https://app.nextbike.net/station?id=586791204",
                    "ios": "https://app.nextbike.net/station?id=586791204",
                    "web": "https://nxtb.it/p/586791204"
                },
                "short_name": "34465",
                "station_id": "586791204",
                "vehicle_types_available": [
                    {
                        "count": 4,
                        "vehicle_type_id": "196"
                    },
                    {
                        "count": 2,
                        "vehicle_type_id": "143"
                    }
                ]
            },
            "type": "Feature"
        }
    ],
    "gbfs": {
        "station_information": {
            "last_updated": 1789282898,
            "ttl": 60,
            "version": "2.3"
        },
        "station_status": {
            "last_updated": 1789282898,
            "ttl": 60,
            "version": "2.3"
        }
    },
    "type": "FeatureCollection"
}