{
    "features": [
        {
            "geometry": {
                "coordinates": [
                    -0.42827,
                    43.10392
                ],
                "type": "Point"
            },
            "properties": {
                "capacity": 7,
                "is_charging_station": true,
                "is_installed": true,
                "is_renting": true,
                "is_returning": true,
                "is_virtual_station": false,
                "last_reported": "2026-09-26T14:09:40+02:00",
                "name": [
                    {
                        "language": "fr",
                        "text": "Arudy"
                    }
                ],
                "num_docks_available": 1,
                "num_vehicles_available": 6,
                "station_id": "745",
                "vehicle_types_available": [
                    {
                        "count": 6,
                        "vehicle_type_id": "ELECTRIC"
                    }
                ]
            },
            "type": "Feature"
        },
        {
            "geometry": {
                "coordinates": [
                    -0.456001,
                    43.14744
                ],
                "type": "Point"
            },
            "properties": {
                "capacity": 7,
                "is_charging_station": true,
                "is_installed": true,
                "is_renting": true,
                "is_returning": true,
                "is_virtual_station": false,
                "last_reported": "2026-09-26T14:09:53+02:00",
                "name": [
                    {
                        "language": "fr",
                        "text": "Gare de Buzy"
                    }
                ],
                "num_docks_available": 7,
                "num_vehicles_available": 0,
                "station_id": "746",
                "vehicle_types_available": [
                    {
                        "count": 0,
                        "vehicle_type_id": "ELECTRIC"
                    }
                ]
            },
            "type": "Feature"
        },
        {
            "geometry": {
                "coordinates": [
                    -0.427595,
                    42.984947
                ],
                "type": "Point"
            },
            "properties": {
                "capacity": 7,
                "is_charging_station": true,
                "is_installed": true,
                "is_renting": true,
                "is_returning": true,
                "is_virtual_station": false,
                "last_reported": "2026-09-26T14:09:03+02:00",
                "name": [
                    {
                        "language": "fr",
                        "text": "Laruns"
                    }
                ],
                "num_docks_available": 2,
                "num_vehicles_available": 5,
                "station_id": "747",
                "vehicle_types_available": [
                    {
                        "count": 5,
                        "vehicle_type_id": "ELECTRIC"
                    }
                ]
            },
            "type": "Feature"
        }
    ],
    "gbfs": {
        "station_information": {
            "last_updated": "2026-09-26T14:10:18.761+02:00",
            "ttl": 300,
            "version": "3.0"
        },
        "station_status": {
            "last_updated": "2026-09-26T14:10:18.773+02:00",
            "ttl": 300,
            "version": "3.0"
        }
    },
    "type": "FeatureCollection"
}