{
    "features": [
        {
            "geometry": {
                "coordinates": [
                    13.17439,
                    50.3901
                ],
                "type": "Point"
            },
            "properties": {
                "capacity": 4,
                "is_installed": true,
                "is_renting": true,
                "is_returning": true,
                "is_virtual_station": false,
                "last_reported": 1789296505,
                "name": "Aquapark - parkovi\u0161t\u011b",
                "num_bikes_available": 0,
                "num_docks_available": 4,
                "region_id": "866",
                "rental_uris": {
                    "android": "https://app.nextbike.net/station?id=155088281",
                    "ios": "https://app.nextbike.net/station?id=155088281",
                    "web": "https://nxtb.it/p/155088281"
                },
                "short_name": "48215",
                "station_id": "155088281",
                "vehicle_types_available": []
            },
            "type": "Feature"
        },
        {
            "geometry": {
                "coordinates": [
                    13.179396,
                    50.394978
                ],
                "type": "Point"
            },
            "properties": {
                "capacity": 4,
                "is_installed": true,
                "is_renting": true,
                "is_returning": true,
                "is_virtual_station": false,
                "last_reported": 1789296505,
                "name": "Dlouh\u00e1",
                "num_bikes_available": 0,
                "num_docks_available": 4,
                "region_id": "866",
                "rental_uris": {
                    "android": "https://app.nextbike.net/station?id=155088860",
                    "ios": "https://app.nextbike.net/station?id=155088860",
                    "web": "https://nxtb.it/p/155088860"
                },
                "short_name": "48217",
                "station_id": "155088860",
                "vehicle_types_available": []
            },
            "type": "Feature"
        },
        {
            "geometry": {
                "coordinates": [
                    13.19099,
                    50.3831
                ],
                "type": "Point"
            },
            "properties": {
                "capacity": 4,
                "is_installed": true,
                "is_renting": true,
                "is_returning": true,
                "is_virtual_station": false,
                "last_reported": 1789296505,
                "name": "Husova",
                "num_bikes_available": 0,
                "num_docks_available": 4,
                "region_id": "866",
                "rental_uris": {
                    "android": "https://app.nextbike.net/station?id=155089151",
                    "ios": "https://app.nextbike.net/station?id=155089151",
                    "web": "https://nxtb.it/p/155089151"
                },
                "short_name": "48218",
                "station_id": "155089151",
                "vehicle_types_available": []
            },
            "type": "Feature"
        },
        {
            "geometry": {
                "coordinates": [
                    13.187625,
                    50.387934
                ],
                "type": "Point"
            },
            "properties": {
                "capacity": 4,
                "is_installed": true,
                "is_renting": true,
                "is_returning": true,
                "is_virtual_station": false,
                "last_reported": 1789296505,
                "name": "Kr\u00e1lov\u00e9hradeck\u00e1 - tr\u017enice",
                "num_bikes_available": 1,
                "num_docks_available": 2,
                "region_id": "866",
                "rental_uris": {
                    "android": "https://app.nextbike.net/station?id=155089425",
                    "ios": "https://app.nextbike.net/station?id=155089425",
                    "web": "https://nxtb.it/p/155089425"
                },
                "short_name": "48219",
                "station_id": "155089425",
                "vehicle_types_available": [
                    {
                        "count": 1,
                        "vehicle_type_id": "254"
                    }
                ]
            },
            "type": "Feature"
        },
        {
            "geometry": {
                "coordinates": [
                    13.179077,
                    50.386418
                ],
                "type": "Point"
            },
            "properties": {
                "capacity": 4,
                "is_installed": true,
                "is_renting": true,
                "is_returning": true,
                "is_virtual_station": false,
                "last_reported": 1789296505,
                "name": "Kulturn\u00ed centrum",
                "num_bikes_available": 2,
                "num_docks_available": 2,
                "region_id": "866",
                "rental_uris": {
                    "android": "https://app.nextbike.net/station?id=155089616",
                    "ios": "https://app.nextbike.net/station?id=155089616",
                    "web": "https://nxtb.it/p/155089616"
                },
                "short_name": "48220",
                "station_id": "155089616",
                "vehicle_types_available": [
                    {
                        "count": 2,
                        "vehicle_type_id": "254"
                    }
                ]
            },
            "type": "Feature"
        },
        {
            "geometry": {
                "coordinates": [
                    13.171936,
                    50.380013
                ],
                "type": "Point"
            },
            "properties": {
                "capacity": 4,
                "is_installed": true,
                "is_renting": true,
                "is_returning": true,
                "is_virtual_station": false,
                "last_reported": 1789296505,
                "name": "Kulturn\u00ed L\u00e1ze\u0148sk\u00fd park \u2013 u nov\u00e9 st\u00e1\u010d\u00edrny",
                "num_bikes_available": 9,
                "num_docks_available": 0,
                "region_id": "866",
                "rental_uris": {
                    "android": "https://app.nextbike.net/station?id=155089779",
                    "ios": "https://app.nextbike.net/station?id=155089779",
                    "web": "https://nxtb.it/p/155089779"
                },
                "short_name": "48221",
                "station_id": "155089779",
                "vehicle_types_available": [
                    {
                        "count": 9,
                        "vehicle_type_id": "254"
                    }
                ]
            },
            "type": "Feature"
        },
        {
            "geometry": {
                "coordinates": [
                    13.196061,
                    50.385434
                ],
                "type": "Point"
            },
            "properties": {
                "capacity": 4,
                "is_installed": true,
                "is_renting": true,
                "is_returning": true,
                "is_virtual_station": false,
                "last_reported": 1789296505,
                "name": "N\u00e1dra\u017e\u00ed \u010cD",
                "num_bikes_available": 1,
                "num_docks_available": 3,
                "region_id": "866",
                "rental_uris": {
                    "android": "https://app.nextbike.net/station?id=155089972",
                    "ios": "https://app.nextbike.net/station?id=155089972",
                    "web": "https://nxtb.it/p/155089972"
                },
                "short_name": "48222",
                "station_id": "155089972",
                "vehicle_types_available": [
                    {
                        "count": 1,
                        "vehicle_type_id": "254"
                    }
                ]
            },
            "type": "Feature"
        },
        {
            "geometry": {
                "coordinates": [
                    13.171088,
                    50.384496
                ],
                "type": "Point"
            },
            "properties": {
                "capacity": 4,
                "is_installed": true,
                "is_renting": true,
                "is_returning": true,
                "is_virtual_station": false,
                "last_reported": 1789296505,
                "name": "N\u00e1m\u011bst\u00ed \u2013 u radnice",
                "num_bikes_available": 0,
                "num_docks_available": 4,
                "region_id": "866",
                "rental_uris": {
                    "android": "https://app.nextbike.net/station?id=155090118",
                    "ios": "https://app.nextbike.net/station?id=155090118",
                    "web": "https://nxtb.it/p/155090118"
                },
                "short_name": "48223",
                "station_id": "155090118",
                "vehicle_types_available": []
            },
            "type": "Feature"
        },
        {
            "geometry": {
                "coordinates": [
                    13.182371,
                    50.39034
                ],
                "type": "Point"
            },
            "properties": {
                "capacity": 4,
                "is_installed": true,
                "is_renting": true,
                "is_returning": true,
                "is_virtual_station": false,
                "last_reported": 1789296505,
                "name": "Stadion (p\u0159em\u00edst\u011bno)",
                "num_bikes_available": 1,
                "num_docks_available": 3,
                "region_id": "866",
                "rental_uris": {
                    "android": "https://app.nextbike.net/station?id=155090299",
                    "ios": "https://app.nextbike.net/station?id=155090299",
                    "web": "https://nxtb.it/p/155090299"
                },
                "short_name": "48224",
                "station_id": "155090299",
                "vehicle_types_available": [
                    {
                        "count": 1,
                        "vehicle_type_id": "254"
                    }
                ]
            },
            "type": "Feature"
        },
        {
            "geometry": {
                "coordinates": [
                    13.192405,
                    50.38558
                ],
                "type": "Point"
            },
            "properties": {
                "capacity": 4,
                "is_installed": true,
                "is_renting": true,
                "is_returning": true,
                "is_virtual_station": false,
                "last_reported": 1789296505,
                "name": "V\u00e1clava \u0158ez\u00e1\u010de - u kina",
                "num_bikes_available": 2,
                "num_docks_available": 2,
                "region_id": "866",
                "rental_uris": {
                    "android": "https://app.nextbike.net/station?id=155090474",
                    "ios": "https://app.nextbike.net/station?id=155090474",
                    "web": "https://nxtb.it/p/155090474"
                },
                "short_name": "48225",
                "station_id": "155090474",
                "vehicle_types_available": [
                    {
                        "count": 2,
                        "vehicle_type_id": "254"
                    }
                ]
            },
            "type": "Feature"
        },
        {
            "geometry": {
                "coordinates": [
                    13.1873,
                    50.3929
                ],
                "type": "Point"
            },
            "properties": {
                "capacity": 4,
                "is_installed": true,
                "is_renting": true,
                "is_returning": true,
                "is_virtual_station": false,
                "last_reported": 1789296505,
                "name": "Lesn\u00ed/V\u011btrn\u00e1",
                "num_bikes_available": 1,
                "num_docks_available": 3,
                "region_id": "866",
                "rental_uris": {
                    "android": "https://app.nextbike.net/station?id=155090608",
                    "ios": "https://app.nextbike.net/station?id=155090608",
                    "web": "https://nxtb.it/p/155090608"
                },
                "short_name": "48226",
                "station_id": "155090608",
                "vehicle_types_available": [
                    {
                        "count": 1,
                        "vehicle_type_id": "254"
                    }
                ]
            },
            "type": "Feature"
        },
        {
            "geometry": {
                "coordinates": [
                    13.18725,
                    50.395192
                ],
                "type": "Point"
            },
            "properties": {
                "capacity": 4,
                "is_installed": true,
                "is_renting": true,
                "is_returning": true,
                "is_virtual_station": false,
                "last_reported": 1789296505,
                "name": "V Z\u00e1ti\u0161\u00ed",
                "num_bikes_available": 1,
                "num_docks_available": 3,
                "region_id": "866",
                "rental_uris": {
                    "android": "https://app.nextbike.net/station?id=155090782",
                    "ios": "https://app.nextbike.net/station?id=155090782",
                    "web": "https://nxtb.it/p/155090782"
                },
                "short_name": "48227",
                "station_id": "155090782",
                "vehicle_types_available": [
                    {
                        "count": 1,
                        "vehicle_type_id": "254"
                    }
                ]
            },
            "type": "Feature"
        },
        {
            "geometry": {
                "coordinates": [
                    13.173222,
                    50.38526
                ],
                "type": "Point"
            },
            "properties": {
                "capacity": 4,
                "is_installed": true,
                "is_renting": true,
                "is_returning": true,
                "is_virtual_station": false,
                "last_reported": 1789296505,
                "name": "Z\u00e1meck\u00fd park - hlavn\u00ed br\u00e1na",
                "num_bikes_available": 7,
                "num_docks_available": 0,
                "region_id": "866",
                "rental_uris": {
                    "android": "https://app.nextbike.net/station?id=155090996",
                    "ios": "https://app.nextbike.net/station?id=155090996",
                    "web": "https://nxtb.it/p/155090996"
                },
                "short_name": "48228",
                "station_id": "155090996",
                "vehicle_types_available": [
                    {
                        "count": 6,
                        "vehicle_type_id": "254"
                    },
                    {
                        "count": 1,
                        "vehicle_type_id": "196"
                    }
                ]
            },
            "type": "Feature"
        },
        {
            "geometry": {
                "coordinates": [
                    13.182078,
                    50.391907
                ],
                "type": "Point"
            },
            "properties": {
                "capacity": 4,
                "is_installed": true,
                "is_renting": true,
                "is_returning": true,
                "is_virtual_station": false,
                "last_reported": 1789296505,
                "name": "Z\u0160 Kr\u00e1tk\u00e1",
                "num_bikes_available": 0,
                "num_docks_available": 4,
                "region_id": "866",
                "rental_uris": {
                    "android": "https://app.nextbike.net/station?id=155091168",
                    "ios": "https://app.nextbike.net/station?id=155091168",
                    "web": "https://nxtb.it/p/155091168"
                },
                "short_name": "48229",
                "station_id": "155091168",
                "vehicle_types_available": []
            },
            "type": "Feature"
        },
        {
            "geometry": {
                "coordinates": [
                    13.1789,
                    50.388827
                ],
                "type": "Point"
            },
            "properties": {
                "capacity": 4,
                "is_installed": true,
                "is_renting": true,
                "is_returning": true,
                "is_virtual_station": false,
                "last_reported": 1789296505,
                "name": "Budovatelsk\u00e1 - Panor\u00e1ma",
                "num_bikes_available": 0,
                "num_docks_available": 4,
                "region_id": "866",
                "rental_uris": {
                    "android": "https://app.nextbike.net/station?id=155091345",
                    "ios": "https://app.nextbike.net/station?id=155091345",
                    "web": "https://nxtb.it/p/155091345"
                },
                "short_name": "48216",
                "station_id": "155091345",
                "vehicle_types_available": []
            },
            "type": "Feature"
        },
        {
            "geometry": {
                "coordinates": [
                    13.1947,
                    50.38373
                ],
                "type": "Point"
            },
            "properties": {
                "capacity": 4,
                "is_installed": true,
                "is_renting": true,
                "is_returning": true,
                "is_virtual_station": false,
                "last_reported": 1789296505,
                "name": "Pra\u017esk\u00e1",
                "num_bikes_available": 1,
                "num_docks_available": 3,
                "region_id": "866",
                "rental_uris": {
                    "android": "https://app.nextbike.net/station?id=374321618",
                    "ios": "https://app.nextbike.net/station?id=374321618",
                    "web": "https://nxtb.it/p/374321618"
                },
                "short_name": "46474",
                "station_id": "374321618",
                "vehicle_types_available": [
                    {
                        "count": 1,
                        "vehicle_type_id": "254"
                    }
                ]
            },
            "type": "Feature"
        },
        {
            "geometry": {
                "coordinates": [
                    13.17103,
                    50.39581
                ],
                "type": "Point"
            },
            "properties": {
                "capacity": 4,
                "is_installed": true,
                "is_renting": true,
                "is_returning": true,
                "is_virtual_station": false,
                "last_reported": 1789296505,
                "name": "\u00dato\u010di\u0161t\u011b",
                "num_bikes_available": 0,
                "num_docks_available": 4,
                "region_id": "866",
                "rental_uris": {
                    "android": "https://app.nextbike.net/station?id=374322183",
                    "ios": "https://app.nextbike.net/station?id=374322183",
                    "web": "https://nxtb.it/p/374322183"
                },
                "short_name": "46475",
                "station_id": "374322183",
                "vehicle_types_available": []
            },
            "type": "Feature"
        },
        {
            "geometry": {
                "coordinates": [
                    13.18064,
                    50.39282
                ],
                "type": "Point"
            },
            "properties": {
                "capacity": 4,
                "is_installed": true,
                "is_renting": true,
                "is_returning": true,
                "is_virtual_station": false,
                "last_reported": 1789296505,
                "name": "Poln\u00ed - OD Centrum",
                "num_bikes_available": 1,
                "num_docks_available": 3,
                "region_id": "866",
                "rental_uris": {
                    "android": "https://app.nextbike.net/station?id=374322952",
                    "ios": "https://app.nextbike.net/station?id=374322952",
                    "web": "https://nxtb.it/p/374322952"
                },
                "short_name": "46476",
                "station_id": "374322952",
                "vehicle_types_available": [
                    {
                        "count": 1,
                        "vehicle_type_id": "254"
                    }
                ]
            },
            "type": "Feature"
        },
        {
            "geometry": {
                "coordinates": [
                    13.1906,
                    50.39025
                ],
                "type": "Point"
            },
            "properties": {
                "capacity": 4,
                "is_installed": true,
                "is_renting": true,
                "is_returning": true,
                "is_virtual_station": false,
                "last_reported": 1789296505,
                "name": "Komensk\u00e9ho (ZU\u0160)",
                "num_bikes_available": 0,
                "num_docks_available": 4,
                "region_id": "866",
                "rental_uris": {
                    "android": "https://app.nextbike.net/station?id=374323554",
                    "ios": "https://app.nextbike.net/station?id=374323554",
                    "web": "https://nxtb.it/p/374323554"
                },
                "short_name": "46477",
                "station_id": "374323554",
                "vehicle_types_available": []
            },
            "type": "Feature"
        },
        {
            "geometry": {
                "coordinates": [
                    13.1673,
                    50.3853
                ],
                "type": "Point"
            },
            "properties": {
                "capacity": 4,
                "is_installed": true,
                "is_renting": true,
                "is_returning": true,
                "is_virtual_station": false,
                "last_reported": 1789296505,
                "name": "Karlovarsk\u00e1",
                "num_bikes_available": 1,
                "num_docks_available": 3,
                "region_id": "866",
                "rental_uris": {
                    "android": "https://app.nextbike.net/station?id=374323992",
                    "ios": "https://app.nextbike.net/station?id=374323992",
                    "web": "https://nxtb.it/p/374323992"
                },
                "short_name": "46478",
                "station_id": "374323992",
                "vehicle_types_available": [
                    {
                        "count": 1,
                        "vehicle_type_id": "254"
                    }
                ]
            },
            "type": "Feature"
        },
        {
            "geometry": {
                "coordinates": [
                    13.202222,
                    50.374444
                ],
                "type": "Point"
            },
            "properties": {
                "capacity": 4,
                "is_installed": true,
                "is_renting": true,
                "is_returning": true,
                "is_virtual_station": false,
                "last_reported": 1789296505,
                "name": "Ra\u0161ovice",
                "num_bikes_available": 9,
                "num_docks_available": 0,
                "region_id": "866",
                "rental_uris": {
                    "android": "https://app.nextbike.net/station?id=518489481",
                    "ios": "https://app.nextbike.net/station?id=518489481",
                    "web": "https://nxtb.it/p/518489481"
                },
                "short_name": "46472",
                "station_id": "518489481",
                "vehicle_types_available": [
                    {
                        "count": 8,
                        "vehicle_type_id": "254"
                    },
                    {
                        "count": 1,
                        "vehicle_type_id": "196"
                    }
                ]
            },
            "type": "Feature"
        },
        {
            "geometry": {
                "coordinates": [
                    13.19322,
                    50.38753
                ],
                "type": "Point"
            },
            "properties": {
                "capacity": 4,
                "is_installed": true,
                "is_renting": true,
                "is_returning": true,
                "is_virtual_station": false,
                "last_reported": 1789296505,
                "name": "Autobusov\u00e9 n\u00e1dra\u017e\u00ed Kl\u00e1\u0161terec nad Oh\u0159\u00ed",
                "num_bikes_available": 4,
                "num_docks_available": 0,
                "region_id": "866",
                "rental_uris": {
                    "android": "https://app.nextbike.net/station?id=518489725",
                    "ios": "https://app.nextbike.net/station?id=518489725",
                    "web": "https://nxtb.it/p/518489725"
                },
                "short_name": "46471",
                "station_id": "518489725",
                "vehicle_types_available": [
                    {
                        "count": 4,
                        "vehicle_type_id": "254"
                    }
                ]
            },
            "type": "Feature"
        }
    ],
    "gbfs": {
        "station_information": {
            "last_updated": 1789296505,
            "ttl": 60,
            "version": "2.3"
        },
        "station_status": {
            "last_updated": 1789296505,
            "ttl": 60,
            "version": "2.3"
        }
    },
    "type": "FeatureCollection"
}