{
    "features": [
        {
            "geometry": {
                "coordinates": [
                    17.440368,
                    49.467931
                ],
                "type": "Point"
            },
            "properties": {
                "capacity": 4,
                "is_installed": true,
                "is_renting": true,
                "is_returning": true,
                "is_virtual_station": false,
                "last_reported": 1789285039,
                "name": "Z\u0160 Jana Amose Komensk\u00e9ho",
                "num_bikes_available": 3,
                "num_docks_available": 1,
                "region_id": "917",
                "rental_uris": {
                    "android": "https://app.nextbike.net/station?id=208066555",
                    "ios": "https://app.nextbike.net/station?id=208066555",
                    "web": "https://nxtb.it/p/208066555"
                },
                "short_name": "49136",
                "station_id": "208066555",
                "vehicle_types_available": [
                    {
                        "count": 3,
                        "vehicle_type_id": "254"
                    }
                ]
            },
            "type": "Feature"
        },
        {
            "geometry": {
                "coordinates": [
                    17.439164,
                    49.46531
                ],
                "type": "Point"
            },
            "properties": {
                "capacity": 4,
                "is_installed": true,
                "is_renting": true,
                "is_returning": true,
                "is_virtual_station": false,
                "last_reported": 1789285039,
                "name": "P\u0159edmost\u00ed \u2013 n\u00e1m\u011bst\u00ed\u010dko",
                "num_bikes_available": 8,
                "num_docks_available": 0,
                "region_id": "917",
                "rental_uris": {
                    "android": "https://app.nextbike.net/station?id=208587864",
                    "ios": "https://app.nextbike.net/station?id=208587864",
                    "web": "https://nxtb.it/p/208587864"
                },
                "short_name": "49137",
                "station_id": "208587864",
                "vehicle_types_available": [
                    {
                        "count": 8,
                        "vehicle_type_id": "254"
                    }
                ]
            },
            "type": "Feature"
        },
        {
            "geometry": {
                "coordinates": [
                    17.44529,
                    49.46348
                ],
                "type": "Point"
            },
            "properties": {
                "capacity": 4,
                "is_installed": true,
                "is_renting": true,
                "is_returning": true,
                "is_virtual_station": false,
                "last_reported": 1789285039,
                "name": "Obchodn\u00ed z\u00f3na S1 - Planeo",
                "num_bikes_available": 11,
                "num_docks_available": 0,
                "region_id": "917",
                "rental_uris": {
                    "android": "https://app.nextbike.net/station?id=208588265",
                    "ios": "https://app.nextbike.net/station?id=208588265",
                    "web": "https://nxtb.it/p/208588265"
                },
                "short_name": "49138",
                "station_id": "208588265",
                "vehicle_types_available": [
                    {
                        "count": 11,
                        "vehicle_type_id": "254"
                    }
                ]
            },
            "type": "Feature"
        },
        {
            "geometry": {
                "coordinates": [
                    17.451228,
                    49.461193
                ],
                "type": "Point"
            },
            "properties": {
                "capacity": 4,
                "is_installed": true,
                "is_renting": true,
                "is_returning": true,
                "is_virtual_station": false,
                "last_reported": 1789285039,
                "name": "Kopaniny - Racek",
                "num_bikes_available": 2,
                "num_docks_available": 2,
                "region_id": "917",
                "rental_uris": {
                    "android": "https://app.nextbike.net/station?id=208588429",
                    "ios": "https://app.nextbike.net/station?id=208588429",
                    "web": "https://nxtb.it/p/208588429"
                },
                "short_name": "49139",
                "station_id": "208588429",
                "vehicle_types_available": [
                    {
                        "count": 2,
                        "vehicle_type_id": "254"
                    }
                ]
            },
            "type": "Feature"
        },
        {
            "geometry": {
                "coordinates": [
                    17.467881,
                    49.461726
                ],
                "type": "Point"
            },
            "properties": {
                "capacity": 4,
                "is_installed": true,
                "is_renting": true,
                "is_returning": true,
                "is_virtual_station": false,
                "last_reported": 1789285039,
                "name": "Laguna - skatepark",
                "num_bikes_available": 1,
                "num_docks_available": 3,
                "region_id": "917",
                "rental_uris": {
                    "android": "https://app.nextbike.net/station?id=208588693",
                    "ios": "https://app.nextbike.net/station?id=208588693",
                    "web": "https://nxtb.it/p/208588693"
                },
                "short_name": "49140",
                "station_id": "208588693",
                "vehicle_types_available": [
                    {
                        "count": 1,
                        "vehicle_type_id": "254"
                    }
                ]
            },
            "type": "Feature"
        },
        {
            "geometry": {
                "coordinates": [
                    17.445775,
                    49.458988
                ],
                "type": "Point"
            },
            "properties": {
                "capacity": 4,
                "is_installed": true,
                "is_renting": true,
                "is_returning": true,
                "is_virtual_station": false,
                "last_reported": 1789285039,
                "name": "P\u0159erovsk\u00fd baz\u00e9n",
                "num_bikes_available": 0,
                "num_docks_available": 4,
                "region_id": "917",
                "rental_uris": {
                    "android": "https://app.nextbike.net/station?id=208589109",
                    "ios": "https://app.nextbike.net/station?id=208589109",
                    "web": "https://nxtb.it/p/208589109"
                },
                "short_name": "49141",
                "station_id": "208589109",
                "vehicle_types_available": []
            },
            "type": "Feature"
        },
        {
            "geometry": {
                "coordinates": [
                    17.444921,
                    49.45761
                ],
                "type": "Point"
            },
            "properties": {
                "capacity": 4,
                "is_installed": true,
                "is_renting": true,
                "is_returning": true,
                "is_virtual_station": false,
                "last_reported": 1789285039,
                "name": "Velk\u00e1 Dl\u00e1\u017eka - U Saliho",
                "num_bikes_available": 0,
                "num_docks_available": 3,
                "region_id": "917",
                "rental_uris": {
                    "android": "https://app.nextbike.net/station?id=208589263",
                    "ios": "https://app.nextbike.net/station?id=208589263",
                    "web": "https://nxtb.it/p/208589263"
                },
                "short_name": "49142",
                "station_id": "208589263",
                "vehicle_types_available": []
            },
            "type": "Feature"
        },
        {
            "geometry": {
                "coordinates": [
                    17.443019,
                    49.456184
                ],
                "type": "Point"
            },
            "properties": {
                "capacity": 4,
                "is_installed": true,
                "is_renting": true,
                "is_returning": true,
                "is_virtual_station": false,
                "last_reported": 1789285039,
                "name": "M\u0160 Na Odpoledni",
                "num_bikes_available": 5,
                "num_docks_available": 0,
                "region_id": "917",
                "rental_uris": {
                    "android": "https://app.nextbike.net/station?id=208589379",
                    "ios": "https://app.nextbike.net/station?id=208589379",
                    "web": "https://nxtb.it/p/208589379"
                },
                "short_name": "49143",
                "station_id": "208589379",
                "vehicle_types_available": [
                    {
                        "count": 5,
                        "vehicle_type_id": "254"
                    }
                ]
            },
            "type": "Feature"
        },
        {
            "geometry": {
                "coordinates": [
                    17.450172,
                    49.456706
                ],
                "type": "Point"
            },
            "properties": {
                "capacity": 4,
                "is_installed": true,
                "is_renting": true,
                "is_returning": true,
                "is_virtual_station": false,
                "last_reported": 1789285039,
                "name": "Na Marku",
                "num_bikes_available": 0,
                "num_docks_available": 4,
                "region_id": "917",
                "rental_uris": {
                    "android": "https://app.nextbike.net/station?id=208593123",
                    "ios": "https://app.nextbike.net/station?id=208593123",
                    "web": "https://nxtb.it/p/208593123"
                },
                "short_name": "49144",
                "station_id": "208593123",
                "vehicle_types_available": []
            },
            "type": "Feature"
        },
        {
            "geometry": {
                "coordinates": [
                    17.45409,
                    49.457432
                ],
                "type": "Point"
            },
            "properties": {
                "capacity": 4,
                "is_installed": true,
                "is_renting": true,
                "is_returning": true,
                "is_virtual_station": false,
                "last_reported": 1789285039,
                "name": "U lod\u011bnice",
                "num_bikes_available": 1,
                "num_docks_available": 3,
                "region_id": "917",
                "rental_uris": {
                    "android": "https://app.nextbike.net/station?id=208593268",
                    "ios": "https://app.nextbike.net/station?id=208593268",
                    "web": "https://nxtb.it/p/208593268"
                },
                "short_name": "49145",
                "station_id": "208593268",
                "vehicle_types_available": [
                    {
                        "count": 1,
                        "vehicle_type_id": "254"
                    }
                ]
            },
            "type": "Feature"
        },
        {
            "geometry": {
                "coordinates": [
                    17.463304,
                    49.45686
                ],
                "type": "Point"
            },
            "properties": {
                "capacity": 4,
                "is_installed": true,
                "is_renting": true,
                "is_returning": true,
                "is_virtual_station": false,
                "last_reported": 1789285039,
                "name": "L\u00e1vka u Tenisu",
                "num_bikes_available": 7,
                "num_docks_available": 0,
                "region_id": "917",
                "rental_uris": {
                    "android": "https://app.nextbike.net/station?id=208593414",
                    "ios": "https://app.nextbike.net/station?id=208593414",
                    "web": "https://nxtb.it/p/208593414"
                },
                "short_name": "49146",
                "station_id": "208593414",
                "vehicle_types_available": [
                    {
                        "count": 7,
                        "vehicle_type_id": "254"
                    }
                ]
            },
            "type": "Feature"
        },
        {
            "geometry": {
                "coordinates": [
                    17.464794,
                    49.454903
                ],
                "type": "Point"
            },
            "properties": {
                "capacity": 4,
                "is_installed": true,
                "is_renting": true,
                "is_returning": true,
                "is_virtual_station": false,
                "last_reported": 1789285039,
                "name": "Z\u0160 U Tenisu",
                "num_bikes_available": 0,
                "num_docks_available": 4,
                "region_id": "917",
                "rental_uris": {
                    "android": "https://app.nextbike.net/station?id=208593539",
                    "ios": "https://app.nextbike.net/station?id=208593539",
                    "web": "https://nxtb.it/p/208593539"
                },
                "short_name": "49147",
                "station_id": "208593539",
                "vehicle_types_available": []
            },
            "type": "Feature"
        },
        {
            "geometry": {
                "coordinates": [
                    17.449025,
                    49.454596
                ],
                "type": "Point"
            },
            "properties": {
                "capacity": 4,
                "is_installed": true,
                "is_renting": true,
                "is_returning": true,
                "is_virtual_station": false,
                "last_reported": 1789285039,
                "name": "N\u00e1m\u011bst\u00ed Tom\u00e1\u0161e Garrigua Masaryka",
                "num_bikes_available": 0,
                "num_docks_available": 4,
                "region_id": "917",
                "rental_uris": {
                    "android": "https://app.nextbike.net/station?id=208593712",
                    "ios": "https://app.nextbike.net/station?id=208593712",
                    "web": "https://nxtb.it/p/208593712"
                },
                "short_name": "49148",
                "station_id": "208593712",
                "vehicle_types_available": []
            },
            "type": "Feature"
        },
        {
            "geometry": {
                "coordinates": [
                    17.453042,
                    49.455597
                ],
                "type": "Point"
            },
            "properties": {
                "capacity": 4,
                "is_installed": true,
                "is_renting": true,
                "is_returning": true,
                "is_virtual_station": false,
                "last_reported": 1789285039,
                "name": "Pod Valy",
                "num_bikes_available": 0,
                "num_docks_available": 4,
                "region_id": "917",
                "rental_uris": {
                    "android": "https://app.nextbike.net/station?id=208593855",
                    "ios": "https://app.nextbike.net/station?id=208593855",
                    "web": "https://nxtb.it/p/208593855"
                },
                "short_name": "49149",
                "station_id": "208593855",
                "vehicle_types_available": []
            },
            "type": "Feature"
        },
        {
            "geometry": {
                "coordinates": [
                    17.471703,
                    49.455963
                ],
                "type": "Point"
            },
            "properties": {
                "capacity": 4,
                "is_installed": true,
                "is_renting": true,
                "is_returning": true,
                "is_virtual_station": false,
                "last_reported": 1789285039,
                "name": "Meopta + Nemocnice",
                "num_bikes_available": 0,
                "num_docks_available": 4,
                "region_id": "917",
                "rental_uris": {
                    "android": "https://app.nextbike.net/station?id=208594367",
                    "ios": "https://app.nextbike.net/station?id=208594367",
                    "web": "https://nxtb.it/p/208594367"
                },
                "short_name": "49150",
                "station_id": "208594367",
                "vehicle_types_available": []
            },
            "type": "Feature"
        },
        {
            "geometry": {
                "coordinates": [
                    17.445575,
                    49.453353
                ],
                "type": "Point"
            },
            "properties": {
                "capacity": 4,
                "is_installed": true,
                "is_renting": true,
                "is_returning": true,
                "is_virtual_station": false,
                "last_reported": 1789285039,
                "name": "Bratrsk\u00e1 - Magistr\u00e1t",
                "num_bikes_available": 0,
                "num_docks_available": 4,
                "region_id": "917",
                "rental_uris": {
                    "android": "https://app.nextbike.net/station?id=208594861",
                    "ios": "https://app.nextbike.net/station?id=208594861",
                    "web": "https://nxtb.it/p/208594861"
                },
                "short_name": "49151",
                "station_id": "208594861",
                "vehicle_types_available": []
            },
            "type": "Feature"
        },
        {
            "geometry": {
                "coordinates": [
                    17.44513,
                    49.451787
                ],
                "type": "Point"
            },
            "properties": {
                "capacity": 4,
                "is_installed": true,
                "is_renting": true,
                "is_returning": true,
                "is_virtual_station": false,
                "last_reported": 1789285039,
                "name": "\u017delezni\u010dn\u00ed poliklinika",
                "num_bikes_available": 0,
                "num_docks_available": 4,
                "region_id": "917",
                "rental_uris": {
                    "android": "https://app.nextbike.net/station?id=208595231",
                    "ios": "https://app.nextbike.net/station?id=208595231",
                    "web": "https://nxtb.it/p/208595231"
                },
                "short_name": "49152",
                "station_id": "208595231",
                "vehicle_types_available": []
            },
            "type": "Feature"
        },
        {
            "geometry": {
                "coordinates": [
                    17.456986,
                    49.453031
                ],
                "type": "Point"
            },
            "properties": {
                "capacity": 4,
                "is_installed": true,
                "is_renting": true,
                "is_returning": true,
                "is_virtual_station": false,
                "last_reported": 1789285039,
                "name": "Tesco - t\u0159\u00edda 17. listopadu",
                "num_bikes_available": 1,
                "num_docks_available": 3,
                "region_id": "917",
                "rental_uris": {
                    "android": "https://app.nextbike.net/station?id=208595426",
                    "ios": "https://app.nextbike.net/station?id=208595426",
                    "web": "https://nxtb.it/p/208595426"
                },
                "short_name": "49153",
                "station_id": "208595426",
                "vehicle_types_available": [
                    {
                        "count": 1,
                        "vehicle_type_id": "254"
                    }
                ]
            },
            "type": "Feature"
        },
        {
            "geometry": {
                "coordinates": [
                    17.46125,
                    49.45342
                ],
                "type": "Point"
            },
            "properties": {
                "capacity": 4,
                "is_installed": true,
                "is_renting": true,
                "is_returning": true,
                "is_virtual_station": false,
                "last_reported": 1789285039,
                "name": "Z\u0160 Tr\u00e1vn\u00edk",
                "num_bikes_available": 2,
                "num_docks_available": 2,
                "region_id": "917",
                "rental_uris": {
                    "android": "https://app.nextbike.net/station?id=208595595",
                    "ios": "https://app.nextbike.net/station?id=208595595",
                    "web": "https://nxtb.it/p/208595595"
                },
                "short_name": "49154",
                "station_id": "208595595",
                "vehicle_types_available": [
                    {
                        "count": 2,
                        "vehicle_type_id": "254"
                    }
                ]
            },
            "type": "Feature"
        },
        {
            "geometry": {
                "coordinates": [
                    17.449885,
                    49.450862
                ],
                "type": "Point"
            },
            "properties": {
                "capacity": 4,
                "is_installed": true,
                "is_renting": true,
                "is_returning": true,
                "is_virtual_station": false,
                "last_reported": 1789285039,
                "name": "Gymn\u00e1zium Jakuba \u0160kody",
                "num_bikes_available": 0,
                "num_docks_available": 4,
                "region_id": "917",
                "rental_uris": {
                    "android": "https://app.nextbike.net/station?id=208595737",
                    "ios": "https://app.nextbike.net/station?id=208595737",
                    "web": "https://nxtb.it/p/208595737"
                },
                "short_name": "49155",
                "station_id": "208595737",
                "vehicle_types_available": []
            },
            "type": "Feature"
        },
        {
            "geometry": {
                "coordinates": [
                    17.45139,
                    49.45044
                ],
                "type": "Point"
            },
            "properties": {
                "capacity": 4,
                "is_installed": true,
                "is_renting": true,
                "is_returning": true,
                "is_virtual_station": false,
                "last_reported": 1789285039,
                "name": "Smetanova",
                "num_bikes_available": 1,
                "num_docks_available": 3,
                "region_id": "917",
                "rental_uris": {
                    "android": "https://app.nextbike.net/station?id=208596159",
                    "ios": "https://app.nextbike.net/station?id=208596159",
                    "web": "https://nxtb.it/p/208596159"
                },
                "short_name": "49156",
                "station_id": "208596159",
                "vehicle_types_available": [
                    {
                        "count": 1,
                        "vehicle_type_id": "254"
                    }
                ]
            },
            "type": "Feature"
        },
        {
            "geometry": {
                "coordinates": [
                    17.454091,
                    49.450942
                ],
                "type": "Point"
            },
            "properties": {
                "capacity": 4,
                "is_installed": true,
                "is_renting": true,
                "is_returning": true,
                "is_virtual_station": false,
                "last_reported": 1789285039,
                "name": "Galerie P\u0159erov - p\u0159ed poliklinikou MENS",
                "num_bikes_available": 0,
                "num_docks_available": 4,
                "region_id": "917",
                "rental_uris": {
                    "android": "https://app.nextbike.net/station?id=208596270",
                    "ios": "https://app.nextbike.net/station?id=208596270",
                    "web": "https://nxtb.it/p/208596270"
                },
                "short_name": "49157",
                "station_id": "208596270",
                "vehicle_types_available": []
            },
            "type": "Feature"
        },
        {
            "geometry": {
                "coordinates": [
                    17.465348,
                    49.451213
                ],
                "type": "Point"
            },
            "properties": {
                "capacity": 4,
                "is_installed": true,
                "is_renting": true,
                "is_returning": true,
                "is_virtual_station": false,
                "last_reported": 1789285039,
                "name": "Klivarova - Racek",
                "num_bikes_available": 5,
                "num_docks_available": 0,
                "region_id": "917",
                "rental_uris": {
                    "android": "https://app.nextbike.net/station?id=208596452",
                    "ios": "https://app.nextbike.net/station?id=208596452",
                    "web": "https://nxtb.it/p/208596452"
                },
                "short_name": "49158",
                "station_id": "208596452",
                "vehicle_types_available": [
                    {
                        "count": 5,
                        "vehicle_type_id": "254"
                    }
                ]
            },
            "type": "Feature"
        },
        {
            "geometry": {
                "coordinates": [
                    17.469673,
                    49.45251
                ],
                "type": "Point"
            },
            "properties": {
                "capacity": 4,
                "is_installed": true,
                "is_renting": true,
                "is_returning": true,
                "is_virtual_station": false,
                "last_reported": 1789285039,
                "name": "Optick\u00e1 - u Hru\u0161ky",
                "num_bikes_available": 1,
                "num_docks_available": 3,
                "region_id": "917",
                "rental_uris": {
                    "android": "https://app.nextbike.net/station?id=208596837",
                    "ios": "https://app.nextbike.net/station?id=208596837",
                    "web": "https://nxtb.it/p/208596837"
                },
                "short_name": "49159",
                "station_id": "208596837",
                "vehicle_types_available": [
                    {
                        "count": 1,
                        "vehicle_type_id": "254"
                    }
                ]
            },
            "type": "Feature"
        },
        {
            "geometry": {
                "coordinates": [
                    17.468394,
                    49.450706
                ],
                "type": "Point"
            },
            "properties": {
                "capacity": 4,
                "is_installed": true,
                "is_renting": true,
                "is_returning": true,
                "is_virtual_station": false,
                "last_reported": 1789285039,
                "name": "\u017delatovsk\u00e1",
                "num_bikes_available": 0,
                "num_docks_available": 4,
                "region_id": "917",
                "rental_uris": {
                    "android": "https://app.nextbike.net/station?id=208596950",
                    "ios": "https://app.nextbike.net/station?id=208596950",
                    "web": "https://nxtb.it/p/208596950"
                },
                "short_name": "49160",
                "station_id": "208596950",
                "vehicle_types_available": []
            },
            "type": "Feature"
        },
        {
            "geometry": {
                "coordinates": [
                    17.446419,
                    49.447197
                ],
                "type": "Point"
            },
            "properties": {
                "capacity": 4,
                "is_installed": true,
                "is_renting": true,
                "is_returning": true,
                "is_virtual_station": false,
                "last_reported": 1789285039,
                "name": "N\u00e1dra\u017e\u00ed",
                "num_bikes_available": 2,
                "num_docks_available": 1,
                "region_id": "917",
                "rental_uris": {
                    "android": "https://app.nextbike.net/station?id=208597276",
                    "ios": "https://app.nextbike.net/station?id=208597276",
                    "web": "https://nxtb.it/p/208597276"
                },
                "short_name": "49161",
                "station_id": "208597276",
                "vehicle_types_available": [
                    {
                        "count": 2,
                        "vehicle_type_id": "254"
                    }
                ]
            },
            "type": "Feature"
        },
        {
            "geometry": {
                "coordinates": [
                    17.472716,
                    49.448948
                ],
                "type": "Point"
            },
            "properties": {
                "capacity": 4,
                "is_installed": true,
                "is_renting": true,
                "is_returning": true,
                "is_virtual_station": false,
                "last_reported": 1789285039,
                "name": "\u017delatovsk\u00e1 - Kaufland",
                "num_bikes_available": 1,
                "num_docks_available": 3,
                "region_id": "917",
                "rental_uris": {
                    "android": "https://app.nextbike.net/station?id=208597386",
                    "ios": "https://app.nextbike.net/station?id=208597386",
                    "web": "https://nxtb.it/p/208597386"
                },
                "short_name": "49162",
                "station_id": "208597386",
                "vehicle_types_available": [
                    {
                        "count": 1,
                        "vehicle_type_id": "254"
                    }
                ]
            },
            "type": "Feature"
        },
        {
            "geometry": {
                "coordinates": [
                    17.452569,
                    49.446754
                ],
                "type": "Point"
            },
            "properties": {
                "capacity": 4,
                "is_installed": true,
                "is_renting": true,
                "is_returning": true,
                "is_virtual_station": false,
                "last_reported": 1789285039,
                "name": "St\u0159edn\u00ed pedagogick\u00e1 \u0161kola",
                "num_bikes_available": 2,
                "num_docks_available": 2,
                "region_id": "917",
                "rental_uris": {
                    "android": "https://app.nextbike.net/station?id=208597507",
                    "ios": "https://app.nextbike.net/station?id=208597507",
                    "web": "https://nxtb.it/p/208597507"
                },
                "short_name": "49163",
                "station_id": "208597507",
                "vehicle_types_available": [
                    {
                        "count": 2,
                        "vehicle_type_id": "254"
                    }
                ]
            },
            "type": "Feature"
        },
        {
            "geometry": {
                "coordinates": [
                    17.463023,
                    49.447173
                ],
                "type": "Point"
            },
            "properties": {
                "capacity": 4,
                "is_installed": true,
                "is_renting": true,
                "is_returning": true,
                "is_virtual_station": false,
                "last_reported": 1789285039,
                "name": "H\u0159bitov - naproti zimn\u00edmu stadionu",
                "num_bikes_available": 6,
                "num_docks_available": 0,
                "region_id": "917",
                "rental_uris": {
                    "android": "https://app.nextbike.net/station?id=208599223",
                    "ios": "https://app.nextbike.net/station?id=208599223",
                    "web": "https://nxtb.it/p/208599223"
                },
                "short_name": "49164",
                "station_id": "208599223",
                "vehicle_types_available": [
                    {
                        "count": 6,
                        "vehicle_type_id": "254"
                    }
                ]
            },
            "type": "Feature"
        },
        {
            "geometry": {
                "coordinates": [
                    17.458537,
                    49.446247
                ],
                "type": "Point"
            },
            "properties": {
                "capacity": 4,
                "is_installed": true,
                "is_renting": true,
                "is_returning": true,
                "is_virtual_station": false,
                "last_reported": 1789285039,
                "name": "H\u0159bitov \u2013 9. kv\u011btna",
                "num_bikes_available": 2,
                "num_docks_available": 2,
                "region_id": "917",
                "rental_uris": {
                    "android": "https://app.nextbike.net/station?id=208599374",
                    "ios": "https://app.nextbike.net/station?id=208599374",
                    "web": "https://nxtb.it/p/208599374"
                },
                "short_name": "49165",
                "station_id": "208599374",
                "vehicle_types_available": [
                    {
                        "count": 2,
                        "vehicle_type_id": "254"
                    }
                ]
            },
            "type": "Feature"
        },
        {
            "geometry": {
                "coordinates": [
                    17.438507,
                    49.442059
                ],
                "type": "Point"
            },
            "properties": {
                "capacity": 4,
                "is_installed": true,
                "is_renting": true,
                "is_returning": true,
                "is_virtual_station": false,
                "last_reported": 1789285039,
                "name": "P\u0159erovsk\u00e9 stroj\u00edrny",
                "num_bikes_available": 2,
                "num_docks_available": 2,
                "region_id": "917",
                "rental_uris": {
                    "android": "https://app.nextbike.net/station?id=208599466",
                    "ios": "https://app.nextbike.net/station?id=208599466",
                    "web": "https://nxtb.it/p/208599466"
                },
                "short_name": "49166",
                "station_id": "208599466",
                "vehicle_types_available": [
                    {
                        "count": 2,
                        "vehicle_type_id": "254"
                    }
                ]
            },
            "type": "Feature"
        },
        {
            "geometry": {
                "coordinates": [
                    17.45728,
                    49.441695
                ],
                "type": "Point"
            },
            "properties": {
                "capacity": 4,
                "is_installed": true,
                "is_renting": true,
                "is_returning": true,
                "is_virtual_station": false,
                "last_reported": 1789285039,
                "name": "Ji\u017en\u00ed \u010ctvr\u0165 - Hru\u0161ka",
                "num_bikes_available": 5,
                "num_docks_available": 0,
                "region_id": "917",
                "rental_uris": {
                    "android": "https://app.nextbike.net/station?id=208599689",
                    "ios": "https://app.nextbike.net/station?id=208599689",
                    "web": "https://nxtb.it/p/208599689"
                },
                "short_name": "49167",
                "station_id": "208599689",
                "vehicle_types_available": [
                    {
                        "count": 5,
                        "vehicle_type_id": "254"
                    }
                ]
            },
            "type": "Feature"
        },
        {
            "geometry": {
                "coordinates": [
                    17.417116,
                    49.514432
                ],
                "type": "Point"
            },
            "properties": {
                "capacity": 4,
                "is_installed": true,
                "is_renting": true,
                "is_returning": true,
                "is_virtual_station": false,
                "last_reported": 1789285039,
                "name": "Pen\u010dice",
                "num_bikes_available": 3,
                "num_docks_available": 1,
                "region_id": "917",
                "rental_uris": {
                    "android": "https://app.nextbike.net/station?id=208599814",
                    "ios": "https://app.nextbike.net/station?id=208599814",
                    "web": "https://nxtb.it/p/208599814"
                },
                "short_name": "49168",
                "station_id": "208599814",
                "vehicle_types_available": [
                    {
                        "count": 3,
                        "vehicle_type_id": "254"
                    }
                ]
            },
            "type": "Feature"
        },
        {
            "geometry": {
                "coordinates": [
                    17.42708,
                    49.4928
                ],
                "type": "Point"
            },
            "properties": {
                "capacity": 4,
                "is_installed": true,
                "is_renting": true,
                "is_returning": true,
                "is_virtual_station": false,
                "last_reported": 1789285039,
                "name": "\u010cekyn\u011b",
                "num_bikes_available": 2,
                "num_docks_available": 2,
                "region_id": "917",
                "rental_uris": {
                    "android": "https://app.nextbike.net/station?id=208600015",
                    "ios": "https://app.nextbike.net/station?id=208600015",
                    "web": "https://nxtb.it/p/208600015"
                },
                "short_name": "49170",
                "station_id": "208600015",
                "vehicle_types_available": [
                    {
                        "count": 2,
                        "vehicle_type_id": "254"
                    }
                ]
            },
            "type": "Feature"
        },
        {
            "geometry": {
                "coordinates": [
                    17.444612,
                    49.484101
                ],
                "type": "Point"
            },
            "properties": {
                "capacity": 4,
                "is_installed": true,
                "is_renting": true,
                "is_returning": true,
                "is_virtual_station": false,
                "last_reported": 1789285039,
                "name": "Vinary",
                "num_bikes_available": 3,
                "num_docks_available": 1,
                "region_id": "917",
                "rental_uris": {
                    "android": "https://app.nextbike.net/station?id=208600132",
                    "ios": "https://app.nextbike.net/station?id=208600132",
                    "web": "https://nxtb.it/p/208600132"
                },
                "short_name": "49171",
                "station_id": "208600132",
                "vehicle_types_available": [
                    {
                        "count": 3,
                        "vehicle_type_id": "254"
                    }
                ]
            },
            "type": "Feature"
        },
        {
            "geometry": {
                "coordinates": [
                    17.457527,
                    49.480829
                ],
                "type": "Point"
            },
            "properties": {
                "capacity": 4,
                "is_installed": true,
                "is_renting": true,
                "is_returning": true,
                "is_virtual_station": false,
                "last_reported": 1789285039,
                "name": "L\u00fdsky",
                "num_bikes_available": 6,
                "num_docks_available": 0,
                "region_id": "917",
                "rental_uris": {
                    "android": "https://app.nextbike.net/station?id=208600240",
                    "ios": "https://app.nextbike.net/station?id=208600240",
                    "web": "https://nxtb.it/p/208600240"
                },
                "short_name": "49172",
                "station_id": "208600240",
                "vehicle_types_available": [
                    {
                        "count": 6,
                        "vehicle_type_id": "254"
                    }
                ]
            },
            "type": "Feature"
        },
        {
            "geometry": {
                "coordinates": [
                    17.44225,
                    49.471353
                ],
                "type": "Point"
            },
            "properties": {
                "capacity": 4,
                "is_installed": true,
                "is_renting": true,
                "is_returning": true,
                "is_virtual_station": false,
                "last_reported": 1789285039,
                "name": "Popovice",
                "num_bikes_available": 4,
                "num_docks_available": 0,
                "region_id": "917",
                "rental_uris": {
                    "android": "https://app.nextbike.net/station?id=208600371",
                    "ios": "https://app.nextbike.net/station?id=208600371",
                    "web": "https://nxtb.it/p/208600371"
                },
                "short_name": "49173",
                "station_id": "208600371",
                "vehicle_types_available": [
                    {
                        "count": 4,
                        "vehicle_type_id": "254"
                    }
                ]
            },
            "type": "Feature"
        },
        {
            "geometry": {
                "coordinates": [
                    17.487091,
                    49.463394
                ],
                "type": "Point"
            },
            "properties": {
                "capacity": 4,
                "is_installed": true,
                "is_renting": true,
                "is_returning": true,
                "is_virtual_station": false,
                "last_reported": 1789285039,
                "name": "Kozlovice",
                "num_bikes_available": 3,
                "num_docks_available": 1,
                "region_id": "917",
                "rental_uris": {
                    "android": "https://app.nextbike.net/station?id=208600487",
                    "ios": "https://app.nextbike.net/station?id=208600487",
                    "web": "https://nxtb.it/p/208600487"
                },
                "short_name": "49174",
                "station_id": "208600487",
                "vehicle_types_available": [
                    {
                        "count": 3,
                        "vehicle_type_id": "254"
                    }
                ]
            },
            "type": "Feature"
        },
        {
            "geometry": {
                "coordinates": [
                    17.414258,
                    49.454229
                ],
                "type": "Point"
            },
            "properties": {
                "capacity": 4,
                "is_installed": true,
                "is_renting": true,
                "is_returning": true,
                "is_virtual_station": false,
                "last_reported": 1789285039,
                "name": "Dluhonice",
                "num_bikes_available": 3,
                "num_docks_available": 1,
                "region_id": "917",
                "rental_uris": {
                    "android": "https://app.nextbike.net/station?id=208600604",
                    "ios": "https://app.nextbike.net/station?id=208600604",
                    "web": "https://nxtb.it/p/208600604"
                },
                "short_name": "49175",
                "station_id": "208600604",
                "vehicle_types_available": [
                    {
                        "count": 3,
                        "vehicle_type_id": "254"
                    }
                ]
            },
            "type": "Feature"
        },
        {
            "geometry": {
                "coordinates": [
                    17.392296,
                    49.436305
                ],
                "type": "Point"
            },
            "properties": {
                "capacity": 4,
                "is_installed": true,
                "is_renting": true,
                "is_returning": true,
                "is_virtual_station": false,
                "last_reported": 1789285039,
                "name": "Hen\u010dlov",
                "num_bikes_available": 1,
                "num_docks_available": 3,
                "region_id": "917",
                "rental_uris": {
                    "android": "https://app.nextbike.net/station?id=208600740",
                    "ios": "https://app.nextbike.net/station?id=208600740",
                    "web": "https://nxtb.it/p/208600740"
                },
                "short_name": "49176",
                "station_id": "208600740",
                "vehicle_types_available": [
                    {
                        "count": 1,
                        "vehicle_type_id": "254"
                    }
                ]
            },
            "type": "Feature"
        },
        {
            "geometry": {
                "coordinates": [
                    17.449097,
                    49.427396
                ],
                "type": "Point"
            },
            "properties": {
                "capacity": 4,
                "is_installed": true,
                "is_renting": true,
                "is_returning": true,
                "is_virtual_station": false,
                "last_reported": 1789285039,
                "name": "Lov\u011b\u0161ice - Na ba\u0161t\u011b",
                "num_bikes_available": 5,
                "num_docks_available": 0,
                "region_id": "917",
                "rental_uris": {
                    "android": "https://app.nextbike.net/station?id=208600830",
                    "ios": "https://app.nextbike.net/station?id=208600830",
                    "web": "https://nxtb.it/p/208600830"
                },
                "short_name": "49177",
                "station_id": "208600830",
                "vehicle_types_available": [
                    {
                        "count": 5,
                        "vehicle_type_id": "254"
                    }
                ]
            },
            "type": "Feature"
        },
        {
            "geometry": {
                "coordinates": [
                    17.47129,
                    49.43234
                ],
                "type": "Point"
            },
            "properties": {
                "capacity": 4,
                "is_installed": true,
                "is_renting": true,
                "is_returning": true,
                "is_virtual_station": false,
                "last_reported": 1789285039,
                "name": "\u00dajezdec - \u00fa\u0159adovna",
                "num_bikes_available": 3,
                "num_docks_available": 1,
                "region_id": "917",
                "rental_uris": {
                    "android": "https://app.nextbike.net/station?id=208600962",
                    "ios": "https://app.nextbike.net/station?id=208600962",
                    "web": "https://nxtb.it/p/208600962"
                },
                "short_name": "49178",
                "station_id": "208600962",
                "vehicle_types_available": [
                    {
                        "count": 3,
                        "vehicle_type_id": "254"
                    }
                ]
            },
            "type": "Feature"
        },
        {
            "geometry": {
                "coordinates": [
                    17.452803,
                    49.453435
                ],
                "type": "Point"
            },
            "properties": {
                "capacity": 4,
                "is_installed": true,
                "is_renting": true,
                "is_returning": true,
                "is_virtual_station": false,
                "last_reported": 1789285039,
                "name": "\u017derot\u00ednovo n\u00e1m\u011bst\u00ed - Modr\u00e1k (J\u00eddelna)",
                "num_bikes_available": 1,
                "num_docks_available": 3,
                "region_id": "917",
                "rental_uris": {
                    "android": "https://app.nextbike.net/station?id=208601062",
                    "ios": "https://app.nextbike.net/station?id=208601062",
                    "web": "https://nxtb.it/p/208601062"
                },
                "short_name": "49179",
                "station_id": "208601062",
                "vehicle_types_available": [
                    {
                        "count": 1,
                        "vehicle_type_id": "254"
                    }
                ]
            },
            "type": "Feature"
        },
        {
            "geometry": {
                "coordinates": [
                    17.440473,
                    49.462197
                ],
                "type": "Point"
            },
            "properties": {
                "capacity": 4,
                "is_installed": true,
                "is_renting": true,
                "is_returning": true,
                "is_virtual_station": false,
                "last_reported": 1789285039,
                "name": "Lidl",
                "num_bikes_available": 8,
                "num_docks_available": 0,
                "region_id": "917",
                "rental_uris": {
                    "android": "https://app.nextbike.net/station?id=208601194",
                    "ios": "https://app.nextbike.net/station?id=208601194",
                    "web": "https://nxtb.it/p/208601194"
                },
                "short_name": "49180",
                "station_id": "208601194",
                "vehicle_types_available": [
                    {
                        "count": 8,
                        "vehicle_type_id": "254"
                    }
                ]
            },
            "type": "Feature"
        },
        {
            "geometry": {
                "coordinates": [
                    17.455622,
                    49.4545
                ],
                "type": "Point"
            },
            "properties": {
                "capacity": 4,
                "is_installed": true,
                "is_renting": true,
                "is_returning": true,
                "is_virtual_station": false,
                "last_reported": 1789285039,
                "name": "Kozlovsk\u00e1 - Albert",
                "num_bikes_available": 1,
                "num_docks_available": 3,
                "region_id": "917",
                "rental_uris": {
                    "android": "https://app.nextbike.net/station?id=208601524",
                    "ios": "https://app.nextbike.net/station?id=208601524",
                    "web": "https://nxtb.it/p/208601524"
                },
                "short_name": "49181",
                "station_id": "208601524",
                "vehicle_types_available": [
                    {
                        "count": 1,
                        "vehicle_type_id": "254"
                    }
                ]
            },
            "type": "Feature"
        },
        {
            "geometry": {
                "coordinates": [
                    17.449986,
                    49.445958
                ],
                "type": "Point"
            },
            "properties": {
                "capacity": 4,
                "is_installed": true,
                "is_renting": true,
                "is_returning": true,
                "is_virtual_station": false,
                "last_reported": 1789285039,
                "name": "Hyperalbert",
                "num_bikes_available": 1,
                "num_docks_available": 3,
                "region_id": "917",
                "rental_uris": {
                    "android": "https://app.nextbike.net/station?id=208602279",
                    "ios": "https://app.nextbike.net/station?id=208602279",
                    "web": "https://nxtb.it/p/208602279"
                },
                "short_name": "49182",
                "station_id": "208602279",
                "vehicle_types_available": [
                    {
                        "count": 1,
                        "vehicle_type_id": "254"
                    }
                ]
            },
            "type": "Feature"
        },
        {
            "geometry": {
                "coordinates": [
                    17.458785,
                    49.447888
                ],
                "type": "Point"
            },
            "properties": {
                "capacity": 4,
                "is_installed": true,
                "is_renting": true,
                "is_returning": true,
                "is_virtual_station": false,
                "last_reported": 1789285039,
                "name": "Penny",
                "num_bikes_available": 3,
                "num_docks_available": 1,
                "region_id": "917",
                "rental_uris": {
                    "android": "https://app.nextbike.net/station?id=208602713",
                    "ios": "https://app.nextbike.net/station?id=208602713",
                    "web": "https://nxtb.it/p/208602713"
                },
                "short_name": "49183",
                "station_id": "208602713",
                "vehicle_types_available": [
                    {
                        "count": 3,
                        "vehicle_type_id": "254"
                    }
                ]
            },
            "type": "Feature"
        },
        {
            "geometry": {
                "coordinates": [
                    17.444752,
                    49.454022
                ],
                "type": "Point"
            },
            "properties": {
                "capacity": 4,
                "is_installed": true,
                "is_renting": true,
                "is_returning": true,
                "is_virtual_station": false,
                "last_reported": 1789285039,
                "name": "Restaurace Be\u010dva",
                "num_bikes_available": 2,
                "num_docks_available": 2,
                "region_id": "917",
                "rental_uris": {
                    "android": "https://app.nextbike.net/station?id=216523073",
                    "ios": "https://app.nextbike.net/station?id=216523073",
                    "web": "https://nxtb.it/p/216523073"
                },
                "short_name": "49184",
                "station_id": "216523073",
                "vehicle_types_available": [
                    {
                        "count": 2,
                        "vehicle_type_id": "254"
                    }
                ]
            },
            "type": "Feature"
        },
        {
            "geometry": {
                "coordinates": [
                    17.45429,
                    49.46135
                ],
                "type": "Point"
            },
            "properties": {
                "capacity": 6,
                "is_installed": true,
                "is_renting": true,
                "is_returning": true,
                "is_virtual_station": false,
                "last_reported": 1789285039,
                "name": "Osmek",
                "num_bikes_available": 0,
                "num_docks_available": 6,
                "region_id": "917",
                "rental_uris": {
                    "android": "https://app.nextbike.net/station?id=233162051",
                    "ios": "https://app.nextbike.net/station?id=233162051",
                    "web": "https://nxtb.it/p/233162051"
                },
                "short_name": "49185",
                "station_id": "233162051",
                "vehicle_types_available": []
            },
            "type": "Feature"
        },
        {
            "geometry": {
                "coordinates": [
                    17.435619,
                    49.449256
                ],
                "type": "Point"
            },
            "properties": {
                "is_installed": true,
                "is_renting": true,
                "is_returning": true,
                "is_virtual_station": false,
                "last_reported": 1789285039,
                "name": "Precheza",
                "num_bikes_available": 5,
                "num_docks_available": 0,
                "region_id": "917",
                "rental_uris": {
                    "android": "https://app.nextbike.net/station?id=266354825",
                    "ios": "https://app.nextbike.net/station?id=266354825",
                    "web": "https://nxtb.it/p/266354825"
                },
                "short_name": "49186",
                "station_id": "266354825",
                "vehicle_types_available": [
                    {
                        "count": 5,
                        "vehicle_type_id": "254"
                    }
                ]
            },
            "type": "Feature"
        },
        {
            "geometry": {
                "coordinates": [
                    17.467,
                    49.45735
                ],
                "type": "Point"
            },
            "properties": {
                "is_installed": true,
                "is_renting": true,
                "is_returning": true,
                "is_virtual_station": false,
                "last_reported": 1789285039,
                "name": "Lokotka",
                "num_bikes_available": 3,
                "num_docks_available": 0,
                "region_id": "917",
                "rental_uris": {
                    "android": "https://app.nextbike.net/station?id=272460123",
                    "ios": "https://app.nextbike.net/station?id=272460123",
                    "web": "https://nxtb.it/p/272460123"
                },
                "short_name": "49187",
                "station_id": "272460123",
                "vehicle_types_available": [
                    {
                        "count": 3,
                        "vehicle_type_id": "254"
                    }
                ]
            },
            "type": "Feature"
        },
        {
            "geometry": {
                "coordinates": [
                    17.439342,
                    49.458918
                ],
                "type": "Point"
            },
            "properties": {
                "is_installed": true,
                "is_renting": true,
                "is_returning": true,
                "is_virtual_station": false,
                "last_reported": 1789285039,
                "name": "Technick\u00e9 slu\u017eby - vjezd",
                "num_bikes_available": 1,
                "num_docks_available": 0,
                "region_id": "917",
                "rental_uris": {
                    "android": "https://app.nextbike.net/station?id=272460430",
                    "ios": "https://app.nextbike.net/station?id=272460430",
                    "web": "https://nxtb.it/p/272460430"
                },
                "short_name": "49188",
                "station_id": "272460430",
                "vehicle_types_available": [
                    {
                        "count": 1,
                        "vehicle_type_id": "254"
                    }
                ]
            },
            "type": "Feature"
        },
        {
            "geometry": {
                "coordinates": [
                    17.447879,
                    49.457403
                ],
                "type": "Point"
            },
            "properties": {
                "is_installed": true,
                "is_renting": true,
                "is_returning": true,
                "is_virtual_station": false,
                "last_reported": 1789285039,
                "name": "Sokolovna",
                "num_bikes_available": 0,
                "num_docks_available": 0,
                "region_id": "917",
                "rental_uris": {
                    "android": "https://app.nextbike.net/station?id=272460800",
                    "ios": "https://app.nextbike.net/station?id=272460800",
                    "web": "https://nxtb.it/p/272460800"
                },
                "short_name": "49189",
                "station_id": "272460800",
                "vehicle_types_available": []
            },
            "type": "Feature"
        },
        {
            "geometry": {
                "coordinates": [
                    17.456431,
                    49.451079
                ],
                "type": "Point"
            },
            "properties": {
                "is_installed": true,
                "is_renting": true,
                "is_returning": true,
                "is_virtual_station": false,
                "last_reported": 1789285039,
                "name": "OC Galerie - bo\u010dn\u00ed vchod",
                "num_bikes_available": 2,
                "num_docks_available": 0,
                "region_id": "917",
                "rental_uris": {
                    "android": "https://app.nextbike.net/station?id=272461071",
                    "ios": "https://app.nextbike.net/station?id=272461071",
                    "web": "https://nxtb.it/p/272461071"
                },
                "short_name": "49190",
                "station_id": "272461071",
                "vehicle_types_available": [
                    {
                        "count": 2,
                        "vehicle_type_id": "254"
                    }
                ]
            },
            "type": "Feature"
        },
        {
            "geometry": {
                "coordinates": [
                    17.4661,
                    49.43655
                ],
                "type": "Point"
            },
            "properties": {
                "capacity": 4,
                "is_installed": true,
                "is_renting": true,
                "is_returning": true,
                "is_virtual_station": false,
                "last_reported": 1789285039,
                "name": "\u00dajezdec - P\u0159erovsk\u00e1/Nov\u00e1 \u010ctvr\u0165",
                "num_bikes_available": 4,
                "num_docks_available": 0,
                "region_id": "917",
                "rental_uris": {
                    "android": "https://app.nextbike.net/station?id=367038728",
                    "ios": "https://app.nextbike.net/station?id=367038728",
                    "web": "https://nxtb.it/p/367038728"
                },
                "short_name": "47189",
                "station_id": "367038728",
                "vehicle_types_available": [
                    {
                        "count": 4,
                        "vehicle_type_id": "254"
                    }
                ]
            },
            "type": "Feature"
        },
        {
            "geometry": {
                "coordinates": [
                    17.45828,
                    49.46356
                ],
                "type": "Point"
            },
            "properties": {
                "capacity": 4,
                "is_installed": true,
                "is_renting": true,
                "is_returning": true,
                "is_virtual_station": false,
                "last_reported": 1789285039,
                "name": "Zem\u011bd\u011blsk\u00e1 \u0161kola",
                "num_bikes_available": 4,
                "num_docks_available": 0,
                "region_id": "917",
                "rental_uris": {
                    "android": "https://app.nextbike.net/station?id=374411803",
                    "ios": "https://app.nextbike.net/station?id=374411803",
                    "web": "https://nxtb.it/p/374411803"
                },
                "short_name": "47190",
                "station_id": "374411803",
                "vehicle_types_available": [
                    {
                        "count": 4,
                        "vehicle_type_id": "254"
                    }
                ]
            },
            "type": "Feature"
        },
        {
            "geometry": {
                "coordinates": [
                    17.44153,
                    49.46536
                ],
                "type": "Point"
            },
            "properties": {
                "capacity": 4,
                "is_installed": true,
                "is_renting": true,
                "is_returning": true,
                "is_virtual_station": false,
                "last_reported": 1789285039,
                "name": "Centrum Leon",
                "num_bikes_available": 1,
                "num_docks_available": 3,
                "region_id": "917",
                "rental_uris": {
                    "android": "https://app.nextbike.net/station?id=374412183",
                    "ios": "https://app.nextbike.net/station?id=374412183",
                    "web": "https://nxtb.it/p/374412183"
                },
                "short_name": "47191",
                "station_id": "374412183",
                "vehicle_types_available": [
                    {
                        "count": 1,
                        "vehicle_type_id": "254"
                    }
                ]
            },
            "type": "Feature"
        },
        {
            "geometry": {
                "coordinates": [
                    17.37373,
                    49.4613
                ],
                "type": "Point"
            },
            "properties": {
                "capacity": 4,
                "is_installed": true,
                "is_renting": true,
                "is_returning": true,
                "is_virtual_station": false,
                "last_reported": 1789285039,
                "name": "Rokytnice - vlakov\u00e1 zast\u00e1vka (+15 minut na p\u0159\u00edjezd/odjezd)",
                "num_bikes_available": 2,
                "num_docks_available": 2,
                "region_id": "917",
                "rental_uris": {
                    "android": "https://app.nextbike.net/station?id=398231649",
                    "ios": "https://app.nextbike.net/station?id=398231649",
                    "web": "https://nxtb.it/p/398231649"
                },
                "short_name": "49192",
                "station_id": "398231649",
                "vehicle_types_available": [
                    {
                        "count": 2,
                        "vehicle_type_id": "254"
                    }
                ]
            },
            "type": "Feature"
        },
        {
            "geometry": {
                "coordinates": [
                    17.379591,
                    49.463511
                ],
                "type": "Point"
            },
            "properties": {
                "capacity": 4,
                "is_installed": true,
                "is_renting": true,
                "is_returning": true,
                "is_virtual_station": false,
                "last_reported": 1789285039,
                "name": "Rokytnice - p\u00e1lenice (+15 minut na p\u0159\u00edjezd/odjezd)",
                "num_bikes_available": 0,
                "num_docks_available": 4,
                "region_id": "917",
                "rental_uris": {
                    "android": "https://app.nextbike.net/station?id=398236470",
                    "ios": "https://app.nextbike.net/station?id=398236470",
                    "web": "https://nxtb.it/p/398236470"
                },
                "short_name": "49193",
                "station_id": "398236470",
                "vehicle_types_available": []
            },
            "type": "Feature"
        },
        {
            "geometry": {
                "coordinates": [
                    17.39356,
                    49.46598
                ],
                "type": "Point"
            },
            "properties": {
                "capacity": 4,
                "is_installed": true,
                "is_renting": true,
                "is_returning": true,
                "is_virtual_station": false,
                "last_reported": 1789285039,
                "name": "Rokytnice - potraviny (+15 minut na p\u0159\u00edjezd/odjezd)",
                "num_bikes_available": 1,
                "num_docks_available": 2,
                "region_id": "917",
                "rental_uris": {
                    "android": "https://app.nextbike.net/station?id=398239076",
                    "ios": "https://app.nextbike.net/station?id=398239076",
                    "web": "https://nxtb.it/p/398239076"
                },
                "short_name": "49195",
                "station_id": "398239076",
                "vehicle_types_available": [
                    {
                        "count": 1,
                        "vehicle_type_id": "254"
                    }
                ]
            },
            "type": "Feature"
        },
        {
            "geometry": {
                "coordinates": [
                    17.386319,
                    49.466595
                ],
                "type": "Point"
            },
            "properties": {
                "capacity": 4,
                "is_installed": true,
                "is_renting": true,
                "is_returning": true,
                "is_virtual_station": false,
                "last_reported": 1789285039,
                "name": "Rokytnice - sokolovna (+15 minut na p\u0159\u00edjezd/odjezd)",
                "num_bikes_available": 1,
                "num_docks_available": 3,
                "region_id": "917",
                "rental_uris": {
                    "android": "https://app.nextbike.net/station?id=416855077",
                    "ios": "https://app.nextbike.net/station?id=416855077",
                    "web": "https://nxtb.it/p/416855077"
                },
                "short_name": "49196",
                "station_id": "416855077",
                "vehicle_types_available": [
                    {
                        "count": 1,
                        "vehicle_type_id": "254"
                    }
                ]
            },
            "type": "Feature"
        },
        {
            "geometry": {
                "coordinates": [
                    17.44079,
                    49.45495
                ],
                "type": "Point"
            },
            "properties": {
                "capacity": 4,
                "is_installed": true,
                "is_renting": true,
                "is_returning": true,
                "is_virtual_station": false,
                "last_reported": 1789285039,
                "name": "Mervartova (nov\u00e9 um\u00edst\u011bn\u00ed)",
                "num_bikes_available": 2,
                "num_docks_available": 2,
                "region_id": "917",
                "rental_uris": {
                    "android": "https://app.nextbike.net/station?id=491289936",
                    "ios": "https://app.nextbike.net/station?id=491289936",
                    "web": "https://nxtb.it/p/491289936"
                },
                "short_name": "47193",
                "station_id": "491289936",
                "vehicle_types_available": [
                    {
                        "count": 2,
                        "vehicle_type_id": "254"
                    }
                ]
            },
            "type": "Feature"
        },
        {
            "geometry": {
                "coordinates": [
                    17.467967,
                    49.454212
                ],
                "type": "Point"
            },
            "properties": {
                "capacity": 4,
                "is_installed": true,
                "is_renting": true,
                "is_returning": true,
                "is_virtual_station": false,
                "last_reported": 1789285039,
                "name": "Dvo\u0159\u00e1kova (u cyklostezky)",
                "num_bikes_available": 0,
                "num_docks_available": 4,
                "region_id": "917",
                "rental_uris": {
                    "android": "https://app.nextbike.net/station?id=491290122",
                    "ios": "https://app.nextbike.net/station?id=491290122",
                    "web": "https://nxtb.it/p/491290122"
                },
                "short_name": "47194",
                "station_id": "491290122",
                "vehicle_types_available": []
            },
            "type": "Feature"
        },
        {
            "geometry": {
                "coordinates": [
                    17.43597,
                    49.46596
                ],
                "type": "Point"
            },
            "properties": {
                "capacity": 4,
                "is_installed": true,
                "is_renting": true,
                "is_returning": true,
                "is_virtual_station": false,
                "last_reported": 1789285039,
                "name": "P\u0159edmost\u00ed \u2013 Prost\u011bjovsk\u00e1",
                "num_bikes_available": 0,
                "num_docks_available": 4,
                "region_id": "917",
                "rental_uris": {
                    "android": "https://app.nextbike.net/station?id=523521491",
                    "ios": "https://app.nextbike.net/station?id=523521491",
                    "web": "https://nxtb.it/p/523521491"
                },
                "short_name": "47195",
                "station_id": "523521491",
                "vehicle_types_available": []
            },
            "type": "Feature"
        },
        {
            "geometry": {
                "coordinates": [
                    17.45098,
                    49.45295
                ],
                "type": "Point"
            },
            "properties": {
                "capacity": 4,
                "is_installed": true,
                "is_renting": true,
                "is_returning": true,
                "is_virtual_station": false,
                "last_reported": 1789285039,
                "name": "P\u0159erovanka",
                "num_bikes_available": 1,
                "num_docks_available": 3,
                "region_id": "917",
                "rental_uris": {
                    "android": "https://app.nextbike.net/station?id=525237152",
                    "ios": "https://app.nextbike.net/station?id=525237152",
                    "web": "https://nxtb.it/p/525237152"
                },
                "short_name": "47196",
                "station_id": "525237152",
                "vehicle_types_available": [
                    {
                        "count": 1,
                        "vehicle_type_id": "254"
                    }
                ]
            },
            "type": "Feature"
        },
        {
            "geometry": {
                "coordinates": [
                    17.50188,
                    49.44484
                ],
                "type": "Point"
            },
            "properties": {
                "capacity": 3,
                "is_installed": true,
                "is_renting": true,
                "is_returning": true,
                "is_virtual_station": false,
                "last_reported": 1789285039,
                "name": "\u017delatovice (+15 min na odjezd)",
                "num_bikes_available": 7,
                "num_docks_available": 0,
                "region_id": "917",
                "rental_uris": {
                    "android": "https://app.nextbike.net/station?id=535353518",
                    "ios": "https://app.nextbike.net/station?id=535353518",
                    "web": "https://nxtb.it/p/535353518"
                },
                "short_name": "47197",
                "station_id": "535353518",
                "vehicle_types_available": [
                    {
                        "count": 7,
                        "vehicle_type_id": "254"
                    }
                ]
            },
            "type": "Feature"
        },
        {
            "geometry": {
                "coordinates": [
                    17.46173,
                    49.45183
                ],
                "type": "Point"
            },
            "properties": {
                "is_installed": true,
                "is_renting": true,
                "is_returning": true,
                "is_virtual_station": false,
                "last_reported": 1789285039,
                "name": "T\u0159. 17. listopadu",
                "num_bikes_available": 0,
                "num_docks_available": 0,
                "region_id": "917",
                "rental_uris": {
                    "android": "https://app.nextbike.net/station?id=601933149",
                    "ios": "https://app.nextbike.net/station?id=601933149",
                    "web": "https://nxtb.it/p/601933149"
                },
                "short_name": "47198",
                "station_id": "601933149",
                "vehicle_types_available": []
            },
            "type": "Feature"
        },
        {
            "geometry": {
                "coordinates": [
                    17.513233,
                    49.453414
                ],
                "type": "Point"
            },
            "properties": {
                "capacity": 4,
                "is_installed": true,
                "is_renting": true,
                "is_returning": true,
                "is_virtual_station": false,
                "last_reported": 1789285039,
                "name": "Tu\u010d\u00edn, n\u00e1ves (+15 min na p\u0159\u00edjezd i odjezd)",
                "num_bikes_available": 0,
                "num_docks_available": 4,
                "region_id": "917",
                "rental_uris": {
                    "android": "https://app.nextbike.net/station?id=606732422",
                    "ios": "https://app.nextbike.net/station?id=606732422",
                    "web": "https://nxtb.it/p/606732422"
                },
                "short_name": "48716",
                "station_id": "606732422",
                "vehicle_types_available": []
            },
            "type": "Feature"
        },
        {
            "geometry": {
                "coordinates": [
                    17.448511,
                    49.460255
                ],
                "type": "Point"
            },
            "properties": {
                "is_installed": true,
                "is_renting": true,
                "is_returning": true,
                "is_virtual_station": false,
                "last_reported": 1789285039,
                "name": "Kopaniny - Billa",
                "num_bikes_available": 1,
                "num_docks_available": 0,
                "region_id": "917",
                "rental_uris": {
                    "android": "https://app.nextbike.net/station?id=613699665",
                    "ios": "https://app.nextbike.net/station?id=613699665",
                    "web": "https://nxtb.it/p/613699665"
                },
                "short_name": "49191",
                "station_id": "613699665",
                "vehicle_types_available": [
                    {
                        "count": 1,
                        "vehicle_type_id": "254"
                    }
                ]
            },
            "type": "Feature"
        },
        {
            "geometry": {
                "coordinates": [
                    17.447178,
                    49.449654
                ],
                "type": "Point"
            },
            "properties": {
                "capacity": 4,
                "is_installed": true,
                "is_renting": true,
                "is_returning": true,
                "is_virtual_station": false,
                "last_reported": 1789285039,
                "name": "Pr\u016fpich",
                "num_bikes_available": 1,
                "num_docks_available": 3,
                "region_id": "917",
                "rental_uris": {
                    "android": "https://app.nextbike.net/station?id=642616415",
                    "ios": "https://app.nextbike.net/station?id=642616415",
                    "web": "https://nxtb.it/p/642616415"
                },
                "short_name": "48717",
                "station_id": "642616415",
                "vehicle_types_available": [
                    {
                        "count": 1,
                        "vehicle_type_id": "254"
                    }
                ]
            },
            "type": "Feature"
        }
    ],
    "gbfs": {
        "station_information": {
            "last_updated": 1789285039,
            "ttl": 60,
            "version": "2.3"
        },
        "station_status": {
            "last_updated": 1789285039,
            "ttl": 60,
            "version": "2.3"
        }
    },
    "type": "FeatureCollection"
}