{
    "features": [
        {
            "geometry": {
                "coordinates": [
                    12.166709,
                    47.578664
                ],
                "type": "Point"
            },
            "properties": {
                "capacity": 7,
                "is_installed": true,
                "is_renting": true,
                "is_returning": true,
                "is_virtual_station": false,
                "last_reported": 1789126699,
                "name": "Wirtschaftskammer / WIFI",
                "num_bikes_available": 3,
                "num_docks_available": 4,
                "region_id": "773",
                "rental_uris": {
                    "android": "https://app.nextbike.net/station?id=632943659",
                    "ios": "https://app.nextbike.net/station?id=632943659",
                    "web": "https://nxtb.it/p/632943659"
                },
                "short_name": "32525",
                "station_id": "632943659",
                "vehicle_types_available": [
                    {
                        "count": 3,
                        "vehicle_type_id": "150"
                    }
                ]
            },
            "type": "Feature"
        },
        {
            "geometry": {
                "coordinates": [
                    12.15335,
                    47.573557
                ],
                "type": "Point"
            },
            "properties": {
                "capacity": 7,
                "is_installed": true,
                "is_renting": true,
                "is_returning": true,
                "is_virtual_station": false,
                "last_reported": 1789126699,
                "name": "Einfangstra\u00dfe",
                "num_bikes_available": 4,
                "num_docks_available": 3,
                "region_id": "773",
                "rental_uris": {
                    "android": "https://app.nextbike.net/station?id=77048834",
                    "ios": "https://app.nextbike.net/station?id=77048834",
                    "web": "https://nxtb.it/p/77048834"
                },
                "short_name": "32519",
                "station_id": "77048834",
                "vehicle_types_available": [
                    {
                        "count": 4,
                        "vehicle_type_id": "150"
                    }
                ]
            },
            "type": "Feature"
        },
        {
            "geometry": {
                "coordinates": [
                    12.150936,
                    47.570966
                ],
                "type": "Point"
            },
            "properties": {
                "capacity": 7,
                "is_installed": true,
                "is_renting": true,
                "is_returning": true,
                "is_virtual_station": false,
                "last_reported": 1789126699,
                "name": "Krankenhaus",
                "num_bikes_available": 6,
                "num_docks_available": 1,
                "region_id": "773",
                "rental_uris": {
                    "android": "https://app.nextbike.net/station?id=77049197",
                    "ios": "https://app.nextbike.net/station?id=77049197",
                    "web": "https://nxtb.it/p/77049197"
                },
                "short_name": "32501",
                "station_id": "77049197",
                "vehicle_types_available": [
                    {
                        "count": 6,
                        "vehicle_type_id": "150"
                    }
                ]
            },
            "type": "Feature"
        },
        {
            "geometry": {
                "coordinates": [
                    12.181564,
                    47.593091
                ],
                "type": "Point"
            },
            "properties": {
                "capacity": 7,
                "is_installed": true,
                "is_renting": true,
                "is_returning": true,
                "is_virtual_station": false,
                "last_reported": 1789126699,
                "name": "Sparchner Stra\u00dfe",
                "num_bikes_available": 3,
                "num_docks_available": 4,
                "region_id": "773",
                "rental_uris": {
                    "android": "https://app.nextbike.net/station?id=77049338",
                    "ios": "https://app.nextbike.net/station?id=77049338",
                    "web": "https://nxtb.it/p/77049338"
                },
                "short_name": "32502",
                "station_id": "77049338",
                "vehicle_types_available": [
                    {
                        "count": 3,
                        "vehicle_type_id": "150"
                    }
                ]
            },
            "type": "Feature"
        },
        {
            "geometry": {
                "coordinates": [
                    12.178688,
                    47.590171
                ],
                "type": "Point"
            },
            "properties": {
                "capacity": 8,
                "is_installed": true,
                "is_renting": true,
                "is_returning": true,
                "is_virtual_station": false,
                "last_reported": 1789126699,
                "name": "Stuttgarter Stra\u00dfe",
                "num_bikes_available": 6,
                "num_docks_available": 2,
                "region_id": "773",
                "rental_uris": {
                    "android": "https://app.nextbike.net/station?id=77049449",
                    "ios": "https://app.nextbike.net/station?id=77049449",
                    "web": "https://nxtb.it/p/77049449"
                },
                "short_name": "32503",
                "station_id": "77049449",
                "vehicle_types_available": [
                    {
                        "count": 6,
                        "vehicle_type_id": "150"
                    }
                ]
            },
            "type": "Feature"
        },
        {
            "geometry": {
                "coordinates": [
                    12.185823,
                    47.589928
                ],
                "type": "Point"
            },
            "properties": {
                "capacity": 7,
                "is_installed": true,
                "is_renting": true,
                "is_returning": true,
                "is_virtual_station": false,
                "last_reported": 1789126699,
                "name": "Kaiserlift",
                "num_bikes_available": 5,
                "num_docks_available": 2,
                "region_id": "773",
                "rental_uris": {
                    "android": "https://app.nextbike.net/station?id=77049587",
                    "ios": "https://app.nextbike.net/station?id=77049587",
                    "web": "https://nxtb.it/p/77049587"
                },
                "short_name": "32504",
                "station_id": "77049587",
                "vehicle_types_available": [
                    {
                        "count": 5,
                        "vehicle_type_id": "150"
                    }
                ]
            },
            "type": "Feature"
        },
        {
            "geometry": {
                "coordinates": [
                    12.15897,
                    47.576666
                ],
                "type": "Point"
            },
            "properties": {
                "capacity": 7,
                "is_installed": true,
                "is_renting": true,
                "is_returning": true,
                "is_virtual_station": false,
                "last_reported": 1789126699,
                "name": "Studierendenheim Innpromenade",
                "num_bikes_available": 3,
                "num_docks_available": 4,
                "region_id": "773",
                "rental_uris": {
                    "android": "https://app.nextbike.net/station?id=77049793",
                    "ios": "https://app.nextbike.net/station?id=77049793",
                    "web": "https://nxtb.it/p/77049793"
                },
                "short_name": "32505",
                "station_id": "77049793",
                "vehicle_types_available": [
                    {
                        "count": 3,
                        "vehicle_type_id": "150"
                    }
                ]
            },
            "type": "Feature"
        },
        {
            "geometry": {
                "coordinates": [
                    12.165399,
                    47.575962
                ],
                "type": "Point"
            },
            "properties": {
                "capacity": 7,
                "is_installed": true,
                "is_renting": true,
                "is_returning": true,
                "is_virtual_station": false,
                "last_reported": 1789126699,
                "name": "Weissachstra\u00dfe",
                "num_bikes_available": 8,
                "num_docks_available": 0,
                "region_id": "773",
                "rental_uris": {
                    "android": "https://app.nextbike.net/station?id=77049925",
                    "ios": "https://app.nextbike.net/station?id=77049925",
                    "web": "https://nxtb.it/p/77049925"
                },
                "short_name": "32506",
                "station_id": "77049925",
                "vehicle_types_available": [
                    {
                        "count": 8,
                        "vehicle_type_id": "150"
                    }
                ]
            },
            "type": "Feature"
        },
        {
            "geometry": {
                "coordinates": [
                    12.163223,
                    47.574015
                ],
                "type": "Point"
            },
            "properties": {
                "capacity": 7,
                "is_installed": true,
                "is_renting": true,
                "is_returning": true,
                "is_virtual_station": false,
                "last_reported": 1789126699,
                "name": "Riedel Glas",
                "num_bikes_available": 5,
                "num_docks_available": 2,
                "region_id": "773",
                "rental_uris": {
                    "android": "https://app.nextbike.net/station?id=77050029",
                    "ios": "https://app.nextbike.net/station?id=77050029",
                    "web": "https://nxtb.it/p/77050029"
                },
                "short_name": "32507",
                "station_id": "77050029",
                "vehicle_types_available": [
                    {
                        "count": 5,
                        "vehicle_type_id": "150"
                    }
                ]
            },
            "type": "Feature"
        },
        {
            "geometry": {
                "coordinates": [
                    12.158458,
                    47.574903
                ],
                "type": "Point"
            },
            "properties": {
                "capacity": 7,
                "is_installed": true,
                "is_renting": true,
                "is_returning": true,
                "is_virtual_station": false,
                "last_reported": 1789126699,
                "name": "FMZ Salurner Stra\u00dfe",
                "num_bikes_available": 6,
                "num_docks_available": 1,
                "region_id": "773",
                "rental_uris": {
                    "android": "https://app.nextbike.net/station?id=77050261",
                    "ios": "https://app.nextbike.net/station?id=77050261",
                    "web": "https://nxtb.it/p/77050261"
                },
                "short_name": "32508",
                "station_id": "77050261",
                "vehicle_types_available": [
                    {
                        "count": 6,
                        "vehicle_type_id": "150"
                    }
                ]
            },
            "type": "Feature"
        },
        {
            "geometry": {
                "coordinates": [
                    12.160507,
                    47.582771
                ],
                "type": "Point"
            },
            "properties": {
                "capacity": 7,
                "is_installed": true,
                "is_renting": true,
                "is_returning": true,
                "is_virtual_station": false,
                "last_reported": 1789126699,
                "name": "Altenwohnheim Zell",
                "num_bikes_available": 4,
                "num_docks_available": 3,
                "region_id": "773",
                "rental_uris": {
                    "android": "https://app.nextbike.net/station?id=77050376",
                    "ios": "https://app.nextbike.net/station?id=77050376",
                    "web": "https://nxtb.it/p/77050376"
                },
                "short_name": "32509",
                "station_id": "77050376",
                "vehicle_types_available": [
                    {
                        "count": 4,
                        "vehicle_type_id": "150"
                    }
                ]
            },
            "type": "Feature"
        },
        {
            "geometry": {
                "coordinates": [
                    12.162326,
                    47.586828
                ],
                "type": "Point"
            },
            "properties": {
                "capacity": 7,
                "is_installed": true,
                "is_renting": true,
                "is_returning": true,
                "is_virtual_station": false,
                "last_reported": 1789126699,
                "name": "Zeller Stra\u00dfe",
                "num_bikes_available": 5,
                "num_docks_available": 2,
                "region_id": "773",
                "rental_uris": {
                    "android": "https://app.nextbike.net/station?id=77050871",
                    "ios": "https://app.nextbike.net/station?id=77050871",
                    "web": "https://nxtb.it/p/77050871"
                },
                "short_name": "32510",
                "station_id": "77050871",
                "vehicle_types_available": [
                    {
                        "count": 5,
                        "vehicle_type_id": "150"
                    }
                ]
            },
            "type": "Feature"
        },
        {
            "geometry": {
                "coordinates": [
                    12.168249,
                    47.586806
                ],
                "type": "Point"
            },
            "properties": {
                "capacity": 7,
                "is_installed": true,
                "is_renting": true,
                "is_returning": true,
                "is_virtual_station": false,
                "last_reported": 1789126699,
                "name": "Arena",
                "num_bikes_available": 5,
                "num_docks_available": 2,
                "region_id": "773",
                "rental_uris": {
                    "android": "https://app.nextbike.net/station?id=77051686",
                    "ios": "https://app.nextbike.net/station?id=77051686",
                    "web": "https://nxtb.it/p/77051686"
                },
                "short_name": "32511",
                "station_id": "77051686",
                "vehicle_types_available": [
                    {
                        "count": 5,
                        "vehicle_type_id": "150"
                    }
                ]
            },
            "type": "Feature"
        },
        {
            "geometry": {
                "coordinates": [
                    12.166508,
                    47.583019
                ],
                "type": "Point"
            },
            "properties": {
                "capacity": 7,
                "is_installed": true,
                "is_renting": true,
                "is_returning": true,
                "is_virtual_station": false,
                "last_reported": 1789126699,
                "name": "Bahnhof",
                "num_bikes_available": 8,
                "num_docks_available": 0,
                "region_id": "773",
                "rental_uris": {
                    "android": "https://app.nextbike.net/station?id=77051782",
                    "ios": "https://app.nextbike.net/station?id=77051782",
                    "web": "https://nxtb.it/p/77051782"
                },
                "short_name": "32512",
                "station_id": "77051782",
                "vehicle_types_available": [
                    {
                        "count": 8,
                        "vehicle_type_id": "150"
                    }
                ]
            },
            "type": "Feature"
        },
        {
            "geometry": {
                "coordinates": [
                    12.172457,
                    47.579262
                ],
                "type": "Point"
            },
            "properties": {
                "capacity": 7,
                "is_installed": true,
                "is_renting": true,
                "is_returning": true,
                "is_virtual_station": false,
                "last_reported": 1789126699,
                "name": "Bozner Platz / BH",
                "num_bikes_available": 3,
                "num_docks_available": 4,
                "region_id": "773",
                "rental_uris": {
                    "android": "https://app.nextbike.net/station?id=77052081",
                    "ios": "https://app.nextbike.net/station?id=77052081",
                    "web": "https://nxtb.it/p/77052081"
                },
                "short_name": "32513",
                "station_id": "77052081",
                "vehicle_types_available": [
                    {
                        "count": 3,
                        "vehicle_type_id": "150"
                    }
                ]
            },
            "type": "Feature"
        },
        {
            "geometry": {
                "coordinates": [
                    12.173488,
                    47.583238
                ],
                "type": "Point"
            },
            "properties": {
                "capacity": 7,
                "is_installed": true,
                "is_renting": true,
                "is_returning": true,
                "is_virtual_station": false,
                "last_reported": 1789126699,
                "name": "Fachhochschule",
                "num_bikes_available": 5,
                "num_docks_available": 2,
                "region_id": "773",
                "rental_uris": {
                    "android": "https://app.nextbike.net/station?id=77054227",
                    "ios": "https://app.nextbike.net/station?id=77054227",
                    "web": "https://nxtb.it/p/77054227"
                },
                "short_name": "32514",
                "station_id": "77054227",
                "vehicle_types_available": [
                    {
                        "count": 5,
                        "vehicle_type_id": "150"
                    }
                ]
            },
            "type": "Feature"
        },
        {
            "geometry": {
                "coordinates": [
                    12.168421,
                    47.583596
                ],
                "type": "Point"
            },
            "properties": {
                "capacity": 7,
                "is_installed": true,
                "is_renting": true,
                "is_returning": true,
                "is_virtual_station": false,
                "last_reported": 1789126699,
                "name": "Fischergries",
                "num_bikes_available": 4,
                "num_docks_available": 3,
                "region_id": "773",
                "rental_uris": {
                    "android": "https://app.nextbike.net/station?id=77054573",
                    "ios": "https://app.nextbike.net/station?id=77054573",
                    "web": "https://nxtb.it/p/77054573"
                },
                "short_name": "32515",
                "station_id": "77054573",
                "vehicle_types_available": [
                    {
                        "count": 4,
                        "vehicle_type_id": "150"
                    }
                ]
            },
            "type": "Feature"
        },
        {
            "geometry": {
                "coordinates": [
                    12.17168,
                    47.584056
                ],
                "type": "Point"
            },
            "properties": {
                "capacity": 7,
                "is_installed": true,
                "is_renting": true,
                "is_returning": true,
                "is_virtual_station": false,
                "last_reported": 1789126699,
                "name": "Stadtpark / Franz Josef-Platz",
                "num_bikes_available": 5,
                "num_docks_available": 2,
                "region_id": "773",
                "rental_uris": {
                    "android": "https://app.nextbike.net/station?id=77054647",
                    "ios": "https://app.nextbike.net/station?id=77054647",
                    "web": "https://nxtb.it/p/77054647"
                },
                "short_name": "32516",
                "station_id": "77054647",
                "vehicle_types_available": [
                    {
                        "count": 5,
                        "vehicle_type_id": "150"
                    }
                ]
            },
            "type": "Feature"
        },
        {
            "geometry": {
                "coordinates": [
                    12.170799,
                    47.582313
                ],
                "type": "Point"
            },
            "properties": {
                "capacity": 7,
                "is_installed": true,
                "is_renting": true,
                "is_returning": true,
                "is_virtual_station": false,
                "last_reported": 1789126699,
                "name": "Arkadenplatz",
                "num_bikes_available": 3,
                "num_docks_available": 4,
                "region_id": "773",
                "rental_uris": {
                    "android": "https://app.nextbike.net/station?id=77054733",
                    "ios": "https://app.nextbike.net/station?id=77054733",
                    "web": "https://nxtb.it/p/77054733"
                },
                "short_name": "32517",
                "station_id": "77054733",
                "vehicle_types_available": [
                    {
                        "count": 3,
                        "vehicle_type_id": "150"
                    }
                ]
            },
            "type": "Feature"
        },
        {
            "geometry": {
                "coordinates": [
                    12.168385,
                    47.58994
                ],
                "type": "Point"
            },
            "properties": {
                "capacity": 7,
                "is_installed": true,
                "is_renting": true,
                "is_returning": true,
                "is_virtual_station": false,
                "last_reported": 1789126699,
                "name": "Schwimmbad",
                "num_bikes_available": 6,
                "num_docks_available": 1,
                "region_id": "773",
                "rental_uris": {
                    "android": "https://app.nextbike.net/station?id=77054807",
                    "ios": "https://app.nextbike.net/station?id=77054807",
                    "web": "https://nxtb.it/p/77054807"
                },
                "short_name": "32518",
                "station_id": "77054807",
                "vehicle_types_available": [
                    {
                        "count": 6,
                        "vehicle_type_id": "150"
                    }
                ]
            },
            "type": "Feature"
        },
        {
            "geometry": {
                "coordinates": [
                    12.188315,
                    47.593685
                ],
                "type": "Point"
            },
            "properties": {
                "capacity": 7,
                "is_installed": true,
                "is_renting": true,
                "is_returning": true,
                "is_virtual_station": false,
                "last_reported": 1789126699,
                "name": "Kaisertal / Kaiseraufstieg",
                "num_bikes_available": 2,
                "num_docks_available": 5,
                "region_id": "773",
                "rental_uris": {
                    "android": "https://app.nextbike.net/station?id=79483831",
                    "ios": "https://app.nextbike.net/station?id=79483831",
                    "web": "https://nxtb.it/p/79483831"
                },
                "short_name": "32530",
                "station_id": "79483831",
                "vehicle_types_available": [
                    {
                        "count": 2,
                        "vehicle_type_id": "150"
                    }
                ]
            },
            "type": "Feature"
        },
        {
            "geometry": {
                "coordinates": [
                    12.174951,
                    47.593976
                ],
                "type": "Point"
            },
            "properties": {
                "capacity": 7,
                "is_installed": true,
                "is_renting": true,
                "is_returning": true,
                "is_virtual_station": false,
                "last_reported": 1789126699,
                "name": "FMZ Rosenheimer Stra\u00dfe",
                "num_bikes_available": 2,
                "num_docks_available": 5,
                "region_id": "773",
                "rental_uris": {
                    "android": "https://app.nextbike.net/station?id=79483956",
                    "ios": "https://app.nextbike.net/station?id=79483956",
                    "web": "https://nxtb.it/p/79483956"
                },
                "short_name": "32520",
                "station_id": "79483956",
                "vehicle_types_available": [
                    {
                        "count": 2,
                        "vehicle_type_id": "150"
                    }
                ]
            },
            "type": "Feature"
        },
        {
            "geometry": {
                "coordinates": [
                    12.172717,
                    47.591274
                ],
                "type": "Point"
            },
            "properties": {
                "capacity": 7,
                "is_installed": true,
                "is_renting": true,
                "is_returning": true,
                "is_virtual_station": false,
                "last_reported": 1789126699,
                "name": "Feldgasse",
                "num_bikes_available": 5,
                "num_docks_available": 2,
                "region_id": "773",
                "rental_uris": {
                    "android": "https://app.nextbike.net/station?id=79484069",
                    "ios": "https://app.nextbike.net/station?id=79484069",
                    "web": "https://nxtb.it/p/79484069"
                },
                "short_name": "32521",
                "station_id": "79484069",
                "vehicle_types_available": [
                    {
                        "count": 5,
                        "vehicle_type_id": "150"
                    }
                ]
            },
            "type": "Feature"
        }
    ],
    "gbfs": {
        "station_information": {
            "last_updated": 1789126699,
            "ttl": 60,
            "version": "2.3"
        },
        "station_status": {
            "last_updated": 1789126699,
            "ttl": 60,
            "version": "2.3"
        }
    },
    "type": "FeatureCollection"
}