{
    "features": [
        {
            "geometry": {
                "coordinates": [
                    13.380503,
                    54.095535
                ],
                "type": "Point"
            },
            "properties": {
                "capacity": 27,
                "is_installed": true,
                "is_renting": true,
                "is_returning": true,
                "is_virtual_station": false,
                "last_reported": 1789290042,
                "name": "58000 Rathaus Greifswald",
                "num_bikes_available": 7,
                "num_docks_available": 20,
                "region_id": "759",
                "rental_uris": {
                    "android": "https://app.nextbike.net/station?id=198661",
                    "ios": "https://app.nextbike.net/station?id=198661",
                    "web": "https://nxtb.it/p/198661"
                },
                "short_name": "58000",
                "station_id": "198661",
                "vehicle_types_available": [
                    {
                        "count": 7,
                        "vehicle_type_id": "3"
                    }
                ]
            },
            "type": "Feature"
        },
        {
            "geometry": {
                "coordinates": [
                    13.371241,
                    54.092693
                ],
                "type": "Point"
            },
            "properties": {
                "capacity": 38,
                "is_installed": true,
                "is_renting": true,
                "is_returning": true,
                "is_virtual_station": false,
                "last_reported": 1789290042,
                "name": "58003 Hauptbahnhof Greifswald",
                "num_bikes_available": 22,
                "num_docks_available": 16,
                "region_id": "759",
                "rental_uris": {
                    "android": "https://app.nextbike.net/station?id=198663",
                    "ios": "https://app.nextbike.net/station?id=198663",
                    "web": "https://nxtb.it/p/198663"
                },
                "short_name": "58003",
                "station_id": "198663",
                "vehicle_types_available": [
                    {
                        "count": 21,
                        "vehicle_type_id": "3"
                    },
                    {
                        "count": 1,
                        "vehicle_type_id": "13"
                    }
                ]
            },
            "type": "Feature"
        },
        {
            "geometry": {
                "coordinates": [
                    13.448982,
                    54.093033
                ],
                "type": "Point"
            },
            "properties": {
                "capacity": 8,
                "is_installed": true,
                "is_renting": true,
                "is_returning": true,
                "is_virtual_station": false,
                "last_reported": 1789290042,
                "name": "58017 Br\u00fccke Wieck Greifswald",
                "num_bikes_available": 16,
                "num_docks_available": 0,
                "region_id": "759",
                "rental_uris": {
                    "android": "https://app.nextbike.net/station?id=198664",
                    "ios": "https://app.nextbike.net/station?id=198664",
                    "web": "https://nxtb.it/p/198664"
                },
                "short_name": "58017",
                "station_id": "198664",
                "vehicle_types_available": [
                    {
                        "count": 14,
                        "vehicle_type_id": "3"
                    },
                    {
                        "count": 2,
                        "vehicle_type_id": "13"
                    }
                ]
            },
            "type": "Feature"
        },
        {
            "geometry": {
                "coordinates": [
                    13.375719,
                    54.095944
                ],
                "type": "Point"
            },
            "properties": {
                "capacity": 6,
                "is_installed": true,
                "is_renting": true,
                "is_returning": true,
                "is_virtual_station": false,
                "last_reported": 1789290042,
                "name": "58001 Domcenter Greifswald",
                "num_bikes_available": 3,
                "num_docks_available": 3,
                "region_id": "759",
                "rental_uris": {
                    "android": "https://app.nextbike.net/station?id=350549",
                    "ios": "https://app.nextbike.net/station?id=350549",
                    "web": "https://nxtb.it/p/350549"
                },
                "short_name": "58001",
                "station_id": "350549",
                "vehicle_types_available": [
                    {
                        "count": 3,
                        "vehicle_type_id": "3"
                    }
                ]
            },
            "type": "Feature"
        },
        {
            "geometry": {
                "coordinates": [
                    13.375484,
                    54.080214
                ],
                "type": "Point"
            },
            "properties": {
                "capacity": 8,
                "is_installed": true,
                "is_renting": true,
                "is_returning": true,
                "is_virtual_station": false,
                "last_reported": 1789290042,
                "name": "58022 Siemensallee Bushaltestelle Greifswald",
                "num_bikes_available": 5,
                "num_docks_available": 3,
                "region_id": "759",
                "rental_uris": {
                    "android": "https://app.nextbike.net/station?id=359535646",
                    "ios": "https://app.nextbike.net/station?id=359535646",
                    "web": "https://nxtb.it/p/359535646"
                },
                "short_name": "58022",
                "station_id": "359535646",
                "vehicle_types_available": [
                    {
                        "count": 5,
                        "vehicle_type_id": "3"
                    }
                ]
            },
            "type": "Feature"
        },
        {
            "geometry": {
                "coordinates": [
                    13.425336,
                    54.073145
                ],
                "type": "Point"
            },
            "properties": {
                "capacity": 26,
                "is_installed": true,
                "is_renting": true,
                "is_returning": true,
                "is_virtual_station": false,
                "last_reported": 1789290042,
                "name": "58023 Max- Planck- Institut Greifswald",
                "num_bikes_available": 25,
                "num_docks_available": 0,
                "region_id": "759",
                "rental_uris": {
                    "android": "https://app.nextbike.net/station?id=520697405",
                    "ios": "https://app.nextbike.net/station?id=520697405",
                    "web": "https://nxtb.it/p/520697405"
                },
                "short_name": "58023",
                "station_id": "520697405",
                "vehicle_types_available": [
                    {
                        "count": 24,
                        "vehicle_type_id": "3"
                    },
                    {
                        "count": 1,
                        "vehicle_type_id": "13"
                    }
                ]
            },
            "type": "Feature"
        },
        {
            "geometry": {
                "coordinates": [
                    13.349478,
                    54.089815
                ],
                "type": "Point"
            },
            "properties": {
                "capacity": 10,
                "is_installed": true,
                "is_renting": true,
                "is_returning": true,
                "is_virtual_station": false,
                "last_reported": 1789290042,
                "name": "58024 Cheplapharm / Ziegelhof 24 Greifswald",
                "num_bikes_available": 8,
                "num_docks_available": 2,
                "region_id": "759",
                "rental_uris": {
                    "android": "https://app.nextbike.net/station?id=537274329",
                    "ios": "https://app.nextbike.net/station?id=537274329",
                    "web": "https://nxtb.it/p/537274329"
                },
                "short_name": "58024",
                "station_id": "537274329",
                "vehicle_types_available": [
                    {
                        "count": 8,
                        "vehicle_type_id": "3"
                    }
                ]
            },
            "type": "Feature"
        },
        {
            "geometry": {
                "coordinates": [
                    13.36607,
                    54.091718
                ],
                "type": "Point"
            },
            "properties": {
                "capacity": 11,
                "is_installed": true,
                "is_renting": true,
                "is_returning": true,
                "is_virtual_station": false,
                "last_reported": 1789290042,
                "name": "58027 Ellernholzstra\u00dfe Greifswald",
                "num_bikes_available": 7,
                "num_docks_available": 4,
                "region_id": "759",
                "rental_uris": {
                    "android": "https://app.nextbike.net/station?id=571694125",
                    "ios": "https://app.nextbike.net/station?id=571694125",
                    "web": "https://nxtb.it/p/571694125"
                },
                "short_name": "58027",
                "station_id": "571694125",
                "vehicle_types_available": [
                    {
                        "count": 5,
                        "vehicle_type_id": "3"
                    },
                    {
                        "count": 2,
                        "vehicle_type_id": "13"
                    }
                ]
            },
            "type": "Feature"
        },
        {
            "geometry": {
                "coordinates": [
                    13.405042,
                    54.089349
                ],
                "type": "Point"
            },
            "properties": {
                "capacity": 27,
                "is_installed": true,
                "is_renting": true,
                "is_returning": true,
                "is_virtual_station": false,
                "last_reported": 1789290042,
                "name": "58026  Haupteingang Klinikum Greifswald",
                "num_bikes_available": 7,
                "num_docks_available": 20,
                "region_id": "759",
                "rental_uris": {
                    "android": "https://app.nextbike.net/station?id=571711507",
                    "ios": "https://app.nextbike.net/station?id=571711507",
                    "web": "https://nxtb.it/p/571711507"
                },
                "short_name": "58026",
                "station_id": "571711507",
                "vehicle_types_available": [
                    {
                        "count": 7,
                        "vehicle_type_id": "3"
                    }
                ]
            },
            "type": "Feature"
        },
        {
            "geometry": {
                "coordinates": [
                    13.3819,
                    54.095012
                ],
                "type": "Point"
            },
            "properties": {
                "capacity": 10,
                "is_installed": true,
                "is_renting": true,
                "is_returning": true,
                "is_virtual_station": false,
                "last_reported": 1789290042,
                "name": "58002 Pommersches Landesmuseum Greifswald",
                "num_bikes_available": 8,
                "num_docks_available": 2,
                "region_id": "759",
                "rental_uris": {
                    "android": "https://app.nextbike.net/station?id=69444446",
                    "ios": "https://app.nextbike.net/station?id=69444446",
                    "web": "https://nxtb.it/p/69444446"
                },
                "short_name": "58002",
                "station_id": "69444446",
                "vehicle_types_available": [
                    {
                        "count": 8,
                        "vehicle_type_id": "3"
                    }
                ]
            },
            "type": "Feature"
        },
        {
            "geometry": {
                "coordinates": [
                    13.36011,
                    54.119555
                ],
                "type": "Point"
            },
            "properties": {
                "capacity": 10,
                "is_installed": true,
                "is_renting": true,
                "is_returning": true,
                "is_virtual_station": false,
                "last_reported": 1789290042,
                "name": "58004 EKZ Neuenkirchen Greifswald",
                "num_bikes_available": 4,
                "num_docks_available": 6,
                "region_id": "759",
                "rental_uris": {
                    "android": "https://app.nextbike.net/station?id=69444731",
                    "ios": "https://app.nextbike.net/station?id=69444731",
                    "web": "https://nxtb.it/p/69444731"
                },
                "short_name": "58004",
                "station_id": "69444731",
                "vehicle_types_available": [
                    {
                        "count": 4,
                        "vehicle_type_id": "3"
                    }
                ]
            },
            "type": "Feature"
        },
        {
            "geometry": {
                "coordinates": [
                    13.374964,
                    54.097513
                ],
                "type": "Point"
            },
            "properties": {
                "capacity": 15,
                "is_installed": true,
                "is_renting": false,
                "is_returning": false,
                "is_virtual_station": false,
                "last_reported": 1789290042,
                "name": "58028 L\u00f6fflerstra\u00dfe Greifswald",
                "num_bikes_available": 0,
                "num_docks_available": 15,
                "region_id": "759",
                "rental_uris": {
                    "android": "https://app.nextbike.net/station?id=69445073",
                    "ios": "https://app.nextbike.net/station?id=69445073",
                    "web": "https://nxtb.it/p/69445073"
                },
                "short_name": "58028",
                "station_id": "69445073",
                "vehicle_types_available": []
            },
            "type": "Feature"
        },
        {
            "geometry": {
                "coordinates": [
                    13.387372,
                    54.09314
                ],
                "type": "Point"
            },
            "properties": {
                "capacity": 12,
                "is_installed": true,
                "is_renting": true,
                "is_returning": true,
                "is_virtual_station": false,
                "last_reported": 1789290042,
                "name": "58007 Parkplatz Nex\u00f6platz Greifswald",
                "num_bikes_available": 5,
                "num_docks_available": 7,
                "region_id": "759",
                "rental_uris": {
                    "android": "https://app.nextbike.net/station?id=69445238",
                    "ios": "https://app.nextbike.net/station?id=69445238",
                    "web": "https://nxtb.it/p/69445238"
                },
                "short_name": "58007",
                "station_id": "69445238",
                "vehicle_types_available": [
                    {
                        "count": 5,
                        "vehicle_type_id": "3"
                    }
                ]
            },
            "type": "Feature"
        },
        {
            "geometry": {
                "coordinates": [
                    13.388284,
                    54.097591
                ],
                "type": "Point"
            },
            "properties": {
                "capacity": 13,
                "is_installed": true,
                "is_renting": true,
                "is_returning": true,
                "is_virtual_station": false,
                "last_reported": 1789290042,
                "name": "58008 Parkplatz Holzgasse Greifswald",
                "num_bikes_available": 4,
                "num_docks_available": 8,
                "region_id": "759",
                "rental_uris": {
                    "android": "https://app.nextbike.net/station?id=69445374",
                    "ios": "https://app.nextbike.net/station?id=69445374",
                    "web": "https://nxtb.it/p/69445374"
                },
                "short_name": "58008",
                "station_id": "69445374",
                "vehicle_types_available": [
                    {
                        "count": 4,
                        "vehicle_type_id": "3"
                    }
                ]
            },
            "type": "Feature"
        },
        {
            "geometry": {
                "coordinates": [
                    13.400407,
                    54.091787
                ],
                "type": "Point"
            },
            "properties": {
                "capacity": 10,
                "is_installed": true,
                "is_renting": true,
                "is_returning": true,
                "is_virtual_station": false,
                "last_reported": 1789290042,
                "name": "58010 BioTechnikum Greifswald",
                "num_bikes_available": 5,
                "num_docks_available": 5,
                "region_id": "759",
                "rental_uris": {
                    "android": "https://app.nextbike.net/station?id=69445685",
                    "ios": "https://app.nextbike.net/station?id=69445685",
                    "web": "https://nxtb.it/p/69445685"
                },
                "short_name": "58010",
                "station_id": "69445685",
                "vehicle_types_available": [
                    {
                        "count": 5,
                        "vehicle_type_id": "3"
                    }
                ]
            },
            "type": "Feature"
        },
        {
            "geometry": {
                "coordinates": [
                    13.409339,
                    54.086171
                ],
                "type": "Point"
            },
            "properties": {
                "capacity": 25,
                "is_installed": true,
                "is_renting": true,
                "is_returning": true,
                "is_virtual_station": false,
                "last_reported": 1789290042,
                "name": "58011 Parkplatz Makarenkostra\u00dfe Greifswald",
                "num_bikes_available": 12,
                "num_docks_available": 13,
                "region_id": "759",
                "rental_uris": {
                    "android": "https://app.nextbike.net/station?id=69445860",
                    "ios": "https://app.nextbike.net/station?id=69445860",
                    "web": "https://nxtb.it/p/69445860"
                },
                "short_name": "58011",
                "station_id": "69445860",
                "vehicle_types_available": [
                    {
                        "count": 12,
                        "vehicle_type_id": "3"
                    }
                ]
            },
            "type": "Feature"
        },
        {
            "geometry": {
                "coordinates": [
                    13.39331,
                    54.073649
                ],
                "type": "Point"
            },
            "properties": {
                "capacity": 9,
                "is_installed": true,
                "is_renting": true,
                "is_returning": true,
                "is_virtual_station": false,
                "last_reported": 1789290042,
                "name": "58012 Sparkasse Vorpommern / Mercure Hotel Greifswald",
                "num_bikes_available": 7,
                "num_docks_available": 2,
                "region_id": "759",
                "rental_uris": {
                    "android": "https://app.nextbike.net/station?id=69445986",
                    "ios": "https://app.nextbike.net/station?id=69445986",
                    "web": "https://nxtb.it/p/69445986"
                },
                "short_name": "58012",
                "station_id": "69445986",
                "vehicle_types_available": [
                    {
                        "count": 7,
                        "vehicle_type_id": "3"
                    }
                ]
            },
            "type": "Feature"
        },
        {
            "geometry": {
                "coordinates": [
                    13.398664,
                    54.077057
                ],
                "type": "Point"
            },
            "properties": {
                "capacity": 10,
                "is_installed": true,
                "is_renting": true,
                "is_returning": true,
                "is_virtual_station": false,
                "last_reported": 1789290042,
                "name": "58013 S\u00fcdbahnhof Greifswald",
                "num_bikes_available": 1,
                "num_docks_available": 9,
                "region_id": "759",
                "rental_uris": {
                    "android": "https://app.nextbike.net/station?id=69446137",
                    "ios": "https://app.nextbike.net/station?id=69446137",
                    "web": "https://nxtb.it/p/69446137"
                },
                "short_name": "58013",
                "station_id": "69446137",
                "vehicle_types_available": [
                    {
                        "count": 1,
                        "vehicle_type_id": "3"
                    }
                ]
            },
            "type": "Feature"
        },
        {
            "geometry": {
                "coordinates": [
                    13.429316,
                    54.090227
                ],
                "type": "Point"
            },
            "properties": {
                "capacity": 10,
                "is_installed": true,
                "is_renting": true,
                "is_returning": true,
                "is_virtual_station": false,
                "last_reported": 1789290042,
                "name": "58014 Ostseeviertel Ryckseite Greifwald",
                "num_bikes_available": 4,
                "num_docks_available": 6,
                "region_id": "759",
                "rental_uris": {
                    "android": "https://app.nextbike.net/station?id=69446272",
                    "ios": "https://app.nextbike.net/station?id=69446272",
                    "web": "https://nxtb.it/p/69446272"
                },
                "short_name": "58014",
                "station_id": "69446272",
                "vehicle_types_available": [
                    {
                        "count": 4,
                        "vehicle_type_id": "3"
                    }
                ]
            },
            "type": "Feature"
        },
        {
            "geometry": {
                "coordinates": [
                    13.382163,
                    54.099696
                ],
                "type": "Point"
            },
            "properties": {
                "capacity": 12,
                "is_installed": true,
                "is_renting": true,
                "is_returning": true,
                "is_virtual_station": false,
                "last_reported": 1789290042,
                "name": "58015 Museumshafen Greifswald",
                "num_bikes_available": 6,
                "num_docks_available": 4,
                "region_id": "759",
                "rental_uris": {
                    "android": "https://app.nextbike.net/station?id=69446405",
                    "ios": "https://app.nextbike.net/station?id=69446405",
                    "web": "https://nxtb.it/p/69446405"
                },
                "short_name": "58015",
                "station_id": "69446405",
                "vehicle_types_available": [
                    {
                        "count": 6,
                        "vehicle_type_id": "3"
                    }
                ]
            },
            "type": "Feature"
        },
        {
            "geometry": {
                "coordinates": [
                    13.449674,
                    54.092558
                ],
                "type": "Point"
            },
            "properties": {
                "capacity": 10,
                "is_installed": true,
                "is_renting": true,
                "is_returning": true,
                "is_virtual_station": false,
                "last_reported": 1789290042,
                "name": "58018 Strandbad Wieck Greifswald",
                "num_bikes_available": 6,
                "num_docks_available": 4,
                "region_id": "759",
                "rental_uris": {
                    "android": "https://app.nextbike.net/station?id=69446670",
                    "ios": "https://app.nextbike.net/station?id=69446670",
                    "web": "https://nxtb.it/p/69446670"
                },
                "short_name": "58018",
                "station_id": "69446670",
                "vehicle_types_available": [
                    {
                        "count": 6,
                        "vehicle_type_id": "3"
                    }
                ]
            },
            "type": "Feature"
        },
        {
            "geometry": {
                "coordinates": [
                    13.444042,
                    54.096594
                ],
                "type": "Point"
            },
            "properties": {
                "capacity": 10,
                "is_installed": true,
                "is_renting": true,
                "is_returning": true,
                "is_virtual_station": false,
                "last_reported": 1789290042,
                "name": "58019 Parkplatz Ladebow Greifswald",
                "num_bikes_available": 10,
                "num_docks_available": 0,
                "region_id": "759",
                "rental_uris": {
                    "android": "https://app.nextbike.net/station?id=69446784",
                    "ios": "https://app.nextbike.net/station?id=69446784",
                    "web": "https://nxtb.it/p/69446784"
                },
                "short_name": "58019",
                "station_id": "69446784",
                "vehicle_types_available": [
                    {
                        "count": 10,
                        "vehicle_type_id": "3"
                    }
                ]
            },
            "type": "Feature"
        },
        {
            "geometry": {
                "coordinates": [
                    13.453848,
                    54.08816
                ],
                "type": "Point"
            },
            "properties": {
                "capacity": 8,
                "is_installed": true,
                "is_renting": true,
                "is_returning": true,
                "is_virtual_station": false,
                "last_reported": 1789290042,
                "name": "58020 Klosterruine Eldena Greifswald",
                "num_bikes_available": 6,
                "num_docks_available": 2,
                "region_id": "759",
                "rental_uris": {
                    "android": "https://app.nextbike.net/station?id=69446906",
                    "ios": "https://app.nextbike.net/station?id=69446906",
                    "web": "https://nxtb.it/p/69446906"
                },
                "short_name": "58020",
                "station_id": "69446906",
                "vehicle_types_available": [
                    {
                        "count": 6,
                        "vehicle_type_id": "3"
                    }
                ]
            },
            "type": "Feature"
        },
        {
            "geometry": {
                "coordinates": [
                    13.417406,
                    54.087347
                ],
                "type": "Point"
            },
            "properties": {
                "capacity": 16,
                "is_installed": true,
                "is_renting": true,
                "is_returning": true,
                "is_virtual_station": false,
                "last_reported": 1789290042,
                "name": "58021 Freizeitbad Greifswald",
                "num_bikes_available": 4,
                "num_docks_available": 12,
                "region_id": "759",
                "rental_uris": {
                    "android": "https://app.nextbike.net/station?id=69447038",
                    "ios": "https://app.nextbike.net/station?id=69447038",
                    "web": "https://nxtb.it/p/69447038"
                },
                "short_name": "58021",
                "station_id": "69447038",
                "vehicle_types_available": [
                    {
                        "count": 4,
                        "vehicle_type_id": "3"
                    }
                ]
            },
            "type": "Feature"
        },
        {
            "geometry": {
                "coordinates": [
                    13.383563,
                    54.087181
                ],
                "type": "Point"
            },
            "properties": {
                "capacity": 10,
                "is_installed": true,
                "is_renting": true,
                "is_returning": true,
                "is_virtual_station": false,
                "last_reported": 1789290042,
                "name": "57123 DJH - Jugendherberge Greifswald",
                "num_bikes_available": 7,
                "num_docks_available": 3,
                "region_id": "759",
                "rental_uris": {
                    "android": "https://app.nextbike.net/station?id=76289796",
                    "ios": "https://app.nextbike.net/station?id=76289796",
                    "web": "https://nxtb.it/p/76289796"
                },
                "short_name": "57123",
                "station_id": "76289796",
                "vehicle_types_available": [
                    {
                        "count": 2,
                        "vehicle_type_id": "8"
                    },
                    {
                        "count": 2,
                        "vehicle_type_id": "7"
                    },
                    {
                        "count": 3,
                        "vehicle_type_id": "3"
                    }
                ]
            },
            "type": "Feature"
        }
    ],
    "gbfs": {
        "station_information": {
            "last_updated": 1789290042,
            "ttl": 60,
            "version": "2.3"
        },
        "station_status": {
            "last_updated": 1789290042,
            "ttl": 60,
            "version": "2.3"
        }
    },
    "type": "FeatureCollection"
}