{
    "features": [
        {
            "geometry": {
                "coordinates": [
                    15.08117,
                    50.77767
                ],
                "type": "Point"
            },
            "properties": {
                "capacity": 4,
                "is_installed": true,
                "is_renting": true,
                "is_returning": true,
                "is_virtual_station": false,
                "last_reported": 1789254100,
                "name": "Zoo - stojany",
                "num_bikes_available": 3,
                "num_docks_available": 1,
                "region_id": "793",
                "rental_uris": {
                    "android": "https://app.nextbike.net/station?id=221641857",
                    "ios": "https://app.nextbike.net/station?id=221641857",
                    "web": "https://nxtb.it/p/221641857"
                },
                "short_name": "45084",
                "station_id": "221641857",
                "vehicle_types_available": [
                    {
                        "count": 3,
                        "vehicle_type_id": "302"
                    }
                ]
            },
            "type": "Feature"
        },
        {
            "geometry": {
                "coordinates": [
                    15.07311,
                    50.77818
                ],
                "type": "Point"
            },
            "properties": {
                "is_installed": true,
                "is_renting": true,
                "is_returning": true,
                "is_virtual_station": false,
                "last_reported": 1789254100,
                "name": "Botanick\u00e1 zahrada - stojany",
                "num_bikes_available": 0,
                "num_docks_available": 0,
                "region_id": "793",
                "rental_uris": {
                    "android": "https://app.nextbike.net/station?id=224036851",
                    "ios": "https://app.nextbike.net/station?id=224036851",
                    "web": "https://nxtb.it/p/224036851"
                },
                "short_name": "45145",
                "station_id": "224036851",
                "vehicle_types_available": []
            },
            "type": "Feature"
        },
        {
            "geometry": {
                "coordinates": [
                    15.07486,
                    50.77606
                ],
                "type": "Point"
            },
            "properties": {
                "is_installed": true,
                "is_renting": true,
                "is_returning": true,
                "is_virtual_station": false,
                "last_reported": 1789254100,
                "name": "Botanick\u00e1 zahrada - tram (stojany)",
                "num_bikes_available": 8,
                "num_docks_available": 0,
                "region_id": "793",
                "rental_uris": {
                    "android": "https://app.nextbike.net/station?id=224038553",
                    "ios": "https://app.nextbike.net/station?id=224038553",
                    "web": "https://nxtb.it/p/224038553"
                },
                "short_name": "45162",
                "station_id": "224038553",
                "vehicle_types_available": [
                    {
                        "count": 5,
                        "vehicle_type_id": "407"
                    },
                    {
                        "count": 3,
                        "vehicle_type_id": "302"
                    }
                ]
            },
            "type": "Feature"
        },
        {
            "geometry": {
                "coordinates": [
                    15.06708,
                    50.7737
                ],
                "type": "Point"
            },
            "properties": {
                "is_installed": true,
                "is_renting": true,
                "is_returning": true,
                "is_virtual_station": false,
                "last_reported": 1789254100,
                "name": "M\u011bstsk\u00e9 l\u00e1zn\u011b - stojany",
                "num_bikes_available": 1,
                "num_docks_available": 0,
                "region_id": "793",
                "rental_uris": {
                    "android": "https://app.nextbike.net/station?id=224042426",
                    "ios": "https://app.nextbike.net/station?id=224042426",
                    "web": "https://nxtb.it/p/224042426"
                },
                "short_name": "45186",
                "station_id": "224042426",
                "vehicle_types_available": [
                    {
                        "count": 1,
                        "vehicle_type_id": "302"
                    }
                ]
            },
            "type": "Feature"
        },
        {
            "geometry": {
                "coordinates": [
                    15.06127,
                    50.77116
                ],
                "type": "Point"
            },
            "properties": {
                "capacity": 4,
                "is_installed": true,
                "is_renting": true,
                "is_returning": true,
                "is_virtual_station": false,
                "last_reported": 1789254100,
                "name": "Nerudovo n\u00e1m\u011bst\u00ed - stojany",
                "num_bikes_available": 1,
                "num_docks_available": 3,
                "region_id": "793",
                "rental_uris": {
                    "android": "https://app.nextbike.net/station?id=224050175",
                    "ios": "https://app.nextbike.net/station?id=224050175",
                    "web": "https://nxtb.it/p/224050175"
                },
                "short_name": "45192",
                "station_id": "224050175",
                "vehicle_types_available": [
                    {
                        "count": 1,
                        "vehicle_type_id": "407"
                    }
                ]
            },
            "type": "Feature"
        },
        {
            "geometry": {
                "coordinates": [
                    15.05196,
                    50.77319
                ],
                "type": "Point"
            },
            "properties": {
                "capacity": 4,
                "is_installed": true,
                "is_renting": true,
                "is_returning": true,
                "is_virtual_station": false,
                "last_reported": 1789254100,
                "name": "Mal\u00e9 divadlo - stojany",
                "num_bikes_available": 5,
                "num_docks_available": 0,
                "region_id": "793",
                "rental_uris": {
                    "android": "https://app.nextbike.net/station?id=224051648",
                    "ios": "https://app.nextbike.net/station?id=224051648",
                    "web": "https://nxtb.it/p/224051648"
                },
                "short_name": "45204",
                "station_id": "224051648",
                "vehicle_types_available": [
                    {
                        "count": 2,
                        "vehicle_type_id": "407"
                    },
                    {
                        "count": 3,
                        "vehicle_type_id": "302"
                    }
                ]
            },
            "type": "Feature"
        },
        {
            "geometry": {
                "coordinates": [
                    15.05799,
                    50.76966
                ],
                "type": "Point"
            },
            "properties": {
                "capacity": 8,
                "is_installed": true,
                "is_renting": true,
                "is_returning": true,
                "is_virtual_station": false,
                "last_reported": 1789254100,
                "name": "Radnice - stojany",
                "num_bikes_available": 1,
                "num_docks_available": 7,
                "region_id": "793",
                "rental_uris": {
                    "android": "https://app.nextbike.net/station?id=224055731",
                    "ios": "https://app.nextbike.net/station?id=224055731",
                    "web": "https://nxtb.it/p/224055731"
                },
                "short_name": "45213",
                "station_id": "224055731",
                "vehicle_types_available": [
                    {
                        "count": 1,
                        "vehicle_type_id": "302"
                    }
                ]
            },
            "type": "Feature"
        },
        {
            "geometry": {
                "coordinates": [
                    15.05924,
                    50.76959
                ],
                "type": "Point"
            },
            "properties": {
                "capacity": 2,
                "is_installed": true,
                "is_renting": true,
                "is_returning": true,
                "is_virtual_station": false,
                "last_reported": 1789254100,
                "name": "Plaza Liberec - stojany",
                "num_bikes_available": 3,
                "num_docks_available": 0,
                "region_id": "793",
                "rental_uris": {
                    "android": "https://app.nextbike.net/station?id=224056753",
                    "ios": "https://app.nextbike.net/station?id=224056753",
                    "web": "https://nxtb.it/p/224056753"
                },
                "short_name": "45214",
                "station_id": "224056753",
                "vehicle_types_available": [
                    {
                        "count": 1,
                        "vehicle_type_id": "407"
                    },
                    {
                        "count": 2,
                        "vehicle_type_id": "302"
                    }
                ]
            },
            "type": "Feature"
        },
        {
            "geometry": {
                "coordinates": [
                    15.05816,
                    50.76728
                ],
                "type": "Point"
            },
            "properties": {
                "capacity": 6,
                "is_installed": true,
                "is_renting": true,
                "is_returning": true,
                "is_virtual_station": false,
                "last_reported": 1789254100,
                "name": "Z\u00e1me\u010dnick\u00e1 - stojany",
                "num_bikes_available": 1,
                "num_docks_available": 5,
                "region_id": "793",
                "rental_uris": {
                    "android": "https://app.nextbike.net/station?id=224061018",
                    "ios": "https://app.nextbike.net/station?id=224061018",
                    "web": "https://nxtb.it/p/224061018"
                },
                "short_name": "45215",
                "station_id": "224061018",
                "vehicle_types_available": [
                    {
                        "count": 1,
                        "vehicle_type_id": "302"
                    }
                ]
            },
            "type": "Feature"
        },
        {
            "geometry": {
                "coordinates": [
                    15.05382,
                    50.76588
                ],
                "type": "Point"
            },
            "properties": {
                "capacity": 4,
                "is_installed": true,
                "is_renting": true,
                "is_returning": true,
                "is_virtual_station": false,
                "last_reported": 1789254100,
                "name": "J\u00e1nsk\u00e1 u font\u00e1ny - stojany",
                "num_bikes_available": 2,
                "num_docks_available": 2,
                "region_id": "793",
                "rental_uris": {
                    "android": "https://app.nextbike.net/station?id=224069986",
                    "ios": "https://app.nextbike.net/station?id=224069986",
                    "web": "https://nxtb.it/p/224069986"
                },
                "short_name": "45251",
                "station_id": "224069986",
                "vehicle_types_available": [
                    {
                        "count": 2,
                        "vehicle_type_id": "407"
                    }
                ]
            },
            "type": "Feature"
        },
        {
            "geometry": {
                "coordinates": [
                    15.0558,
                    50.76688
                ],
                "type": "Point"
            },
            "properties": {
                "capacity": 8,
                "is_installed": true,
                "is_renting": true,
                "is_returning": true,
                "is_virtual_station": false,
                "last_reported": 1789254100,
                "name": "Soukenn\u00e9 n\u00e1m\u011bst\u00ed - stojany",
                "num_bikes_available": 22,
                "num_docks_available": 0,
                "region_id": "793",
                "rental_uris": {
                    "android": "https://app.nextbike.net/station?id=224071464",
                    "ios": "https://app.nextbike.net/station?id=224071464",
                    "web": "https://nxtb.it/p/224071464"
                },
                "short_name": "45284",
                "station_id": "224071464",
                "vehicle_types_available": [
                    {
                        "count": 12,
                        "vehicle_type_id": "407"
                    },
                    {
                        "count": 9,
                        "vehicle_type_id": "302"
                    },
                    {
                        "count": 1,
                        "vehicle_type_id": "258"
                    }
                ]
            },
            "type": "Feature"
        },
        {
            "geometry": {
                "coordinates": [
                    15.05667,
                    50.76584
                ],
                "type": "Point"
            },
            "properties": {
                "capacity": 6,
                "is_installed": true,
                "is_renting": true,
                "is_returning": true,
                "is_virtual_station": false,
                "last_reported": 1789254100,
                "name": "F\u00fcgnerova - tram (stojany)",
                "num_bikes_available": 14,
                "num_docks_available": 0,
                "region_id": "793",
                "rental_uris": {
                    "android": "https://app.nextbike.net/station?id=224072068",
                    "ios": "https://app.nextbike.net/station?id=224072068",
                    "web": "https://nxtb.it/p/224072068"
                },
                "short_name": "45294",
                "station_id": "224072068",
                "vehicle_types_available": [
                    {
                        "count": 6,
                        "vehicle_type_id": "407"
                    },
                    {
                        "count": 8,
                        "vehicle_type_id": "302"
                    }
                ]
            },
            "type": "Feature"
        },
        {
            "geometry": {
                "coordinates": [
                    15.06335,
                    50.76412
                ],
                "type": "Point"
            },
            "properties": {
                "capacity": 4,
                "is_installed": true,
                "is_renting": true,
                "is_returning": true,
                "is_virtual_station": false,
                "last_reported": 1789254100,
                "name": "Ml\u00fdnsk\u00e1 - tram",
                "num_bikes_available": 5,
                "num_docks_available": 0,
                "region_id": "793",
                "rental_uris": {
                    "android": "https://app.nextbike.net/station?id=224072950",
                    "ios": "https://app.nextbike.net/station?id=224072950",
                    "web": "https://nxtb.it/p/224072950"
                },
                "short_name": "45320",
                "station_id": "224072950",
                "vehicle_types_available": [
                    {
                        "count": 1,
                        "vehicle_type_id": "407"
                    },
                    {
                        "count": 4,
                        "vehicle_type_id": "302"
                    }
                ]
            },
            "type": "Feature"
        },
        {
            "geometry": {
                "coordinates": [
                    15.04802,
                    50.76326
                ],
                "type": "Point"
            },
            "properties": {
                "capacity": 4,
                "is_installed": true,
                "is_renting": true,
                "is_returning": true,
                "is_virtual_station": false,
                "last_reported": 1789254100,
                "name": "Autobusov\u00e9 n\u00e1dra\u017e\u00ed - stojany",
                "num_bikes_available": 8,
                "num_docks_available": 0,
                "region_id": "793",
                "rental_uris": {
                    "android": "https://app.nextbike.net/station?id=224077509",
                    "ios": "https://app.nextbike.net/station?id=224077509",
                    "web": "https://nxtb.it/p/224077509"
                },
                "short_name": "45326",
                "station_id": "224077509",
                "vehicle_types_available": [
                    {
                        "count": 4,
                        "vehicle_type_id": "407"
                    },
                    {
                        "count": 4,
                        "vehicle_type_id": "302"
                    }
                ]
            },
            "type": "Feature"
        },
        {
            "geometry": {
                "coordinates": [
                    15.04761,
                    50.76688
                ],
                "type": "Point"
            },
            "properties": {
                "capacity": 4,
                "is_installed": true,
                "is_renting": true,
                "is_returning": true,
                "is_virtual_station": false,
                "last_reported": 1789254100,
                "name": "Okru\u017en\u00ed x Metelkova - stojany",
                "num_bikes_available": 7,
                "num_docks_available": 0,
                "region_id": "793",
                "rental_uris": {
                    "android": "https://app.nextbike.net/station?id=224081824",
                    "ios": "https://app.nextbike.net/station?id=224081824",
                    "web": "https://nxtb.it/p/224081824"
                },
                "short_name": "45329",
                "station_id": "224081824",
                "vehicle_types_available": [
                    {
                        "count": 5,
                        "vehicle_type_id": "302"
                    },
                    {
                        "count": 2,
                        "vehicle_type_id": "407"
                    }
                ]
            },
            "type": "Feature"
        },
        {
            "geometry": {
                "coordinates": [
                    15.04981,
                    50.77026
                ],
                "type": "Point"
            },
            "properties": {
                "capacity": 4,
                "is_installed": true,
                "is_renting": true,
                "is_returning": true,
                "is_virtual_station": false,
                "last_reported": 1789254100,
                "name": "Okresn\u00ed soud - stojany",
                "num_bikes_available": 1,
                "num_docks_available": 3,
                "region_id": "793",
                "rental_uris": {
                    "android": "https://app.nextbike.net/station?id=224082904",
                    "ios": "https://app.nextbike.net/station?id=224082904",
                    "web": "https://nxtb.it/p/224082904"
                },
                "short_name": "45331",
                "station_id": "224082904",
                "vehicle_types_available": [
                    {
                        "count": 1,
                        "vehicle_type_id": "407"
                    }
                ]
            },
            "type": "Feature"
        },
        {
            "geometry": {
                "coordinates": [
                    15.047326,
                    50.761812
                ],
                "type": "Point"
            },
            "properties": {
                "capacity": 4,
                "is_installed": true,
                "is_renting": true,
                "is_returning": true,
                "is_virtual_station": false,
                "last_reported": 1789254100,
                "name": "Vlakov\u00e9 n\u00e1dra\u017e\u00ed - par\u010d\u00edk naproti vstupu (stojany)",
                "num_bikes_available": 2,
                "num_docks_available": 2,
                "region_id": "793",
                "rental_uris": {
                    "android": "https://app.nextbike.net/station?id=224085556",
                    "ios": "https://app.nextbike.net/station?id=224085556",
                    "web": "https://nxtb.it/p/224085556"
                },
                "short_name": "45339",
                "station_id": "224085556",
                "vehicle_types_available": [
                    {
                        "count": 1,
                        "vehicle_type_id": "407"
                    },
                    {
                        "count": 1,
                        "vehicle_type_id": "302"
                    }
                ]
            },
            "type": "Feature"
        },
        {
            "geometry": {
                "coordinates": [
                    15.0586,
                    50.77158
                ],
                "type": "Point"
            },
            "properties": {
                "capacity": 4,
                "is_installed": true,
                "is_renting": true,
                "is_returning": true,
                "is_virtual_station": false,
                "last_reported": 1789254100,
                "name": "V\u011bdeck\u00e1 knihovna - stojany",
                "num_bikes_available": 1,
                "num_docks_available": 3,
                "region_id": "793",
                "rental_uris": {
                    "android": "https://app.nextbike.net/station?id=224089995",
                    "ios": "https://app.nextbike.net/station?id=224089995",
                    "web": "https://nxtb.it/p/224089995"
                },
                "short_name": "45343",
                "station_id": "224089995",
                "vehicle_types_available": [
                    {
                        "count": 1,
                        "vehicle_type_id": "302"
                    }
                ]
            },
            "type": "Feature"
        },
        {
            "geometry": {
                "coordinates": [
                    15.05523,
                    50.7677
                ],
                "type": "Point"
            },
            "properties": {
                "capacity": 6,
                "is_installed": true,
                "is_renting": true,
                "is_returning": true,
                "is_virtual_station": false,
                "last_reported": 1789254100,
                "name": "Pap\u00edr\u00e1k - vodorovn\u00e9 zna\u010den\u00ed",
                "num_bikes_available": 3,
                "num_docks_available": 2,
                "region_id": "793",
                "rental_uris": {
                    "android": "https://app.nextbike.net/station?id=224379974",
                    "ios": "https://app.nextbike.net/station?id=224379974",
                    "web": "https://nxtb.it/p/224379974"
                },
                "short_name": "45344",
                "station_id": "224379974",
                "vehicle_types_available": [
                    {
                        "count": 3,
                        "vehicle_type_id": "407"
                    }
                ]
            },
            "type": "Feature"
        },
        {
            "geometry": {
                "coordinates": [
                    15.04545,
                    50.76004
                ],
                "type": "Point"
            },
            "properties": {
                "capacity": 8,
                "is_installed": true,
                "is_renting": true,
                "is_returning": true,
                "is_virtual_station": false,
                "last_reported": 1789254100,
                "name": "Za vlakov\u00fdm n\u00e1dra\u017e\u00edm - vodorovn\u00e9 zna\u010den\u00ed",
                "num_bikes_available": 0,
                "num_docks_available": 8,
                "region_id": "793",
                "rental_uris": {
                    "android": "https://app.nextbike.net/station?id=224386178",
                    "ios": "https://app.nextbike.net/station?id=224386178",
                    "web": "https://nxtb.it/p/224386178"
                },
                "short_name": "45345",
                "station_id": "224386178",
                "vehicle_types_available": []
            },
            "type": "Feature"
        },
        {
            "geometry": {
                "coordinates": [
                    15.04868,
                    50.75424
                ],
                "type": "Point"
            },
            "properties": {
                "capacity": 6,
                "is_installed": true,
                "is_renting": true,
                "is_returning": true,
                "is_virtual_station": false,
                "last_reported": 1789254100,
                "name": "Hotel Ar\u00e9na - vodorovn\u00e9 zna\u010den\u00ed",
                "num_bikes_available": 0,
                "num_docks_available": 6,
                "region_id": "793",
                "rental_uris": {
                    "android": "https://app.nextbike.net/station?id=224397779",
                    "ios": "https://app.nextbike.net/station?id=224397779",
                    "web": "https://nxtb.it/p/224397779"
                },
                "short_name": "45483",
                "station_id": "224397779",
                "vehicle_types_available": []
            },
            "type": "Feature"
        },
        {
            "geometry": {
                "coordinates": [
                    15.05165,
                    50.7609
                ],
                "type": "Point"
            },
            "properties": {
                "capacity": 6,
                "is_installed": true,
                "is_renting": true,
                "is_returning": true,
                "is_virtual_station": false,
                "last_reported": 1789254100,
                "name": "Babylon - vodorovn\u00e9 zna\u010den\u00ed",
                "num_bikes_available": 1,
                "num_docks_available": 5,
                "region_id": "793",
                "rental_uris": {
                    "android": "https://app.nextbike.net/station?id=224404759",
                    "ios": "https://app.nextbike.net/station?id=224404759",
                    "web": "https://nxtb.it/p/224404759"
                },
                "short_name": "45485",
                "station_id": "224404759",
                "vehicle_types_available": [
                    {
                        "count": 1,
                        "vehicle_type_id": "407"
                    }
                ]
            },
            "type": "Feature"
        },
        {
            "geometry": {
                "coordinates": [
                    15.06343,
                    50.75172
                ],
                "type": "Point"
            },
            "properties": {
                "capacity": 2,
                "is_installed": true,
                "is_renting": true,
                "is_returning": true,
                "is_virtual_station": false,
                "last_reported": 1789254100,
                "name": "Dobi\u00e1\u0161ova - vodorovn\u00e9 zna\u010den\u00ed",
                "num_bikes_available": 0,
                "num_docks_available": 2,
                "region_id": "793",
                "rental_uris": {
                    "android": "https://app.nextbike.net/station?id=224418483",
                    "ios": "https://app.nextbike.net/station?id=224418483",
                    "web": "https://nxtb.it/p/224418483"
                },
                "short_name": "45486",
                "station_id": "224418483",
                "vehicle_types_available": []
            },
            "type": "Feature"
        },
        {
            "geometry": {
                "coordinates": [
                    15.06955,
                    50.75959
                ],
                "type": "Point"
            },
            "properties": {
                "capacity": 4,
                "is_installed": true,
                "is_renting": true,
                "is_returning": true,
                "is_virtual_station": false,
                "last_reported": 1789254100,
                "name": "Broumovsk\u00e1 - vodorovn\u00e9 zna\u010den\u00ed",
                "num_bikes_available": 1,
                "num_docks_available": 3,
                "region_id": "793",
                "rental_uris": {
                    "android": "https://app.nextbike.net/station?id=224437832",
                    "ios": "https://app.nextbike.net/station?id=224437832",
                    "web": "https://nxtb.it/p/224437832"
                },
                "short_name": "45487",
                "station_id": "224437832",
                "vehicle_types_available": [
                    {
                        "count": 1,
                        "vehicle_type_id": "302"
                    }
                ]
            },
            "type": "Feature"
        },
        {
            "geometry": {
                "coordinates": [
                    15.07401,
                    50.77302
                ],
                "type": "Point"
            },
            "properties": {
                "capacity": 6,
                "is_installed": true,
                "is_renting": true,
                "is_returning": true,
                "is_virtual_station": false,
                "last_reported": 1789254100,
                "name": "Univerzita - kampus (vodorovn\u00e9 zna\u010den\u00ed)",
                "num_bikes_available": 3,
                "num_docks_available": 3,
                "region_id": "793",
                "rental_uris": {
                    "android": "https://app.nextbike.net/station?id=224474325",
                    "ios": "https://app.nextbike.net/station?id=224474325",
                    "web": "https://nxtb.it/p/224474325"
                },
                "short_name": "45488",
                "station_id": "224474325",
                "vehicle_types_available": [
                    {
                        "count": 3,
                        "vehicle_type_id": "302"
                    }
                ]
            },
            "type": "Feature"
        },
        {
            "geometry": {
                "coordinates": [
                    15.06109,
                    50.77202
                ],
                "type": "Point"
            },
            "properties": {
                "capacity": 4,
                "is_installed": true,
                "is_renting": true,
                "is_returning": true,
                "is_virtual_station": false,
                "last_reported": 1789254100,
                "name": "Univerzitn\u00ed knihovna - stojany",
                "num_bikes_available": 1,
                "num_docks_available": 3,
                "region_id": "793",
                "rental_uris": {
                    "android": "https://app.nextbike.net/station?id=224475761",
                    "ios": "https://app.nextbike.net/station?id=224475761",
                    "web": "https://nxtb.it/p/224475761"
                },
                "short_name": "45489",
                "station_id": "224475761",
                "vehicle_types_available": [
                    {
                        "count": 1,
                        "vehicle_type_id": "302"
                    }
                ]
            },
            "type": "Feature"
        },
        {
            "geometry": {
                "coordinates": [
                    15.06736,
                    50.79024
                ],
                "type": "Point"
            },
            "properties": {
                "capacity": 4,
                "is_installed": true,
                "is_renting": true,
                "is_returning": true,
                "is_virtual_station": false,
                "last_reported": 1789254100,
                "name": "Ruprechtice - vodorovn\u00e9 zna\u010den\u00ed",
                "num_bikes_available": 4,
                "num_docks_available": 0,
                "region_id": "793",
                "rental_uris": {
                    "android": "https://app.nextbike.net/station?id=224489098",
                    "ios": "https://app.nextbike.net/station?id=224489098",
                    "web": "https://nxtb.it/p/224489098"
                },
                "short_name": "45490",
                "station_id": "224489098",
                "vehicle_types_available": [
                    {
                        "count": 1,
                        "vehicle_type_id": "407"
                    },
                    {
                        "count": 3,
                        "vehicle_type_id": "302"
                    }
                ]
            },
            "type": "Feature"
        },
        {
            "geometry": {
                "coordinates": [
                    15.06092,
                    50.78456
                ],
                "type": "Point"
            },
            "properties": {
                "capacity": 4,
                "is_installed": true,
                "is_renting": true,
                "is_returning": true,
                "is_virtual_station": false,
                "last_reported": 1789254100,
                "name": "Tesco - vodorovn\u00e9 zna\u010den\u00ed",
                "num_bikes_available": 1,
                "num_docks_available": 3,
                "region_id": "793",
                "rental_uris": {
                    "android": "https://app.nextbike.net/station?id=224493996",
                    "ios": "https://app.nextbike.net/station?id=224493996",
                    "web": "https://nxtb.it/p/224493996"
                },
                "short_name": "45491",
                "station_id": "224493996",
                "vehicle_types_available": [
                    {
                        "count": 1,
                        "vehicle_type_id": "302"
                    }
                ]
            },
            "type": "Feature"
        },
        {
            "geometry": {
                "coordinates": [
                    15.04557,
                    50.78317
                ],
                "type": "Point"
            },
            "properties": {
                "capacity": 6,
                "is_installed": true,
                "is_renting": true,
                "is_returning": true,
                "is_virtual_station": false,
                "last_reported": 1789254100,
                "name": "Jablo\u0148ov\u00e1",
                "num_bikes_available": 4,
                "num_docks_available": 2,
                "region_id": "793",
                "rental_uris": {
                    "android": "https://app.nextbike.net/station?id=224506248",
                    "ios": "https://app.nextbike.net/station?id=224506248",
                    "web": "https://nxtb.it/p/224506248"
                },
                "short_name": "45492",
                "station_id": "224506248",
                "vehicle_types_available": [
                    {
                        "count": 1,
                        "vehicle_type_id": "407"
                    },
                    {
                        "count": 3,
                        "vehicle_type_id": "302"
                    }
                ]
            },
            "type": "Feature"
        },
        {
            "geometry": {
                "coordinates": [
                    15.05772,
                    50.77033
                ],
                "type": "Point"
            },
            "properties": {
                "capacity": 2,
                "is_installed": true,
                "is_renting": true,
                "is_returning": true,
                "is_virtual_station": false,
                "last_reported": 1789254100,
                "name": "Magistr\u00e1t - stojany",
                "num_bikes_available": 2,
                "num_docks_available": 0,
                "region_id": "793",
                "rental_uris": {
                    "android": "https://app.nextbike.net/station?id=224608325",
                    "ios": "https://app.nextbike.net/station?id=224608325",
                    "web": "https://nxtb.it/p/224608325"
                },
                "short_name": "45366",
                "station_id": "224608325",
                "vehicle_types_available": [
                    {
                        "count": 1,
                        "vehicle_type_id": "407"
                    },
                    {
                        "count": 1,
                        "vehicle_type_id": "302"
                    }
                ]
            },
            "type": "Feature"
        },
        {
            "geometry": {
                "coordinates": [
                    15.04527,
                    50.76741
                ],
                "type": "Point"
            },
            "properties": {
                "capacity": 2,
                "is_installed": true,
                "is_renting": true,
                "is_returning": true,
                "is_virtual_station": false,
                "last_reported": 1789254100,
                "name": "Wintrova - stojan",
                "num_bikes_available": 5,
                "num_docks_available": 0,
                "region_id": "793",
                "rental_uris": {
                    "android": "https://app.nextbike.net/station?id=226820826",
                    "ios": "https://app.nextbike.net/station?id=226820826",
                    "web": "https://nxtb.it/p/226820826"
                },
                "short_name": "45073",
                "station_id": "226820826",
                "vehicle_types_available": [
                    {
                        "count": 5,
                        "vehicle_type_id": "302"
                    }
                ]
            },
            "type": "Feature"
        },
        {
            "geometry": {
                "coordinates": [
                    15.03876,
                    50.77889
                ],
                "type": "Point"
            },
            "properties": {
                "capacity": 6,
                "is_installed": true,
                "is_renting": true,
                "is_returning": true,
                "is_virtual_station": false,
                "last_reported": 1789254100,
                "name": "Cyklostezka Norsk\u00e1 - stojany",
                "num_bikes_available": 4,
                "num_docks_available": 2,
                "region_id": "793",
                "rental_uris": {
                    "android": "https://app.nextbike.net/station?id=233879244",
                    "ios": "https://app.nextbike.net/station?id=233879244",
                    "web": "https://nxtb.it/p/233879244"
                },
                "short_name": "45372",
                "station_id": "233879244",
                "vehicle_types_available": [
                    {
                        "count": 4,
                        "vehicle_type_id": "302"
                    }
                ]
            },
            "type": "Feature"
        },
        {
            "geometry": {
                "coordinates": [
                    15.05286,
                    50.76565
                ],
                "type": "Point"
            },
            "properties": {
                "capacity": 4,
                "is_installed": true,
                "is_renting": true,
                "is_returning": true,
                "is_virtual_station": false,
                "last_reported": 1789254100,
                "name": "Rybn\u00ed\u010dek - tram (stojan)",
                "num_bikes_available": 13,
                "num_docks_available": 0,
                "region_id": "793",
                "rental_uris": {
                    "android": "https://app.nextbike.net/station?id=233882131",
                    "ios": "https://app.nextbike.net/station?id=233882131",
                    "web": "https://nxtb.it/p/233882131"
                },
                "short_name": "45374",
                "station_id": "233882131",
                "vehicle_types_available": [
                    {
                        "count": 7,
                        "vehicle_type_id": "407"
                    },
                    {
                        "count": 6,
                        "vehicle_type_id": "302"
                    }
                ]
            },
            "type": "Feature"
        },
        {
            "geometry": {
                "coordinates": [
                    15.05667,
                    50.76959
                ],
                "type": "Point"
            },
            "properties": {
                "capacity": 6,
                "is_installed": true,
                "is_renting": true,
                "is_returning": true,
                "is_virtual_station": false,
                "last_reported": 1789254100,
                "name": "Kosteln\u00ed - stojany",
                "num_bikes_available": 0,
                "num_docks_available": 6,
                "region_id": "793",
                "rental_uris": {
                    "android": "https://app.nextbike.net/station?id=233882794",
                    "ios": "https://app.nextbike.net/station?id=233882794",
                    "web": "https://nxtb.it/p/233882794"
                },
                "short_name": "45375",
                "station_id": "233882794",
                "vehicle_types_available": []
            },
            "type": "Feature"
        },
        {
            "geometry": {
                "coordinates": [
                    15.088,
                    50.76832
                ],
                "type": "Point"
            },
            "properties": {
                "capacity": 4,
                "is_installed": true,
                "is_renting": true,
                "is_returning": true,
                "is_virtual_station": false,
                "last_reported": 1789254100,
                "name": "Koleje Harcov",
                "num_bikes_available": 7,
                "num_docks_available": 0,
                "region_id": "793",
                "rental_uris": {
                    "android": "https://app.nextbike.net/station?id=254739169",
                    "ios": "https://app.nextbike.net/station?id=254739169",
                    "web": "https://nxtb.it/p/254739169"
                },
                "short_name": "45377",
                "station_id": "254739169",
                "vehicle_types_available": [
                    {
                        "count": 2,
                        "vehicle_type_id": "407"
                    },
                    {
                        "count": 5,
                        "vehicle_type_id": "302"
                    }
                ]
            },
            "type": "Feature"
        },
        {
            "geometry": {
                "coordinates": [
                    15.07069,
                    50.78234
                ],
                "type": "Point"
            },
            "properties": {
                "capacity": 4,
                "is_installed": true,
                "is_renting": true,
                "is_returning": true,
                "is_virtual_station": false,
                "last_reported": 1789254100,
                "name": "Baltsk\u00e1 - vodorovn\u00e9 zna\u010den\u00ed",
                "num_bikes_available": 1,
                "num_docks_available": 3,
                "region_id": "793",
                "rental_uris": {
                    "android": "https://app.nextbike.net/station?id=262139529",
                    "ios": "https://app.nextbike.net/station?id=262139529",
                    "web": "https://nxtb.it/p/262139529"
                },
                "short_name": "45573",
                "station_id": "262139529",
                "vehicle_types_available": [
                    {
                        "count": 1,
                        "vehicle_type_id": "302"
                    }
                ]
            },
            "type": "Feature"
        },
        {
            "geometry": {
                "coordinates": [
                    15.03272,
                    50.75085
                ],
                "type": "Point"
            },
            "properties": {
                "capacity": 4,
                "is_installed": true,
                "is_renting": true,
                "is_returning": true,
                "is_virtual_station": false,
                "last_reported": 1789254100,
                "name": "Kubel\u00edkova - vodorovn\u00e9 zna\u010den\u00ed",
                "num_bikes_available": 0,
                "num_docks_available": 4,
                "region_id": "793",
                "rental_uris": {
                    "android": "https://app.nextbike.net/station?id=262150822",
                    "ios": "https://app.nextbike.net/station?id=262150822",
                    "web": "https://nxtb.it/p/262150822"
                },
                "short_name": "45575",
                "station_id": "262150822",
                "vehicle_types_available": []
            },
            "type": "Feature"
        },
        {
            "geometry": {
                "coordinates": [
                    15.04329,
                    50.75751
                ],
                "type": "Point"
            },
            "properties": {
                "capacity": 4,
                "is_installed": true,
                "is_renting": true,
                "is_returning": true,
                "is_virtual_station": false,
                "last_reported": 1789254100,
                "name": "zast\u00e1vka Star\u00e9 Pek\u00e1rny - vodorovn\u00e9 zna\u010den\u00ed",
                "num_bikes_available": 2,
                "num_docks_available": 1,
                "region_id": "793",
                "rental_uris": {
                    "android": "https://app.nextbike.net/station?id=262152830",
                    "ios": "https://app.nextbike.net/station?id=262152830",
                    "web": "https://nxtb.it/p/262152830"
                },
                "short_name": "45576",
                "station_id": "262152830",
                "vehicle_types_available": [
                    {
                        "count": 2,
                        "vehicle_type_id": "302"
                    }
                ]
            },
            "type": "Feature"
        },
        {
            "geometry": {
                "coordinates": [
                    15.05139,
                    50.7651
                ],
                "type": "Point"
            },
            "properties": {
                "capacity": 4,
                "is_installed": true,
                "is_renting": true,
                "is_returning": true,
                "is_virtual_station": false,
                "last_reported": 1789254100,
                "name": "Na Rybn\u00ed\u010dku /1.m\u00e1je - vodorovn\u00e9 zna\u010den\u00ed",
                "num_bikes_available": 4,
                "num_docks_available": 0,
                "region_id": "793",
                "rental_uris": {
                    "android": "https://app.nextbike.net/station?id=262155794",
                    "ios": "https://app.nextbike.net/station?id=262155794",
                    "web": "https://nxtb.it/p/262155794"
                },
                "short_name": "45578",
                "station_id": "262155794",
                "vehicle_types_available": [
                    {
                        "count": 2,
                        "vehicle_type_id": "407"
                    },
                    {
                        "count": 2,
                        "vehicle_type_id": "302"
                    }
                ]
            },
            "type": "Feature"
        },
        {
            "geometry": {
                "coordinates": [
                    15.05485,
                    50.77037
                ],
                "type": "Point"
            },
            "properties": {
                "capacity": 4,
                "is_installed": true,
                "is_renting": true,
                "is_returning": true,
                "is_virtual_station": false,
                "last_reported": 1789254100,
                "name": "Sokolovsk\u00e9 n\u00e1m\u011bst\u00ed - vodorovn\u00e9 zna\u010den\u00ed",
                "num_bikes_available": 0,
                "num_docks_available": 4,
                "region_id": "793",
                "rental_uris": {
                    "android": "https://app.nextbike.net/station?id=262158417",
                    "ios": "https://app.nextbike.net/station?id=262158417",
                    "web": "https://nxtb.it/p/262158417"
                },
                "short_name": "45579",
                "station_id": "262158417",
                "vehicle_types_available": []
            },
            "type": "Feature"
        },
        {
            "geometry": {
                "coordinates": [
                    15.07069,
                    50.75213
                ],
                "type": "Point"
            },
            "properties": {
                "capacity": 4,
                "is_installed": true,
                "is_renting": true,
                "is_returning": true,
                "is_virtual_station": false,
                "last_reported": 1789254100,
                "name": "Dobi\u00e1\u0161ov - Albert (stojany)",
                "num_bikes_available": 2,
                "num_docks_available": 2,
                "region_id": "793",
                "rental_uris": {
                    "android": "https://app.nextbike.net/station?id=262161096",
                    "ios": "https://app.nextbike.net/station?id=262161096",
                    "web": "https://nxtb.it/p/262161096"
                },
                "short_name": "45580",
                "station_id": "262161096",
                "vehicle_types_available": [
                    {
                        "count": 2,
                        "vehicle_type_id": "407"
                    }
                ]
            },
            "type": "Feature"
        },
        {
            "geometry": {
                "coordinates": [
                    15.05552,
                    50.7522
                ],
                "type": "Point"
            },
            "properties": {
                "capacity": 4,
                "is_installed": true,
                "is_renting": true,
                "is_returning": true,
                "is_virtual_station": false,
                "last_reported": 1789254100,
                "name": "Rochlice - Kaufland (stojany)",
                "num_bikes_available": 1,
                "num_docks_available": 3,
                "region_id": "793",
                "rental_uris": {
                    "android": "https://app.nextbike.net/station?id=262161956",
                    "ios": "https://app.nextbike.net/station?id=262161956",
                    "web": "https://nxtb.it/p/262161956"
                },
                "short_name": "45581",
                "station_id": "262161956",
                "vehicle_types_available": [
                    {
                        "count": 1,
                        "vehicle_type_id": "302"
                    }
                ]
            },
            "type": "Feature"
        },
        {
            "geometry": {
                "coordinates": [
                    15.054043,
                    50.780201
                ],
                "type": "Point"
            },
            "properties": {
                "capacity": 4,
                "is_installed": true,
                "is_renting": true,
                "is_returning": true,
                "is_virtual_station": false,
                "last_reported": 1789254100,
                "name": "MHD Vrchlick\u00e9ho - vodorovn\u00e9 zna\u010den\u00ed",
                "num_bikes_available": 5,
                "num_docks_available": 0,
                "region_id": "793",
                "rental_uris": {
                    "android": "https://app.nextbike.net/station?id=284002874",
                    "ios": "https://app.nextbike.net/station?id=284002874",
                    "web": "https://nxtb.it/p/284002874"
                },
                "short_name": "45482",
                "station_id": "284002874",
                "vehicle_types_available": [
                    {
                        "count": 2,
                        "vehicle_type_id": "407"
                    },
                    {
                        "count": 3,
                        "vehicle_type_id": "302"
                    }
                ]
            },
            "type": "Feature"
        },
        {
            "geometry": {
                "coordinates": [
                    15.087313,
                    50.771113
                ],
                "type": "Point"
            },
            "properties": {
                "capacity": 4,
                "is_installed": true,
                "is_renting": true,
                "is_returning": true,
                "is_virtual_station": false,
                "last_reported": 1789254100,
                "name": "Zanzibar - vodorovn\u00e9 zna\u010den\u00ed",
                "num_bikes_available": 1,
                "num_docks_available": 3,
                "region_id": "793",
                "rental_uris": {
                    "android": "https://app.nextbike.net/station?id=294204496",
                    "ios": "https://app.nextbike.net/station?id=294204496",
                    "web": "https://nxtb.it/p/294204496"
                },
                "short_name": "45895",
                "station_id": "294204496",
                "vehicle_types_available": [
                    {
                        "count": 1,
                        "vehicle_type_id": "302"
                    }
                ]
            },
            "type": "Feature"
        },
        {
            "geometry": {
                "coordinates": [
                    15.07667,
                    50.76581
                ],
                "type": "Point"
            },
            "properties": {
                "capacity": 4,
                "is_installed": true,
                "is_renting": true,
                "is_returning": true,
                "is_virtual_station": false,
                "last_reported": 1789254100,
                "name": "S\u0160 gastronomie",
                "num_bikes_available": 2,
                "num_docks_available": 2,
                "region_id": "793",
                "rental_uris": {
                    "android": "https://app.nextbike.net/station?id=447394375",
                    "ios": "https://app.nextbike.net/station?id=447394375",
                    "web": "https://nxtb.it/p/447394375"
                },
                "short_name": "46592",
                "station_id": "447394375",
                "vehicle_types_available": [
                    {
                        "count": 2,
                        "vehicle_type_id": "302"
                    }
                ]
            },
            "type": "Feature"
        },
        {
            "geometry": {
                "coordinates": [
                    15.0625,
                    50.74748
                ],
                "type": "Point"
            },
            "properties": {
                "capacity": 4,
                "is_installed": true,
                "is_renting": true,
                "is_returning": true,
                "is_virtual_station": false,
                "last_reported": 1789254100,
                "name": "Po\u0161tovn\u00ed n\u00e1m\u011bst\u00ed",
                "num_bikes_available": 6,
                "num_docks_available": 0,
                "region_id": "793",
                "rental_uris": {
                    "android": "https://app.nextbike.net/station?id=447394883",
                    "ios": "https://app.nextbike.net/station?id=447394883",
                    "web": "https://nxtb.it/p/447394883"
                },
                "short_name": "46593",
                "station_id": "447394883",
                "vehicle_types_available": [
                    {
                        "count": 3,
                        "vehicle_type_id": "407"
                    },
                    {
                        "count": 3,
                        "vehicle_type_id": "302"
                    }
                ]
            },
            "type": "Feature"
        },
        {
            "geometry": {
                "coordinates": [
                    15.03839,
                    50.75951
                ],
                "type": "Point"
            },
            "properties": {
                "capacity": 4,
                "is_installed": true,
                "is_renting": true,
                "is_returning": true,
                "is_virtual_station": false,
                "last_reported": 1789254100,
                "name": "Americk\u00e1",
                "num_bikes_available": 1,
                "num_docks_available": 3,
                "region_id": "793",
                "rental_uris": {
                    "android": "https://app.nextbike.net/station?id=447395534",
                    "ios": "https://app.nextbike.net/station?id=447395534",
                    "web": "https://nxtb.it/p/447395534"
                },
                "short_name": "46594",
                "station_id": "447395534",
                "vehicle_types_available": [
                    {
                        "count": 1,
                        "vehicle_type_id": "302"
                    }
                ]
            },
            "type": "Feature"
        },
        {
            "geometry": {
                "coordinates": [
                    15.06338,
                    50.76855
                ],
                "type": "Point"
            },
            "properties": {
                "capacity": 4,
                "is_installed": true,
                "is_renting": true,
                "is_returning": true,
                "is_virtual_station": false,
                "last_reported": 1789254100,
                "name": "Jabloneck\u00e1",
                "num_bikes_available": 1,
                "num_docks_available": 3,
                "region_id": "793",
                "rental_uris": {
                    "android": "https://app.nextbike.net/station?id=447396989",
                    "ios": "https://app.nextbike.net/station?id=447396989",
                    "web": "https://nxtb.it/p/447396989"
                },
                "short_name": "46595",
                "station_id": "447396989",
                "vehicle_types_available": [
                    {
                        "count": 1,
                        "vehicle_type_id": "302"
                    }
                ]
            },
            "type": "Feature"
        },
        {
            "geometry": {
                "coordinates": [
                    15.06384,
                    50.78032
                ],
                "type": "Point"
            },
            "properties": {
                "capacity": 4,
                "is_installed": true,
                "is_renting": true,
                "is_returning": true,
                "is_virtual_station": false,
                "last_reported": 1789254100,
                "name": "Ruprechtick\u00e1",
                "num_bikes_available": 6,
                "num_docks_available": 0,
                "region_id": "793",
                "rental_uris": {
                    "android": "https://app.nextbike.net/station?id=447397370",
                    "ios": "https://app.nextbike.net/station?id=447397370",
                    "web": "https://nxtb.it/p/447397370"
                },
                "short_name": "46596",
                "station_id": "447397370",
                "vehicle_types_available": [
                    {
                        "count": 4,
                        "vehicle_type_id": "407"
                    },
                    {
                        "count": 2,
                        "vehicle_type_id": "302"
                    }
                ]
            },
            "type": "Feature"
        },
        {
            "geometry": {
                "coordinates": [
                    15.05161,
                    50.77681
                ],
                "type": "Point"
            },
            "properties": {
                "capacity": 4,
                "is_installed": true,
                "is_renting": true,
                "is_returning": true,
                "is_virtual_station": false,
                "last_reported": 1789254100,
                "name": "Slovan",
                "num_bikes_available": 15,
                "num_docks_available": 0,
                "region_id": "793",
                "rental_uris": {
                    "android": "https://app.nextbike.net/station?id=448041435",
                    "ios": "https://app.nextbike.net/station?id=448041435",
                    "web": "https://nxtb.it/p/448041435"
                },
                "short_name": "46597",
                "station_id": "448041435",
                "vehicle_types_available": [
                    {
                        "count": 11,
                        "vehicle_type_id": "302"
                    },
                    {
                        "count": 4,
                        "vehicle_type_id": "407"
                    }
                ]
            },
            "type": "Feature"
        },
        {
            "geometry": {
                "coordinates": [
                    15.06218,
                    50.77484
                ],
                "type": "Point"
            },
            "properties": {
                "capacity": 4,
                "is_installed": true,
                "is_renting": true,
                "is_returning": true,
                "is_virtual_station": false,
                "last_reported": 1789254100,
                "name": "Dudychova, Albert",
                "num_bikes_available": 5,
                "num_docks_available": 0,
                "region_id": "793",
                "rental_uris": {
                    "android": "https://app.nextbike.net/station?id=616035970",
                    "ios": "https://app.nextbike.net/station?id=616035970",
                    "web": "https://nxtb.it/p/616035970"
                },
                "short_name": "45191",
                "station_id": "616035970",
                "vehicle_types_available": [
                    {
                        "count": 1,
                        "vehicle_type_id": "407"
                    },
                    {
                        "count": 4,
                        "vehicle_type_id": "302"
                    }
                ]
            },
            "type": "Feature"
        },
        {
            "geometry": {
                "coordinates": [
                    15.053531,
                    50.763878
                ],
                "type": "Point"
            },
            "properties": {
                "capacity": 2,
                "is_installed": true,
                "is_renting": true,
                "is_returning": true,
                "is_virtual_station": false,
                "last_reported": 1789254100,
                "name": "Liberec - Krajsk\u00fd \u00fa\u0159ad (cyklostojany)",
                "num_bikes_available": 0,
                "num_docks_available": 2,
                "region_id": "793",
                "rental_uris": {
                    "android": "https://app.nextbike.net/station?id=620300974",
                    "ios": "https://app.nextbike.net/station?id=620300974",
                    "web": "https://nxtb.it/p/620300974"
                },
                "short_name": "45484",
                "station_id": "620300974",
                "vehicle_types_available": []
            },
            "type": "Feature"
        },
        {
            "geometry": {
                "coordinates": [
                    15.09338,
                    50.7611
                ],
                "type": "Point"
            },
            "properties": {
                "capacity": 2,
                "is_installed": true,
                "is_renting": true,
                "is_returning": true,
                "is_virtual_station": false,
                "last_reported": 1789254100,
                "name": "Kunratick\u00e1 1",
                "num_bikes_available": 3,
                "num_docks_available": 0,
                "region_id": "793",
                "rental_uris": {
                    "android": "https://app.nextbike.net/station?id=623449283",
                    "ios": "https://app.nextbike.net/station?id=623449283",
                    "web": "https://nxtb.it/p/623449283"
                },
                "short_name": "495899",
                "station_id": "623449283",
                "vehicle_types_available": [
                    {
                        "count": 1,
                        "vehicle_type_id": "407"
                    },
                    {
                        "count": 2,
                        "vehicle_type_id": "302"
                    }
                ]
            },
            "type": "Feature"
        },
        {
            "geometry": {
                "coordinates": [
                    15.09179,
                    50.76198
                ],
                "type": "Point"
            },
            "properties": {
                "capacity": 2,
                "is_installed": true,
                "is_renting": true,
                "is_returning": true,
                "is_virtual_station": false,
                "last_reported": 1789254100,
                "name": "Kunratick\u00e1 2",
                "num_bikes_available": 1,
                "num_docks_available": 1,
                "region_id": "793",
                "rental_uris": {
                    "android": "https://app.nextbike.net/station?id=623449535",
                    "ios": "https://app.nextbike.net/station?id=623449535",
                    "web": "https://nxtb.it/p/623449535"
                },
                "short_name": "495898",
                "station_id": "623449535",
                "vehicle_types_available": [
                    {
                        "count": 1,
                        "vehicle_type_id": "407"
                    }
                ]
            },
            "type": "Feature"
        },
        {
            "geometry": {
                "coordinates": [
                    15.09588,
                    50.76176
                ],
                "type": "Point"
            },
            "properties": {
                "capacity": 2,
                "is_installed": true,
                "is_renting": true,
                "is_returning": true,
                "is_virtual_station": false,
                "last_reported": 1789254100,
                "name": "Kunratick\u00e1 3",
                "num_bikes_available": 0,
                "num_docks_available": 2,
                "region_id": "793",
                "rental_uris": {
                    "android": "https://app.nextbike.net/station?id=623449744",
                    "ios": "https://app.nextbike.net/station?id=623449744",
                    "web": "https://nxtb.it/p/623449744"
                },
                "short_name": "495897",
                "station_id": "623449744",
                "vehicle_types_available": []
            },
            "type": "Feature"
        },
        {
            "geometry": {
                "coordinates": [
                    15.04746,
                    50.78071
                ],
                "type": "Point"
            },
            "properties": {
                "capacity": 2,
                "is_installed": true,
                "is_renting": true,
                "is_returning": true,
                "is_virtual_station": false,
                "last_reported": 1789254100,
                "name": "Libu\u0161ina",
                "num_bikes_available": 0,
                "num_docks_available": 2,
                "region_id": "793",
                "rental_uris": {
                    "android": "https://app.nextbike.net/station?id=623449912",
                    "ios": "https://app.nextbike.net/station?id=623449912",
                    "web": "https://nxtb.it/p/623449912"
                },
                "short_name": "495896",
                "station_id": "623449912",
                "vehicle_types_available": []
            },
            "type": "Feature"
        },
        {
            "geometry": {
                "coordinates": [
                    15.03372,
                    50.75188
                ],
                "type": "Point"
            },
            "properties": {
                "capacity": 2,
                "is_installed": true,
                "is_renting": true,
                "is_returning": true,
                "is_virtual_station": false,
                "last_reported": 1789254100,
                "name": "Je\u0161t\u011bdsk\u00e1",
                "num_bikes_available": 0,
                "num_docks_available": 2,
                "region_id": "793",
                "rental_uris": {
                    "android": "https://app.nextbike.net/station?id=623450102",
                    "ios": "https://app.nextbike.net/station?id=623450102",
                    "web": "https://nxtb.it/p/623450102"
                },
                "short_name": "495895",
                "station_id": "623450102",
                "vehicle_types_available": []
            },
            "type": "Feature"
        },
        {
            "geometry": {
                "coordinates": [
                    15.0346,
                    50.76118
                ],
                "type": "Point"
            },
            "properties": {
                "capacity": 2,
                "is_installed": true,
                "is_renting": true,
                "is_returning": true,
                "is_virtual_station": false,
                "last_reported": 1789254100,
                "name": "\u0160vermova, Billa",
                "num_bikes_available": 6,
                "num_docks_available": 0,
                "region_id": "793",
                "rental_uris": {
                    "android": "https://app.nextbike.net/station?id=623450222",
                    "ios": "https://app.nextbike.net/station?id=623450222",
                    "web": "https://nxtb.it/p/623450222"
                },
                "short_name": "495894",
                "station_id": "623450222",
                "vehicle_types_available": [
                    {
                        "count": 3,
                        "vehicle_type_id": "407"
                    },
                    {
                        "count": 3,
                        "vehicle_type_id": "302"
                    }
                ]
            },
            "type": "Feature"
        },
        {
            "geometry": {
                "coordinates": [
                    15.04139,
                    50.7648
                ],
                "type": "Point"
            },
            "properties": {
                "capacity": 2,
                "is_installed": true,
                "is_renting": true,
                "is_returning": true,
                "is_virtual_station": false,
                "last_reported": 1789254100,
                "name": "Mydl\u00e1\u0159sk\u00e1",
                "num_bikes_available": 2,
                "num_docks_available": 0,
                "region_id": "793",
                "rental_uris": {
                    "android": "https://app.nextbike.net/station?id=623450353",
                    "ios": "https://app.nextbike.net/station?id=623450353",
                    "web": "https://nxtb.it/p/623450353"
                },
                "short_name": "495893",
                "station_id": "623450353",
                "vehicle_types_available": [
                    {
                        "count": 1,
                        "vehicle_type_id": "407"
                    },
                    {
                        "count": 1,
                        "vehicle_type_id": "302"
                    }
                ]
            },
            "type": "Feature"
        },
        {
            "geometry": {
                "coordinates": [
                    15.06987,
                    50.77386
                ],
                "type": "Point"
            },
            "properties": {
                "capacity": 2,
                "is_installed": true,
                "is_renting": true,
                "is_returning": true,
                "is_virtual_station": false,
                "last_reported": 1789254100,
                "name": "Residence park Masarykova",
                "num_bikes_available": 1,
                "num_docks_available": 1,
                "region_id": "793",
                "rental_uris": {
                    "android": "https://app.nextbike.net/station?id=623450503",
                    "ios": "https://app.nextbike.net/station?id=623450503",
                    "web": "https://nxtb.it/p/623450503"
                },
                "short_name": "495892",
                "station_id": "623450503",
                "vehicle_types_available": [
                    {
                        "count": 1,
                        "vehicle_type_id": "302"
                    }
                ]
            },
            "type": "Feature"
        },
        {
            "geometry": {
                "coordinates": [
                    15.03076,
                    50.78235
                ],
                "type": "Point"
            },
            "properties": {
                "capacity": 2,
                "is_installed": true,
                "is_renting": true,
                "is_returning": true,
                "is_virtual_station": false,
                "last_reported": 1789254100,
                "name": "\u017delez\u00e1\u0159stv\u00ed Brad\u00e1\u010d",
                "num_bikes_available": 4,
                "num_docks_available": 0,
                "region_id": "793",
                "rental_uris": {
                    "android": "https://app.nextbike.net/station?id=623450633",
                    "ios": "https://app.nextbike.net/station?id=623450633",
                    "web": "https://nxtb.it/p/623450633"
                },
                "short_name": "495891",
                "station_id": "623450633",
                "vehicle_types_available": [
                    {
                        "count": 2,
                        "vehicle_type_id": "407"
                    },
                    {
                        "count": 2,
                        "vehicle_type_id": "302"
                    }
                ]
            },
            "type": "Feature"
        },
        {
            "geometry": {
                "coordinates": [
                    15.0413,
                    50.75086
                ],
                "type": "Point"
            },
            "properties": {
                "capacity": 2,
                "is_installed": true,
                "is_renting": true,
                "is_returning": true,
                "is_virtual_station": false,
                "last_reported": 1789254100,
                "name": "Gagarinova",
                "num_bikes_available": 1,
                "num_docks_available": 1,
                "region_id": "793",
                "rental_uris": {
                    "android": "https://app.nextbike.net/station?id=623450753",
                    "ios": "https://app.nextbike.net/station?id=623450753",
                    "web": "https://nxtb.it/p/623450753"
                },
                "short_name": "495890",
                "station_id": "623450753",
                "vehicle_types_available": [
                    {
                        "count": 1,
                        "vehicle_type_id": "302"
                    }
                ]
            },
            "type": "Feature"
        },
        {
            "geometry": {
                "coordinates": [
                    15.07566,
                    50.78902
                ],
                "type": "Point"
            },
            "properties": {
                "is_installed": true,
                "is_renting": true,
                "is_returning": true,
                "is_virtual_station": false,
                "last_reported": 1789254100,
                "name": "U Slune\u010dn\u00edch l\u00e1zn\u00ed",
                "num_bikes_available": 0,
                "num_docks_available": 0,
                "region_id": "793",
                "rental_uris": {
                    "android": "https://app.nextbike.net/station?id=628777875",
                    "ios": "https://app.nextbike.net/station?id=628777875",
                    "web": "https://nxtb.it/p/628777875"
                },
                "short_name": "495889",
                "station_id": "628777875",
                "vehicle_types_available": []
            },
            "type": "Feature"
        }
    ],
    "gbfs": {
        "station_information": {
            "last_updated": 1789254100,
            "ttl": 60,
            "version": "2.3"
        },
        "station_status": {
            "last_updated": 1789254100,
            "ttl": 60,
            "version": "2.3"
        }
    },
    "type": "FeatureCollection"
}