{
    "features": [
        {
            "geometry": {
                "coordinates": [
                    17.53189,
                    49.20268
                ],
                "type": "Point"
            },
            "properties": {
                "capacity": 4,
                "is_installed": true,
                "is_renting": true,
                "is_returning": true,
                "is_virtual_station": false,
                "last_reported": 1789135299,
                "name": "Vlakov\u00e9 n\u00e1dra\u017e\u00ed",
                "num_bikes_available": 5,
                "num_docks_available": 0,
                "region_id": "1251",
                "rental_uris": {
                    "android": "https://app.nextbike.net/station?id=600497814",
                    "ios": "https://app.nextbike.net/station?id=600497814",
                    "web": "https://nxtb.it/p/600497814"
                },
                "short_name": "47557",
                "station_id": "600497814",
                "vehicle_types_available": [
                    {
                        "count": 5,
                        "vehicle_type_id": "254"
                    }
                ]
            },
            "type": "Feature"
        },
        {
            "geometry": {
                "coordinates": [
                    17.53634,
                    49.20517
                ],
                "type": "Point"
            },
            "properties": {
                "capacity": 4,
                "is_installed": true,
                "is_renting": true,
                "is_returning": true,
                "is_virtual_station": false,
                "last_reported": 1789135299,
                "name": "Poliklinika",
                "num_bikes_available": 2,
                "num_docks_available": 2,
                "region_id": "1251",
                "rental_uris": {
                    "android": "https://app.nextbike.net/station?id=600497894",
                    "ios": "https://app.nextbike.net/station?id=600497894",
                    "web": "https://nxtb.it/p/600497894"
                },
                "short_name": "47558",
                "station_id": "600497894",
                "vehicle_types_available": [
                    {
                        "count": 2,
                        "vehicle_type_id": "254"
                    }
                ]
            },
            "type": "Feature"
        },
        {
            "geometry": {
                "coordinates": [
                    17.54551,
                    49.20149
                ],
                "type": "Point"
            },
            "properties": {
                "capacity": 4,
                "is_installed": true,
                "is_renting": true,
                "is_returning": true,
                "is_virtual_station": false,
                "last_reported": 1789135299,
                "name": "Srdcovka",
                "num_bikes_available": 0,
                "num_docks_available": 4,
                "region_id": "1251",
                "rental_uris": {
                    "android": "https://app.nextbike.net/station?id=600497944",
                    "ios": "https://app.nextbike.net/station?id=600497944",
                    "web": "https://nxtb.it/p/600497944"
                },
                "short_name": "47559",
                "station_id": "600497944",
                "vehicle_types_available": []
            },
            "type": "Feature"
        },
        {
            "geometry": {
                "coordinates": [
                    17.5363,
                    49.20707
                ],
                "type": "Point"
            },
            "properties": {
                "capacity": 4,
                "is_installed": true,
                "is_renting": true,
                "is_returning": true,
                "is_virtual_station": false,
                "last_reported": 1789135299,
                "name": "Otrokovick\u00e1 beseda",
                "num_bikes_available": 0,
                "num_docks_available": 4,
                "region_id": "1251",
                "rental_uris": {
                    "android": "https://app.nextbike.net/station?id=600497983",
                    "ios": "https://app.nextbike.net/station?id=600497983",
                    "web": "https://nxtb.it/p/600497983"
                },
                "short_name": "47560",
                "station_id": "600497983",
                "vehicle_types_available": []
            },
            "type": "Feature"
        },
        {
            "geometry": {
                "coordinates": [
                    17.53115,
                    49.20864
                ],
                "type": "Point"
            },
            "properties": {
                "capacity": 4,
                "is_installed": true,
                "is_renting": true,
                "is_returning": true,
                "is_virtual_station": false,
                "last_reported": 1789135299,
                "name": "Dru\u017estevn\u00ed",
                "num_bikes_available": 2,
                "num_docks_available": 2,
                "region_id": "1251",
                "rental_uris": {
                    "android": "https://app.nextbike.net/station?id=600498049",
                    "ios": "https://app.nextbike.net/station?id=600498049",
                    "web": "https://nxtb.it/p/600498049"
                },
                "short_name": "47561",
                "station_id": "600498049",
                "vehicle_types_available": [
                    {
                        "count": 2,
                        "vehicle_type_id": "254"
                    }
                ]
            },
            "type": "Feature"
        },
        {
            "geometry": {
                "coordinates": [
                    17.53405,
                    49.2093
                ],
                "type": "Point"
            },
            "properties": {
                "capacity": 4,
                "is_installed": true,
                "is_renting": true,
                "is_returning": true,
                "is_virtual_station": false,
                "last_reported": 1789135299,
                "name": "M\u011bstsk\u00e1 galerie",
                "num_bikes_available": 5,
                "num_docks_available": 0,
                "region_id": "1251",
                "rental_uris": {
                    "android": "https://app.nextbike.net/station?id=600498105",
                    "ios": "https://app.nextbike.net/station?id=600498105",
                    "web": "https://nxtb.it/p/600498105"
                },
                "short_name": "47562",
                "station_id": "600498105",
                "vehicle_types_available": [
                    {
                        "count": 5,
                        "vehicle_type_id": "254"
                    }
                ]
            },
            "type": "Feature"
        },
        {
            "geometry": {
                "coordinates": [
                    17.53753,
                    49.20858
                ],
                "type": "Point"
            },
            "properties": {
                "capacity": 4,
                "is_installed": true,
                "is_renting": true,
                "is_returning": true,
                "is_virtual_station": false,
                "last_reported": 1789135299,
                "name": "Hlo\u017ekova",
                "num_bikes_available": 1,
                "num_docks_available": 3,
                "region_id": "1251",
                "rental_uris": {
                    "android": "https://app.nextbike.net/station?id=600498153",
                    "ios": "https://app.nextbike.net/station?id=600498153",
                    "web": "https://nxtb.it/p/600498153"
                },
                "short_name": "47563",
                "station_id": "600498153",
                "vehicle_types_available": [
                    {
                        "count": 1,
                        "vehicle_type_id": "254"
                    }
                ]
            },
            "type": "Feature"
        },
        {
            "geometry": {
                "coordinates": [
                    17.50778,
                    49.21099
                ],
                "type": "Point"
            },
            "properties": {
                "capacity": 4,
                "is_installed": true,
                "is_renting": true,
                "is_returning": true,
                "is_virtual_station": false,
                "last_reported": 1789135299,
                "name": "P\u0159\u00edstavi\u0161t\u011b",
                "num_bikes_available": 2,
                "num_docks_available": 2,
                "region_id": "1251",
                "rental_uris": {
                    "android": "https://app.nextbike.net/station?id=600498455",
                    "ios": "https://app.nextbike.net/station?id=600498455",
                    "web": "https://nxtb.it/p/600498455"
                },
                "short_name": "47565",
                "station_id": "600498455",
                "vehicle_types_available": [
                    {
                        "count": 2,
                        "vehicle_type_id": "254"
                    }
                ]
            },
            "type": "Feature"
        },
        {
            "geometry": {
                "coordinates": [
                    17.51581,
                    49.21621
                ],
                "type": "Point"
            },
            "properties": {
                "capacity": 4,
                "is_installed": true,
                "is_renting": true,
                "is_returning": true,
                "is_virtual_station": false,
                "last_reported": 1789135299,
                "name": "Autobusov\u00e9 n\u00e1dra\u017e\u00ed",
                "num_bikes_available": 1,
                "num_docks_available": 3,
                "region_id": "1251",
                "rental_uris": {
                    "android": "https://app.nextbike.net/station?id=600498644",
                    "ios": "https://app.nextbike.net/station?id=600498644",
                    "web": "https://nxtb.it/p/600498644"
                },
                "short_name": "47566",
                "station_id": "600498644",
                "vehicle_types_available": [
                    {
                        "count": 1,
                        "vehicle_type_id": "254"
                    }
                ]
            },
            "type": "Feature"
        },
        {
            "geometry": {
                "coordinates": [
                    17.51263,
                    49.21712
                ],
                "type": "Point"
            },
            "properties": {
                "capacity": 4,
                "is_installed": true,
                "is_renting": true,
                "is_returning": true,
                "is_virtual_station": false,
                "last_reported": 1789135299,
                "name": "Gymn\u00e1zium",
                "num_bikes_available": 0,
                "num_docks_available": 4,
                "region_id": "1251",
                "rental_uris": {
                    "android": "https://app.nextbike.net/station?id=600499193",
                    "ios": "https://app.nextbike.net/station?id=600499193",
                    "web": "https://nxtb.it/p/600499193"
                },
                "short_name": "47567",
                "station_id": "600499193",
                "vehicle_types_available": []
            },
            "type": "Feature"
        },
        {
            "geometry": {
                "coordinates": [
                    17.51015,
                    49.21988
                ],
                "type": "Point"
            },
            "properties": {
                "capacity": 4,
                "is_installed": true,
                "is_renting": true,
                "is_returning": true,
                "is_virtual_station": false,
                "last_reported": 1789135299,
                "name": "M\u011bstsk\u00e1 sportovn\u00ed hala",
                "num_bikes_available": 5,
                "num_docks_available": 0,
                "region_id": "1251",
                "rental_uris": {
                    "android": "https://app.nextbike.net/station?id=600499236",
                    "ios": "https://app.nextbike.net/station?id=600499236",
                    "web": "https://nxtb.it/p/600499236"
                },
                "short_name": "47568",
                "station_id": "600499236",
                "vehicle_types_available": [
                    {
                        "count": 4,
                        "vehicle_type_id": "254"
                    },
                    {
                        "count": 1,
                        "vehicle_type_id": "426"
                    }
                ]
            },
            "type": "Feature"
        },
        {
            "geometry": {
                "coordinates": [
                    17.50969,
                    49.22394
                ],
                "type": "Point"
            },
            "properties": {
                "capacity": 4,
                "is_installed": true,
                "is_renting": true,
                "is_returning": true,
                "is_virtual_station": false,
                "last_reported": 1789135299,
                "name": "\u0160t\u011brkovi\u0161t\u011b",
                "num_bikes_available": 12,
                "num_docks_available": 0,
                "region_id": "1251",
                "rental_uris": {
                    "android": "https://app.nextbike.net/station?id=600499287",
                    "ios": "https://app.nextbike.net/station?id=600499287",
                    "web": "https://nxtb.it/p/600499287"
                },
                "short_name": "47569",
                "station_id": "600499287",
                "vehicle_types_available": [
                    {
                        "count": 12,
                        "vehicle_type_id": "254"
                    }
                ]
            },
            "type": "Feature"
        },
        {
            "geometry": {
                "coordinates": [
                    17.5133,
                    49.22373
                ],
                "type": "Point"
            },
            "properties": {
                "capacity": 4,
                "is_installed": true,
                "is_renting": true,
                "is_returning": true,
                "is_virtual_station": false,
                "last_reported": 1789135299,
                "name": "\u0160t\u011brkovi\u0161t\u011b, bus",
                "num_bikes_available": 2,
                "num_docks_available": 2,
                "region_id": "1251",
                "rental_uris": {
                    "android": "https://app.nextbike.net/station?id=600499340",
                    "ios": "https://app.nextbike.net/station?id=600499340",
                    "web": "https://nxtb.it/p/600499340"
                },
                "short_name": "47570",
                "station_id": "600499340",
                "vehicle_types_available": [
                    {
                        "count": 2,
                        "vehicle_type_id": "254"
                    }
                ]
            },
            "type": "Feature"
        },
        {
            "geometry": {
                "coordinates": [
                    17.53859,
                    49.19891
                ],
                "type": "Point"
            },
            "properties": {
                "capacity": 4,
                "is_installed": true,
                "is_renting": true,
                "is_returning": true,
                "is_virtual_station": false,
                "last_reported": 1789135299,
                "name": "Kv\u00edtkovice, Zl\u00ednsk\u00e1",
                "num_bikes_available": 8,
                "num_docks_available": 0,
                "region_id": "1251",
                "rental_uris": {
                    "android": "https://app.nextbike.net/station?id=600499407",
                    "ios": "https://app.nextbike.net/station?id=600499407",
                    "web": "https://nxtb.it/p/600499407"
                },
                "short_name": "47571",
                "station_id": "600499407",
                "vehicle_types_available": [
                    {
                        "count": 8,
                        "vehicle_type_id": "254"
                    }
                ]
            },
            "type": "Feature"
        },
        {
            "geometry": {
                "coordinates": [
                    17.51307,
                    49.21469
                ],
                "type": "Point"
            },
            "properties": {
                "capacity": 4,
                "is_installed": true,
                "is_renting": true,
                "is_returning": true,
                "is_virtual_station": false,
                "last_reported": 1789135299,
                "name": "Spole\u010densk\u00fd d\u016fm",
                "num_bikes_available": 2,
                "num_docks_available": 2,
                "region_id": "1251",
                "rental_uris": {
                    "android": "https://app.nextbike.net/station?id=600499753",
                    "ios": "https://app.nextbike.net/station?id=600499753",
                    "web": "https://nxtb.it/p/600499753"
                },
                "short_name": "47572",
                "station_id": "600499753",
                "vehicle_types_available": [
                    {
                        "count": 2,
                        "vehicle_type_id": "254"
                    }
                ]
            },
            "type": "Feature"
        },
        {
            "geometry": {
                "coordinates": [
                    17.53821,
                    49.20329
                ],
                "type": "Point"
            },
            "properties": {
                "capacity": 4,
                "is_installed": true,
                "is_renting": true,
                "is_returning": true,
                "is_virtual_station": false,
                "last_reported": 1789135299,
                "name": "Albert",
                "num_bikes_available": 4,
                "num_docks_available": 0,
                "region_id": "1251",
                "rental_uris": {
                    "android": "https://app.nextbike.net/station?id=600499791",
                    "ios": "https://app.nextbike.net/station?id=600499791",
                    "web": "https://nxtb.it/p/600499791"
                },
                "short_name": "47573",
                "station_id": "600499791",
                "vehicle_types_available": [
                    {
                        "count": 4,
                        "vehicle_type_id": "254"
                    }
                ]
            },
            "type": "Feature"
        },
        {
            "geometry": {
                "coordinates": [
                    17.52543,
                    49.20958
                ],
                "type": "Point"
            },
            "properties": {
                "capacity": 4,
                "is_installed": true,
                "is_renting": true,
                "is_returning": true,
                "is_virtual_station": false,
                "last_reported": 1789135299,
                "name": "U D\u0159evnice",
                "num_bikes_available": 2,
                "num_docks_available": 2,
                "region_id": "1251",
                "rental_uris": {
                    "android": "https://app.nextbike.net/station?id=606810656",
                    "ios": "https://app.nextbike.net/station?id=606810656",
                    "web": "https://nxtb.it/p/606810656"
                },
                "short_name": "47574",
                "station_id": "606810656",
                "vehicle_types_available": [
                    {
                        "count": 2,
                        "vehicle_type_id": "254"
                    }
                ]
            },
            "type": "Feature"
        }
    ],
    "gbfs": {
        "station_information": {
            "last_updated": 1789135299,
            "ttl": 60,
            "version": "2.3"
        },
        "station_status": {
            "last_updated": 1789135299,
            "ttl": 60,
            "version": "2.3"
        }
    },
    "type": "FeatureCollection"
}