{
    "features": [
        {
            "geometry": {
                "coordinates": [
                    17.398117,
                    48.220355
                ],
                "type": "Point"
            },
            "properties": {
                "is_installed": true,
                "is_renting": true,
                "is_returning": true,
                "is_virtual_station": true,
                "last_reported": 1790166327,
                "name": "Mestsk\u00fd \u00farad",
                "num_bikes_available": 3,
                "num_docks_available": 0,
                "region_id": "875",
                "rental_uris": {
                    "android": "https://app.nextbike.net/station?id=179479563",
                    "ios": "https://app.nextbike.net/station?id=179479563",
                    "web": "https://nxtb.it/p/179479563"
                },
                "short_name": "22000",
                "station_area": {
                    "coordinates": [
                        [
                            [
                                [
                                    17.398117,
                                    48.22058
                                ],
                                [
                                    17.398409,
                                    48.220467
                                ],
                                [
                                    17.398409,
                                    48.220243
                                ],
                                [
                                    17.398117,
                                    48.22013
                                ],
                                [
                                    17.397825,
                                    48.220243
                                ],
                                [
                                    17.397825,
                                    48.220467
                                ],
                                [
                                    17.398117,
                                    48.22058
                                ]
                            ]
                        ]
                    ],
                    "type": "MultiPolygon"
                },
                "station_id": "179479563",
                "vehicle_types_available": [
                    {
                        "count": 2,
                        "vehicle_type_id": "15"
                    },
                    {
                        "count": 1,
                        "vehicle_type_id": "346"
                    }
                ]
            },
            "type": "Feature"
        },
        {
            "geometry": {
                "coordinates": [
                    17.404473,
                    48.223082
                ],
                "type": "Point"
            },
            "properties": {
                "is_installed": true,
                "is_renting": true,
                "is_returning": true,
                "is_virtual_station": true,
                "last_reported": 1790166327,
                "name": "Boldock\u00e1 cesta, Lidl",
                "num_bikes_available": 4,
                "num_docks_available": 0,
                "region_id": "875",
                "rental_uris": {
                    "android": "https://app.nextbike.net/station?id=179483662",
                    "ios": "https://app.nextbike.net/station?id=179483662",
                    "web": "https://nxtb.it/p/179483662"
                },
                "short_name": "22001",
                "station_area": {
                    "coordinates": [
                        [
                            [
                                [
                                    17.404473,
                                    48.223307
                                ],
                                [
                                    17.404765,
                                    48.223194
                                ],
                                [
                                    17.404765,
                                    48.22297
                                ],
                                [
                                    17.404473,
                                    48.222857
                                ],
                                [
                                    17.404181,
                                    48.22297
                                ],
                                [
                                    17.404181,
                                    48.223194
                                ],
                                [
                                    17.404473,
                                    48.223307
                                ]
                            ]
                        ]
                    ],
                    "type": "MultiPolygon"
                },
                "station_id": "179483662",
                "vehicle_types_available": [
                    {
                        "count": 2,
                        "vehicle_type_id": "15"
                    },
                    {
                        "count": 2,
                        "vehicle_type_id": "346"
                    }
                ]
            },
            "type": "Feature"
        },
        {
            "geometry": {
                "coordinates": [
                    17.416602,
                    48.220495
                ],
                "type": "Point"
            },
            "properties": {
                "is_installed": true,
                "is_renting": true,
                "is_returning": true,
                "is_virtual_station": true,
                "last_reported": 1790166327,
                "name": "Hotel Senec",
                "num_bikes_available": 7,
                "num_docks_available": 0,
                "region_id": "875",
                "rental_uris": {
                    "android": "https://app.nextbike.net/station?id=179532431",
                    "ios": "https://app.nextbike.net/station?id=179532431",
                    "web": "https://nxtb.it/p/179532431"
                },
                "short_name": "22002",
                "station_area": {
                    "coordinates": [
                        [
                            [
                                [
                                    17.416602,
                                    48.22072
                                ],
                                [
                                    17.416894,
                                    48.220607
                                ],
                                [
                                    17.416894,
                                    48.220383
                                ],
                                [
                                    17.416602,
                                    48.22027
                                ],
                                [
                                    17.41631,
                                    48.220383
                                ],
                                [
                                    17.41631,
                                    48.220607
                                ],
                                [
                                    17.416602,
                                    48.22072
                                ]
                            ]
                        ]
                    ],
                    "type": "MultiPolygon"
                },
                "station_id": "179532431",
                "vehicle_types_available": [
                    {
                        "count": 3,
                        "vehicle_type_id": "15"
                    },
                    {
                        "count": 4,
                        "vehicle_type_id": "346"
                    }
                ]
            },
            "type": "Feature"
        },
        {
            "geometry": {
                "coordinates": [
                    17.404345,
                    48.217904
                ],
                "type": "Point"
            },
            "properties": {
                "is_installed": true,
                "is_renting": true,
                "is_returning": true,
                "is_virtual_station": true,
                "last_reported": 1790166327,
                "name": "Gymn\u00e1zium",
                "num_bikes_available": 7,
                "num_docks_available": 0,
                "region_id": "875",
                "rental_uris": {
                    "android": "https://app.nextbike.net/station?id=179533594",
                    "ios": "https://app.nextbike.net/station?id=179533594",
                    "web": "https://nxtb.it/p/179533594"
                },
                "short_name": "22003",
                "station_area": {
                    "coordinates": [
                        [
                            [
                                [
                                    17.404345,
                                    48.218129
                                ],
                                [
                                    17.404637,
                                    48.218016
                                ],
                                [
                                    17.404637,
                                    48.217792
                                ],
                                [
                                    17.404345,
                                    48.217679
                                ],
                                [
                                    17.404053,
                                    48.217792
                                ],
                                [
                                    17.404053,
                                    48.218016
                                ],
                                [
                                    17.404345,
                                    48.218129
                                ]
                            ]
                        ]
                    ],
                    "type": "MultiPolygon"
                },
                "station_id": "179533594",
                "vehicle_types_available": [
                    {
                        "count": 4,
                        "vehicle_type_id": "15"
                    },
                    {
                        "count": 3,
                        "vehicle_type_id": "346"
                    }
                ]
            },
            "type": "Feature"
        },
        {
            "geometry": {
                "coordinates": [
                    17.40464,
                    48.215751
                ],
                "type": "Point"
            },
            "properties": {
                "is_installed": true,
                "is_renting": true,
                "is_returning": true,
                "is_virtual_station": true,
                "last_reported": 1790166327,
                "name": "Hala Sl\u00e1via",
                "num_bikes_available": 4,
                "num_docks_available": 0,
                "region_id": "875",
                "rental_uris": {
                    "android": "https://app.nextbike.net/station?id=179534673",
                    "ios": "https://app.nextbike.net/station?id=179534673",
                    "web": "https://nxtb.it/p/179534673"
                },
                "short_name": "22004",
                "station_area": {
                    "coordinates": [
                        [
                            [
                                [
                                    17.40464,
                                    48.215976
                                ],
                                [
                                    17.404932,
                                    48.215863
                                ],
                                [
                                    17.404932,
                                    48.215639
                                ],
                                [
                                    17.40464,
                                    48.215526
                                ],
                                [
                                    17.404348,
                                    48.215639
                                ],
                                [
                                    17.404348,
                                    48.215863
                                ],
                                [
                                    17.40464,
                                    48.215976
                                ]
                            ]
                        ]
                    ],
                    "type": "MultiPolygon"
                },
                "station_id": "179534673",
                "vehicle_types_available": [
                    {
                        "count": 2,
                        "vehicle_type_id": "15"
                    },
                    {
                        "count": 2,
                        "vehicle_type_id": "346"
                    }
                ]
            },
            "type": "Feature"
        },
        {
            "geometry": {
                "coordinates": [
                    17.414113,
                    48.214055
                ],
                "type": "Point"
            },
            "properties": {
                "is_installed": true,
                "is_renting": true,
                "is_returning": true,
                "is_virtual_station": true,
                "last_reported": 1790166327,
                "name": "\u017delezni\u010dn\u00e1 stanica",
                "num_bikes_available": 6,
                "num_docks_available": 0,
                "region_id": "875",
                "rental_uris": {
                    "android": "https://app.nextbike.net/station?id=179535630",
                    "ios": "https://app.nextbike.net/station?id=179535630",
                    "web": "https://nxtb.it/p/179535630"
                },
                "short_name": "22005",
                "station_area": {
                    "coordinates": [
                        [
                            [
                                [
                                    17.414113,
                                    48.21428
                                ],
                                [
                                    17.414405,
                                    48.214167
                                ],
                                [
                                    17.414405,
                                    48.213943
                                ],
                                [
                                    17.414113,
                                    48.21383
                                ],
                                [
                                    17.413821,
                                    48.213943
                                ],
                                [
                                    17.413821,
                                    48.214167
                                ],
                                [
                                    17.414113,
                                    48.21428
                                ]
                            ]
                        ]
                    ],
                    "type": "MultiPolygon"
                },
                "station_id": "179535630",
                "vehicle_types_available": [
                    {
                        "count": 6,
                        "vehicle_type_id": "15"
                    }
                ]
            },
            "type": "Feature"
        },
        {
            "geometry": {
                "coordinates": [
                    17.395649,
                    48.213478
                ],
                "type": "Point"
            },
            "properties": {
                "is_installed": true,
                "is_renting": true,
                "is_returning": true,
                "is_virtual_station": true,
                "last_reported": 1790166327,
                "name": "SO\u0160 automobilov\u00e1",
                "num_bikes_available": 3,
                "num_docks_available": 0,
                "region_id": "875",
                "rental_uris": {
                    "android": "https://app.nextbike.net/station?id=179536298",
                    "ios": "https://app.nextbike.net/station?id=179536298",
                    "web": "https://nxtb.it/p/179536298"
                },
                "short_name": "22006",
                "station_area": {
                    "coordinates": [
                        [
                            [
                                [
                                    17.395649,
                                    48.213703
                                ],
                                [
                                    17.395941,
                                    48.21359
                                ],
                                [
                                    17.395941,
                                    48.213366
                                ],
                                [
                                    17.395649,
                                    48.213253
                                ],
                                [
                                    17.395357,
                                    48.213366
                                ],
                                [
                                    17.395357,
                                    48.21359
                                ],
                                [
                                    17.395649,
                                    48.213703
                                ]
                            ]
                        ]
                    ],
                    "type": "MultiPolygon"
                },
                "station_id": "179536298",
                "vehicle_types_available": [
                    {
                        "count": 3,
                        "vehicle_type_id": "15"
                    }
                ]
            },
            "type": "Feature"
        },
        {
            "geometry": {
                "coordinates": [
                    17.392662,
                    48.218022
                ],
                "type": "Point"
            },
            "properties": {
                "is_installed": true,
                "is_renting": true,
                "is_returning": true,
                "is_virtual_station": true,
                "last_reported": 1790166327,
                "name": "Billa Sv\u00e4toplukova",
                "num_bikes_available": 6,
                "num_docks_available": 0,
                "region_id": "875",
                "rental_uris": {
                    "android": "https://app.nextbike.net/station?id=179537289",
                    "ios": "https://app.nextbike.net/station?id=179537289",
                    "web": "https://nxtb.it/p/179537289"
                },
                "short_name": "22007",
                "station_area": {
                    "coordinates": [
                        [
                            [
                                [
                                    17.392662,
                                    48.218247
                                ],
                                [
                                    17.392954,
                                    48.218134
                                ],
                                [
                                    17.392954,
                                    48.21791
                                ],
                                [
                                    17.392662,
                                    48.217797
                                ],
                                [
                                    17.39237,
                                    48.21791
                                ],
                                [
                                    17.39237,
                                    48.218134
                                ],
                                [
                                    17.392662,
                                    48.218247
                                ]
                            ]
                        ]
                    ],
                    "type": "MultiPolygon"
                },
                "station_id": "179537289",
                "vehicle_types_available": [
                    {
                        "count": 1,
                        "vehicle_type_id": "15"
                    },
                    {
                        "count": 5,
                        "vehicle_type_id": "346"
                    }
                ]
            },
            "type": "Feature"
        },
        {
            "geometry": {
                "coordinates": [
                    17.387667,
                    48.215394
                ],
                "type": "Point"
            },
            "properties": {
                "is_installed": true,
                "is_renting": true,
                "is_returning": true,
                "is_virtual_station": true,
                "last_reported": 1790166327,
                "name": "Tesco Bratislavsk\u00e1",
                "num_bikes_available": 6,
                "num_docks_available": 0,
                "region_id": "875",
                "rental_uris": {
                    "android": "https://app.nextbike.net/station?id=179538190",
                    "ios": "https://app.nextbike.net/station?id=179538190",
                    "web": "https://nxtb.it/p/179538190"
                },
                "short_name": "22008",
                "station_area": {
                    "coordinates": [
                        [
                            [
                                [
                                    17.387667,
                                    48.215619
                                ],
                                [
                                    17.387959,
                                    48.215506
                                ],
                                [
                                    17.387959,
                                    48.215282
                                ],
                                [
                                    17.387667,
                                    48.215169
                                ],
                                [
                                    17.387375,
                                    48.215282
                                ],
                                [
                                    17.387375,
                                    48.215506
                                ],
                                [
                                    17.387667,
                                    48.215619
                                ]
                            ]
                        ]
                    ],
                    "type": "MultiPolygon"
                },
                "station_id": "179538190",
                "vehicle_types_available": [
                    {
                        "count": 6,
                        "vehicle_type_id": "15"
                    }
                ]
            },
            "type": "Feature"
        },
        {
            "geometry": {
                "coordinates": [
                    17.398862,
                    48.216381
                ],
                "type": "Point"
            },
            "properties": {
                "is_installed": true,
                "is_renting": true,
                "is_returning": true,
                "is_virtual_station": true,
                "last_reported": 1790166327,
                "name": "Jednota Sokolsk\u00e1",
                "num_bikes_available": 4,
                "num_docks_available": 0,
                "region_id": "875",
                "rental_uris": {
                    "android": "https://app.nextbike.net/station?id=179538897",
                    "ios": "https://app.nextbike.net/station?id=179538897",
                    "web": "https://nxtb.it/p/179538897"
                },
                "short_name": "22009",
                "station_area": {
                    "coordinates": [
                        [
                            [
                                [
                                    17.398862,
                                    48.216606
                                ],
                                [
                                    17.399154,
                                    48.216493
                                ],
                                [
                                    17.399154,
                                    48.216269
                                ],
                                [
                                    17.398862,
                                    48.216156
                                ],
                                [
                                    17.39857,
                                    48.216269
                                ],
                                [
                                    17.39857,
                                    48.216493
                                ],
                                [
                                    17.398862,
                                    48.216606
                                ]
                            ]
                        ]
                    ],
                    "type": "MultiPolygon"
                },
                "station_id": "179538897",
                "vehicle_types_available": [
                    {
                        "count": 2,
                        "vehicle_type_id": "15"
                    },
                    {
                        "count": 2,
                        "vehicle_type_id": "346"
                    }
                ]
            },
            "type": "Feature"
        },
        {
            "geometry": {
                "coordinates": [
                    17.396051,
                    48.221463
                ],
                "type": "Point"
            },
            "properties": {
                "is_installed": true,
                "is_renting": true,
                "is_returning": true,
                "is_virtual_station": true,
                "last_reported": 1790166327,
                "name": "Autobusov\u00e1 stanica",
                "num_bikes_available": 7,
                "num_docks_available": 0,
                "region_id": "875",
                "rental_uris": {
                    "android": "https://app.nextbike.net/station?id=179539562",
                    "ios": "https://app.nextbike.net/station?id=179539562",
                    "web": "https://nxtb.it/p/179539562"
                },
                "short_name": "22010",
                "station_area": {
                    "coordinates": [
                        [
                            [
                                [
                                    17.396051,
                                    48.221688
                                ],
                                [
                                    17.396343,
                                    48.221575
                                ],
                                [
                                    17.396343,
                                    48.221351
                                ],
                                [
                                    17.396051,
                                    48.221238
                                ],
                                [
                                    17.395759,
                                    48.221351
                                ],
                                [
                                    17.395759,
                                    48.221575
                                ],
                                [
                                    17.396051,
                                    48.221688
                                ]
                            ]
                        ]
                    ],
                    "type": "MultiPolygon"
                },
                "station_id": "179539562",
                "vehicle_types_available": [
                    {
                        "count": 5,
                        "vehicle_type_id": "15"
                    },
                    {
                        "count": 2,
                        "vehicle_type_id": "346"
                    }
                ]
            },
            "type": "Feature"
        },
        {
            "geometry": {
                "coordinates": [
                    17.399896,
                    48.222065
                ],
                "type": "Point"
            },
            "properties": {
                "is_installed": true,
                "is_renting": true,
                "is_returning": true,
                "is_virtual_station": true,
                "last_reported": 1790166327,
                "name": "Janka Jesensk\u00e9ho",
                "num_bikes_available": 4,
                "num_docks_available": 0,
                "region_id": "875",
                "rental_uris": {
                    "android": "https://app.nextbike.net/station?id=179540518",
                    "ios": "https://app.nextbike.net/station?id=179540518",
                    "web": "https://nxtb.it/p/179540518"
                },
                "short_name": "22011",
                "station_area": {
                    "coordinates": [
                        [
                            [
                                [
                                    17.399896,
                                    48.22229
                                ],
                                [
                                    17.400188,
                                    48.222177
                                ],
                                [
                                    17.400188,
                                    48.221953
                                ],
                                [
                                    17.399896,
                                    48.22184
                                ],
                                [
                                    17.399604,
                                    48.221953
                                ],
                                [
                                    17.399604,
                                    48.222177
                                ],
                                [
                                    17.399896,
                                    48.22229
                                ]
                            ]
                        ]
                    ],
                    "type": "MultiPolygon"
                },
                "station_id": "179540518",
                "vehicle_types_available": [
                    {
                        "count": 3,
                        "vehicle_type_id": "15"
                    },
                    {
                        "count": 1,
                        "vehicle_type_id": "346"
                    }
                ]
            },
            "type": "Feature"
        },
        {
            "geometry": {
                "coordinates": [
                    17.438344,
                    48.220037
                ],
                "type": "Point"
            },
            "properties": {
                "is_installed": true,
                "is_renting": true,
                "is_returning": true,
                "is_virtual_station": true,
                "last_reported": 1790166327,
                "name": "Slne\u010dn\u00e9 jazer\u00e1 - parkovisko pri vyhliadke",
                "num_bikes_available": 4,
                "num_docks_available": 0,
                "region_id": "875",
                "rental_uris": {
                    "android": "https://app.nextbike.net/station?id=476050114",
                    "ios": "https://app.nextbike.net/station?id=476050114",
                    "web": "https://nxtb.it/p/476050114"
                },
                "short_name": "22012",
                "station_area": {
                    "coordinates": [
                        [
                            [
                                [
                                    17.438344,
                                    48.220262
                                ],
                                [
                                    17.438636,
                                    48.220149
                                ],
                                [
                                    17.438636,
                                    48.219925
                                ],
                                [
                                    17.438344,
                                    48.219812
                                ],
                                [
                                    17.438052,
                                    48.219925
                                ],
                                [
                                    17.438052,
                                    48.220149
                                ],
                                [
                                    17.438344,
                                    48.220262
                                ]
                            ]
                        ]
                    ],
                    "type": "MultiPolygon"
                },
                "station_id": "476050114",
                "vehicle_types_available": [
                    {
                        "count": 3,
                        "vehicle_type_id": "15"
                    },
                    {
                        "count": 1,
                        "vehicle_type_id": "346"
                    }
                ]
            },
            "type": "Feature"
        },
        {
            "geometry": {
                "coordinates": [
                    17.402671,
                    48.224973
                ],
                "type": "Point"
            },
            "properties": {
                "is_installed": true,
                "is_renting": true,
                "is_returning": true,
                "is_virtual_station": true,
                "last_reported": 1790166327,
                "name": "Kaufland",
                "num_bikes_available": 3,
                "num_docks_available": 0,
                "region_id": "875",
                "rental_uris": {
                    "android": "https://app.nextbike.net/station?id=515686096",
                    "ios": "https://app.nextbike.net/station?id=515686096",
                    "web": "https://nxtb.it/p/515686096"
                },
                "short_name": "22013",
                "station_area": {
                    "coordinates": [
                        [
                            [
                                [
                                    17.402671,
                                    48.225198
                                ],
                                [
                                    17.402963,
                                    48.225085
                                ],
                                [
                                    17.402963,
                                    48.224861
                                ],
                                [
                                    17.402671,
                                    48.224748
                                ],
                                [
                                    17.402379,
                                    48.224861
                                ],
                                [
                                    17.402379,
                                    48.225085
                                ],
                                [
                                    17.402671,
                                    48.225198
                                ]
                            ]
                        ]
                    ],
                    "type": "MultiPolygon"
                },
                "station_id": "515686096",
                "vehicle_types_available": [
                    {
                        "count": 1,
                        "vehicle_type_id": "15"
                    },
                    {
                        "count": 2,
                        "vehicle_type_id": "346"
                    }
                ]
            },
            "type": "Feature"
        },
        {
            "geometry": {
                "coordinates": [
                    17.397591,
                    48.226477
                ],
                "type": "Point"
            },
            "properties": {
                "is_installed": true,
                "is_renting": true,
                "is_returning": true,
                "is_virtual_station": true,
                "last_reported": 1790166327,
                "name": "S\u00eddlisko za \u0160tiftom A",
                "num_bikes_available": 2,
                "num_docks_available": 0,
                "region_id": "875",
                "rental_uris": {
                    "android": "https://app.nextbike.net/station?id=515686649",
                    "ios": "https://app.nextbike.net/station?id=515686649",
                    "web": "https://nxtb.it/p/515686649"
                },
                "short_name": "22014",
                "station_area": {
                    "coordinates": [
                        [
                            [
                                [
                                    17.397591,
                                    48.226702
                                ],
                                [
                                    17.397883,
                                    48.226589
                                ],
                                [
                                    17.397883,
                                    48.226365
                                ],
                                [
                                    17.397591,
                                    48.226252
                                ],
                                [
                                    17.397299,
                                    48.226365
                                ],
                                [
                                    17.397299,
                                    48.226589
                                ],
                                [
                                    17.397591,
                                    48.226702
                                ]
                            ]
                        ]
                    ],
                    "type": "MultiPolygon"
                },
                "station_id": "515686649",
                "vehicle_types_available": [
                    {
                        "count": 2,
                        "vehicle_type_id": "346"
                    }
                ]
            },
            "type": "Feature"
        },
        {
            "geometry": {
                "coordinates": [
                    17.399426,
                    48.226552
                ],
                "type": "Point"
            },
            "properties": {
                "is_installed": true,
                "is_renting": true,
                "is_returning": true,
                "is_virtual_station": true,
                "last_reported": 1790166327,
                "name": "S\u00eddlisko za \u0160tiftom B",
                "num_bikes_available": 4,
                "num_docks_available": 0,
                "region_id": "875",
                "rental_uris": {
                    "android": "https://app.nextbike.net/station?id=515686845",
                    "ios": "https://app.nextbike.net/station?id=515686845",
                    "web": "https://nxtb.it/p/515686845"
                },
                "short_name": "22015",
                "station_area": {
                    "coordinates": [
                        [
                            [
                                [
                                    17.399426,
                                    48.226777
                                ],
                                [
                                    17.399718,
                                    48.226664
                                ],
                                [
                                    17.399718,
                                    48.22644
                                ],
                                [
                                    17.399426,
                                    48.226327
                                ],
                                [
                                    17.399134,
                                    48.22644
                                ],
                                [
                                    17.399134,
                                    48.226664
                                ],
                                [
                                    17.399426,
                                    48.226777
                                ]
                            ]
                        ]
                    ],
                    "type": "MultiPolygon"
                },
                "station_id": "515686845",
                "vehicle_types_available": [
                    {
                        "count": 2,
                        "vehicle_type_id": "15"
                    },
                    {
                        "count": 2,
                        "vehicle_type_id": "346"
                    }
                ]
            },
            "type": "Feature"
        },
        {
            "geometry": {
                "coordinates": [
                    17.407596,
                    48.21763
                ],
                "type": "Point"
            },
            "properties": {
                "is_installed": true,
                "is_renting": true,
                "is_returning": true,
                "is_virtual_station": true,
                "last_reported": 1790166327,
                "name": "Amfite\u00e1ter - Park oddychu / NTC Senec",
                "num_bikes_available": 1,
                "num_docks_available": 0,
                "region_id": "875",
                "rental_uris": {
                    "android": "https://app.nextbike.net/station?id=532208690",
                    "ios": "https://app.nextbike.net/station?id=532208690",
                    "web": "https://nxtb.it/p/532208690"
                },
                "short_name": "22016",
                "station_area": {
                    "coordinates": [
                        [
                            [
                                [
                                    17.407596,
                                    48.217855
                                ],
                                [
                                    17.407888,
                                    48.217742
                                ],
                                [
                                    17.407888,
                                    48.217518
                                ],
                                [
                                    17.407596,
                                    48.217405
                                ],
                                [
                                    17.407304,
                                    48.217518
                                ],
                                [
                                    17.407304,
                                    48.217742
                                ],
                                [
                                    17.407596,
                                    48.217855
                                ]
                            ]
                        ]
                    ],
                    "type": "MultiPolygon"
                },
                "station_id": "532208690",
                "vehicle_types_available": [
                    {
                        "count": 1,
                        "vehicle_type_id": "15"
                    }
                ]
            },
            "type": "Feature"
        },
        {
            "geometry": {
                "coordinates": [
                    17.403331,
                    48.220194
                ],
                "type": "Point"
            },
            "properties": {
                "is_installed": true,
                "is_renting": true,
                "is_returning": true,
                "is_virtual_station": true,
                "last_reported": 1790166327,
                "name": "Okresn\u00fd \u00farad",
                "num_bikes_available": 4,
                "num_docks_available": 0,
                "region_id": "875",
                "rental_uris": {
                    "android": "https://app.nextbike.net/station?id=621345581",
                    "ios": "https://app.nextbike.net/station?id=621345581",
                    "web": "https://nxtb.it/p/621345581"
                },
                "short_name": "22017",
                "station_area": {
                    "coordinates": [
                        [
                            [
                                [
                                    17.403331,
                                    48.220419
                                ],
                                [
                                    17.403623,
                                    48.220306
                                ],
                                [
                                    17.403623,
                                    48.220082
                                ],
                                [
                                    17.403331,
                                    48.219969
                                ],
                                [
                                    17.403039,
                                    48.220082
                                ],
                                [
                                    17.403039,
                                    48.220306
                                ],
                                [
                                    17.403331,
                                    48.220419
                                ]
                            ]
                        ]
                    ],
                    "type": "MultiPolygon"
                },
                "station_id": "621345581",
                "vehicle_types_available": [
                    {
                        "count": 3,
                        "vehicle_type_id": "15"
                    },
                    {
                        "count": 1,
                        "vehicle_type_id": "346"
                    }
                ]
            },
            "type": "Feature"
        },
        {
            "geometry": {
                "coordinates": [
                    17.394882,
                    48.219844
                ],
                "type": "Point"
            },
            "properties": {
                "is_installed": true,
                "is_renting": true,
                "is_returning": true,
                "is_virtual_station": true,
                "last_reported": 1790166327,
                "name": "Kostol Sv.Mikul\u00e1\u0161a",
                "num_bikes_available": 2,
                "num_docks_available": 0,
                "region_id": "875",
                "rental_uris": {
                    "android": "https://app.nextbike.net/station?id=621346111",
                    "ios": "https://app.nextbike.net/station?id=621346111",
                    "web": "https://nxtb.it/p/621346111"
                },
                "short_name": "22018",
                "station_area": {
                    "coordinates": [
                        [
                            [
                                [
                                    17.394882,
                                    48.220069
                                ],
                                [
                                    17.395174,
                                    48.219956
                                ],
                                [
                                    17.395174,
                                    48.219732
                                ],
                                [
                                    17.394882,
                                    48.219619
                                ],
                                [
                                    17.39459,
                                    48.219732
                                ],
                                [
                                    17.39459,
                                    48.219956
                                ],
                                [
                                    17.394882,
                                    48.220069
                                ]
                            ]
                        ]
                    ],
                    "type": "MultiPolygon"
                },
                "station_id": "621346111",
                "vehicle_types_available": [
                    {
                        "count": 1,
                        "vehicle_type_id": "15"
                    },
                    {
                        "count": 1,
                        "vehicle_type_id": "346"
                    }
                ]
            },
            "type": "Feature"
        },
        {
            "geometry": {
                "coordinates": [
                    17.401668,
                    48.231127
                ],
                "type": "Point"
            },
            "properties": {
                "is_installed": true,
                "is_renting": true,
                "is_returning": true,
                "is_virtual_station": true,
                "last_reported": 1790166327,
                "name": "Nov\u00e1 Tehel\u0148a",
                "num_bikes_available": 3,
                "num_docks_available": 0,
                "region_id": "875",
                "rental_uris": {
                    "android": "https://app.nextbike.net/station?id=621347276",
                    "ios": "https://app.nextbike.net/station?id=621347276",
                    "web": "https://nxtb.it/p/621347276"
                },
                "short_name": "22019",
                "station_area": {
                    "coordinates": [
                        [
                            [
                                [
                                    17.401668,
                                    48.231352
                                ],
                                [
                                    17.40196,
                                    48.231239
                                ],
                                [
                                    17.40196,
                                    48.231015
                                ],
                                [
                                    17.401668,
                                    48.230902
                                ],
                                [
                                    17.401376,
                                    48.231015
                                ],
                                [
                                    17.401376,
                                    48.231239
                                ],
                                [
                                    17.401668,
                                    48.231352
                                ]
                            ]
                        ]
                    ],
                    "type": "MultiPolygon"
                },
                "station_id": "621347276",
                "vehicle_types_available": [
                    {
                        "count": 2,
                        "vehicle_type_id": "15"
                    },
                    {
                        "count": 1,
                        "vehicle_type_id": "346"
                    }
                ]
            },
            "type": "Feature"
        },
        {
            "geometry": {
                "coordinates": [
                    17.427106,
                    48.221617
                ],
                "type": "Point"
            },
            "properties": {
                "is_installed": true,
                "is_renting": true,
                "is_returning": true,
                "is_virtual_station": true,
                "last_reported": 1790166327,
                "name": "Recepcia pri Gardenke",
                "num_bikes_available": 2,
                "num_docks_available": 0,
                "region_id": "875",
                "rental_uris": {
                    "android": "https://app.nextbike.net/station?id=621347769",
                    "ios": "https://app.nextbike.net/station?id=621347769",
                    "web": "https://nxtb.it/p/621347769"
                },
                "short_name": "22020",
                "station_area": {
                    "coordinates": [
                        [
                            [
                                [
                                    17.427106,
                                    48.221842
                                ],
                                [
                                    17.427398,
                                    48.221729
                                ],
                                [
                                    17.427398,
                                    48.221505
                                ],
                                [
                                    17.427106,
                                    48.221392
                                ],
                                [
                                    17.426814,
                                    48.221505
                                ],
                                [
                                    17.426814,
                                    48.221729
                                ],
                                [
                                    17.427106,
                                    48.221842
                                ]
                            ]
                        ]
                    ],
                    "type": "MultiPolygon"
                },
                "station_id": "621347769",
                "vehicle_types_available": [
                    {
                        "count": 2,
                        "vehicle_type_id": "15"
                    }
                ]
            },
            "type": "Feature"
        },
        {
            "geometry": {
                "coordinates": [
                    17.391926,
                    48.213174
                ],
                "type": "Point"
            },
            "properties": {
                "is_installed": true,
                "is_renting": true,
                "is_returning": true,
                "is_virtual_station": true,
                "last_reported": 1790166327,
                "name": "J\u00e1no\u0161\u00edkova/Gagarinova",
                "num_bikes_available": 6,
                "num_docks_available": 0,
                "region_id": "875",
                "rental_uris": {
                    "android": "https://app.nextbike.net/station?id=621348659",
                    "ios": "https://app.nextbike.net/station?id=621348659",
                    "web": "https://nxtb.it/p/621348659"
                },
                "short_name": "22021",
                "station_area": {
                    "coordinates": [
                        [
                            [
                                [
                                    17.391926,
                                    48.213399
                                ],
                                [
                                    17.392218,
                                    48.213286
                                ],
                                [
                                    17.392218,
                                    48.213062
                                ],
                                [
                                    17.391926,
                                    48.212949
                                ],
                                [
                                    17.391634,
                                    48.213062
                                ],
                                [
                                    17.391634,
                                    48.213286
                                ],
                                [
                                    17.391926,
                                    48.213399
                                ]
                            ]
                        ]
                    ],
                    "type": "MultiPolygon"
                },
                "station_id": "621348659",
                "vehicle_types_available": [
                    {
                        "count": 6,
                        "vehicle_type_id": "346"
                    }
                ]
            },
            "type": "Feature"
        },
        {
            "geometry": {
                "coordinates": [
                    17.389437,
                    48.217753
                ],
                "type": "Point"
            },
            "properties": {
                "is_installed": true,
                "is_renting": true,
                "is_returning": true,
                "is_virtual_station": true,
                "last_reported": 1790166327,
                "name": "Hokejbalov\u00e9 ihrisko",
                "num_bikes_available": 4,
                "num_docks_available": 0,
                "region_id": "875",
                "rental_uris": {
                    "android": "https://app.nextbike.net/station?id=621350072",
                    "ios": "https://app.nextbike.net/station?id=621350072",
                    "web": "https://nxtb.it/p/621350072"
                },
                "short_name": "22022",
                "station_area": {
                    "coordinates": [
                        [
                            [
                                [
                                    17.389437,
                                    48.217978
                                ],
                                [
                                    17.389729,
                                    48.217865
                                ],
                                [
                                    17.389729,
                                    48.217641
                                ],
                                [
                                    17.389437,
                                    48.217528
                                ],
                                [
                                    17.389145,
                                    48.217641
                                ],
                                [
                                    17.389145,
                                    48.217865
                                ],
                                [
                                    17.389437,
                                    48.217978
                                ]
                            ]
                        ]
                    ],
                    "type": "MultiPolygon"
                },
                "station_id": "621350072",
                "vehicle_types_available": [
                    {
                        "count": 1,
                        "vehicle_type_id": "15"
                    },
                    {
                        "count": 3,
                        "vehicle_type_id": "346"
                    }
                ]
            },
            "type": "Feature"
        }
    ],
    "gbfs": {
        "station_information": {
            "last_updated": 1790166327,
            "ttl": 60,
            "version": "2.3"
        },
        "station_status": {
            "last_updated": 1790166327,
            "ttl": 60,
            "version": "2.3"
        }
    },
    "type": "FeatureCollection"
}