{
    "features": [
        {
            "geometry": {
                "coordinates": [
                    9.467833,
                    48.9072
                ],
                "type": "Point"
            },
            "properties": {
                "address": "Allmersbach im Tal, Backnanger Stra\u00dfe 28",
                "capacity": 1,
                "is_installed": true,
                "is_renting": true,
                "is_returning": true,
                "last_reported": "2026-09-13T10:36:17.000+00:00",
                "name": [
                    {
                        "language": "de",
                        "text": "Allmersbach i.T. - N\u00e4he Rathaus"
                    }
                ],
                "num_vehicles_available": 1,
                "post_code": "71573",
                "rental_methods": [
                    "key"
                ],
                "station_id": "LTG:Station:1039298340",
                "vehicle_types_available": [
                    {
                        "count": 1,
                        "vehicle_type_id": "LTG:VehicleType:urban_arrow_cargo"
                    }
                ]
            },
            "type": "Feature"
        },
        {
            "geometry": {
                "coordinates": [
                    9.316202,
                    48.866266
                ],
                "type": "Point"
            },
            "properties": {
                "address": "Waiblingen, Karl-Ziegler-Stra\u00dfe 17",
                "is_installed": true,
                "is_renting": true,
                "is_returning": true,
                "last_reported": "2026-09-13T10:36:17.000+00:00",
                "name": [
                    {
                        "language": "de",
                        "text": "WN-Hohenacker - Rathaus"
                    }
                ],
                "num_vehicles_available": 1,
                "post_code": "71336",
                "rental_methods": [
                    "key"
                ],
                "station_id": "LTG:Station:1173089833",
                "vehicle_types_available": [
                    {
                        "count": 1,
                        "vehicle_type_id": "LTG:VehicleType:urban_arrow_cargo"
                    }
                ]
            },
            "type": "Feature"
        },
        {
            "geometry": {
                "coordinates": [
                    9.563109,
                    48.981682
                ],
                "type": "Point"
            },
            "properties": {
                "address": "Murrhardt, Berliner Stra\u00dfe 3",
                "capacity": 1,
                "is_installed": true,
                "is_renting": true,
                "is_returning": true,
                "last_reported": "2026-09-13T10:36:17.000+00:00",
                "name": [
                    {
                        "language": "de",
                        "text": "Murrhardt - H\u00f6rschbachschule"
                    }
                ],
                "num_vehicles_available": 1,
                "post_code": "71540",
                "rental_methods": [
                    "key"
                ],
                "station_id": "LTG:Station:1367991395",
                "vehicle_types_available": [
                    {
                        "count": 1,
                        "vehicle_type_id": "LTG:VehicleType:urban_arrow_cargo"
                    }
                ]
            },
            "type": "Feature"
        },
        {
            "geometry": {
                "coordinates": [
                    9.371461,
                    48.813971
                ],
                "type": "Point"
            },
            "properties": {
                "address": "Weinstadt, Schorndorfer Stra\u00dfe 22",
                "capacity": 1,
                "is_installed": true,
                "is_renting": true,
                "is_returning": true,
                "last_reported": "2026-09-13T10:36:17.000+00:00",
                "name": [
                    {
                        "language": "de",
                        "text": "Weinstadt - Stadtwerke"
                    }
                ],
                "num_vehicles_available": 0,
                "post_code": "71384",
                "rental_methods": [
                    "key"
                ],
                "station_id": "LTG:Station:1441843097",
                "vehicle_types_available": [
                    {
                        "count": 0,
                        "vehicle_type_id": "LTG:VehicleType:urban_arrow_cargo"
                    }
                ]
            },
            "type": "Feature"
        },
        {
            "geometry": {
                "coordinates": [
                    9.322178,
                    48.835183
                ],
                "type": "Point"
            },
            "properties": {
                "address": "Waiblingen, Alfred-Leikam-Stra\u00dfe 24",
                "capacity": 1,
                "is_installed": true,
                "is_renting": true,
                "is_returning": true,
                "last_reported": "2026-09-13T10:36:17.000+00:00",
                "name": [
                    {
                        "language": "de",
                        "text": "Alfred-Leikam-Stra\u00dfe 24 - Innenbereich"
                    }
                ],
                "num_vehicles_available": 1,
                "post_code": "71334",
                "rental_methods": [
                    "key"
                ],
                "station_id": "LTG:Station:1499031095",
                "vehicle_types_available": [
                    {
                        "count": 1,
                        "vehicle_type_id": "LTG:VehicleType:urban_arrow_cargo"
                    }
                ]
            },
            "type": "Feature"
        },
        {
            "geometry": {
                "coordinates": [
                    9.425487,
                    48.928579
                ],
                "type": "Point"
            },
            "properties": {
                "address": "Backnang, Zirler Weg 61",
                "capacity": 2,
                "is_installed": true,
                "is_renting": true,
                "is_returning": true,
                "last_reported": "2026-09-13T10:36:17.000+00:00",
                "name": [
                    {
                        "language": "de",
                        "text": "BK - Maubach Stubener Weg 2"
                    }
                ],
                "num_vehicles_available": 2,
                "post_code": "71522",
                "rental_methods": [
                    "key"
                ],
                "station_id": "LTG:Station:1574832712",
                "vehicle_types_available": [
                    {
                        "count": 2,
                        "vehicle_type_id": "LTG:VehicleType:urban_arrow_cargo"
                    }
                ]
            },
            "type": "Feature"
        },
        {
            "geometry": {
                "coordinates": [
                    9.321556,
                    48.807775
                ],
                "type": "Point"
            },
            "properties": {
                "address": "Kernen im Remstal, Stettener Stra\u00dfe 18",
                "capacity": 1,
                "is_installed": true,
                "is_renting": true,
                "is_returning": true,
                "last_reported": "2026-09-13T10:36:17.000+00:00",
                "name": [
                    {
                        "language": "de",
                        "text": "Kernen-Rommelsh. - B\u00fcrgerhaus"
                    }
                ],
                "num_vehicles_available": 1,
                "post_code": "71394",
                "rental_methods": [
                    "key"
                ],
                "station_id": "LTG:Station:194648207",
                "vehicle_types_available": [
                    {
                        "count": 1,
                        "vehicle_type_id": "LTG:VehicleType:urban_arrow_cargo"
                    }
                ]
            },
            "type": "Feature"
        },
        {
            "geometry": {
                "coordinates": [
                    9.347911,
                    48.822357
                ],
                "type": "Point"
            },
            "properties": {
                "address": "Waiblingen, Rathausstra\u00dfe 13",
                "capacity": 1,
                "is_installed": true,
                "is_renting": true,
                "is_returning": true,
                "last_reported": "2026-09-13T10:36:17.000+00:00",
                "name": [
                    {
                        "language": "de",
                        "text": "WN-Beinstein - Jugendzentrum"
                    }
                ],
                "num_vehicles_available": 1,
                "post_code": "71334",
                "rental_methods": [
                    "key"
                ],
                "station_id": "LTG:Station:2022742213",
                "vehicle_types_available": [
                    {
                        "count": 1,
                        "vehicle_type_id": "LTG:VehicleType:urban_arrow_cargo"
                    }
                ]
            },
            "type": "Feature"
        },
        {
            "geometry": {
                "coordinates": [
                    9.316562,
                    48.829865
                ],
                "type": "Point"
            },
            "properties": {
                "address": "Waiblingen, Alter Postplatz",
                "capacity": 2,
                "is_installed": true,
                "is_renting": true,
                "is_returning": true,
                "last_reported": "2026-09-13T10:36:17.000+00:00",
                "name": [
                    {
                        "language": "de",
                        "text": "WN-Stadtmitte Landratsamt"
                    }
                ],
                "num_vehicles_available": 2,
                "post_code": "71332",
                "rental_methods": [
                    "key"
                ],
                "station_id": "LTG:Station:2031631198",
                "vehicle_types_available": [
                    {
                        "count": 2,
                        "vehicle_type_id": "LTG:VehicleType:urban_arrow_cargo"
                    }
                ]
            },
            "type": "Feature"
        },
        {
            "geometry": {
                "coordinates": [
                    9.298543,
                    48.857466
                ],
                "type": "Point"
            },
            "properties": {
                "address": "Waiblingen, Hauptstra\u00dfe 64",
                "capacity": 1,
                "is_installed": true,
                "is_renting": true,
                "is_returning": true,
                "last_reported": "2026-09-13T10:36:17.000+00:00",
                "name": [
                    {
                        "language": "de",
                        "text": "WN-Hegnach - Rathaus"
                    }
                ],
                "num_vehicles_available": 1,
                "post_code": "71334",
                "rental_methods": [
                    "key"
                ],
                "station_id": "LTG:Station:2051125551",
                "vehicle_types_available": [
                    {
                        "count": 1,
                        "vehicle_type_id": "LTG:VehicleType:urban_arrow_cargo"
                    }
                ]
            },
            "type": "Feature"
        },
        {
            "geometry": {
                "coordinates": [
                    9.578909,
                    48.979277
                ],
                "type": "Point"
            },
            "properties": {
                "address": "Murrhardt, Klosterhof 11",
                "capacity": 1,
                "is_installed": true,
                "is_renting": true,
                "is_returning": true,
                "last_reported": "2026-09-13T10:36:17.000+00:00",
                "name": [
                    {
                        "language": "de",
                        "text": "Murrhardt - Amtshaus"
                    }
                ],
                "num_vehicles_available": 1,
                "post_code": "71540",
                "rental_methods": [
                    "key"
                ],
                "station_id": "LTG:Station:2101177904",
                "vehicle_types_available": [
                    {
                        "count": 1,
                        "vehicle_type_id": "LTG:VehicleType:urban_arrow_cargo"
                    }
                ]
            },
            "type": "Feature"
        },
        {
            "geometry": {
                "coordinates": [
                    9.392452,
                    48.887979
                ],
                "type": "Point"
            },
            "properties": {
                "address": "Leutenbach, Rathausplatz 1",
                "capacity": 1,
                "is_installed": true,
                "is_renting": true,
                "is_returning": true,
                "last_reported": "2026-09-13T10:36:17.000+00:00",
                "name": [
                    {
                        "language": "de",
                        "text": "Leutenbach - Tiefgarage Rathaus"
                    }
                ],
                "num_vehicles_available": 1,
                "post_code": "71397",
                "rental_methods": [
                    "key"
                ],
                "station_id": "LTG:Station:211905315",
                "vehicle_types_available": [
                    {
                        "count": 1,
                        "vehicle_type_id": "LTG:VehicleType:urban_arrow_cargo"
                    }
                ]
            },
            "type": "Feature"
        },
        {
            "geometry": {
                "coordinates": [
                    9.342247,
                    48.79034
                ],
                "type": "Point"
            },
            "properties": {
                "address": "Kernen im Remstal, Kirchstra\u00dfe 25",
                "capacity": 1,
                "is_installed": true,
                "is_renting": true,
                "is_returning": true,
                "last_reported": "2026-09-13T10:36:17.000+00:00",
                "name": [
                    {
                        "language": "de",
                        "text": "Kernen-Stetten - Alte Schule"
                    }
                ],
                "num_vehicles_available": 1,
                "post_code": "71394",
                "rental_methods": [
                    "key"
                ],
                "station_id": "LTG:Station:430226286",
                "vehicle_types_available": [
                    {
                        "count": 1,
                        "vehicle_type_id": "LTG:VehicleType:urban_arrow_cargo"
                    }
                ]
            },
            "type": "Feature"
        },
        {
            "geometry": {
                "coordinates": [
                    9.322907,
                    48.847149
                ],
                "type": "Point"
            },
            "properties": {
                "address": "Waiblingen, Neustadter Hauptstra\u00dfe 55",
                "capacity": 1,
                "is_installed": true,
                "is_renting": true,
                "is_returning": true,
                "last_reported": "2026-09-13T10:36:17.000+00:00",
                "name": [
                    {
                        "language": "de",
                        "text": "WN-Neustadt - N\u00e4he Pumph\u00e4usle"
                    }
                ],
                "num_vehicles_available": 1,
                "post_code": "71336",
                "rental_methods": [
                    "key"
                ],
                "station_id": "LTG:Station:537407878",
                "vehicle_types_available": [
                    {
                        "count": 1,
                        "vehicle_type_id": "LTG:VehicleType:urban_arrow_cargo"
                    }
                ]
            },
            "type": "Feature"
        },
        {
            "geometry": {
                "coordinates": [
                    9.315731,
                    48.833185
                ],
                "type": "Point"
            },
            "properties": {
                "address": "Waiblingen, Marktgasse 1",
                "capacity": 1,
                "is_installed": true,
                "is_renting": true,
                "is_returning": true,
                "last_reported": "2026-09-13T10:36:17.000+00:00",
                "name": [
                    {
                        "language": "de",
                        "text": "WN-Marktgarage"
                    }
                ],
                "num_vehicles_available": 1,
                "post_code": "71332",
                "rental_methods": [
                    "key"
                ],
                "station_id": "LTG:Station:640294288",
                "vehicle_types_available": [
                    {
                        "count": 0,
                        "vehicle_type_id": "LTG:VehicleType:urban_arrow_cargo"
                    },
                    {
                        "count": 1,
                        "vehicle_type_id": "LTG:VehicleType:urban_arrow_family"
                    }
                ]
            },
            "type": "Feature"
        },
        {
            "geometry": {
                "coordinates": [
                    9.327564,
                    48.811718
                ],
                "type": "Point"
            },
            "properties": {
                "address": "Kernen im Remstal, Beinsteiner Stra\u00dfe 29",
                "capacity": 1,
                "is_installed": true,
                "is_renting": true,
                "is_returning": true,
                "last_reported": "2026-09-13T10:36:17.000+00:00",
                "name": [
                    {
                        "language": "de",
                        "text": "Beinsteiner Stra\u00dfe 29"
                    }
                ],
                "num_vehicles_available": 1,
                "post_code": "71394",
                "rental_methods": [
                    "key"
                ],
                "station_id": "LTG:Station:744542329",
                "vehicle_types_available": [
                    {
                        "count": 1,
                        "vehicle_type_id": "LTG:VehicleType:urban_arrow_cargo"
                    }
                ]
            },
            "type": "Feature"
        },
        {
            "geometry": {
                "coordinates": [
                    9.305681,
                    48.817376
                ],
                "type": "Point"
            },
            "properties": {
                "address": "Waiblingen, Danziger Platz 36",
                "capacity": 1,
                "is_installed": true,
                "is_renting": true,
                "is_returning": true,
                "last_reported": "2026-09-13T10:36:17.000+00:00",
                "name": [
                    {
                        "language": "de",
                        "text": "WN-Rinnen\u00e4cker Kirche/Forum S\u00fcd"
                    }
                ],
                "num_vehicles_available": 1,
                "post_code": "71332",
                "rental_methods": [
                    "key"
                ],
                "station_id": "LTG:Station:913582806",
                "vehicle_types_available": [
                    {
                        "count": 1,
                        "vehicle_type_id": "LTG:VehicleType:urban_arrow_cargo"
                    }
                ]
            },
            "type": "Feature"
        }
    ],
    "gbfs": {
        "station_information": {
            "last_updated": "2026-09-13T10:36:17.000+00:00",
            "ttl": 60,
            "version": "3.0"
        },
        "station_status": {
            "last_updated": "2026-09-13T10:36:17.000+00:00",
            "ttl": 60,
            "version": "3.0"
        }
    },
    "type": "FeatureCollection"
}