{
    "features": [
        {
            "geometry": {
                "coordinates": [
                    16.446961,
                    49.897663
                ],
                "type": "Point"
            },
            "properties": {
                "capacity": 10,
                "is_installed": true,
                "is_renting": true,
                "is_returning": true,
                "is_virtual_station": false,
                "last_reported": 1789279244,
                "name": "Dopravn\u00ed termin\u00e1l",
                "num_bikes_available": 2,
                "num_docks_available": 8,
                "region_id": "869",
                "rental_uris": {
                    "android": "https://app.nextbike.net/station?id=162234892",
                    "ios": "https://app.nextbike.net/station?id=162234892",
                    "web": "https://nxtb.it/p/162234892"
                },
                "short_name": "49276",
                "station_id": "162234892",
                "vehicle_types_available": [
                    {
                        "count": 2,
                        "vehicle_type_id": "254"
                    }
                ]
            },
            "type": "Feature"
        },
        {
            "geometry": {
                "coordinates": [
                    16.443318,
                    49.905384
                ],
                "type": "Point"
            },
            "properties": {
                "capacity": 6,
                "is_installed": true,
                "is_renting": true,
                "is_returning": true,
                "is_virtual_station": false,
                "last_reported": 1789279244,
                "name": "M\u011bstsk\u00e1 poliklinika",
                "num_bikes_available": 3,
                "num_docks_available": 2,
                "region_id": "869",
                "rental_uris": {
                    "android": "https://app.nextbike.net/station?id=162240483",
                    "ios": "https://app.nextbike.net/station?id=162240483",
                    "web": "https://nxtb.it/p/162240483"
                },
                "short_name": "49278",
                "station_id": "162240483",
                "vehicle_types_available": [
                    {
                        "count": 3,
                        "vehicle_type_id": "254"
                    }
                ]
            },
            "type": "Feature"
        },
        {
            "geometry": {
                "coordinates": [
                    16.445909,
                    49.907172
                ],
                "type": "Point"
            },
            "properties": {
                "capacity": 9,
                "is_installed": true,
                "is_renting": true,
                "is_returning": true,
                "is_virtual_station": false,
                "last_reported": 1789279244,
                "name": "Skalka",
                "num_bikes_available": 0,
                "num_docks_available": 8,
                "region_id": "869",
                "rental_uris": {
                    "android": "https://app.nextbike.net/station?id=162242345",
                    "ios": "https://app.nextbike.net/station?id=162242345",
                    "web": "https://nxtb.it/p/162242345"
                },
                "short_name": "49279",
                "station_id": "162242345",
                "vehicle_types_available": []
            },
            "type": "Feature"
        },
        {
            "geometry": {
                "coordinates": [
                    16.451645,
                    49.899563
                ],
                "type": "Point"
            },
            "properties": {
                "capacity": 3,
                "is_installed": true,
                "is_renting": true,
                "is_returning": true,
                "is_virtual_station": false,
                "last_reported": 1789279244,
                "name": "S\u00eddli\u0161t\u011b K\u0159ib",
                "num_bikes_available": 0,
                "num_docks_available": 3,
                "region_id": "869",
                "rental_uris": {
                    "android": "https://app.nextbike.net/station?id=162242882",
                    "ios": "https://app.nextbike.net/station?id=162242882",
                    "web": "https://nxtb.it/p/162242882"
                },
                "short_name": "49280",
                "station_id": "162242882",
                "vehicle_types_available": []
            },
            "type": "Feature"
        },
        {
            "geometry": {
                "coordinates": [
                    16.448856,
                    49.886348
                ],
                "type": "Point"
            },
            "properties": {
                "capacity": 3,
                "is_installed": true,
                "is_renting": true,
                "is_returning": true,
                "is_virtual_station": false,
                "last_reported": 1789279244,
                "name": "S\u00eddli\u0161t\u011b Borek",
                "num_bikes_available": 1,
                "num_docks_available": 2,
                "region_id": "869",
                "rental_uris": {
                    "android": "https://app.nextbike.net/station?id=162243935",
                    "ios": "https://app.nextbike.net/station?id=162243935",
                    "web": "https://nxtb.it/p/162243935"
                },
                "short_name": "49281",
                "station_id": "162243935",
                "vehicle_types_available": [
                    {
                        "count": 1,
                        "vehicle_type_id": "254"
                    }
                ]
            },
            "type": "Feature"
        },
        {
            "geometry": {
                "coordinates": [
                    16.452104,
                    49.901187
                ],
                "type": "Point"
            },
            "properties": {
                "capacity": 5,
                "is_installed": true,
                "is_renting": true,
                "is_returning": true,
                "is_virtual_station": false,
                "last_reported": 1789279244,
                "name": "Bezd\u011bkov",
                "num_bikes_available": 1,
                "num_docks_available": 4,
                "region_id": "869",
                "rental_uris": {
                    "android": "https://app.nextbike.net/station?id=162244297",
                    "ios": "https://app.nextbike.net/station?id=162244297",
                    "web": "https://nxtb.it/p/162244297"
                },
                "short_name": "49282",
                "station_id": "162244297",
                "vehicle_types_available": [
                    {
                        "count": 1,
                        "vehicle_type_id": "254"
                    }
                ]
            },
            "type": "Feature"
        },
        {
            "geometry": {
                "coordinates": [
                    16.44107,
                    49.911177
                ],
                "type": "Point"
            },
            "properties": {
                "capacity": 9,
                "is_installed": true,
                "is_renting": true,
                "is_returning": true,
                "is_virtual_station": false,
                "last_reported": 1789279244,
                "name": "Prodejna Lidl",
                "num_bikes_available": 6,
                "num_docks_available": 3,
                "region_id": "869",
                "rental_uris": {
                    "android": "https://app.nextbike.net/station?id=162245103",
                    "ios": "https://app.nextbike.net/station?id=162245103",
                    "web": "https://nxtb.it/p/162245103"
                },
                "short_name": "49283",
                "station_id": "162245103",
                "vehicle_types_available": [
                    {
                        "count": 5,
                        "vehicle_type_id": "254"
                    },
                    {
                        "count": 1,
                        "vehicle_type_id": "258"
                    }
                ]
            },
            "type": "Feature"
        },
        {
            "geometry": {
                "coordinates": [
                    16.440918,
                    49.913413
                ],
                "type": "Point"
            },
            "properties": {
                "capacity": 10,
                "is_installed": true,
                "is_renting": true,
                "is_returning": true,
                "is_virtual_station": false,
                "last_reported": 1789279244,
                "name": "Za Vodou",
                "num_bikes_available": 4,
                "num_docks_available": 6,
                "region_id": "869",
                "rental_uris": {
                    "android": "https://app.nextbike.net/station?id=162245732",
                    "ios": "https://app.nextbike.net/station?id=162245732",
                    "web": "https://nxtb.it/p/162245732"
                },
                "short_name": "49284",
                "station_id": "162245732",
                "vehicle_types_available": [
                    {
                        "count": 3,
                        "vehicle_type_id": "254"
                    },
                    {
                        "count": 1,
                        "vehicle_type_id": "258"
                    }
                ]
            },
            "type": "Feature"
        },
        {
            "geometry": {
                "coordinates": [
                    16.43664,
                    49.912939
                ],
                "type": "Point"
            },
            "properties": {
                "capacity": 10,
                "is_installed": true,
                "is_renting": true,
                "is_returning": true,
                "is_virtual_station": false,
                "last_reported": 1789279244,
                "name": "Plaveck\u00fd baz\u00e9n",
                "num_bikes_available": 3,
                "num_docks_available": 7,
                "region_id": "869",
                "rental_uris": {
                    "android": "https://app.nextbike.net/station?id=162247951",
                    "ios": "https://app.nextbike.net/station?id=162247951",
                    "web": "https://nxtb.it/p/162247951"
                },
                "short_name": "49285",
                "station_id": "162247951",
                "vehicle_types_available": [
                    {
                        "count": 1,
                        "vehicle_type_id": "254"
                    },
                    {
                        "count": 1,
                        "vehicle_type_id": "258"
                    },
                    {
                        "count": 1,
                        "vehicle_type_id": "333"
                    }
                ]
            },
            "type": "Feature"
        },
        {
            "geometry": {
                "coordinates": [
                    16.434243,
                    49.921114
                ],
                "type": "Point"
            },
            "properties": {
                "capacity": 7,
                "is_installed": true,
                "is_renting": true,
                "is_returning": true,
                "is_virtual_station": false,
                "last_reported": 1789279244,
                "name": "S\u00eddli\u0161t\u011b Lhotka",
                "num_bikes_available": 0,
                "num_docks_available": 7,
                "region_id": "869",
                "rental_uris": {
                    "android": "https://app.nextbike.net/station?id=162248330",
                    "ios": "https://app.nextbike.net/station?id=162248330",
                    "web": "https://nxtb.it/p/162248330"
                },
                "short_name": "49286",
                "station_id": "162248330",
                "vehicle_types_available": []
            },
            "type": "Feature"
        },
        {
            "geometry": {
                "coordinates": [
                    16.440268,
                    49.903361
                ],
                "type": "Point"
            },
            "properties": {
                "capacity": 10,
                "is_installed": true,
                "is_renting": true,
                "is_returning": true,
                "is_virtual_station": false,
                "last_reported": 1789279244,
                "name": "Prodejna Billa",
                "num_bikes_available": 2,
                "num_docks_available": 8,
                "region_id": "869",
                "rental_uris": {
                    "android": "https://app.nextbike.net/station?id=162248773",
                    "ios": "https://app.nextbike.net/station?id=162248773",
                    "web": "https://nxtb.it/p/162248773"
                },
                "short_name": "49287",
                "station_id": "162248773",
                "vehicle_types_available": [
                    {
                        "count": 1,
                        "vehicle_type_id": "258"
                    },
                    {
                        "count": 1,
                        "vehicle_type_id": "254"
                    }
                ]
            },
            "type": "Feature"
        },
        {
            "geometry": {
                "coordinates": [
                    16.442692,
                    49.901266
                ],
                "type": "Point"
            },
            "properties": {
                "capacity": 5,
                "is_installed": true,
                "is_renting": true,
                "is_returning": true,
                "is_virtual_station": false,
                "last_reported": 1789279244,
                "name": "Nov\u00e9 n\u00e1m\u011bst\u00ed",
                "num_bikes_available": 0,
                "num_docks_available": 5,
                "region_id": "869",
                "rental_uris": {
                    "android": "https://app.nextbike.net/station?id=162249073",
                    "ios": "https://app.nextbike.net/station?id=162249073",
                    "web": "https://nxtb.it/p/162249073"
                },
                "short_name": "49288",
                "station_id": "162249073",
                "vehicle_types_available": []
            },
            "type": "Feature"
        },
        {
            "geometry": {
                "coordinates": [
                    16.436519,
                    49.908132
                ],
                "type": "Point"
            },
            "properties": {
                "capacity": 5,
                "is_installed": true,
                "is_renting": true,
                "is_returning": true,
                "is_virtual_station": false,
                "last_reported": 1789279244,
                "name": "S\u00eddli\u0161t\u011b Jelenice",
                "num_bikes_available": 0,
                "num_docks_available": 5,
                "region_id": "869",
                "rental_uris": {
                    "android": "https://app.nextbike.net/station?id=162249423",
                    "ios": "https://app.nextbike.net/station?id=162249423",
                    "web": "https://nxtb.it/p/162249423"
                },
                "short_name": "49289",
                "station_id": "162249423",
                "vehicle_types_available": []
            },
            "type": "Feature"
        },
        {
            "geometry": {
                "coordinates": [
                    16.437329,
                    49.89941
                ],
                "type": "Point"
            },
            "properties": {
                "capacity": 10,
                "is_installed": true,
                "is_renting": true,
                "is_returning": true,
                "is_virtual_station": false,
                "last_reported": 1789279244,
                "name": "Javorka",
                "num_bikes_available": 0,
                "num_docks_available": 10,
                "region_id": "869",
                "rental_uris": {
                    "android": "https://app.nextbike.net/station?id=162250014",
                    "ios": "https://app.nextbike.net/station?id=162250014",
                    "web": "https://nxtb.it/p/162250014"
                },
                "short_name": "49290",
                "station_id": "162250014",
                "vehicle_types_available": []
            },
            "type": "Feature"
        },
        {
            "geometry": {
                "coordinates": [
                    16.449709,
                    49.904887
                ],
                "type": "Point"
            },
            "properties": {
                "capacity": 5,
                "is_installed": true,
                "is_renting": true,
                "is_returning": true,
                "is_virtual_station": false,
                "last_reported": 1789279244,
                "name": "Rotunda sv. Kate\u0159iny",
                "num_bikes_available": 0,
                "num_docks_available": 5,
                "region_id": "869",
                "rental_uris": {
                    "android": "https://app.nextbike.net/station?id=162250397",
                    "ios": "https://app.nextbike.net/station?id=162250397",
                    "web": "https://nxtb.it/p/162250397"
                },
                "short_name": "49291",
                "station_id": "162250397",
                "vehicle_types_available": []
            },
            "type": "Feature"
        },
        {
            "geometry": {
                "coordinates": [
                    16.432407,
                    49.90893
                ],
                "type": "Point"
            },
            "properties": {
                "capacity": 8,
                "is_installed": true,
                "is_renting": true,
                "is_returning": true,
                "is_virtual_station": false,
                "last_reported": 1789279244,
                "name": "Pekl\u00e1k",
                "num_bikes_available": 0,
                "num_docks_available": 8,
                "region_id": "869",
                "rental_uris": {
                    "android": "https://app.nextbike.net/station?id=162251054",
                    "ios": "https://app.nextbike.net/station?id=162251054",
                    "web": "https://nxtb.it/p/162251054"
                },
                "short_name": "49292",
                "station_id": "162251054",
                "vehicle_types_available": []
            },
            "type": "Feature"
        },
        {
            "geometry": {
                "coordinates": [
                    16.438639,
                    49.916682
                ],
                "type": "Point"
            },
            "properties": {
                "capacity": 5,
                "is_installed": true,
                "is_renting": true,
                "is_returning": true,
                "is_virtual_station": false,
                "last_reported": 1789279244,
                "name": "Z\u0160 \u00dasteck\u00e1",
                "num_bikes_available": 11,
                "num_docks_available": 0,
                "region_id": "869",
                "rental_uris": {
                    "android": "https://app.nextbike.net/station?id=162252210",
                    "ios": "https://app.nextbike.net/station?id=162252210",
                    "web": "https://nxtb.it/p/162252210"
                },
                "short_name": "49293",
                "station_id": "162252210",
                "vehicle_types_available": [
                    {
                        "count": 8,
                        "vehicle_type_id": "254"
                    },
                    {
                        "count": 1,
                        "vehicle_type_id": "258"
                    },
                    {
                        "count": 2,
                        "vehicle_type_id": "333"
                    }
                ]
            },
            "type": "Feature"
        },
        {
            "geometry": {
                "coordinates": [
                    16.437006,
                    49.92452
                ],
                "type": "Point"
            },
            "properties": {
                "capacity": 5,
                "is_installed": true,
                "is_renting": true,
                "is_returning": true,
                "is_virtual_station": false,
                "last_reported": 1789279244,
                "name": "Star\u00e1 Lhotka",
                "num_bikes_available": 3,
                "num_docks_available": 2,
                "region_id": "869",
                "rental_uris": {
                    "android": "https://app.nextbike.net/station?id=162252515",
                    "ios": "https://app.nextbike.net/station?id=162252515",
                    "web": "https://nxtb.it/p/162252515"
                },
                "short_name": "49295",
                "station_id": "162252515",
                "vehicle_types_available": [
                    {
                        "count": 2,
                        "vehicle_type_id": "254"
                    },
                    {
                        "count": 1,
                        "vehicle_type_id": "333"
                    }
                ]
            },
            "type": "Feature"
        },
        {
            "geometry": {
                "coordinates": [
                    16.453066,
                    49.894838
                ],
                "type": "Point"
            },
            "properties": {
                "capacity": 5,
                "is_installed": true,
                "is_renting": true,
                "is_returning": true,
                "is_virtual_station": false,
                "last_reported": 1789279244,
                "name": "Korado",
                "num_bikes_available": 1,
                "num_docks_available": 4,
                "region_id": "869",
                "rental_uris": {
                    "android": "https://app.nextbike.net/station?id=162253174",
                    "ios": "https://app.nextbike.net/station?id=162253174",
                    "web": "https://nxtb.it/p/162253174"
                },
                "short_name": "49294",
                "station_id": "162253174",
                "vehicle_types_available": [
                    {
                        "count": 1,
                        "vehicle_type_id": "254"
                    }
                ]
            },
            "type": "Feature"
        },
        {
            "geometry": {
                "coordinates": [
                    16.448137,
                    49.901405
                ],
                "type": "Point"
            },
            "properties": {
                "capacity": 5,
                "is_installed": true,
                "is_renting": true,
                "is_returning": true,
                "is_virtual_station": false,
                "last_reported": 1789279244,
                "name": "Star\u00e9 n\u00e1m\u011bst\u00ed",
                "num_bikes_available": 0,
                "num_docks_available": 5,
                "region_id": "869",
                "rental_uris": {
                    "android": "https://app.nextbike.net/station?id=162253677",
                    "ios": "https://app.nextbike.net/station?id=162253677",
                    "web": "https://nxtb.it/p/162253677"
                },
                "short_name": "49277",
                "station_id": "162253677",
                "vehicle_types_available": []
            },
            "type": "Feature"
        },
        {
            "geometry": {
                "coordinates": [
                    16.446576,
                    49.913882
                ],
                "type": "Point"
            },
            "properties": {
                "capacity": 5,
                "is_installed": true,
                "is_renting": true,
                "is_returning": true,
                "is_virtual_station": false,
                "last_reported": 1789279244,
                "name": "Gr\u00e9grova",
                "num_bikes_available": 0,
                "num_docks_available": 5,
                "region_id": "869",
                "rental_uris": {
                    "android": "https://app.nextbike.net/station?id=198726896",
                    "ios": "https://app.nextbike.net/station?id=198726896",
                    "web": "https://nxtb.it/p/198726896"
                },
                "short_name": "49296",
                "station_id": "198726896",
                "vehicle_types_available": []
            },
            "type": "Feature"
        },
        {
            "geometry": {
                "coordinates": [
                    16.43395,
                    49.91543
                ],
                "type": "Point"
            },
            "properties": {
                "capacity": 5,
                "is_installed": true,
                "is_renting": true,
                "is_returning": true,
                "is_virtual_station": false,
                "last_reported": 1789279244,
                "name": "Pod B\u0159ezinou",
                "num_bikes_available": 8,
                "num_docks_available": 0,
                "region_id": "869",
                "rental_uris": {
                    "android": "https://app.nextbike.net/station?id=439808241",
                    "ios": "https://app.nextbike.net/station?id=439808241",
                    "web": "https://nxtb.it/p/439808241"
                },
                "short_name": "49297",
                "station_id": "439808241",
                "vehicle_types_available": [
                    {
                        "count": 8,
                        "vehicle_type_id": "254"
                    }
                ]
            },
            "type": "Feature"
        },
        {
            "geometry": {
                "coordinates": [
                    16.44617,
                    49.90016
                ],
                "type": "Point"
            },
            "properties": {
                "capacity": 5,
                "is_installed": true,
                "is_renting": true,
                "is_returning": true,
                "is_virtual_station": false,
                "last_reported": 1789279244,
                "name": "Z\u0160 N\u00e1dra\u017en\u00ed",
                "num_bikes_available": 2,
                "num_docks_available": 3,
                "region_id": "869",
                "rental_uris": {
                    "android": "https://app.nextbike.net/station?id=516740586",
                    "ios": "https://app.nextbike.net/station?id=516740586",
                    "web": "https://nxtb.it/p/516740586"
                },
                "short_name": "49298",
                "station_id": "516740586",
                "vehicle_types_available": [
                    {
                        "count": 2,
                        "vehicle_type_id": "254"
                    }
                ]
            },
            "type": "Feature"
        },
        {
            "geometry": {
                "coordinates": [
                    16.47392,
                    49.88891
                ],
                "type": "Point"
            },
            "properties": {
                "capacity": 5,
                "is_installed": true,
                "is_renting": true,
                "is_returning": true,
                "is_virtual_station": false,
                "last_reported": 1789279244,
                "name": "Rybn\u00edk, obecn\u00ed \u00fa\u0159ad",
                "num_bikes_available": 0,
                "num_docks_available": 5,
                "region_id": "869",
                "rental_uris": {
                    "android": "https://app.nextbike.net/station?id=561361987",
                    "ios": "https://app.nextbike.net/station?id=561361987",
                    "web": "https://nxtb.it/p/561361987"
                },
                "short_name": "49740",
                "station_id": "561361987",
                "vehicle_types_available": []
            },
            "type": "Feature"
        },
        {
            "geometry": {
                "coordinates": [
                    16.46413,
                    49.89203
                ],
                "type": "Point"
            },
            "properties": {
                "capacity": 5,
                "is_installed": true,
                "is_renting": true,
                "is_returning": true,
                "is_virtual_station": false,
                "last_reported": 1789279244,
                "name": "Rybn\u00edk, Srnov",
                "num_bikes_available": 9,
                "num_docks_available": 0,
                "region_id": "869",
                "rental_uris": {
                    "android": "https://app.nextbike.net/station?id=561362224",
                    "ios": "https://app.nextbike.net/station?id=561362224",
                    "web": "https://nxtb.it/p/561362224"
                },
                "short_name": "49741",
                "station_id": "561362224",
                "vehicle_types_available": [
                    {
                        "count": 2,
                        "vehicle_type_id": "258"
                    },
                    {
                        "count": 7,
                        "vehicle_type_id": "254"
                    }
                ]
            },
            "type": "Feature"
        },
        {
            "geometry": {
                "coordinates": [
                    16.477436,
                    49.886896
                ],
                "type": "Point"
            },
            "properties": {
                "capacity": 5,
                "is_installed": true,
                "is_renting": true,
                "is_returning": true,
                "is_virtual_station": false,
                "last_reported": 1789279244,
                "name": "Rybn\u00edk, mate\u0159sk\u00e1 \u0161kola",
                "num_bikes_available": 4,
                "num_docks_available": 1,
                "region_id": "869",
                "rental_uris": {
                    "android": "https://app.nextbike.net/station?id=605081249",
                    "ios": "https://app.nextbike.net/station?id=605081249",
                    "web": "https://nxtb.it/p/605081249"
                },
                "short_name": "49739",
                "station_id": "605081249",
                "vehicle_types_available": [
                    {
                        "count": 3,
                        "vehicle_type_id": "254"
                    },
                    {
                        "count": 1,
                        "vehicle_type_id": "258"
                    }
                ]
            },
            "type": "Feature"
        }
    ],
    "gbfs": {
        "station_information": {
            "last_updated": 1789279244,
            "ttl": 60,
            "version": "2.3"
        },
        "station_status": {
            "last_updated": 1789279244,
            "ttl": 60,
            "version": "2.3"
        }
    },
    "type": "FeatureCollection"
}