{
    "features": [
        {
            "geometry": {
                "coordinates": [
                    23.750077,
                    37.860342
                ],
                "type": "Point"
            },
            "properties": {
                "capacity": 8,
                "is_installed": true,
                "is_renting": true,
                "is_returning": true,
                "is_virtual_station": false,
                "last_reported": 1789139565,
                "name": "\u0392\u0391\u03a3\u0399\u039b\u0399\u039a\u0397 \u0395\u039a\u039a\u039b\u0397\u03a3\u0399\u0391",
                "num_bikes_available": 0,
                "num_docks_available": 8,
                "region_id": "1031",
                "rental_uris": {
                    "android": "https://app.nextbike.net/station?id=577372698",
                    "ios": "https://app.nextbike.net/station?id=577372698",
                    "web": "https://nxtb.it/p/577372698"
                },
                "short_name": "750581",
                "station_id": "577372698",
                "vehicle_types_available": []
            },
            "type": "Feature"
        },
        {
            "geometry": {
                "coordinates": [
                    23.744252,
                    37.864388
                ],
                "type": "Point"
            },
            "properties": {
                "capacity": 9,
                "is_installed": true,
                "is_renting": true,
                "is_returning": true,
                "is_virtual_station": false,
                "last_reported": 1789139565,
                "name": "\u03a0\u0391\u039b\u0391\u0399\u039f \u0394\u0397\u039c\u0391\u03a1\u03a7\u0395\u0399\u039f",
                "num_bikes_available": 0,
                "num_docks_available": 8,
                "region_id": "1031",
                "rental_uris": {
                    "android": "https://app.nextbike.net/station?id=577374089",
                    "ios": "https://app.nextbike.net/station?id=577374089",
                    "web": "https://nxtb.it/p/577374089"
                },
                "short_name": "750582",
                "station_id": "577374089",
                "vehicle_types_available": []
            },
            "type": "Feature"
        },
        {
            "geometry": {
                "coordinates": [
                    23.746646,
                    37.864265
                ],
                "type": "Point"
            },
            "properties": {
                "capacity": 9,
                "is_installed": true,
                "is_renting": true,
                "is_returning": true,
                "is_virtual_station": false,
                "last_reported": 1789139565,
                "name": "\u03a0\u039b\u0391\u03a4\u0395\u0399\u0391 \u039a\u0391\u03a4\u03a1\u0391\u039a\u0397",
                "num_bikes_available": 1,
                "num_docks_available": 8,
                "region_id": "1031",
                "rental_uris": {
                    "android": "https://app.nextbike.net/station?id=577378513",
                    "ios": "https://app.nextbike.net/station?id=577378513",
                    "web": "https://nxtb.it/p/577378513"
                },
                "short_name": "750583",
                "station_id": "577378513",
                "vehicle_types_available": [
                    {
                        "count": 1,
                        "vehicle_type_id": "204"
                    }
                ]
            },
            "type": "Feature"
        },
        {
            "geometry": {
                "coordinates": [
                    23.75469,
                    37.861591
                ],
                "type": "Point"
            },
            "properties": {
                "capacity": 7,
                "is_installed": true,
                "is_renting": true,
                "is_returning": true,
                "is_virtual_station": false,
                "last_reported": 1789139565,
                "name": "\u03a0\u039b\u0391\u03a4\u0395\u0399\u0391 \u0395\u03a3\u03a0\u0395\u03a1\u0399\u0394\u03a9\u039d",
                "num_bikes_available": 0,
                "num_docks_available": 7,
                "region_id": "1031",
                "rental_uris": {
                    "android": "https://app.nextbike.net/station?id=577379400",
                    "ios": "https://app.nextbike.net/station?id=577379400",
                    "web": "https://nxtb.it/p/577379400"
                },
                "short_name": "750584",
                "station_id": "577379400",
                "vehicle_types_available": []
            },
            "type": "Feature"
        },
        {
            "geometry": {
                "coordinates": [
                    23.745095,
                    37.882564
                ],
                "type": "Point"
            },
            "properties": {
                "capacity": 6,
                "is_installed": true,
                "is_renting": true,
                "is_returning": true,
                "is_virtual_station": false,
                "last_reported": 1789139565,
                "name": "\u0395\u03a5\u03a1\u03a5\u0391\u039b\u0397",
                "num_bikes_available": 0,
                "num_docks_available": 6,
                "region_id": "1031",
                "rental_uris": {
                    "android": "https://app.nextbike.net/station?id=577380712",
                    "ios": "https://app.nextbike.net/station?id=577380712",
                    "web": "https://nxtb.it/p/577380712"
                },
                "short_name": "750585",
                "station_id": "577380712",
                "vehicle_types_available": []
            },
            "type": "Feature"
        },
        {
            "geometry": {
                "coordinates": [
                    23.760499,
                    37.885176
                ],
                "type": "Point"
            },
            "properties": {
                "capacity": 8,
                "is_installed": true,
                "is_renting": true,
                "is_returning": true,
                "is_virtual_station": false,
                "last_reported": 1789139565,
                "name": "\u03a0\u039b\u0391\u03a4\u0395\u0399\u0391 \u039c\u0391\u039a\u0395\u0394\u039f\u039d\u0399\u0391\u03a3",
                "num_bikes_available": 1,
                "num_docks_available": 7,
                "region_id": "1031",
                "rental_uris": {
                    "android": "https://app.nextbike.net/station?id=577382241",
                    "ios": "https://app.nextbike.net/station?id=577382241",
                    "web": "https://nxtb.it/p/577382241"
                },
                "short_name": "750586",
                "station_id": "577382241",
                "vehicle_types_available": [
                    {
                        "count": 1,
                        "vehicle_type_id": "204"
                    }
                ]
            },
            "type": "Feature"
        },
        {
            "geometry": {
                "coordinates": [
                    23.765399,
                    37.865714
                ],
                "type": "Point"
            },
            "properties": {
                "capacity": 8,
                "is_installed": true,
                "is_renting": true,
                "is_returning": true,
                "is_virtual_station": false,
                "last_reported": 1789139565,
                "name": "\u03a0\u0391\u03a1\u039a\u039f \u039a\u03a5\u039a\u039b\u039f\u03a6\u039f\u03a1\u0399\u0391\u039a\u0397\u03a3 \u0391\u0393\u03a9\u0393\u0397\u03a3",
                "num_bikes_available": 0,
                "num_docks_available": 8,
                "region_id": "1031",
                "rental_uris": {
                    "android": "https://app.nextbike.net/station?id=577568771",
                    "ios": "https://app.nextbike.net/station?id=577568771",
                    "web": "https://nxtb.it/p/577568771"
                },
                "short_name": "750587",
                "station_id": "577568771",
                "vehicle_types_available": []
            },
            "type": "Feature"
        },
        {
            "geometry": {
                "coordinates": [
                    23.7663,
                    37.890834
                ],
                "type": "Point"
            },
            "properties": {
                "capacity": 8,
                "is_installed": true,
                "is_renting": true,
                "is_returning": true,
                "is_virtual_station": false,
                "last_reported": 1789139565,
                "name": "\u0391\u0393\u0399\u039f\u03a3 \u03a4\u03a1\u03a5\u03a6\u03a9\u039d\u0391\u03a3",
                "num_bikes_available": 0,
                "num_docks_available": 8,
                "region_id": "1031",
                "rental_uris": {
                    "android": "https://app.nextbike.net/station?id=580243256",
                    "ios": "https://app.nextbike.net/station?id=580243256",
                    "web": "https://nxtb.it/p/580243256"
                },
                "short_name": "750588",
                "station_id": "580243256",
                "vehicle_types_available": []
            },
            "type": "Feature"
        }
    ],
    "gbfs": {
        "station_information": {
            "last_updated": 1789139565,
            "ttl": 60,
            "version": "2.3"
        },
        "station_status": {
            "last_updated": 1789139565,
            "ttl": 60,
            "version": "2.3"
        }
    },
    "type": "FeatureCollection"
}