{
    "features": [
        {
            "geometry": {
                "coordinates": [
                    4.112,
                    50.91233
                ],
                "type": "Point"
            },
            "properties": {
                "is_installed": true,
                "is_renting": true,
                "is_returning": true,
                "is_virtual_station": false,
                "last_reported": 1789303763,
                "name": "Hekelgem Den Beer (2+2)",
                "num_bikes_available": 4,
                "num_docks_available": 0,
                "region_id": "1099",
                "rental_uris": {
                    "android": "https://app.nextbike.net/station?id=518289447",
                    "ios": "https://app.nextbike.net/station?id=518289447",
                    "web": "https://nxtb.it/p/518289447"
                },
                "short_name": "65000",
                "station_id": "518289447",
                "vehicle_types_available": [
                    {
                        "count": 3,
                        "vehicle_type_id": "150"
                    },
                    {
                        "count": 1,
                        "vehicle_type_id": "143"
                    }
                ]
            },
            "type": "Feature"
        },
        {
            "geometry": {
                "coordinates": [
                    4.27459,
                    50.88995
                ],
                "type": "Point"
            },
            "properties": {
                "is_installed": true,
                "is_renting": true,
                "is_returning": true,
                "is_virtual_station": false,
                "last_reported": 1789303763,
                "name": "Zellik station (2+1)",
                "num_bikes_available": 2,
                "num_docks_available": 0,
                "region_id": "1100",
                "rental_uris": {
                    "android": "https://app.nextbike.net/station?id=518289665",
                    "ios": "https://app.nextbike.net/station?id=518289665",
                    "web": "https://nxtb.it/p/518289665"
                },
                "short_name": "65001",
                "station_id": "518289665",
                "vehicle_types_available": [
                    {
                        "count": 2,
                        "vehicle_type_id": "150"
                    }
                ]
            },
            "type": "Feature"
        },
        {
            "geometry": {
                "coordinates": [
                    4.209522,
                    50.905446
                ],
                "type": "Point"
            },
            "properties": {
                "is_installed": true,
                "is_renting": true,
                "is_returning": true,
                "is_virtual_station": false,
                "last_reported": 1789303763,
                "name": "Asse station (4+2)",
                "num_bikes_available": 6,
                "num_docks_available": 0,
                "region_id": "1100",
                "rental_uris": {
                    "android": "https://app.nextbike.net/station?id=518289758",
                    "ios": "https://app.nextbike.net/station?id=518289758",
                    "web": "https://nxtb.it/p/518289758"
                },
                "short_name": "65002",
                "station_id": "518289758",
                "vehicle_types_available": [
                    {
                        "count": 6,
                        "vehicle_type_id": "150"
                    }
                ]
            },
            "type": "Feature"
        },
        {
            "geometry": {
                "coordinates": [
                    4.21689,
                    50.93336
                ],
                "type": "Point"
            },
            "properties": {
                "is_installed": true,
                "is_renting": true,
                "is_returning": true,
                "is_virtual_station": false,
                "last_reported": 1789303763,
                "name": "Mollem Station (2+1)",
                "num_bikes_available": 2,
                "num_docks_available": 0,
                "region_id": "1100",
                "rental_uris": {
                    "android": "https://app.nextbike.net/station?id=518289867",
                    "ios": "https://app.nextbike.net/station?id=518289867",
                    "web": "https://nxtb.it/p/518289867"
                },
                "short_name": "65003",
                "station_id": "518289867",
                "vehicle_types_available": [
                    {
                        "count": 2,
                        "vehicle_type_id": "150"
                    }
                ]
            },
            "type": "Feature"
        },
        {
            "geometry": {
                "coordinates": [
                    4.3018,
                    50.76565
                ],
                "type": "Point"
            },
            "properties": {
                "is_installed": true,
                "is_renting": true,
                "is_returning": true,
                "is_virtual_station": false,
                "last_reported": 1789303763,
                "name": "Beersel Station (2+2)",
                "num_bikes_available": 3,
                "num_docks_available": 0,
                "region_id": "1101",
                "rental_uris": {
                    "android": "https://app.nextbike.net/station?id=518290092",
                    "ios": "https://app.nextbike.net/station?id=518290092",
                    "web": "https://nxtb.it/p/518290092"
                },
                "short_name": "65004",
                "station_id": "518290092",
                "vehicle_types_available": [
                    {
                        "count": 3,
                        "vehicle_type_id": "150"
                    }
                ]
            },
            "type": "Feature"
        },
        {
            "geometry": {
                "coordinates": [
                    4.27364,
                    50.76658
                ],
                "type": "Point"
            },
            "properties": {
                "is_installed": true,
                "is_renting": true,
                "is_returning": true,
                "is_virtual_station": false,
                "last_reported": 1789303763,
                "name": "Lot Station (2+1)",
                "num_bikes_available": 2,
                "num_docks_available": 0,
                "region_id": "1101",
                "rental_uris": {
                    "android": "https://app.nextbike.net/station?id=518290199",
                    "ios": "https://app.nextbike.net/station?id=518290199",
                    "web": "https://nxtb.it/p/518290199"
                },
                "short_name": "65005",
                "station_id": "518290199",
                "vehicle_types_available": [
                    {
                        "count": 2,
                        "vehicle_type_id": "150"
                    }
                ]
            },
            "type": "Feature"
        },
        {
            "geometry": {
                "coordinates": [
                    4.2669,
                    50.7519
                ],
                "type": "Point"
            },
            "properties": {
                "is_installed": true,
                "is_renting": true,
                "is_returning": true,
                "is_virtual_station": false,
                "last_reported": 1789303763,
                "name": "Huizingen station (2+1)",
                "num_bikes_available": 2,
                "num_docks_available": 0,
                "region_id": "1101",
                "rental_uris": {
                    "android": "https://app.nextbike.net/station?id=518290482",
                    "ios": "https://app.nextbike.net/station?id=518290482",
                    "web": "https://nxtb.it/p/518290482"
                },
                "short_name": "65006",
                "station_id": "518290482",
                "vehicle_types_available": [
                    {
                        "count": 2,
                        "vehicle_type_id": "150"
                    }
                ]
            },
            "type": "Feature"
        },
        {
            "geometry": {
                "coordinates": [
                    4.27345,
                    50.86843
                ],
                "type": "Point"
            },
            "properties": {
                "is_installed": true,
                "is_renting": true,
                "is_returning": true,
                "is_virtual_station": false,
                "last_reported": 1789303763,
                "name": "Groot-Bijgaarden Station (2+2)",
                "num_bikes_available": 3,
                "num_docks_available": 0,
                "region_id": "1102",
                "rental_uris": {
                    "android": "https://app.nextbike.net/station?id=518290620",
                    "ios": "https://app.nextbike.net/station?id=518290620",
                    "web": "https://nxtb.it/p/518290620"
                },
                "short_name": "65007",
                "station_id": "518290620",
                "vehicle_types_available": [
                    {
                        "count": 2,
                        "vehicle_type_id": "150"
                    },
                    {
                        "count": 1,
                        "vehicle_type_id": "143"
                    }
                ]
            },
            "type": "Feature"
        },
        {
            "geometry": {
                "coordinates": [
                    4.24544,
                    50.86621
                ],
                "type": "Point"
            },
            "properties": {
                "is_installed": true,
                "is_renting": true,
                "is_returning": true,
                "is_virtual_station": false,
                "last_reported": 1789303763,
                "name": "Dilbeek Station (2+3)",
                "num_bikes_available": 5,
                "num_docks_available": 0,
                "region_id": "1102",
                "rental_uris": {
                    "android": "https://app.nextbike.net/station?id=518290761",
                    "ios": "https://app.nextbike.net/station?id=518290761",
                    "web": "https://nxtb.it/p/518290761"
                },
                "short_name": "65008",
                "station_id": "518290761",
                "vehicle_types_available": [
                    {
                        "count": 4,
                        "vehicle_type_id": "150"
                    },
                    {
                        "count": 1,
                        "vehicle_type_id": "143"
                    }
                ]
            },
            "type": "Feature"
        },
        {
            "geometry": {
                "coordinates": [
                    3.966955,
                    50.743279
                ],
                "type": "Point"
            },
            "properties": {
                "is_installed": true,
                "is_renting": true,
                "is_returning": true,
                "is_virtual_station": false,
                "last_reported": 1789303763,
                "name": "Galmaarden Station (2+3)",
                "num_bikes_available": 1,
                "num_docks_available": 0,
                "region_id": "1212",
                "rental_uris": {
                    "android": "https://app.nextbike.net/station?id=518290877",
                    "ios": "https://app.nextbike.net/station?id=518290877",
                    "web": "https://nxtb.it/p/518290877"
                },
                "short_name": "65009",
                "station_id": "518290877",
                "vehicle_types_available": [
                    {
                        "count": 1,
                        "vehicle_type_id": "150"
                    }
                ]
            },
            "type": "Feature"
        },
        {
            "geometry": {
                "coordinates": [
                    3.99277,
                    50.73555
                ],
                "type": "Point"
            },
            "properties": {
                "is_installed": true,
                "is_renting": true,
                "is_returning": true,
                "is_virtual_station": false,
                "last_reported": 1789303763,
                "name": "Tollembeek Station (2+2)",
                "num_bikes_available": 10,
                "num_docks_available": 0,
                "region_id": "1212",
                "rental_uris": {
                    "android": "https://app.nextbike.net/station?id=518290945",
                    "ios": "https://app.nextbike.net/station?id=518290945",
                    "web": "https://nxtb.it/p/518290945"
                },
                "short_name": "65010",
                "station_id": "518290945",
                "vehicle_types_available": [
                    {
                        "count": 4,
                        "vehicle_type_id": "150"
                    },
                    {
                        "count": 6,
                        "vehicle_type_id": "143"
                    }
                ]
            },
            "type": "Feature"
        },
        {
            "geometry": {
                "coordinates": [
                    4.12067,
                    50.78095
                ],
                "type": "Point"
            },
            "properties": {
                "is_installed": true,
                "is_renting": true,
                "is_returning": true,
                "is_virtual_station": false,
                "last_reported": 1789303763,
                "name": "Leerbeek Stelplaats (2+2)",
                "num_bikes_available": 1,
                "num_docks_available": 0,
                "region_id": "1212",
                "rental_uris": {
                    "android": "https://app.nextbike.net/station?id=518291029",
                    "ios": "https://app.nextbike.net/station?id=518291029",
                    "web": "https://nxtb.it/p/518291029"
                },
                "short_name": "65011",
                "station_id": "518291029",
                "vehicle_types_available": [
                    {
                        "count": 1,
                        "vehicle_type_id": "143"
                    }
                ]
            },
            "type": "Feature"
        },
        {
            "geometry": {
                "coordinates": [
                    4.36344,
                    50.93592
                ],
                "type": "Point"
            },
            "properties": {
                "is_installed": true,
                "is_renting": true,
                "is_returning": true,
                "is_virtual_station": false,
                "last_reported": 1789303763,
                "name": "Grimbergen Stelplaats (2+2)",
                "num_bikes_available": 2,
                "num_docks_available": 0,
                "region_id": "1105",
                "rental_uris": {
                    "android": "https://app.nextbike.net/station?id=518291191",
                    "ios": "https://app.nextbike.net/station?id=518291191",
                    "web": "https://nxtb.it/p/518291191"
                },
                "short_name": "65012",
                "station_id": "518291191",
                "vehicle_types_available": [
                    {
                        "count": 2,
                        "vehicle_type_id": "150"
                    }
                ]
            },
            "type": "Feature"
        },
        {
            "geometry": {
                "coordinates": [
                    4.3563,
                    50.90971
                ],
                "type": "Point"
            },
            "properties": {
                "is_installed": true,
                "is_renting": true,
                "is_returning": true,
                "is_virtual_station": false,
                "last_reported": 1789303763,
                "name": "Strombeek-Bever Sint-Amandsplein (3+1)",
                "num_bikes_available": 5,
                "num_docks_available": 0,
                "region_id": "1105",
                "rental_uris": {
                    "android": "https://app.nextbike.net/station?id=518291287",
                    "ios": "https://app.nextbike.net/station?id=518291287",
                    "web": "https://nxtb.it/p/518291287"
                },
                "short_name": "65013",
                "station_id": "518291287",
                "vehicle_types_available": [
                    {
                        "count": 5,
                        "vehicle_type_id": "150"
                    }
                ]
            },
            "type": "Feature"
        },
        {
            "geometry": {
                "coordinates": [
                    4.22097,
                    50.71478
                ],
                "type": "Point"
            },
            "properties": {
                "is_installed": true,
                "is_renting": true,
                "is_returning": true,
                "is_virtual_station": false,
                "last_reported": 1789303763,
                "name": "Lembeek Station (3+2)",
                "num_bikes_available": 2,
                "num_docks_available": 0,
                "region_id": "1106",
                "rental_uris": {
                    "android": "https://app.nextbike.net/station?id=518291424",
                    "ios": "https://app.nextbike.net/station?id=518291424",
                    "web": "https://nxtb.it/p/518291424"
                },
                "short_name": "65014",
                "station_id": "518291424",
                "vehicle_types_available": [
                    {
                        "count": 2,
                        "vehicle_type_id": "150"
                    }
                ]
            },
            "type": "Feature"
        },
        {
            "geometry": {
                "coordinates": [
                    4.25821,
                    50.75081
                ],
                "type": "Point"
            },
            "properties": {
                "is_installed": true,
                "is_renting": true,
                "is_returning": true,
                "is_virtual_station": false,
                "last_reported": 1789303763,
                "name": "Buizingen Station (2+1)",
                "num_bikes_available": 3,
                "num_docks_available": 0,
                "region_id": "1106",
                "rental_uris": {
                    "android": "https://app.nextbike.net/station?id=518291853",
                    "ios": "https://app.nextbike.net/station?id=518291853",
                    "web": "https://nxtb.it/p/518291853"
                },
                "short_name": "65015",
                "station_id": "518291853",
                "vehicle_types_available": [
                    {
                        "count": 3,
                        "vehicle_type_id": "150"
                    }
                ]
            },
            "type": "Feature"
        },
        {
            "geometry": {
                "coordinates": [
                    4.01374,
                    50.72456
                ],
                "type": "Point"
            },
            "properties": {
                "is_installed": true,
                "is_renting": true,
                "is_returning": true,
                "is_virtual_station": false,
                "last_reported": 1789303763,
                "name": "Herne station (2+2)",
                "num_bikes_available": 3,
                "num_docks_available": 0,
                "region_id": "1212",
                "rental_uris": {
                    "android": "https://app.nextbike.net/station?id=518312403",
                    "ios": "https://app.nextbike.net/station?id=518312403",
                    "web": "https://nxtb.it/p/518312403"
                },
                "short_name": "65016",
                "station_id": "518312403",
                "vehicle_types_available": [
                    {
                        "count": 2,
                        "vehicle_type_id": "150"
                    },
                    {
                        "count": 1,
                        "vehicle_type_id": "143"
                    }
                ]
            },
            "type": "Feature"
        },
        {
            "geometry": {
                "coordinates": [
                    4.59445,
                    50.95532
                ],
                "type": "Point"
            },
            "properties": {
                "is_installed": true,
                "is_renting": true,
                "is_returning": true,
                "is_virtual_station": false,
                "last_reported": 1789303763,
                "name": "Kampenhout Sas (2+2)",
                "num_bikes_available": 5,
                "num_docks_available": 0,
                "region_id": "1107",
                "rental_uris": {
                    "android": "https://app.nextbike.net/station?id=518312527",
                    "ios": "https://app.nextbike.net/station?id=518312527",
                    "web": "https://nxtb.it/p/518312527"
                },
                "short_name": "65017",
                "station_id": "518312527",
                "vehicle_types_available": [
                    {
                        "count": 4,
                        "vehicle_type_id": "150"
                    },
                    {
                        "count": 1,
                        "vehicle_type_id": "143"
                    }
                ]
            },
            "type": "Feature"
        },
        {
            "geometry": {
                "coordinates": [
                    4.14762,
                    50.83518
                ],
                "type": "Point"
            },
            "properties": {
                "is_installed": true,
                "is_renting": true,
                "is_returning": true,
                "is_virtual_station": false,
                "last_reported": 1789303763,
                "name": "Sint-Kwintens-Lennik Eizeringen Kruispunt (2+2)",
                "num_bikes_available": 5,
                "num_docks_available": 0,
                "region_id": "1108",
                "rental_uris": {
                    "android": "https://app.nextbike.net/station?id=518312685",
                    "ios": "https://app.nextbike.net/station?id=518312685",
                    "web": "https://nxtb.it/p/518312685"
                },
                "short_name": "65018",
                "station_id": "518312685",
                "vehicle_types_available": [
                    {
                        "count": 5,
                        "vehicle_type_id": "150"
                    }
                ]
            },
            "type": "Feature"
        },
        {
            "geometry": {
                "coordinates": [
                    4.15564,
                    50.80585
                ],
                "type": "Point"
            },
            "properties": {
                "is_installed": true,
                "is_renting": true,
                "is_returning": true,
                "is_virtual_station": false,
                "last_reported": 1789303763,
                "name": "Lennik Marktplein (2+3)",
                "num_bikes_available": 5,
                "num_docks_available": 0,
                "region_id": "1108",
                "rental_uris": {
                    "android": "https://app.nextbike.net/station?id=518312821",
                    "ios": "https://app.nextbike.net/station?id=518312821",
                    "web": "https://nxtb.it/p/518312821"
                },
                "short_name": "65019",
                "station_id": "518312821",
                "vehicle_types_available": [
                    {
                        "count": 5,
                        "vehicle_type_id": "150"
                    }
                ]
            },
            "type": "Feature"
        },
        {
            "geometry": {
                "coordinates": [
                    4.09389,
                    50.88234
                ],
                "type": "Point"
            },
            "properties": {
                "is_installed": true,
                "is_renting": true,
                "is_returning": true,
                "is_virtual_station": false,
                "last_reported": 1789303763,
                "name": "Liedekerke Station (4+1)",
                "num_bikes_available": 1,
                "num_docks_available": 0,
                "region_id": "1109",
                "rental_uris": {
                    "android": "https://app.nextbike.net/station?id=518312927",
                    "ios": "https://app.nextbike.net/station?id=518312927",
                    "web": "https://nxtb.it/p/518312927"
                },
                "short_name": "65020",
                "station_id": "518312927",
                "vehicle_types_available": [
                    {
                        "count": 1,
                        "vehicle_type_id": "150"
                    }
                ]
            },
            "type": "Feature"
        },
        {
            "geometry": {
                "coordinates": [
                    4.29833,
                    51.00905
                ],
                "type": "Point"
            },
            "properties": {
                "is_installed": true,
                "is_renting": true,
                "is_returning": true,
                "is_virtual_station": false,
                "last_reported": 1789303763,
                "name": "Londerzeel Station (4+3)",
                "num_bikes_available": 6,
                "num_docks_available": 0,
                "region_id": "1110",
                "rental_uris": {
                    "android": "https://app.nextbike.net/station?id=518313389",
                    "ios": "https://app.nextbike.net/station?id=518313389",
                    "web": "https://nxtb.it/p/518313389"
                },
                "short_name": "65021",
                "station_id": "518313389",
                "vehicle_types_available": [
                    {
                        "count": 6,
                        "vehicle_type_id": "150"
                    }
                ]
            },
            "type": "Feature"
        },
        {
            "geometry": {
                "coordinates": [
                    4.315787,
                    50.949034
                ],
                "type": "Point"
            },
            "properties": {
                "is_installed": true,
                "is_renting": true,
                "is_returning": true,
                "is_virtual_station": false,
                "last_reported": 1789303763,
                "name": "Wolvertem Wilgenlaan (2+1)",
                "num_bikes_available": 3,
                "num_docks_available": 0,
                "region_id": "1111",
                "rental_uris": {
                    "android": "https://app.nextbike.net/station?id=518313527",
                    "ios": "https://app.nextbike.net/station?id=518313527",
                    "web": "https://nxtb.it/p/518313527"
                },
                "short_name": "65022",
                "station_id": "518313527",
                "vehicle_types_available": [
                    {
                        "count": 2,
                        "vehicle_type_id": "150"
                    },
                    {
                        "count": 1,
                        "vehicle_type_id": "143"
                    }
                ]
            },
            "type": "Feature"
        },
        {
            "geometry": {
                "coordinates": [
                    4.32967,
                    50.935739
                ],
                "type": "Point"
            },
            "properties": {
                "is_installed": true,
                "is_renting": true,
                "is_returning": true,
                "is_virtual_station": false,
                "last_reported": 1789303763,
                "name": "Meise Carpoolparking (2+1)",
                "num_bikes_available": 2,
                "num_docks_available": 0,
                "region_id": "1111",
                "rental_uris": {
                    "android": "https://app.nextbike.net/station?id=518313937",
                    "ios": "https://app.nextbike.net/station?id=518313937",
                    "web": "https://nxtb.it/p/518313937"
                },
                "short_name": "65023",
                "station_id": "518313937",
                "vehicle_types_available": [
                    {
                        "count": 2,
                        "vehicle_type_id": "143"
                    }
                ]
            },
            "type": "Feature"
        },
        {
            "geometry": {
                "coordinates": [
                    4.15958,
                    50.75944
                ],
                "type": "Point"
            },
            "properties": {
                "is_installed": true,
                "is_renting": true,
                "is_returning": true,
                "is_virtual_station": false,
                "last_reported": 1789303763,
                "name": "Pepingen Kerk (1+2)",
                "num_bikes_available": 6,
                "num_docks_available": 0,
                "region_id": "1112",
                "rental_uris": {
                    "android": "https://app.nextbike.net/station?id=518314207",
                    "ios": "https://app.nextbike.net/station?id=518314207",
                    "web": "https://nxtb.it/p/518314207"
                },
                "short_name": "65024",
                "station_id": "518314207",
                "vehicle_types_available": [
                    {
                        "count": 4,
                        "vehicle_type_id": "150"
                    },
                    {
                        "count": 2,
                        "vehicle_type_id": "143"
                    }
                ]
            },
            "type": "Feature"
        },
        {
            "geometry": {
                "coordinates": [
                    4.09081,
                    50.83253
                ],
                "type": "Point"
            },
            "properties": {
                "is_installed": true,
                "is_renting": true,
                "is_returning": true,
                "is_virtual_station": false,
                "last_reported": 1789303763,
                "name": "Pamel Schoon Verbond (2+3)",
                "num_bikes_available": 4,
                "num_docks_available": 0,
                "region_id": "1113",
                "rental_uris": {
                    "android": "https://app.nextbike.net/station?id=518314524",
                    "ios": "https://app.nextbike.net/station?id=518314524",
                    "web": "https://nxtb.it/p/518314524"
                },
                "short_name": "65025",
                "station_id": "518314524",
                "vehicle_types_available": [
                    {
                        "count": 4,
                        "vehicle_type_id": "150"
                    }
                ]
            },
            "type": "Feature"
        },
        {
            "geometry": {
                "coordinates": [
                    4.29506,
                    50.79101
                ],
                "type": "Point"
            },
            "properties": {
                "is_installed": true,
                "is_renting": true,
                "is_returning": true,
                "is_virtual_station": false,
                "last_reported": 1789303763,
                "name": "Ruisbroek station (5+1)",
                "num_bikes_available": 2,
                "num_docks_available": 0,
                "region_id": "1114",
                "rental_uris": {
                    "android": "https://app.nextbike.net/station?id=518314685",
                    "ios": "https://app.nextbike.net/station?id=518314685",
                    "web": "https://nxtb.it/p/518314685"
                },
                "short_name": "65026",
                "station_id": "518314685",
                "vehicle_types_available": [
                    {
                        "count": 2,
                        "vehicle_type_id": "150"
                    }
                ]
            },
            "type": "Feature"
        },
        {
            "geometry": {
                "coordinates": [
                    4.16547,
                    50.87455
                ],
                "type": "Point"
            },
            "properties": {
                "is_installed": true,
                "is_renting": true,
                "is_returning": true,
                "is_virtual_station": false,
                "last_reported": 1789303763,
                "name": "Ternat Station (8+1)",
                "num_bikes_available": 5,
                "num_docks_available": 0,
                "region_id": "1115",
                "rental_uris": {
                    "android": "https://app.nextbike.net/station?id=518315187",
                    "ios": "https://app.nextbike.net/station?id=518315187",
                    "web": "https://nxtb.it/p/518315187"
                },
                "short_name": "65027",
                "station_id": "518315187",
                "vehicle_types_available": [
                    {
                        "count": 4,
                        "vehicle_type_id": "150"
                    },
                    {
                        "count": 1,
                        "vehicle_type_id": "143"
                    }
                ]
            },
            "type": "Feature"
        },
        {
            "geometry": {
                "coordinates": [
                    4.16918,
                    50.88725
                ],
                "type": "Point"
            },
            "properties": {
                "is_installed": true,
                "is_renting": true,
                "is_returning": true,
                "is_virtual_station": false,
                "last_reported": 1789303763,
                "name": "Ternat Industrie (4+1)",
                "num_bikes_available": 3,
                "num_docks_available": 0,
                "region_id": "1115",
                "rental_uris": {
                    "android": "https://app.nextbike.net/station?id=518315516",
                    "ios": "https://app.nextbike.net/station?id=518315516",
                    "web": "https://nxtb.it/p/518315516"
                },
                "short_name": "65028",
                "station_id": "518315516",
                "vehicle_types_available": [
                    {
                        "count": 3,
                        "vehicle_type_id": "150"
                    }
                ]
            },
            "type": "Feature"
        },
        {
            "geometry": {
                "coordinates": [
                    4.30615,
                    50.90784
                ],
                "type": "Point"
            },
            "properties": {
                "is_installed": true,
                "is_renting": true,
                "is_returning": true,
                "is_virtual_station": false,
                "last_reported": 1789303763,
                "name": "Wemmel Markt (2+1)",
                "num_bikes_available": 1,
                "num_docks_available": 0,
                "region_id": "1116",
                "rental_uris": {
                    "android": "https://app.nextbike.net/station?id=518315914",
                    "ios": "https://app.nextbike.net/station?id=518315914",
                    "web": "https://nxtb.it/p/518315914"
                },
                "short_name": "65029",
                "station_id": "518315914",
                "vehicle_types_available": [
                    {
                        "count": 1,
                        "vehicle_type_id": "143"
                    }
                ]
            },
            "type": "Feature"
        },
        {
            "geometry": {
                "coordinates": [
                    4.50802,
                    50.884
                ],
                "type": "Point"
            },
            "properties": {
                "is_installed": true,
                "is_renting": true,
                "is_returning": true,
                "is_virtual_station": false,
                "last_reported": 1789303763,
                "name": "Nossegem Station (3+2)",
                "num_bikes_available": 4,
                "num_docks_available": 0,
                "region_id": "1117",
                "rental_uris": {
                    "android": "https://app.nextbike.net/station?id=518315984",
                    "ios": "https://app.nextbike.net/station?id=518315984",
                    "web": "https://nxtb.it/p/518315984"
                },
                "short_name": "65030",
                "station_id": "518315984",
                "vehicle_types_available": [
                    {
                        "count": 3,
                        "vehicle_type_id": "150"
                    },
                    {
                        "count": 1,
                        "vehicle_type_id": "143"
                    }
                ]
            },
            "type": "Feature"
        },
        {
            "geometry": {
                "coordinates": [
                    4.49385,
                    50.86984
                ],
                "type": "Point"
            },
            "properties": {
                "is_installed": true,
                "is_renting": true,
                "is_returning": true,
                "is_virtual_station": false,
                "last_reported": 1789303763,
                "name": "Zaventem IKEA (3)",
                "num_bikes_available": 2,
                "num_docks_available": 0,
                "region_id": "1117",
                "rental_uris": {
                    "android": "https://app.nextbike.net/station?id=518705569",
                    "ios": "https://app.nextbike.net/station?id=518705569",
                    "web": "https://nxtb.it/p/518705569"
                },
                "short_name": "65031",
                "station_id": "518705569",
                "vehicle_types_available": [
                    {
                        "count": 1,
                        "vehicle_type_id": "150"
                    },
                    {
                        "count": 1,
                        "vehicle_type_id": "143"
                    }
                ]
            },
            "type": "Feature"
        },
        {
            "geometry": {
                "coordinates": [
                    4.18756,
                    50.97417
                ],
                "type": "Point"
            },
            "properties": {
                "is_installed": true,
                "is_renting": true,
                "is_returning": true,
                "is_virtual_station": false,
                "last_reported": 1789303763,
                "name": "Station Opwijk (2+1)",
                "num_bikes_available": 3,
                "num_docks_available": 0,
                "region_id": "1120",
                "rental_uris": {
                    "android": "https://app.nextbike.net/station?id=518706162",
                    "ios": "https://app.nextbike.net/station?id=518706162",
                    "web": "https://nxtb.it/p/518706162"
                },
                "short_name": "65032",
                "station_id": "518706162",
                "vehicle_types_available": [
                    {
                        "count": 3,
                        "vehicle_type_id": "150"
                    }
                ]
            },
            "type": "Feature"
        },
        {
            "geometry": {
                "coordinates": [
                    4.25654,
                    50.84342
                ],
                "type": "Point"
            },
            "properties": {
                "is_installed": true,
                "is_renting": true,
                "is_returning": true,
                "is_virtual_station": false,
                "last_reported": 1789303763,
                "name": "Dilbeek stelplaats (3)",
                "num_bikes_available": 0,
                "num_docks_available": 0,
                "region_id": "1102",
                "rental_uris": {
                    "android": "https://app.nextbike.net/station?id=518706733",
                    "ios": "https://app.nextbike.net/station?id=518706733",
                    "web": "https://nxtb.it/p/518706733"
                },
                "short_name": "65034",
                "station_id": "518706733",
                "vehicle_types_available": []
            },
            "type": "Feature"
        },
        {
            "geometry": {
                "coordinates": [
                    4.06286,
                    50.77345
                ],
                "type": "Point"
            },
            "properties": {
                "is_installed": true,
                "is_renting": true,
                "is_returning": true,
                "is_virtual_station": false,
                "last_reported": 1789303763,
                "name": "Oetingen Kerk (2+1)",
                "num_bikes_available": 9,
                "num_docks_available": 0,
                "region_id": "1212",
                "rental_uris": {
                    "android": "https://app.nextbike.net/station?id=518707357",
                    "ios": "https://app.nextbike.net/station?id=518707357",
                    "web": "https://nxtb.it/p/518707357"
                },
                "short_name": "65035",
                "station_id": "518707357",
                "vehicle_types_available": [
                    {
                        "count": 6,
                        "vehicle_type_id": "150"
                    },
                    {
                        "count": 3,
                        "vehicle_type_id": "143"
                    }
                ]
            },
            "type": "Feature"
        },
        {
            "geometry": {
                "coordinates": [
                    3.97136,
                    50.75402
                ],
                "type": "Point"
            },
            "properties": {
                "is_installed": true,
                "is_renting": true,
                "is_returning": true,
                "is_virtual_station": false,
                "last_reported": 1789303763,
                "name": "Galmaarden markt (2+1)",
                "num_bikes_available": 2,
                "num_docks_available": 0,
                "region_id": "1212",
                "rental_uris": {
                    "android": "https://app.nextbike.net/station?id=518707921",
                    "ios": "https://app.nextbike.net/station?id=518707921",
                    "web": "https://nxtb.it/p/518707921"
                },
                "short_name": "65036",
                "station_id": "518707921",
                "vehicle_types_available": [
                    {
                        "count": 2,
                        "vehicle_type_id": "150"
                    }
                ]
            },
            "type": "Feature"
        },
        {
            "geometry": {
                "coordinates": [
                    4.24503,
                    50.78073
                ],
                "type": "Point"
            },
            "properties": {
                "is_installed": true,
                "is_renting": true,
                "is_returning": true,
                "is_virtual_station": false,
                "last_reported": 1789303763,
                "name": "Sint-Pieters-Leeuw Gemeentehuis (3)",
                "num_bikes_available": 0,
                "num_docks_available": 0,
                "region_id": "1114",
                "rental_uris": {
                    "android": "https://app.nextbike.net/station?id=518708119",
                    "ios": "https://app.nextbike.net/station?id=518708119",
                    "web": "https://nxtb.it/p/518708119"
                },
                "short_name": "65037",
                "station_id": "518708119",
                "vehicle_types_available": []
            },
            "type": "Feature"
        },
        {
            "geometry": {
                "coordinates": [
                    4.47122,
                    50.97791
                ],
                "type": "Point"
            },
            "properties": {
                "is_installed": true,
                "is_renting": true,
                "is_returning": true,
                "is_virtual_station": false,
                "last_reported": 1789303763,
                "name": "Weerde Station (2+1)",
                "num_bikes_available": 4,
                "num_docks_available": 0,
                "region_id": "1118",
                "rental_uris": {
                    "android": "https://app.nextbike.net/station?id=519537261",
                    "ios": "https://app.nextbike.net/station?id=519537261",
                    "web": "https://nxtb.it/p/519537261"
                },
                "short_name": "65038",
                "station_id": "519537261",
                "vehicle_types_available": [
                    {
                        "count": 4,
                        "vehicle_type_id": "150"
                    }
                ]
            },
            "type": "Feature"
        },
        {
            "geometry": {
                "coordinates": [
                    4.09904,
                    50.74647
                ],
                "type": "Point"
            },
            "properties": {
                "is_installed": true,
                "is_renting": true,
                "is_returning": true,
                "is_virtual_station": false,
                "last_reported": 1789303763,
                "name": "Herfelingen Dorp (1+2)",
                "num_bikes_available": 3,
                "num_docks_available": 0,
                "region_id": "1212",
                "rental_uris": {
                    "android": "https://app.nextbike.net/station?id=520708642",
                    "ios": "https://app.nextbike.net/station?id=520708642",
                    "web": "https://nxtb.it/p/520708642"
                },
                "short_name": "65039",
                "station_id": "520708642",
                "vehicle_types_available": [
                    {
                        "count": 1,
                        "vehicle_type_id": "150"
                    },
                    {
                        "count": 2,
                        "vehicle_type_id": "143"
                    }
                ]
            },
            "type": "Feature"
        },
        {
            "geometry": {
                "coordinates": [
                    4.500343,
                    50.84486
                ],
                "type": "Point"
            },
            "properties": {
                "is_installed": true,
                "is_renting": true,
                "is_returning": true,
                "is_virtual_station": false,
                "last_reported": 1789303763,
                "name": "Wezembeek-Oppem Ter Meren (3)",
                "num_bikes_available": 2,
                "num_docks_available": 0,
                "region_id": "1121",
                "rental_uris": {
                    "android": "https://app.nextbike.net/station?id=573439555",
                    "ios": "https://app.nextbike.net/station?id=573439555",
                    "web": "https://nxtb.it/p/573439555"
                },
                "short_name": "65041",
                "station_id": "573439555",
                "vehicle_types_available": [
                    {
                        "count": 2,
                        "vehicle_type_id": "150"
                    }
                ]
            },
            "type": "Feature"
        },
        {
            "geometry": {
                "coordinates": [
                    4.201005,
                    50.910536
                ],
                "type": "Point"
            },
            "properties": {
                "is_installed": true,
                "is_renting": true,
                "is_returning": true,
                "is_virtual_station": false,
                "last_reported": 1789303763,
                "name": "Asse Gemeenteplein (3)",
                "num_bikes_available": 5,
                "num_docks_available": 0,
                "region_id": "1100",
                "rental_uris": {
                    "android": "https://app.nextbike.net/station?id=576634002",
                    "ios": "https://app.nextbike.net/station?id=576634002",
                    "web": "https://nxtb.it/p/576634002"
                },
                "short_name": "65080",
                "station_id": "576634002",
                "vehicle_types_available": [
                    {
                        "count": 4,
                        "vehicle_type_id": "150"
                    },
                    {
                        "count": 1,
                        "vehicle_type_id": "143"
                    }
                ]
            },
            "type": "Feature"
        },
        {
            "geometry": {
                "coordinates": [
                    4.347659,
                    50.901962
                ],
                "type": "Point"
            },
            "properties": {
                "is_installed": true,
                "is_renting": true,
                "is_returning": true,
                "is_virtual_station": false,
                "last_reported": 1789303763,
                "name": "Grimbergen Esplanade (3+1)",
                "num_bikes_available": 4,
                "num_docks_available": 0,
                "region_id": "1105",
                "rental_uris": {
                    "android": "https://app.nextbike.net/station?id=581606168",
                    "ios": "https://app.nextbike.net/station?id=581606168",
                    "web": "https://nxtb.it/p/581606168"
                },
                "short_name": "65044",
                "station_id": "581606168",
                "vehicle_types_available": [
                    {
                        "count": 4,
                        "vehicle_type_id": "150"
                    }
                ]
            },
            "type": "Feature"
        },
        {
            "geometry": {
                "coordinates": [
                    4.549891,
                    50.937576
                ],
                "type": "Point"
            },
            "properties": {
                "is_installed": true,
                "is_renting": true,
                "is_returning": true,
                "is_virtual_station": false,
                "last_reported": 1789303763,
                "name": "Kampenhout Kerkstraat (3)",
                "num_bikes_available": 3,
                "num_docks_available": 0,
                "region_id": "1107",
                "rental_uris": {
                    "android": "https://app.nextbike.net/station?id=588507443",
                    "ios": "https://app.nextbike.net/station?id=588507443",
                    "web": "https://nxtb.it/p/588507443"
                },
                "short_name": "65071",
                "station_id": "588507443",
                "vehicle_types_available": [
                    {
                        "count": 3,
                        "vehicle_type_id": "150"
                    }
                ]
            },
            "type": "Feature"
        },
        {
            "geometry": {
                "coordinates": [
                    4.564992,
                    50.9186
                ],
                "type": "Point"
            },
            "properties": {
                "is_installed": true,
                "is_renting": true,
                "is_returning": true,
                "is_virtual_station": false,
                "last_reported": 1789303763,
                "name": "Nederokkerzeel Kerk (2+2)",
                "num_bikes_available": 3,
                "num_docks_available": 0,
                "region_id": "1107",
                "rental_uris": {
                    "android": "https://app.nextbike.net/station?id=589084362",
                    "ios": "https://app.nextbike.net/station?id=589084362",
                    "web": "https://nxtb.it/p/589084362"
                },
                "short_name": "65072",
                "station_id": "589084362",
                "vehicle_types_available": [
                    {
                        "count": 2,
                        "vehicle_type_id": "150"
                    },
                    {
                        "count": 1,
                        "vehicle_type_id": "143"
                    }
                ]
            },
            "type": "Feature"
        },
        {
            "geometry": {
                "coordinates": [
                    4.200668,
                    51.016393
                ],
                "type": "Point"
            },
            "properties": {
                "is_installed": true,
                "is_renting": true,
                "is_returning": true,
                "is_virtual_station": false,
                "last_reported": 1789303763,
                "name": "Buggenhout Station (3+1)",
                "num_bikes_available": 4,
                "num_docks_available": 0,
                "region_id": "1244",
                "rental_uris": {
                    "android": "https://app.nextbike.net/station?id=606705939",
                    "ios": "https://app.nextbike.net/station?id=606705939",
                    "web": "https://nxtb.it/p/606705939"
                },
                "short_name": "65045",
                "station_id": "606705939",
                "vehicle_types_available": [
                    {
                        "count": 4,
                        "vehicle_type_id": "150"
                    }
                ]
            },
            "type": "Feature"
        },
        {
            "geometry": {
                "coordinates": [
                    4.229431,
                    51.014712
                ],
                "type": "Point"
            },
            "properties": {
                "is_installed": true,
                "is_renting": true,
                "is_returning": true,
                "is_virtual_station": false,
                "last_reported": 1789303763,
                "name": "Malderen Station (3+1)",
                "num_bikes_available": 2,
                "num_docks_available": 0,
                "region_id": "1110",
                "rental_uris": {
                    "android": "https://app.nextbike.net/station?id=606706544",
                    "ios": "https://app.nextbike.net/station?id=606706544",
                    "web": "https://nxtb.it/p/606706544"
                },
                "short_name": "65046",
                "station_id": "606706544",
                "vehicle_types_available": [
                    {
                        "count": 2,
                        "vehicle_type_id": "150"
                    }
                ]
            },
            "type": "Feature"
        },
        {
            "geometry": {
                "coordinates": [
                    4.45321,
                    50.865882
                ],
                "type": "Point"
            },
            "properties": {
                "is_installed": true,
                "is_renting": true,
                "is_returning": true,
                "is_virtual_station": false,
                "last_reported": 1789303763,
                "name": "Kraainem Viaduct E40 (2+1)",
                "num_bikes_available": 3,
                "num_docks_available": 0,
                "region_id": "1248",
                "rental_uris": {
                    "android": "https://app.nextbike.net/station?id=606706911",
                    "ios": "https://app.nextbike.net/station?id=606706911",
                    "web": "https://nxtb.it/p/606706911"
                },
                "short_name": "65047",
                "station_id": "606706911",
                "vehicle_types_available": [
                    {
                        "count": 1,
                        "vehicle_type_id": "150"
                    },
                    {
                        "count": 2,
                        "vehicle_type_id": "143"
                    }
                ]
            },
            "type": "Feature"
        },
        {
            "geometry": {
                "coordinates": [
                    4.338289,
                    50.773823
                ],
                "type": "Point"
            },
            "properties": {
                "is_installed": true,
                "is_renting": true,
                "is_returning": true,
                "is_virtual_station": false,
                "last_reported": 1789303763,
                "name": "Linkebeek Station (3+1)",
                "num_bikes_available": 4,
                "num_docks_available": 0,
                "region_id": "1241",
                "rental_uris": {
                    "android": "https://app.nextbike.net/station?id=606707189",
                    "ios": "https://app.nextbike.net/station?id=606707189",
                    "web": "https://nxtb.it/p/606707189"
                },
                "short_name": "65048",
                "station_id": "606707189",
                "vehicle_types_available": [
                    {
                        "count": 4,
                        "vehicle_type_id": "150"
                    }
                ]
            },
            "type": "Feature"
        },
        {
            "geometry": {
                "coordinates": [
                    4.224137,
                    50.953722
                ],
                "type": "Point"
            },
            "properties": {
                "is_installed": true,
                "is_renting": true,
                "is_returning": true,
                "is_virtual_station": false,
                "last_reported": 1789303763,
                "name": "Merchtem Station (3+1)",
                "num_bikes_available": 1,
                "num_docks_available": 0,
                "region_id": "1119",
                "rental_uris": {
                    "android": "https://app.nextbike.net/station?id=606707480",
                    "ios": "https://app.nextbike.net/station?id=606707480",
                    "web": "https://nxtb.it/p/606707480"
                },
                "short_name": "65049",
                "station_id": "606707480",
                "vehicle_types_available": [
                    {
                        "count": 1,
                        "vehicle_type_id": "150"
                    }
                ]
            },
            "type": "Feature"
        },
        {
            "geometry": {
                "coordinates": [
                    4.206397,
                    50.867188
                ],
                "type": "Point"
            },
            "properties": {
                "is_installed": true,
                "is_renting": true,
                "is_returning": true,
                "is_virtual_station": false,
                "last_reported": 1789303763,
                "name": "Sint Martens Bodegem Station (3+1)",
                "num_bikes_available": 3,
                "num_docks_available": 0,
                "region_id": "1102",
                "rental_uris": {
                    "android": "https://app.nextbike.net/station?id=606707750",
                    "ios": "https://app.nextbike.net/station?id=606707750",
                    "web": "https://nxtb.it/p/606707750"
                },
                "short_name": "65051",
                "station_id": "606707750",
                "vehicle_types_available": [
                    {
                        "count": 3,
                        "vehicle_type_id": "150"
                    }
                ]
            },
            "type": "Feature"
        },
        {
            "geometry": {
                "coordinates": [
                    4.337903,
                    50.902069
                ],
                "type": "Point"
            },
            "properties": {
                "is_installed": true,
                "is_renting": true,
                "is_returning": true,
                "is_virtual_station": false,
                "last_reported": 1789303763,
                "name": "Grimbergen Parking C (Expo) (3)",
                "num_bikes_available": 1,
                "num_docks_available": 0,
                "region_id": "1105",
                "rental_uris": {
                    "android": "https://app.nextbike.net/station?id=608675170",
                    "ios": "https://app.nextbike.net/station?id=608675170",
                    "web": "https://nxtb.it/p/608675170"
                },
                "short_name": "65052",
                "station_id": "608675170",
                "vehicle_types_available": [
                    {
                        "count": 1,
                        "vehicle_type_id": "150"
                    }
                ]
            },
            "type": "Feature"
        },
        {
            "geometry": {
                "coordinates": [
                    4.385101,
                    50.759425
                ],
                "type": "Point"
            },
            "properties": {
                "is_installed": true,
                "is_renting": true,
                "is_returning": true,
                "is_virtual_station": false,
                "last_reported": 1789303763,
                "name": "Sint-Genesius-Rode Middenhut (3+1)",
                "num_bikes_available": 3,
                "num_docks_available": 0,
                "region_id": "1242",
                "rental_uris": {
                    "android": "https://app.nextbike.net/station?id=611612872",
                    "ios": "https://app.nextbike.net/station?id=611612872",
                    "web": "https://nxtb.it/p/611612872"
                },
                "short_name": "65053",
                "station_id": "611612872",
                "vehicle_types_available": [
                    {
                        "count": 3,
                        "vehicle_type_id": "150"
                    }
                ]
            },
            "type": "Feature"
        },
        {
            "geometry": {
                "coordinates": [
                    4.36127,
                    50.747894
                ],
                "type": "Point"
            },
            "properties": {
                "is_installed": true,
                "is_renting": true,
                "is_returning": true,
                "is_virtual_station": false,
                "last_reported": 1789303763,
                "name": "Sint-Genesius-Rode Station (3+1)",
                "num_bikes_available": 3,
                "num_docks_available": 0,
                "region_id": "1242",
                "rental_uris": {
                    "android": "https://app.nextbike.net/station?id=611613271",
                    "ios": "https://app.nextbike.net/station?id=611613271",
                    "web": "https://nxtb.it/p/611613271"
                },
                "short_name": "65054",
                "station_id": "611613271",
                "vehicle_types_available": [
                    {
                        "count": 2,
                        "vehicle_type_id": "150"
                    },
                    {
                        "count": 1,
                        "vehicle_type_id": "143"
                    }
                ]
            },
            "type": "Feature"
        },
        {
            "geometry": {
                "coordinates": [
                    4.513607,
                    50.82974
                ],
                "type": "Point"
            },
            "properties": {
                "is_installed": true,
                "is_renting": true,
                "is_returning": true,
                "is_virtual_station": false,
                "last_reported": 1789303763,
                "name": "Tramterminus 44 (3+1)",
                "num_bikes_available": 3,
                "num_docks_available": 0,
                "region_id": "1121",
                "rental_uris": {
                    "android": "https://app.nextbike.net/station?id=611646931",
                    "ios": "https://app.nextbike.net/station?id=611646931",
                    "web": "https://nxtb.it/p/611646931"
                },
                "short_name": "65055",
                "station_id": "611646931",
                "vehicle_types_available": [
                    {
                        "count": 3,
                        "vehicle_type_id": "143"
                    }
                ]
            },
            "type": "Feature"
        },
        {
            "geometry": {
                "coordinates": [
                    4.44194,
                    50.890333
                ],
                "type": "Point"
            },
            "properties": {
                "is_installed": true,
                "is_renting": true,
                "is_returning": true,
                "is_virtual_station": false,
                "last_reported": 1789303763,
                "name": "Diegem Station (5+1)",
                "num_bikes_available": 3,
                "num_docks_available": 0,
                "region_id": "1247",
                "rental_uris": {
                    "android": "https://app.nextbike.net/station?id=612017478",
                    "ios": "https://app.nextbike.net/station?id=612017478",
                    "web": "https://nxtb.it/p/612017478"
                },
                "short_name": "65056",
                "station_id": "612017478",
                "vehicle_types_available": [
                    {
                        "count": 3,
                        "vehicle_type_id": "150"
                    }
                ]
            },
            "type": "Feature"
        },
        {
            "geometry": {
                "coordinates": [
                    4.36545,
                    50.90851
                ],
                "type": "Point"
            },
            "properties": {
                "is_installed": true,
                "is_renting": true,
                "is_returning": true,
                "is_virtual_station": false,
                "last_reported": 1789303763,
                "name": "Strombeek-Bever Ringlaan (2+1)",
                "num_bikes_available": 0,
                "num_docks_available": 0,
                "region_id": "1246",
                "rental_uris": {
                    "android": "https://app.nextbike.net/station?id=614840382",
                    "ios": "https://app.nextbike.net/station?id=614840382",
                    "web": "https://nxtb.it/p/614840382"
                },
                "short_name": "65058",
                "station_id": "614840382",
                "vehicle_types_available": []
            },
            "type": "Feature"
        },
        {
            "geometry": {
                "coordinates": [
                    4.414883,
                    50.922911
                ],
                "type": "Point"
            },
            "properties": {
                "is_installed": true,
                "is_renting": true,
                "is_returning": true,
                "is_virtual_station": false,
                "last_reported": 1789303763,
                "name": "Vilvoorde Kassei (3)",
                "num_bikes_available": 0,
                "num_docks_available": 0,
                "region_id": "1246",
                "rental_uris": {
                    "android": "https://app.nextbike.net/station?id=614843006",
                    "ios": "https://app.nextbike.net/station?id=614843006",
                    "web": "https://nxtb.it/p/614843006"
                },
                "short_name": "65059",
                "station_id": "614843006",
                "vehicle_types_available": []
            },
            "type": "Feature"
        },
        {
            "geometry": {
                "coordinates": [
                    4.394186,
                    50.915781
                ],
                "type": "Point"
            },
            "properties": {
                "is_installed": true,
                "is_renting": true,
                "is_returning": true,
                "is_virtual_station": false,
                "last_reported": 1789303763,
                "name": "Vilvoorde Medialaan (2+1)",
                "num_bikes_available": 2,
                "num_docks_available": 0,
                "region_id": "1246",
                "rental_uris": {
                    "android": "https://app.nextbike.net/station?id=614866887",
                    "ios": "https://app.nextbike.net/station?id=614866887",
                    "web": "https://nxtb.it/p/614866887"
                },
                "short_name": "65060",
                "station_id": "614866887",
                "vehicle_types_available": [
                    {
                        "count": 2,
                        "vehicle_type_id": "150"
                    }
                ]
            },
            "type": "Feature"
        },
        {
            "geometry": {
                "coordinates": [
                    4.431391,
                    50.924085
                ],
                "type": "Point"
            },
            "properties": {
                "is_installed": true,
                "is_renting": true,
                "is_returning": true,
                "is_virtual_station": false,
                "last_reported": 1789303763,
                "name": "Vilvoorde Station (6+1)",
                "num_bikes_available": 5,
                "num_docks_available": 0,
                "region_id": "1246",
                "rental_uris": {
                    "android": "https://app.nextbike.net/station?id=614870706",
                    "ios": "https://app.nextbike.net/station?id=614870706",
                    "web": "https://nxtb.it/p/614870706"
                },
                "short_name": "65061",
                "station_id": "614870706",
                "vehicle_types_available": [
                    {
                        "count": 5,
                        "vehicle_type_id": "150"
                    }
                ]
            },
            "type": "Feature"
        },
        {
            "geometry": {
                "coordinates": [
                    4.109511,
                    50.896588
                ],
                "type": "Point"
            },
            "properties": {
                "is_installed": true,
                "is_renting": true,
                "is_returning": true,
                "is_virtual_station": false,
                "last_reported": 1789303763,
                "name": "Affligem Bellekouter (0+3)",
                "num_bikes_available": 4,
                "num_docks_available": 0,
                "region_id": "1099",
                "rental_uris": {
                    "android": "https://app.nextbike.net/station?id=618665421",
                    "ios": "https://app.nextbike.net/station?id=618665421",
                    "web": "https://nxtb.it/p/618665421"
                },
                "short_name": "65063",
                "station_id": "618665421",
                "vehicle_types_available": [
                    {
                        "count": 2,
                        "vehicle_type_id": "150"
                    },
                    {
                        "count": 2,
                        "vehicle_type_id": "143"
                    }
                ]
            },
            "type": "Feature"
        },
        {
            "geometry": {
                "coordinates": [
                    4.226932,
                    50.739893
                ],
                "type": "Point"
            },
            "properties": {
                "is_installed": true,
                "is_renting": true,
                "is_returning": true,
                "is_virtual_station": false,
                "last_reported": 1789303763,
                "name": "Halle Groeningenstraat (2+1)",
                "num_bikes_available": 0,
                "num_docks_available": 0,
                "region_id": "1106",
                "rental_uris": {
                    "android": "https://app.nextbike.net/station?id=619837229",
                    "ios": "https://app.nextbike.net/station?id=619837229",
                    "web": "https://nxtb.it/p/619837229"
                },
                "short_name": "65064",
                "station_id": "619837229",
                "vehicle_types_available": []
            },
            "type": "Feature"
        },
        {
            "geometry": {
                "coordinates": [
                    4.24221,
                    50.734572
                ],
                "type": "Point"
            },
            "properties": {
                "is_installed": true,
                "is_renting": true,
                "is_returning": true,
                "is_virtual_station": false,
                "last_reported": 1789303763,
                "name": "Halle Station (6+1)",
                "num_bikes_available": 6,
                "num_docks_available": 0,
                "region_id": "1106",
                "rental_uris": {
                    "android": "https://app.nextbike.net/station?id=619837947",
                    "ios": "https://app.nextbike.net/station?id=619837947",
                    "web": "https://nxtb.it/p/619837947"
                },
                "short_name": "65065",
                "station_id": "619837947",
                "vehicle_types_available": [
                    {
                        "count": 6,
                        "vehicle_type_id": "150"
                    }
                ]
            },
            "type": "Feature"
        },
        {
            "geometry": {
                "coordinates": [
                    4.470915,
                    50.885556
                ],
                "type": "Point"
            },
            "properties": {
                "is_installed": true,
                "is_renting": true,
                "is_returning": true,
                "is_virtual_station": false,
                "last_reported": 1789303763,
                "name": "Zaventem Station (5+1)",
                "num_bikes_available": 7,
                "num_docks_available": 0,
                "region_id": "1117",
                "rental_uris": {
                    "android": "https://app.nextbike.net/station?id=620060797",
                    "ios": "https://app.nextbike.net/station?id=620060797",
                    "web": "https://nxtb.it/p/620060797"
                },
                "short_name": "65066",
                "station_id": "620060797",
                "vehicle_types_available": [
                    {
                        "count": 3,
                        "vehicle_type_id": "150"
                    },
                    {
                        "count": 4,
                        "vehicle_type_id": "143"
                    }
                ]
            },
            "type": "Feature"
        },
        {
            "geometry": {
                "coordinates": [
                    4.463374,
                    50.870703
                ],
                "type": "Point"
            },
            "properties": {
                "is_installed": true,
                "is_renting": true,
                "is_returning": true,
                "is_virtual_station": false,
                "last_reported": 1789303763,
                "name": "Sint-Stevens-Woluwe Lozemberg (3)",
                "num_bikes_available": 1,
                "num_docks_available": 0,
                "region_id": "1117",
                "rental_uris": {
                    "android": "https://app.nextbike.net/station?id=620061289",
                    "ios": "https://app.nextbike.net/station?id=620061289",
                    "web": "https://nxtb.it/p/620061289"
                },
                "short_name": "65067",
                "station_id": "620061289",
                "vehicle_types_available": [
                    {
                        "count": 1,
                        "vehicle_type_id": "150"
                    }
                ]
            },
            "type": "Feature"
        },
        {
            "geometry": {
                "coordinates": [
                    4.485122,
                    50.873518
                ],
                "type": "Point"
            },
            "properties": {
                "is_installed": true,
                "is_renting": true,
                "is_returning": true,
                "is_virtual_station": false,
                "last_reported": 1789303763,
                "name": "Zaventem Sterrebeekstraat (3+1)",
                "num_bikes_available": 3,
                "num_docks_available": 0,
                "region_id": "1117",
                "rental_uris": {
                    "android": "https://app.nextbike.net/station?id=620061633",
                    "ios": "https://app.nextbike.net/station?id=620061633",
                    "web": "https://nxtb.it/p/620061633"
                },
                "short_name": "65068",
                "station_id": "620061633",
                "vehicle_types_available": [
                    {
                        "count": 3,
                        "vehicle_type_id": "150"
                    }
                ]
            },
            "type": "Feature"
        },
        {
            "geometry": {
                "coordinates": [
                    4.457457,
                    50.958871
                ],
                "type": "Point"
            },
            "properties": {
                "is_installed": true,
                "is_renting": true,
                "is_returning": true,
                "is_virtual_station": false,
                "last_reported": 1789303763,
                "name": "Eppegem Station (3+1)",
                "num_bikes_available": 3,
                "num_docks_available": 0,
                "region_id": "1118",
                "rental_uris": {
                    "android": "https://app.nextbike.net/station?id=620481158",
                    "ios": "https://app.nextbike.net/station?id=620481158",
                    "web": "https://nxtb.it/p/620481158"
                },
                "short_name": "65069",
                "station_id": "620481158",
                "vehicle_types_available": [
                    {
                        "count": 3,
                        "vehicle_type_id": "143"
                    }
                ]
            },
            "type": "Feature"
        },
        {
            "geometry": {
                "coordinates": [
                    4.496657,
                    50.98814
                ],
                "type": "Point"
            },
            "properties": {
                "is_installed": true,
                "is_renting": true,
                "is_returning": true,
                "is_virtual_station": false,
                "last_reported": 1789303763,
                "name": "Hofstade Station (3)",
                "num_bikes_available": 3,
                "num_docks_available": 0,
                "region_id": "1118",
                "rental_uris": {
                    "android": "https://app.nextbike.net/station?id=620481393",
                    "ios": "https://app.nextbike.net/station?id=620481393",
                    "web": "https://nxtb.it/p/620481393"
                },
                "short_name": "65070",
                "station_id": "620481393",
                "vehicle_types_available": [
                    {
                        "count": 3,
                        "vehicle_type_id": "150"
                    }
                ]
            },
            "type": "Feature"
        },
        {
            "geometry": {
                "coordinates": [
                    4.278621,
                    50.742767
                ],
                "type": "Point"
            },
            "properties": {
                "is_installed": true,
                "is_renting": true,
                "is_returning": true,
                "is_virtual_station": false,
                "last_reported": 1789303763,
                "name": "Huizingen Domein/Carpool (2+1)",
                "num_bikes_available": 1,
                "num_docks_available": 0,
                "region_id": "1101",
                "rental_uris": {
                    "android": "https://app.nextbike.net/station?id=623164750",
                    "ios": "https://app.nextbike.net/station?id=623164750",
                    "web": "https://nxtb.it/p/623164750"
                },
                "short_name": "65073",
                "station_id": "623164750",
                "vehicle_types_available": [
                    {
                        "count": 1,
                        "vehicle_type_id": "150"
                    }
                ]
            },
            "type": "Feature"
        }
    ],
    "gbfs": {
        "station_information": {
            "last_updated": 1789303763,
            "ttl": 60,
            "version": "2.3"
        },
        "station_status": {
            "last_updated": 1789303763,
            "ttl": 60,
            "version": "2.3"
        }
    },
    "type": "FeatureCollection"
}