{
    "features": [
        {
            "geometry": {
                "coordinates": [
                    5.716881752014161,
                    58.941861545862935
                ],
                "type": "Point"
            },
            "properties": {
                "address": "Ishocey-veien, 4021 Stavanger",
                "capacity": 12,
                "is_installed": true,
                "is_renting": true,
                "is_returning": true,
                "last_reported": 1631875242,
                "name": "Clarion Hotel Energy",
                "num_bikes_available": 0,
                "num_docks_available": 0,
                "station_id": "YKO:Station:1",
                "vehicle_types_available": [
                    {
                        "count": 0,
                        "vehicle_type_id": "YKO:VehicleType:CityBike"
                    }
                ]
            },
            "type": "Feature"
        },
        {
            "geometry": {
                "coordinates": [
                    5.740695,
                    58.89947
                ],
                "type": "Point"
            },
            "properties": {
                "address": "Gauselveien, 4032 Stavanger",
                "capacity": 10,
                "is_installed": true,
                "is_renting": true,
                "is_returning": true,
                "last_reported": 1616999030,
                "name": "Gausel Stasjon",
                "num_bikes_available": 0,
                "num_docks_available": 9,
                "station_id": "YKO:Station:10",
                "vehicle_types_available": [
                    {
                        "count": 0,
                        "vehicle_type_id": "YKO:VehicleType:CityBike"
                    }
                ]
            },
            "type": "Feature"
        },
        {
            "geometry": {
                "coordinates": [
                    5.70511,
                    58.90063
                ],
                "type": "Point"
            },
            "properties": {
                "address": "Maskinveien, 4033 Stavanger",
                "capacity": 4,
                "is_installed": true,
                "is_renting": true,
                "is_returning": true,
                "last_reported": 1614167277,
                "name": "Maskinveien 24 (FNP)",
                "num_bikes_available": 0,
                "num_docks_available": 4,
                "station_id": "YKO:Station:11",
                "vehicle_types_available": [
                    {
                        "count": 0,
                        "vehicle_type_id": "YKO:VehicleType:CityBike"
                    }
                ]
            },
            "type": "Feature"
        },
        {
            "geometry": {
                "coordinates": [
                    5.747324,
                    58.93328
                ],
                "type": "Point"
            },
            "properties": {
                "address": "Breifl\u00e5tveien 18, 4017 Stavanger",
                "capacity": 4,
                "is_installed": true,
                "is_renting": true,
                "is_returning": true,
                "last_reported": 1595231569,
                "name": "Lyse, Mariero",
                "num_bikes_available": 0,
                "num_docks_available": 4,
                "station_id": "YKO:Station:12",
                "vehicle_types_available": [
                    {
                        "count": 0,
                        "vehicle_type_id": "YKO:VehicleType:CityBike"
                    }
                ]
            },
            "type": "Feature"
        },
        {
            "geometry": {
                "coordinates": [
                    5.7384,
                    58.961
                ],
                "type": "Point"
            },
            "properties": {
                "address": "Lag\u00e5rdsveien,  Stavanger",
                "capacity": 4,
                "is_installed": true,
                "is_renting": true,
                "is_returning": true,
                "last_reported": 1638361579,
                "name": "Statens hus",
                "num_bikes_available": 0,
                "num_docks_available": 4,
                "station_id": "YKO:Station:13",
                "vehicle_types_available": [
                    {
                        "count": 0,
                        "vehicle_type_id": "YKO:VehicleType:CityBike"
                    }
                ]
            },
            "type": "Feature"
        },
        {
            "geometry": {
                "coordinates": [
                    5.73271,
                    58.96564
                ],
                "type": "Point"
            },
            "properties": {
                "address": "Teaterveien, 4005 Stavanger",
                "capacity": 4,
                "is_installed": true,
                "is_renting": true,
                "is_returning": true,
                "last_reported": 1587360244,
                "name": "Rogaland Teater",
                "num_bikes_available": 0,
                "num_docks_available": 4,
                "station_id": "YKO:Station:14",
                "vehicle_types_available": [
                    {
                        "count": 0,
                        "vehicle_type_id": "YKO:VehicleType:CityBike"
                    }
                ]
            },
            "type": "Feature"
        },
        {
            "geometry": {
                "coordinates": [
                    5.75095,
                    58.96914
                ],
                "type": "Point"
            },
            "properties": {
                "address": "Hesbygaten, 4014 Stavanger",
                "capacity": 4,
                "is_installed": false,
                "is_renting": false,
                "is_returning": false,
                "last_reported": 1619585418,
                "name": "BI Stavanger",
                "num_bikes_available": 0,
                "num_docks_available": 4,
                "station_id": "YKO:Station:15",
                "vehicle_types_available": [
                    {
                        "count": 0,
                        "vehicle_type_id": "YKO:VehicleType:CityBike"
                    }
                ]
            },
            "type": "Feature"
        },
        {
            "geometry": {
                "coordinates": [
                    5.757978,
                    58.96939
                ],
                "type": "Point"
            },
            "properties": {
                "address": "Kvits\u00f8ygata, 4014 Stavanger",
                "capacity": 4,
                "is_installed": true,
                "is_renting": true,
                "is_returning": true,
                "last_reported": 1587376140,
                "name": "Tou Scene",
                "num_bikes_available": 0,
                "num_docks_available": 4,
                "station_id": "YKO:Station:16",
                "vehicle_types_available": [
                    {
                        "count": 0,
                        "vehicle_type_id": "YKO:VehicleType:CityBike"
                    }
                ]
            },
            "type": "Feature"
        },
        {
            "geometry": {
                "coordinates": [
                    5.739776,
                    58.97212
                ],
                "type": "Point"
            },
            "properties": {
                "address": "Verksgatan, 4006 Stavanger",
                "capacity": 8,
                "is_installed": true,
                "is_renting": true,
                "is_returning": true,
                "last_reported": 1587109246,
                "name": "Hurtigb\u00e5tterminalen",
                "num_bikes_available": 0,
                "num_docks_available": 8,
                "station_id": "YKO:Station:17",
                "vehicle_types_available": [
                    {
                        "count": 0,
                        "vehicle_type_id": "YKO:VehicleType:CityBike"
                    }
                ]
            },
            "type": "Feature"
        },
        {
            "geometry": {
                "coordinates": [
                    5.73779,
                    58.97012
                ],
                "type": "Point"
            },
            "properties": {
                "address": "Nytorget,  Stavanger",
                "capacity": 4,
                "is_installed": true,
                "is_renting": true,
                "is_returning": true,
                "last_reported": 1585204870,
                "name": "Nytorget",
                "num_bikes_available": 0,
                "num_docks_available": 4,
                "station_id": "YKO:Station:18",
                "vehicle_types_available": [
                    {
                        "count": 0,
                        "vehicle_type_id": "YKO:VehicleType:CityBike"
                    }
                ]
            },
            "type": "Feature"
        },
        {
            "geometry": {
                "coordinates": [
                    5.73488,
                    58.97295
                ],
                "type": "Point"
            },
            "properties": {
                "address": "Kjeringholmen,  Stavanger",
                "capacity": 4,
                "is_installed": true,
                "is_renting": true,
                "is_returning": true,
                "last_reported": 1587376879,
                "name": "Oljemuseet",
                "num_bikes_available": 0,
                "num_docks_available": 4,
                "station_id": "YKO:Station:19",
                "vehicle_types_available": [
                    {
                        "count": 0,
                        "vehicle_type_id": "YKO:VehicleType:CityBike"
                    }
                ]
            },
            "type": "Feature"
        },
        {
            "geometry": {
                "coordinates": [
                    5.70241,
                    58.8957
                ],
                "type": "Point"
            },
            "properties": {
                "address": "Lagerveien, 4033 Stavanger",
                "capacity": 8,
                "is_installed": true,
                "is_renting": true,
                "is_returning": true,
                "last_reported": 1639560027,
                "name": "Tvedtsenteret",
                "num_bikes_available": 0,
                "num_docks_available": 2,
                "station_id": "YKO:Station:2",
                "vehicle_types_available": [
                    {
                        "count": 0,
                        "vehicle_type_id": "YKO:VehicleType:CityBike"
                    }
                ]
            },
            "type": "Feature"
        },
        {
            "geometry": {
                "coordinates": [
                    5.731441,
                    58.97343
                ],
                "type": "Point"
            },
            "properties": {
                "address": "Nedre Holmegate ,  Stavanger",
                "capacity": 4,
                "is_installed": true,
                "is_renting": true,
                "is_returning": true,
                "last_reported": 1587376619,
                "name": "Holmealmenningen",
                "num_bikes_available": 0,
                "num_docks_available": 4,
                "station_id": "YKO:Station:20",
                "vehicle_types_available": [
                    {
                        "count": 0,
                        "vehicle_type_id": "YKO:VehicleType:CityBike"
                    }
                ]
            },
            "type": "Feature"
        },
        {
            "geometry": {
                "coordinates": [
                    5.730084,
                    58.97264
                ],
                "type": "Point"
            },
            "properties": {
                "address": "Skagenkaienkaien ,  Stavanger",
                "capacity": 4,
                "is_installed": true,
                "is_renting": true,
                "is_returning": true,
                "last_reported": 1585204870,
                "name": "T2 torget Victoria",
                "num_bikes_available": 0,
                "num_docks_available": 4,
                "station_id": "YKO:Station:21",
                "vehicle_types_available": [
                    {
                        "count": 0,
                        "vehicle_type_id": "YKO:VehicleType:CityBike"
                    }
                ]
            },
            "type": "Feature"
        },
        {
            "geometry": {
                "coordinates": [
                    5.73036,
                    58.97039
                ],
                "type": "Point"
            },
            "properties": {
                "address": "Strandkaien ,  Stavanger",
                "capacity": 5,
                "is_installed": false,
                "is_renting": false,
                "is_returning": false,
                "last_reported": 1585197969,
                "name": "Fisketorget",
                "num_bikes_available": 0,
                "num_docks_available": 5,
                "station_id": "YKO:Station:22",
                "vehicle_types_available": [
                    {
                        "count": 0,
                        "vehicle_type_id": "YKO:VehicleType:CityBike"
                    }
                ]
            },
            "type": "Feature"
        },
        {
            "geometry": {
                "coordinates": [
                    5.725375,
                    58.97421
                ],
                "type": "Point"
            },
            "properties": {
                "address": "Nedre Strandgate,  Stavanger",
                "capacity": 4,
                "is_installed": true,
                "is_renting": true,
                "is_returning": true,
                "last_reported": 1587379291,
                "name": "Konserthuset",
                "num_bikes_available": 0,
                "num_docks_available": 4,
                "station_id": "YKO:Station:23",
                "vehicle_types_available": [
                    {
                        "count": 0,
                        "vehicle_type_id": "YKO:VehicleType:CityBike"
                    }
                ]
            },
            "type": "Feature"
        },
        {
            "geometry": {
                "coordinates": [
                    5.728331,
                    58.96991
                ],
                "type": "Point"
            },
            "properties": {
                "address": "Lars Hertervigsgate ,  Stavanger",
                "capacity": 4,
                "is_installed": true,
                "is_renting": true,
                "is_returning": true,
                "last_reported": 1587029028,
                "name": "Straensenteret",
                "num_bikes_available": 0,
                "num_docks_available": 4,
                "station_id": "YKO:Station:24",
                "vehicle_types_available": [
                    {
                        "count": 0,
                        "vehicle_type_id": "YKO:VehicleType:CityBike"
                    }
                ]
            },
            "type": "Feature"
        },
        {
            "geometry": {
                "coordinates": [
                    5.70363,
                    58.95497
                ],
                "type": "Point"
            },
            "properties": {
                "address": "Henrik Ibsensgate ,  Stavanger",
                "capacity": 4,
                "is_installed": true,
                "is_renting": true,
                "is_returning": true,
                "last_reported": 1587460557,
                "name": "Kunstmuseet",
                "num_bikes_available": 0,
                "num_docks_available": 4,
                "station_id": "YKO:Station:25",
                "vehicle_types_available": [
                    {
                        "count": 0,
                        "vehicle_type_id": "YKO:VehicleType:CityBike"
                    }
                ]
            },
            "type": "Feature"
        },
        {
            "geometry": {
                "coordinates": [
                    5.68556,
                    58.89559
                ],
                "type": "Point"
            },
            "properties": {
                "address": "Kanalsletta, 4033 Stavanger",
                "capacity": 4,
                "is_installed": true,
                "is_renting": true,
                "is_returning": true,
                "last_reported": 1587106258,
                "name": "Subsea7",
                "num_bikes_available": 0,
                "num_docks_available": 4,
                "station_id": "YKO:Station:26",
                "vehicle_types_available": [
                    {
                        "count": 0,
                        "vehicle_type_id": "YKO:VehicleType:CityBike"
                    }
                ]
            },
            "type": "Feature"
        },
        {
            "geometry": {
                "coordinates": [
                    5.72201,
                    58.8758
                ],
                "type": "Point"
            },
            "properties": {
                "address": "Gamle Stokkavei , 4313 Sandnes",
                "capacity": 2,
                "is_installed": true,
                "is_renting": true,
                "is_returning": true,
                "last_reported": 1587460557,
                "name": "Kvadrat Hovedinngang",
                "num_bikes_available": 0,
                "num_docks_available": 2,
                "station_id": "YKO:Station:27",
                "vehicle_types_available": [
                    {
                        "count": 0,
                        "vehicle_type_id": "YKO:VehicleType:CityBike"
                    }
                ]
            },
            "type": "Feature"
        },
        {
            "geometry": {
                "coordinates": [
                    5.6976,
                    58.8972
                ],
                "type": "Point"
            },
            "properties": {
                "address": "Fabrikkveien , 4033 Forus",
                "capacity": 4,
                "is_installed": true,
                "is_renting": true,
                "is_returning": true,
                "last_reported": 1593085288,
                "name": "Bouvet",
                "num_bikes_available": 0,
                "num_docks_available": 4,
                "station_id": "YKO:Station:28",
                "vehicle_types_available": [
                    {
                        "count": 0,
                        "vehicle_type_id": "YKO:VehicleType:CityBike"
                    }
                ]
            },
            "type": "Feature"
        },
        {
            "geometry": {
                "coordinates": [
                    5.73173,
                    58.95238
                ],
                "type": "Point"
            },
            "properties": {
                "address": "Gerd-Ragna Bloch Thorsens gate , 4019 Stavanger",
                "capacity": 12,
                "is_installed": true,
                "is_renting": true,
                "is_returning": true,
                "last_reported": 1587374275,
                "name": "Hovedinngang SUS",
                "num_bikes_available": 0,
                "num_docks_available": 12,
                "station_id": "YKO:Station:29",
                "vehicle_types_available": [
                    {
                        "count": 0,
                        "vehicle_type_id": "YKO:VehicleType:CityBike"
                    }
                ]
            },
            "type": "Feature"
        },
        {
            "geometry": {
                "coordinates": [
                    5.689559,
                    58.89516
                ],
                "type": "Point"
            },
            "properties": {
                "address": "Kanalsletta, 4033 Stavanger",
                "capacity": 8,
                "is_installed": true,
                "is_renting": true,
                "is_returning": true,
                "last_reported": 1631875276,
                "name": "Kanalsletta Kruse Smith",
                "num_bikes_available": 0,
                "num_docks_available": 4,
                "station_id": "YKO:Station:3",
                "vehicle_types_available": [
                    {
                        "count": 0,
                        "vehicle_type_id": "YKO:VehicleType:CityBike"
                    }
                ]
            },
            "type": "Feature"
        },
        {
            "geometry": {
                "coordinates": [
                    5.73209,
                    58.95368
                ],
                "type": "Point"
            },
            "properties": {
                "address": "Armauer Hansens vei , 4011 Stavanger",
                "capacity": 4,
                "is_installed": true,
                "is_renting": true,
                "is_returning": true,
                "last_reported": 1587108662,
                "name": "Inngang 5 SUS",
                "num_bikes_available": 0,
                "num_docks_available": 4,
                "station_id": "YKO:Station:30",
                "vehicle_types_available": [
                    {
                        "count": 0,
                        "vehicle_type_id": "YKO:VehicleType:CityBike"
                    }
                ]
            },
            "type": "Feature"
        },
        {
            "geometry": {
                "coordinates": [
                    5.73359,
                    58.95372
                ],
                "type": "Point"
            },
            "properties": {
                "address": "Armauer Hansens vei , 4011 Stavanger",
                "capacity": 4,
                "is_installed": true,
                "is_renting": true,
                "is_returning": true,
                "last_reported": 1587111286,
                "name": "Inngang 6 SUS",
                "num_bikes_available": 0,
                "num_docks_available": 4,
                "station_id": "YKO:Station:31",
                "vehicle_types_available": [
                    {
                        "count": 0,
                        "vehicle_type_id": "YKO:VehicleType:CityBike"
                    }
                ]
            },
            "type": "Feature"
        },
        {
            "geometry": {
                "coordinates": [
                    5.73611,
                    58.95261
                ],
                "type": "Point"
            },
            "properties": {
                "address": "Jan Johnsens gate , 4011 Stavanger",
                "capacity": 6,
                "is_installed": true,
                "is_renting": true,
                "is_returning": true,
                "last_reported": 1587460557,
                "name": "Psykiatrisk klinikk",
                "num_bikes_available": 0,
                "num_docks_available": 6,
                "station_id": "YKO:Station:32",
                "vehicle_types_available": [
                    {
                        "count": 0,
                        "vehicle_type_id": "YKO:VehicleType:CityBike"
                    }
                ]
            },
            "type": "Feature"
        },
        {
            "geometry": {
                "coordinates": [
                    5.737957,
                    58.94844
                ],
                "type": "Point"
            },
            "properties": {
                "address": "Torgveien, 4016 Stavanger",
                "capacity": 8,
                "is_installed": true,
                "is_renting": true,
                "is_returning": true,
                "last_reported": 1587110246,
                "name": "Kilden Kj\u00f8pesenter",
                "num_bikes_available": 0,
                "num_docks_available": 8,
                "station_id": "YKO:Station:33",
                "vehicle_types_available": [
                    {
                        "count": 0,
                        "vehicle_type_id": "YKO:VehicleType:CityBike"
                    }
                ]
            },
            "type": "Feature"
        },
        {
            "geometry": {
                "coordinates": [
                    50.0,
                    5.0
                ],
                "type": "Point"
            },
            "properties": {
                "address": "14/3A, Samagi Mawatha,, 10350 Colombo",
                "capacity": 2,
                "is_installed": true,
                "is_renting": true,
                "is_returning": true,
                "last_reported": 1615796417,
                "name": "Sats, Kvits\u00f8ygata",
                "num_bikes_available": 0,
                "num_docks_available": 2,
                "station_id": "YKO:Station:336",
                "vehicle_types_available": [
                    {
                        "count": 0,
                        "vehicle_type_id": "YKO:VehicleType:CityBike"
                    }
                ]
            },
            "type": "Feature"
        },
        {
            "geometry": {
                "coordinates": [
                    5.731441,
                    58.97343
                ],
                "type": "Point"
            },
            "properties": {
                "address": "14/3A, Samagi Mawatha,, 10350 Colombo",
                "capacity": 0,
                "is_installed": true,
                "is_renting": true,
                "is_returning": true,
                "last_reported": 1626243492,
                "name": "Test dock",
                "num_bikes_available": 0,
                "num_docks_available": 0,
                "station_id": "YKO:Station:337",
                "vehicle_types_available": [
                    {
                        "count": 0,
                        "vehicle_type_id": "YKO:VehicleType:CityBike"
                    }
                ]
            },
            "type": "Feature"
        },
        {
            "geometry": {
                "coordinates": [
                    5.7433,
                    58.9508
                ],
                "type": "Point"
            },
            "properties": {
                "address": "Hillev\u00e5gsveien , 4016 Stavanger",
                "capacity": 6,
                "is_installed": true,
                "is_renting": true,
                "is_returning": true,
                "last_reported": 1587374853,
                "name": "TB bygget Hillev\u00e5gsveien ",
                "num_bikes_available": 0,
                "num_docks_available": 6,
                "station_id": "YKO:Station:34",
                "vehicle_types_available": [
                    {
                        "count": 0,
                        "vehicle_type_id": "YKO:VehicleType:CityBike"
                    }
                ]
            },
            "type": "Feature"
        },
        {
            "geometry": {
                "coordinates": [
                    5.6807,
                    58.9523
                ],
                "type": "Point"
            },
            "properties": {
                "address": "Madlakrossen, 4042 Stavanger",
                "capacity": 4,
                "is_installed": false,
                "is_renting": false,
                "is_returning": false,
                "last_reported": 1585197969,
                "name": "Amfi Madla",
                "num_bikes_available": 0,
                "num_docks_available": 4,
                "station_id": "YKO:Station:35",
                "vehicle_types_available": [
                    {
                        "count": 0,
                        "vehicle_type_id": "YKO:VehicleType:CityBike"
                    }
                ]
            },
            "type": "Feature"
        },
        {
            "geometry": {
                "coordinates": [
                    5.7223,
                    58.9737
                ],
                "type": "Point"
            },
            "properties": {
                "address": "Borgermester Middelthons Gate , 4007 Stavanger",
                "capacity": 10,
                "is_installed": true,
                "is_renting": true,
                "is_returning": true,
                "last_reported": 1587360244,
                "name": "Smedvigkvartalet L\u00f8kkeveien 111",
                "num_bikes_available": 0,
                "num_docks_available": 10,
                "station_id": "YKO:Station:36",
                "vehicle_types_available": [
                    {
                        "count": 0,
                        "vehicle_type_id": "YKO:VehicleType:CityBike"
                    }
                ]
            },
            "type": "Feature"
        },
        {
            "geometry": {
                "coordinates": [
                    5.7225144,
                    58.87782
                ],
                "type": "Point"
            },
            "properties": {
                "address": "Luramyrveien,  Stavanger",
                "capacity": 4,
                "is_installed": true,
                "is_renting": true,
                "is_returning": true,
                "last_reported": 1587455279,
                "name": "Elsykkelsenteret",
                "num_bikes_available": 0,
                "num_docks_available": 4,
                "station_id": "YKO:Station:37",
                "vehicle_types_available": [
                    {
                        "count": 0,
                        "vehicle_type_id": "YKO:VehicleType:CityBike"
                    }
                ]
            },
            "type": "Feature"
        },
        {
            "geometry": {
                "coordinates": [
                    5.7416,
                    58.9545
                ],
                "type": "Point"
            },
            "properties": {
                "address": "Lag\u00e5rdsveien , 4011 Stavanger",
                "capacity": 10,
                "is_installed": true,
                "is_renting": true,
                "is_returning": true,
                "last_reported": 1587460557,
                "name": "Paradis Hillev\u00e5gsveien",
                "num_bikes_available": 0,
                "num_docks_available": 10,
                "station_id": "YKO:Station:38",
                "vehicle_types_available": [
                    {
                        "count": 0,
                        "vehicle_type_id": "YKO:VehicleType:CityBike"
                    }
                ]
            },
            "type": "Feature"
        },
        {
            "geometry": {
                "coordinates": [
                    5.705623,
                    58.88678
                ],
                "type": "Point"
            },
            "properties": {
                "address": "Vestre Svanholmen 9-11, 4313 Sandnes",
                "capacity": 4,
                "is_installed": true,
                "is_renting": true,
                "is_returning": true,
                "last_reported": 1614167756,
                "name": "Bilhuset",
                "num_bikes_available": 0,
                "num_docks_available": 4,
                "station_id": "YKO:Station:39",
                "vehicle_types_available": [
                    {
                        "count": 0,
                        "vehicle_type_id": "YKO:VehicleType:CityBike"
                    }
                ]
            },
            "type": "Feature"
        },
        {
            "geometry": {
                "coordinates": [
                    5.713112,
                    58.89124
                ],
                "type": "Point"
            },
            "properties": {
                "address": "Vassbotn, 4033 Stavanger",
                "capacity": 4,
                "is_installed": true,
                "is_renting": true,
                "is_returning": true,
                "last_reported": 1620297379,
                "name": "M\u00f8ller Bil (VW)",
                "num_bikes_available": 0,
                "num_docks_available": 0,
                "station_id": "YKO:Station:4",
                "vehicle_types_available": [
                    {
                        "count": 0,
                        "vehicle_type_id": "YKO:VehicleType:CityBike"
                    }
                ]
            },
            "type": "Feature"
        },
        {
            "geometry": {
                "coordinates": [
                    5.72804,
                    58.91467
                ],
                "type": "Point"
            },
            "properties": {
                "address": "J\u00e5tt\u00e5v\u00e5gveien, 4020 Stavanger",
                "capacity": 12,
                "is_installed": true,
                "is_renting": true,
                "is_returning": true,
                "last_reported": 1587460557,
                "name": "J\u00e5tt\u00e5v\u00e5gen Stasjon",
                "num_bikes_available": 0,
                "num_docks_available": 12,
                "station_id": "YKO:Station:40",
                "vehicle_types_available": [
                    {
                        "count": 0,
                        "vehicle_type_id": "YKO:VehicleType:CityBike"
                    }
                ]
            },
            "type": "Feature"
        },
        {
            "geometry": {
                "coordinates": [
                    5.751435,
                    58.97273
                ],
                "type": "Point"
            },
            "properties": {
                "address": "Badehusgata  , 4014 Stavanger",
                "capacity": 6,
                "is_installed": true,
                "is_renting": true,
                "is_returning": true,
                "last_reported": 1618830776,
                "name": "Badehusgata 37",
                "num_bikes_available": 0,
                "num_docks_available": 6,
                "station_id": "YKO:Station:41",
                "vehicle_types_available": [
                    {
                        "count": 0,
                        "vehicle_type_id": "YKO:VehicleType:CityBike"
                    }
                ]
            },
            "type": "Feature"
        },
        {
            "geometry": {
                "coordinates": [
                    5.731366,
                    58.96485
                ],
                "type": "Point"
            },
            "properties": {
                "address": "Arkitekt Eckhoffs gate, 4010 Stavanger",
                "capacity": 2,
                "is_installed": true,
                "is_renting": true,
                "is_returning": true,
                "last_reported": 1611054923,
                "name": "Fylkeskommunen",
                "num_bikes_available": 0,
                "num_docks_available": 6,
                "station_id": "YKO:Station:42",
                "vehicle_types_available": [
                    {
                        "count": 0,
                        "vehicle_type_id": "YKO:VehicleType:CityBike"
                    }
                ]
            },
            "type": "Feature"
        },
        {
            "geometry": {
                "coordinates": [
                    5.719574,
                    58.9795
                ],
                "type": "Point"
            },
            "properties": {
                "address": "Veritasveien , 4007 Stavanger",
                "capacity": 8,
                "is_installed": true,
                "is_renting": true,
                "is_returning": true,
                "last_reported": 1587380786,
                "name": "Veritasbygget",
                "num_bikes_available": 0,
                "num_docks_available": 8,
                "station_id": "YKO:Station:43",
                "vehicle_types_available": [
                    {
                        "count": 0,
                        "vehicle_type_id": "YKO:VehicleType:CityBike"
                    }
                ]
            },
            "type": "Feature"
        },
        {
            "geometry": {
                "coordinates": [
                    5.714779,
                    58.98187
                ],
                "type": "Point"
            },
            "properties": {
                "address": "Tjuvholmveien, 4007 Stavanger",
                "capacity": 8,
                "is_installed": true,
                "is_renting": true,
                "is_returning": true,
                "last_reported": 1587110191,
                "name": "Stavanger Offshore Tekniske Fagskole",
                "num_bikes_available": 0,
                "num_docks_available": 8,
                "station_id": "YKO:Station:44",
                "vehicle_types_available": [
                    {
                        "count": 0,
                        "vehicle_type_id": "YKO:VehicleType:CityBike"
                    }
                ]
            },
            "type": "Feature"
        },
        {
            "geometry": {
                "coordinates": [
                    5.7216,
                    58.9387
                ],
                "type": "Point"
            },
            "properties": {
                "address": "S\u00f8rmarkaveien 20, 4019 Stavanger",
                "capacity": 4,
                "is_installed": true,
                "is_renting": true,
                "is_returning": true,
                "last_reported": 1587460557,
                "name": "S\u00f8rmarka Arena",
                "num_bikes_available": 0,
                "num_docks_available": 4,
                "station_id": "YKO:Station:45",
                "vehicle_types_available": [
                    {
                        "count": 0,
                        "vehicle_type_id": "YKO:VehicleType:CityBike"
                    }
                ]
            },
            "type": "Feature"
        },
        {
            "geometry": {
                "coordinates": [
                    5.7314,
                    58.9168
                ],
                "type": "Point"
            },
            "properties": {
                "address": "J\u00e5tt\u00e5v\u00e5gveien , 4065 Stavanger",
                "capacity": 4,
                "is_installed": true,
                "is_renting": true,
                "is_returning": true,
                "last_reported": 1587030043,
                "name": "Hinna Park v/ kanalen",
                "num_bikes_available": 0,
                "num_docks_available": 4,
                "station_id": "YKO:Station:46",
                "vehicle_types_available": [
                    {
                        "count": 0,
                        "vehicle_type_id": "YKO:VehicleType:CityBike"
                    }
                ]
            },
            "type": "Feature"
        },
        {
            "geometry": {
                "coordinates": [
                    5.7044,
                    58.93356
                ],
                "type": "Point"
            },
            "properties": {
                "address": "Professor Olav Hanssens vei , 4021 Stavanger",
                "capacity": 10,
                "is_installed": true,
                "is_renting": true,
                "is_returning": true,
                "last_reported": 1587460557,
                "name": "Ipark Ullandhaug",
                "num_bikes_available": 0,
                "num_docks_available": 10,
                "station_id": "YKO:Station:47",
                "vehicle_types_available": [
                    {
                        "count": 0,
                        "vehicle_type_id": "YKO:VehicleType:CityBike"
                    }
                ]
            },
            "type": "Feature"
        },
        {
            "geometry": {
                "coordinates": [
                    5.6205,
                    58.9991
                ],
                "type": "Point"
            },
            "properties": {
                "address": "Randabergveien , 4070 Randaberg",
                "capacity": 4,
                "is_installed": true,
                "is_renting": true,
                "is_returning": true,
                "last_reported": 1587380427,
                "name": "Randaberg kommunehus",
                "num_bikes_available": 0,
                "num_docks_available": 4,
                "station_id": "YKO:Station:48",
                "vehicle_types_available": [
                    {
                        "count": 0,
                        "vehicle_type_id": "YKO:VehicleType:CityBike"
                    }
                ]
            },
            "type": "Feature"
        },
        {
            "geometry": {
                "coordinates": [
                    5.6283,
                    59.0036
                ],
                "type": "Point"
            },
            "properties": {
                "address": "Torvmyrveien , 4070 Randaberg",
                "capacity": 4,
                "is_installed": true,
                "is_renting": true,
                "is_returning": true,
                "last_reported": 1587460557,
                "name": "Randaberg Arena",
                "num_bikes_available": 0,
                "num_docks_available": 4,
                "station_id": "YKO:Station:49",
                "vehicle_types_available": [
                    {
                        "count": 0,
                        "vehicle_type_id": "YKO:VehicleType:CityBike"
                    }
                ]
            },
            "type": "Feature"
        },
        {
            "geometry": {
                "coordinates": [
                    5.712018,
                    58.88745
                ],
                "type": "Point"
            },
            "properties": {
                "address": "Vassbotn, 4033 Stavanger",
                "capacity": 4,
                "is_installed": true,
                "is_renting": true,
                "is_returning": true,
                "last_reported": 1615457840,
                "name": "M\u00f8ller Bil (Audi)",
                "num_bikes_available": 0,
                "num_docks_available": 0,
                "station_id": "YKO:Station:5",
                "vehicle_types_available": [
                    {
                        "count": 0,
                        "vehicle_type_id": "YKO:VehicleType:CityBike"
                    }
                ]
            },
            "type": "Feature"
        },
        {
            "geometry": {
                "coordinates": [
                    5.730087,
                    58.89168
                ],
                "type": "Point"
            },
            "properties": {
                "address": "Bj\u00f8dnabeen, 4033 Stavanger",
                "capacity": 6,
                "is_installed": true,
                "is_renting": true,
                "is_returning": true,
                "last_reported": 1624276777,
                "name": "Scandic Forus Hotel",
                "num_bikes_available": 0,
                "num_docks_available": 1,
                "station_id": "YKO:Station:6",
                "vehicle_types_available": [
                    {
                        "count": 0,
                        "vehicle_type_id": "YKO:VehicleType:CityBike"
                    }
                ]
            },
            "type": "Feature"
        },
        {
            "geometry": {
                "coordinates": [
                    5.729465,
                    58.96754
                ],
                "type": "Point"
            },
            "properties": {
                "address": "Ny Olavskleiv, 4008 Stavanger",
                "capacity": 6,
                "is_installed": true,
                "is_renting": true,
                "is_returning": true,
                "last_reported": 1620300863,
                "name": "Clarion Hotel Stavanger",
                "num_bikes_available": 0,
                "num_docks_available": 0,
                "station_id": "YKO:Station:7",
                "vehicle_types_available": [
                    {
                        "count": 0,
                        "vehicle_type_id": "YKO:VehicleType:CityBike"
                    }
                ]
            },
            "type": "Feature"
        },
        {
            "geometry": {
                "coordinates": [
                    5.732347,
                    58.96704
                ],
                "type": "Point"
            },
            "properties": {
                "address": "Jernbane-veien, 4005 Stavanger",
                "capacity": 6,
                "is_installed": true,
                "is_renting": true,
                "is_returning": true,
                "last_reported": 1631865605,
                "name": "Stavanger jernbane stasjon",
                "num_bikes_available": 0,
                "num_docks_available": 0,
                "station_id": "YKO:Station:8",
                "vehicle_types_available": [
                    {
                        "count": 0,
                        "vehicle_type_id": "YKO:VehicleType:CityBike"
                    }
                ]
            },
            "type": "Feature"
        },
        {
            "geometry": {
                "coordinates": [
                    5.7378382,
                    58.890555
                ],
                "type": "Point"
            },
            "properties": {
                "address": "Forusbeen, 4033 Stavanger",
                "capacity": 3,
                "is_installed": false,
                "is_renting": false,
                "is_returning": false,
                "last_reported": 1599219172,
                "name": "2020park",
                "num_bikes_available": 0,
                "num_docks_available": 3,
                "station_id": "YKO:Station:9",
                "vehicle_types_available": [
                    {
                        "count": 0,
                        "vehicle_type_id": "YKO:VehicleType:CityBike"
                    }
                ]
            },
            "type": "Feature"
        }
    ],
    "type": "FeatureCollection"
}