{
    "features": [
        {
            "geometry": {
                "coordinates": [
                    15.8136,
                    50.425408
                ],
                "type": "Point"
            },
            "properties": {
                "is_installed": true,
                "is_renting": true,
                "is_returning": true,
                "is_virtual_station": false,
                "last_reported": 1789324629,
                "name": "Denisovo n\u00e1m\u011bst\u00ed",
                "num_bikes_available": 0,
                "num_docks_available": 0,
                "region_id": "768",
                "rental_uris": {
                    "android": "https://app.nextbike.net/station?id=104996604",
                    "ios": "https://app.nextbike.net/station?id=104996604",
                    "web": "https://nxtb.it/p/104996604"
                },
                "short_name": "49053",
                "station_id": "104996604",
                "vehicle_types_available": []
            },
            "type": "Feature"
        },
        {
            "geometry": {
                "coordinates": [
                    15.814112,
                    50.418406
                ],
                "type": "Point"
            },
            "properties": {
                "is_installed": true,
                "is_renting": true,
                "is_returning": true,
                "is_virtual_station": false,
                "last_reported": 1789324629,
                "name": "Sylv\u00e1rov",
                "num_bikes_available": 7,
                "num_docks_available": 0,
                "region_id": "768",
                "rental_uris": {
                    "android": "https://app.nextbike.net/station?id=104996679",
                    "ios": "https://app.nextbike.net/station?id=104996679",
                    "web": "https://nxtb.it/p/104996679"
                },
                "short_name": "49054",
                "station_id": "104996679",
                "vehicle_types_available": [
                    {
                        "count": 7,
                        "vehicle_type_id": "258"
                    }
                ]
            },
            "type": "Feature"
        },
        {
            "geometry": {
                "coordinates": [
                    15.85265,
                    50.413088
                ],
                "type": "Point"
            },
            "properties": {
                "is_installed": true,
                "is_renting": true,
                "is_returning": true,
                "is_virtual_station": false,
                "last_reported": 1789324629,
                "name": "\u017dire\u010d",
                "num_bikes_available": 2,
                "num_docks_available": 0,
                "region_id": "768",
                "rental_uris": {
                    "android": "https://app.nextbike.net/station?id=104996762",
                    "ios": "https://app.nextbike.net/station?id=104996762",
                    "web": "https://nxtb.it/p/104996762"
                },
                "short_name": "49055",
                "station_id": "104996762",
                "vehicle_types_available": [
                    {
                        "count": 1,
                        "vehicle_type_id": "258"
                    },
                    {
                        "count": 1,
                        "vehicle_type_id": "424"
                    }
                ]
            },
            "type": "Feature"
        },
        {
            "geometry": {
                "coordinates": [
                    15.816451,
                    50.438375
                ],
                "type": "Point"
            },
            "properties": {
                "is_installed": true,
                "is_renting": true,
                "is_returning": true,
                "is_virtual_station": false,
                "last_reported": 1789324629,
                "name": "Na neb\u00ed\u010dku",
                "num_bikes_available": 0,
                "num_docks_available": 0,
                "region_id": "768",
                "rental_uris": {
                    "android": "https://app.nextbike.net/station?id=431111005",
                    "ios": "https://app.nextbike.net/station?id=431111005",
                    "web": "https://nxtb.it/p/431111005"
                },
                "short_name": "49118",
                "station_id": "431111005",
                "vehicle_types_available": []
            },
            "type": "Feature"
        },
        {
            "geometry": {
                "coordinates": [
                    15.824264,
                    50.431405
                ],
                "type": "Point"
            },
            "properties": {
                "is_installed": true,
                "is_renting": true,
                "is_returning": true,
                "is_virtual_station": false,
                "last_reported": 1789324629,
                "name": "U \u017di\u017ekova",
                "num_bikes_available": 0,
                "num_docks_available": 0,
                "region_id": "768",
                "rental_uris": {
                    "android": "https://app.nextbike.net/station?id=431111795",
                    "ios": "https://app.nextbike.net/station?id=431111795",
                    "web": "https://nxtb.it/p/431111795"
                },
                "short_name": "49119",
                "station_id": "431111795",
                "vehicle_types_available": []
            },
            "type": "Feature"
        },
        {
            "geometry": {
                "coordinates": [
                    15.81949,
                    50.43704
                ],
                "type": "Point"
            },
            "properties": {
                "is_installed": true,
                "is_renting": true,
                "is_returning": true,
                "is_virtual_station": false,
                "last_reported": 1789324629,
                "name": "Nad o\u010dn\u00ed \u0161kolou",
                "num_bikes_available": 1,
                "num_docks_available": 0,
                "region_id": "768",
                "rental_uris": {
                    "android": "https://app.nextbike.net/station?id=431112364",
                    "ios": "https://app.nextbike.net/station?id=431112364",
                    "web": "https://nxtb.it/p/431112364"
                },
                "short_name": "49120",
                "station_id": "431112364",
                "vehicle_types_available": [
                    {
                        "count": 1,
                        "vehicle_type_id": "258"
                    }
                ]
            },
            "type": "Feature"
        },
        {
            "geometry": {
                "coordinates": [
                    15.82143,
                    50.44285
                ],
                "type": "Point"
            },
            "properties": {
                "is_installed": true,
                "is_renting": true,
                "is_returning": true,
                "is_virtual_station": false,
                "last_reported": 1789324629,
                "name": "Tyr\u0161ova, bus",
                "num_bikes_available": 1,
                "num_docks_available": 0,
                "region_id": "768",
                "rental_uris": {
                    "android": "https://app.nextbike.net/station?id=522283578",
                    "ios": "https://app.nextbike.net/station?id=522283578",
                    "web": "https://nxtb.it/p/522283578"
                },
                "short_name": "49042",
                "station_id": "522283578",
                "vehicle_types_available": [
                    {
                        "count": 1,
                        "vehicle_type_id": "210"
                    }
                ]
            },
            "type": "Feature"
        },
        {
            "geometry": {
                "coordinates": [
                    15.80808,
                    50.44272
                ],
                "type": "Point"
            },
            "properties": {
                "is_installed": true,
                "is_renting": true,
                "is_returning": true,
                "is_virtual_station": false,
                "last_reported": 1789324629,
                "name": "Vorlech",
                "num_bikes_available": 2,
                "num_docks_available": 0,
                "region_id": "768",
                "rental_uris": {
                    "android": "https://app.nextbike.net/station?id=522284268",
                    "ios": "https://app.nextbike.net/station?id=522284268",
                    "web": "https://nxtb.it/p/522284268"
                },
                "short_name": "49056",
                "station_id": "522284268",
                "vehicle_types_available": [
                    {
                        "count": 2,
                        "vehicle_type_id": "258"
                    }
                ]
            },
            "type": "Feature"
        },
        {
            "geometry": {
                "coordinates": [
                    15.81495,
                    50.4478
                ],
                "type": "Point"
            },
            "properties": {
                "is_installed": true,
                "is_renting": true,
                "is_returning": true,
                "is_virtual_station": false,
                "last_reported": 1789324629,
                "name": "Pod m\u011bstskou nemocnic\u00ed",
                "num_bikes_available": 2,
                "num_docks_available": 0,
                "region_id": "768",
                "rental_uris": {
                    "android": "https://app.nextbike.net/station?id=522285519",
                    "ios": "https://app.nextbike.net/station?id=522285519",
                    "web": "https://nxtb.it/p/522285519"
                },
                "short_name": "49063",
                "station_id": "522285519",
                "vehicle_types_available": [
                    {
                        "count": 2,
                        "vehicle_type_id": "424"
                    }
                ]
            },
            "type": "Feature"
        },
        {
            "geometry": {
                "coordinates": [
                    15.80102,
                    50.42227
                ],
                "type": "Point"
            },
            "properties": {
                "is_installed": true,
                "is_renting": true,
                "is_returning": true,
                "is_virtual_station": false,
                "last_reported": 1789324629,
                "name": "Smetanova, d\u011btsk\u00e9 h\u0159i\u0161t\u011b",
                "num_bikes_available": 0,
                "num_docks_available": 0,
                "region_id": "768",
                "rental_uris": {
                    "android": "https://app.nextbike.net/station?id=522286740",
                    "ios": "https://app.nextbike.net/station?id=522286740",
                    "web": "https://nxtb.it/p/522286740"
                },
                "short_name": "49064",
                "station_id": "522286740",
                "vehicle_types_available": []
            },
            "type": "Feature"
        },
        {
            "geometry": {
                "coordinates": [
                    15.80546,
                    50.44312
                ],
                "type": "Point"
            },
            "properties": {
                "is_installed": true,
                "is_renting": true,
                "is_returning": true,
                "is_virtual_station": false,
                "last_reported": 1789324629,
                "name": "Vorle\u0161sk\u00e1, parkovi\u0161t\u011b",
                "num_bikes_available": 1,
                "num_docks_available": 0,
                "region_id": "768",
                "rental_uris": {
                    "android": "https://app.nextbike.net/station?id=604679492",
                    "ios": "https://app.nextbike.net/station?id=604679492",
                    "web": "https://nxtb.it/p/604679492"
                },
                "short_name": "49833",
                "station_id": "604679492",
                "vehicle_types_available": [
                    {
                        "count": 1,
                        "vehicle_type_id": "424"
                    }
                ]
            },
            "type": "Feature"
        },
        {
            "geometry": {
                "coordinates": [
                    15.82283,
                    50.41632
                ],
                "type": "Point"
            },
            "properties": {
                "is_installed": true,
                "is_renting": true,
                "is_returning": true,
                "is_virtual_station": false,
                "last_reported": 1789324629,
                "name": "\u017direck\u00e1",
                "num_bikes_available": 2,
                "num_docks_available": 0,
                "region_id": "768",
                "rental_uris": {
                    "android": "https://app.nextbike.net/station?id=604683883",
                    "ios": "https://app.nextbike.net/station?id=604683883",
                    "web": "https://nxtb.it/p/604683883"
                },
                "short_name": "49834",
                "station_id": "604683883",
                "vehicle_types_available": [
                    {
                        "count": 2,
                        "vehicle_type_id": "258"
                    }
                ]
            },
            "type": "Feature"
        },
        {
            "geometry": {
                "coordinates": [
                    15.798081,
                    50.413948
                ],
                "type": "Point"
            },
            "properties": {
                "capacity": 4,
                "is_installed": true,
                "is_renting": true,
                "is_returning": true,
                "is_virtual_station": false,
                "last_reported": 1789324629,
                "name": "N\u00e1dra\u017e\u00ed \u010cD (+15 minut na p\u0159\u00edjezd)",
                "num_bikes_available": 4,
                "num_docks_available": 0,
                "region_id": "768",
                "rental_uris": {
                    "android": "https://app.nextbike.net/station?id=78684741",
                    "ios": "https://app.nextbike.net/station?id=78684741",
                    "web": "https://nxtb.it/p/78684741"
                },
                "short_name": "49036",
                "station_id": "78684741",
                "vehicle_types_available": [
                    {
                        "count": 3,
                        "vehicle_type_id": "258"
                    },
                    {
                        "count": 1,
                        "vehicle_type_id": "303"
                    }
                ]
            },
            "type": "Feature"
        },
        {
            "geometry": {
                "coordinates": [
                    15.806441,
                    50.422266
                ],
                "type": "Point"
            },
            "properties": {
                "is_installed": true,
                "is_renting": true,
                "is_returning": true,
                "is_virtual_station": false,
                "last_reported": 1789324629,
                "name": "Z\u0160 5. kv\u011btna",
                "num_bikes_available": 5,
                "num_docks_available": 0,
                "region_id": "768",
                "rental_uris": {
                    "android": "https://app.nextbike.net/station?id=78685125",
                    "ios": "https://app.nextbike.net/station?id=78685125",
                    "web": "https://nxtb.it/p/78685125"
                },
                "short_name": "49037",
                "station_id": "78685125",
                "vehicle_types_available": [
                    {
                        "count": 5,
                        "vehicle_type_id": "258"
                    }
                ]
            },
            "type": "Feature"
        },
        {
            "geometry": {
                "coordinates": [
                    15.787051,
                    50.421785
                ],
                "type": "Point"
            },
            "properties": {
                "is_installed": true,
                "is_renting": true,
                "is_returning": true,
                "is_virtual_station": false,
                "last_reported": 1789324629,
                "name": "M\u011bstsk\u00e1 \u010d\u00e1st Lipnice",
                "num_bikes_available": 5,
                "num_docks_available": 0,
                "region_id": "768",
                "rental_uris": {
                    "android": "https://app.nextbike.net/station?id=78685196",
                    "ios": "https://app.nextbike.net/station?id=78685196",
                    "web": "https://nxtb.it/p/78685196"
                },
                "short_name": "49038",
                "station_id": "78685196",
                "vehicle_types_available": [
                    {
                        "count": 2,
                        "vehicle_type_id": "258"
                    },
                    {
                        "count": 3,
                        "vehicle_type_id": "424"
                    }
                ]
            },
            "type": "Feature"
        },
        {
            "geometry": {
                "coordinates": [
                    15.799026,
                    50.435022
                ],
                "type": "Point"
            },
            "properties": {
                "is_installed": true,
                "is_renting": true,
                "is_returning": true,
                "is_virtual_station": false,
                "last_reported": 1789324629,
                "name": "ZOO",
                "num_bikes_available": 1,
                "num_docks_available": 0,
                "region_id": "768",
                "rental_uris": {
                    "android": "https://app.nextbike.net/station?id=78685267",
                    "ios": "https://app.nextbike.net/station?id=78685267",
                    "web": "https://nxtb.it/p/78685267"
                },
                "short_name": "49039",
                "station_id": "78685267",
                "vehicle_types_available": [
                    {
                        "count": 1,
                        "vehicle_type_id": "258"
                    }
                ]
            },
            "type": "Feature"
        },
        {
            "geometry": {
                "coordinates": [
                    15.805895,
                    50.436884
                ],
                "type": "Point"
            },
            "properties": {
                "is_installed": true,
                "is_renting": true,
                "is_returning": true,
                "is_virtual_station": false,
                "last_reported": 1789324629,
                "name": "S\u00eddli\u0161t\u011b Str\u017e",
                "num_bikes_available": 10,
                "num_docks_available": 0,
                "region_id": "768",
                "rental_uris": {
                    "android": "https://app.nextbike.net/station?id=78685338",
                    "ios": "https://app.nextbike.net/station?id=78685338",
                    "web": "https://nxtb.it/p/78685338"
                },
                "short_name": "49040",
                "station_id": "78685338",
                "vehicle_types_available": [
                    {
                        "count": 10,
                        "vehicle_type_id": "258"
                    }
                ]
            },
            "type": "Feature"
        },
        {
            "geometry": {
                "coordinates": [
                    15.800041,
                    50.429577
                ],
                "type": "Point"
            },
            "properties": {
                "is_installed": true,
                "is_renting": true,
                "is_returning": true,
                "is_virtual_station": false,
                "last_reported": 1789324629,
                "name": "Tyr\u0161ovo koupali\u0161t\u011b",
                "num_bikes_available": 5,
                "num_docks_available": 0,
                "region_id": "768",
                "rental_uris": {
                    "android": "https://app.nextbike.net/station?id=78685413",
                    "ios": "https://app.nextbike.net/station?id=78685413",
                    "web": "https://nxtb.it/p/78685413"
                },
                "short_name": "49041",
                "station_id": "78685413",
                "vehicle_types_available": [
                    {
                        "count": 4,
                        "vehicle_type_id": "258"
                    },
                    {
                        "count": 1,
                        "vehicle_type_id": "424"
                    }
                ]
            },
            "type": "Feature"
        },
        {
            "geometry": {
                "coordinates": [
                    15.820763,
                    50.434261
                ],
                "type": "Point"
            },
            "properties": {
                "is_installed": true,
                "is_renting": true,
                "is_returning": true,
                "is_virtual_station": false,
                "last_reported": 1789324629,
                "name": "Park Schulzovy sady",
                "num_bikes_available": 1,
                "num_docks_available": 0,
                "region_id": "768",
                "rental_uris": {
                    "android": "https://app.nextbike.net/station?id=78685477",
                    "ios": "https://app.nextbike.net/station?id=78685477",
                    "web": "https://nxtb.it/p/78685477"
                },
                "short_name": "49043",
                "station_id": "78685477",
                "vehicle_types_available": [
                    {
                        "count": 1,
                        "vehicle_type_id": "258"
                    }
                ]
            },
            "type": "Feature"
        },
        {
            "geometry": {
                "coordinates": [
                    15.813597,
                    50.431807
                ],
                "type": "Point"
            },
            "properties": {
                "is_installed": true,
                "is_renting": true,
                "is_returning": true,
                "is_virtual_station": false,
                "last_reported": 1789324629,
                "name": "N\u00e1m\u011bst\u00ed TGM",
                "num_bikes_available": 3,
                "num_docks_available": 0,
                "region_id": "768",
                "rental_uris": {
                    "android": "https://app.nextbike.net/station?id=78685597",
                    "ios": "https://app.nextbike.net/station?id=78685597",
                    "web": "https://nxtb.it/p/78685597"
                },
                "short_name": "49044",
                "station_id": "78685597",
                "vehicle_types_available": [
                    {
                        "count": 3,
                        "vehicle_type_id": "258"
                    }
                ]
            },
            "type": "Feature"
        },
        {
            "geometry": {
                "coordinates": [
                    15.811793,
                    50.430719
                ],
                "type": "Point"
            },
            "properties": {
                "is_installed": true,
                "is_renting": true,
                "is_returning": true,
                "is_virtual_station": false,
                "last_reported": 1789324629,
                "name": "N\u00e1m\u011bst\u00ed V. Hanky",
                "num_bikes_available": 0,
                "num_docks_available": 0,
                "region_id": "768",
                "rental_uris": {
                    "android": "https://app.nextbike.net/station?id=78685817",
                    "ios": "https://app.nextbike.net/station?id=78685817",
                    "web": "https://nxtb.it/p/78685817"
                },
                "short_name": "49045",
                "station_id": "78685817",
                "vehicle_types_available": []
            },
            "type": "Feature"
        },
        {
            "geometry": {
                "coordinates": [
                    15.81395,
                    50.42766
                ],
                "type": "Point"
            },
            "properties": {
                "is_installed": true,
                "is_renting": true,
                "is_returning": true,
                "is_virtual_station": false,
                "last_reported": 1789324629,
                "name": "Dobrovsk\u00e9ho",
                "num_bikes_available": 4,
                "num_docks_available": 0,
                "region_id": "768",
                "rental_uris": {
                    "android": "https://app.nextbike.net/station?id=78685898",
                    "ios": "https://app.nextbike.net/station?id=78685898",
                    "web": "https://nxtb.it/p/78685898"
                },
                "short_name": "49046",
                "station_id": "78685898",
                "vehicle_types_available": [
                    {
                        "count": 4,
                        "vehicle_type_id": "258"
                    }
                ]
            },
            "type": "Feature"
        },
        {
            "geometry": {
                "coordinates": [
                    15.813831,
                    50.433665
                ],
                "type": "Point"
            },
            "properties": {
                "is_installed": true,
                "is_renting": true,
                "is_returning": true,
                "is_virtual_station": false,
                "last_reported": 1789324629,
                "name": "N\u00e1m\u011bst\u00ed Republiky",
                "num_bikes_available": 3,
                "num_docks_available": 0,
                "region_id": "768",
                "rental_uris": {
                    "android": "https://app.nextbike.net/station?id=78685949",
                    "ios": "https://app.nextbike.net/station?id=78685949",
                    "web": "https://nxtb.it/p/78685949"
                },
                "short_name": "49047",
                "station_id": "78685949",
                "vehicle_types_available": [
                    {
                        "count": 3,
                        "vehicle_type_id": "258"
                    }
                ]
            },
            "type": "Feature"
        },
        {
            "geometry": {
                "coordinates": [
                    15.818022,
                    50.441766
                ],
                "type": "Point"
            },
            "properties": {
                "is_installed": true,
                "is_renting": true,
                "is_returning": true,
                "is_virtual_station": false,
                "last_reported": 1789324629,
                "name": "H\u0159i\u0161t\u011b - Slune\u010dn\u00e1",
                "num_bikes_available": 2,
                "num_docks_available": 0,
                "region_id": "768",
                "rental_uris": {
                    "android": "https://app.nextbike.net/station?id=78686114",
                    "ios": "https://app.nextbike.net/station?id=78686114",
                    "web": "https://nxtb.it/p/78686114"
                },
                "short_name": "49048",
                "station_id": "78686114",
                "vehicle_types_available": [
                    {
                        "count": 1,
                        "vehicle_type_id": "424"
                    },
                    {
                        "count": 1,
                        "vehicle_type_id": "303"
                    }
                ]
            },
            "type": "Feature"
        },
        {
            "geometry": {
                "coordinates": [
                    15.815036,
                    50.443389
                ],
                "type": "Point"
            },
            "properties": {
                "is_installed": true,
                "is_renting": true,
                "is_returning": true,
                "is_virtual_station": false,
                "last_reported": 1789324629,
                "name": "Podhar\u0165 - M\u00e1chova (+15 minut na p\u0159\u00edjezd)",
                "num_bikes_available": 4,
                "num_docks_available": 0,
                "region_id": "768",
                "rental_uris": {
                    "android": "https://app.nextbike.net/station?id=78687487",
                    "ios": "https://app.nextbike.net/station?id=78687487",
                    "web": "https://nxtb.it/p/78687487"
                },
                "short_name": "49049",
                "station_id": "78687487",
                "vehicle_types_available": [
                    {
                        "count": 3,
                        "vehicle_type_id": "258"
                    },
                    {
                        "count": 1,
                        "vehicle_type_id": "424"
                    }
                ]
            },
            "type": "Feature"
        },
        {
            "geometry": {
                "coordinates": [
                    15.810527,
                    50.43255
                ],
                "type": "Point"
            },
            "properties": {
                "is_installed": true,
                "is_renting": true,
                "is_returning": true,
                "is_virtual_station": false,
                "last_reported": 1789324629,
                "name": "SPO\u0160 - Muzeum textilu",
                "num_bikes_available": 3,
                "num_docks_available": 0,
                "region_id": "768",
                "rental_uris": {
                    "android": "https://app.nextbike.net/station?id=78687567",
                    "ios": "https://app.nextbike.net/station?id=78687567",
                    "web": "https://nxtb.it/p/78687567"
                },
                "short_name": "49050",
                "station_id": "78687567",
                "vehicle_types_available": [
                    {
                        "count": 3,
                        "vehicle_type_id": "258"
                    }
                ]
            },
            "type": "Feature"
        },
        {
            "geometry": {
                "coordinates": [
                    15.807005,
                    50.432112
                ],
                "type": "Point"
            },
            "properties": {
                "is_installed": true,
                "is_renting": true,
                "is_returning": true,
                "is_virtual_station": false,
                "last_reported": 1789324629,
                "name": "Jaroslava Biliny - Berl\u00ednek",
                "num_bikes_available": 4,
                "num_docks_available": 0,
                "region_id": "768",
                "rental_uris": {
                    "android": "https://app.nextbike.net/station?id=78687938",
                    "ios": "https://app.nextbike.net/station?id=78687938",
                    "web": "https://nxtb.it/p/78687938"
                },
                "short_name": "49051",
                "station_id": "78687938",
                "vehicle_types_available": [
                    {
                        "count": 4,
                        "vehicle_type_id": "258"
                    }
                ]
            },
            "type": "Feature"
        }
    ],
    "gbfs": {
        "station_information": {
            "last_updated": 1789324629,
            "ttl": 60,
            "version": "2.3"
        },
        "station_status": {
            "last_updated": 1789324629,
            "ttl": 60,
            "version": "2.3"
        }
    },
    "type": "FeatureCollection"
}