{
    "features": [
        {
            "geometry": {
                "coordinates": [
                    7.23895,
                    47.62687
                ],
                "type": "Point"
            },
            "properties": {
                "capacity": 5,
                "is_charging_station": true,
                "is_installed": true,
                "is_renting": true,
                "is_returning": true,
                "is_valet_station": false,
                "is_virtual_station": false,
                "last_reported": 1790213822,
                "name": "Altkirch",
                "num_bikes_available": 5,
                "num_docks_available": 0,
                "rental_uris": {},
                "station_id": "st_d34n04umbtds73f5vb2g",
                "vehicle_types_available": [
                    {
                        "count": 5,
                        "vehicle_type_id": "4"
                    },
                    {
                        "count": 0,
                        "vehicle_type_id": "1"
                    },
                    {
                        "count": 0,
                        "vehicle_type_id": "2"
                    },
                    {
                        "count": 0,
                        "vehicle_type_id": "7"
                    }
                ]
            },
            "type": "Feature"
        },
        {
            "geometry": {
                "coordinates": [
                    4.70667,
                    48.23844
                ],
                "type": "Point"
            },
            "properties": {
                "capacity": 5,
                "is_charging_station": true,
                "is_installed": true,
                "is_renting": true,
                "is_returning": true,
                "is_valet_station": false,
                "is_virtual_station": false,
                "last_reported": 1790213822,
                "name": "Bar-sur-Aube",
                "num_bikes_available": 5,
                "num_docks_available": 0,
                "rental_uris": {},
                "station_id": "st_d34n05mmbtds7381r9gg",
                "vehicle_types_available": [
                    {
                        "count": 0,
                        "vehicle_type_id": "1"
                    },
                    {
                        "count": 0,
                        "vehicle_type_id": "2"
                    },
                    {
                        "count": 0,
                        "vehicle_type_id": "7"
                    },
                    {
                        "count": 5,
                        "vehicle_type_id": "4"
                    }
                ]
            },
            "type": "Feature"
        },
        {
            "geometry": {
                "coordinates": [
                    7.44303,
                    48.25952
                ],
                "type": "Point"
            },
            "properties": {
                "capacity": 15,
                "is_charging_station": true,
                "is_installed": true,
                "is_renting": true,
                "is_returning": true,
                "is_valet_station": false,
                "is_virtual_station": false,
                "last_reported": 1790213822,
                "name": "S\u00e9lestat",
                "num_bikes_available": 14,
                "num_docks_available": 0,
                "rental_uris": {},
                "station_id": "st_d34n05mmbtds7381r9j0",
                "vehicle_types_available": [
                    {
                        "count": 0,
                        "vehicle_type_id": "2"
                    },
                    {
                        "count": 14,
                        "vehicle_type_id": "4"
                    },
                    {
                        "count": 0,
                        "vehicle_type_id": "1"
                    },
                    {
                        "count": 0,
                        "vehicle_type_id": "7"
                    }
                ]
            },
            "type": "Feature"
        },
        {
            "geometry": {
                "coordinates": [
                    4.348631,
                    48.954989
                ],
                "type": "Point"
            },
            "properties": {
                "capacity": 10,
                "is_charging_station": true,
                "is_installed": true,
                "is_renting": true,
                "is_returning": true,
                "is_valet_station": false,
                "is_virtual_station": false,
                "last_reported": 1790213822,
                "name": "Ch\u00e2lons-en-Champagne",
                "num_bikes_available": 6,
                "num_docks_available": 4,
                "rental_uris": {},
                "station_id": "st_d34n05mmbtds7381r9lg",
                "vehicle_types_available": [
                    {
                        "count": 0,
                        "vehicle_type_id": "7"
                    },
                    {
                        "count": 0,
                        "vehicle_type_id": "1"
                    },
                    {
                        "count": 0,
                        "vehicle_type_id": "2"
                    },
                    {
                        "count": 6,
                        "vehicle_type_id": "4"
                    }
                ]
            },
            "type": "Feature"
        },
        {
            "geometry": {
                "coordinates": [
                    5.16686,
                    48.773
                ],
                "type": "Point"
            },
            "properties": {
                "capacity": 10,
                "is_charging_station": true,
                "is_installed": true,
                "is_renting": true,
                "is_returning": true,
                "is_valet_station": false,
                "is_virtual_station": false,
                "last_reported": 1790213822,
                "name": "Bar-le-Duc",
                "num_bikes_available": 9,
                "num_docks_available": 1,
                "rental_uris": {},
                "station_id": "st_d34n05mmbtds73f5vb50",
                "vehicle_types_available": [
                    {
                        "count": 0,
                        "vehicle_type_id": "7"
                    },
                    {
                        "count": 0,
                        "vehicle_type_id": "1"
                    },
                    {
                        "count": 0,
                        "vehicle_type_id": "2"
                    },
                    {
                        "count": 9,
                        "vehicle_type_id": "4"
                    }
                ]
            },
            "type": "Feature"
        },
        {
            "geometry": {
                "coordinates": [
                    7.735,
                    48.58444
                ],
                "type": "Point"
            },
            "properties": {
                "capacity": 20,
                "is_charging_station": false,
                "is_installed": true,
                "is_renting": false,
                "is_returning": false,
                "is_valet_station": false,
                "is_virtual_station": true,
                "last_reported": 1790213822,
                "name": "Strasbourg",
                "num_bikes_available": 0,
                "num_docks_available": 0,
                "rental_uris": {},
                "station_id": "st_d34n05mmbtds73f5vbcg",
                "vehicle_types_available": [
                    {
                        "count": 0,
                        "vehicle_type_id": "2"
                    },
                    {
                        "count": 0,
                        "vehicle_type_id": "1"
                    },
                    {
                        "count": 0,
                        "vehicle_type_id": "4"
                    },
                    {
                        "count": 0,
                        "vehicle_type_id": "7"
                    }
                ]
            },
            "type": "Feature"
        },
        {
            "geometry": {
                "coordinates": [
                    4.724269,
                    49.767738
                ],
                "type": "Point"
            },
            "properties": {
                "capacity": 10,
                "is_charging_station": true,
                "is_installed": true,
                "is_renting": true,
                "is_returning": true,
                "is_valet_station": false,
                "is_virtual_station": false,
                "last_reported": 1790213822,
                "name": "Charleville-M\u00e9zi\u00e8res",
                "num_bikes_available": 9,
                "num_docks_available": 1,
                "rental_uris": {},
                "station_id": "st_d34n05umbtds7381r9r0",
                "vehicle_types_available": [
                    {
                        "count": 9,
                        "vehicle_type_id": "4"
                    },
                    {
                        "count": 0,
                        "vehicle_type_id": "7"
                    },
                    {
                        "count": 0,
                        "vehicle_type_id": "2"
                    },
                    {
                        "count": 0,
                        "vehicle_type_id": "1"
                    }
                ]
            },
            "type": "Feature"
        },
        {
            "geometry": {
                "coordinates": [
                    7.34768,
                    48.07292
                ],
                "type": "Point"
            },
            "properties": {
                "capacity": 15,
                "is_charging_station": true,
                "is_installed": true,
                "is_renting": true,
                "is_returning": true,
                "is_valet_station": false,
                "is_virtual_station": false,
                "last_reported": 1790213822,
                "name": "Colmar",
                "num_bikes_available": 15,
                "num_docks_available": 0,
                "rental_uris": {},
                "station_id": "st_d34n05umbtds7381r9tg",
                "vehicle_types_available": [
                    {
                        "count": 0,
                        "vehicle_type_id": "7"
                    },
                    {
                        "count": 0,
                        "vehicle_type_id": "2"
                    },
                    {
                        "count": 0,
                        "vehicle_type_id": "1"
                    },
                    {
                        "count": 0,
                        "vehicle_type_id": "10"
                    },
                    {
                        "count": 15,
                        "vehicle_type_id": "4"
                    }
                ]
            },
            "type": "Feature"
        },
        {
            "geometry": {
                "coordinates": [
                    5.588727,
                    48.765704
                ],
                "type": "Point"
            },
            "properties": {
                "capacity": 5,
                "is_charging_station": true,
                "is_installed": true,
                "is_renting": true,
                "is_returning": true,
                "is_valet_station": false,
                "is_virtual_station": false,
                "last_reported": 1790213822,
                "name": "Commercy",
                "num_bikes_available": 5,
                "num_docks_available": 0,
                "rental_uris": {},
                "station_id": "st_d34n05umbtds7381ra10",
                "vehicle_types_available": [
                    {
                        "count": 0,
                        "vehicle_type_id": "2"
                    },
                    {
                        "count": 5,
                        "vehicle_type_id": "4"
                    },
                    {
                        "count": 0,
                        "vehicle_type_id": "1"
                    },
                    {
                        "count": 0,
                        "vehicle_type_id": "7"
                    }
                ]
            },
            "type": "Feature"
        },
        {
            "geometry": {
                "coordinates": [
                    7.77935,
                    48.70291
                ],
                "type": "Point"
            },
            "properties": {
                "capacity": 5,
                "is_charging_station": true,
                "is_installed": true,
                "is_renting": true,
                "is_returning": true,
                "is_valet_station": false,
                "is_virtual_station": false,
                "last_reported": 1790213822,
                "name": "Hoerdt",
                "num_bikes_available": 3,
                "num_docks_available": 1,
                "rental_uris": {},
                "station_id": "st_d34n05umbtds7381ra4g",
                "vehicle_types_available": [
                    {
                        "count": 3,
                        "vehicle_type_id": "4"
                    },
                    {
                        "count": 0,
                        "vehicle_type_id": "1"
                    },
                    {
                        "count": 0,
                        "vehicle_type_id": "2"
                    },
                    {
                        "count": 0,
                        "vehicle_type_id": "7"
                    }
                ]
            },
            "type": "Feature"
        },
        {
            "geometry": {
                "coordinates": [
                    6.44171,
                    48.17799
                ],
                "type": "Point"
            },
            "properties": {
                "capacity": 10,
                "is_charging_station": false,
                "is_installed": true,
                "is_renting": false,
                "is_returning": false,
                "is_valet_station": false,
                "is_virtual_station": true,
                "last_reported": 1790213822,
                "name": "\u00c9pinal",
                "num_bikes_available": 0,
                "num_docks_available": 0,
                "rental_uris": {},
                "station_id": "st_d34n05umbtds7381ra80",
                "vehicle_types_available": [
                    {
                        "count": 0,
                        "vehicle_type_id": "2"
                    },
                    {
                        "count": 0,
                        "vehicle_type_id": "4"
                    },
                    {
                        "count": 0,
                        "vehicle_type_id": "7"
                    },
                    {
                        "count": 0,
                        "vehicle_type_id": "1"
                    }
                ]
            },
            "type": "Feature"
        },
        {
            "geometry": {
                "coordinates": [
                    3.959362,
                    49.046151
                ],
                "type": "Point"
            },
            "properties": {
                "capacity": 10,
                "is_charging_station": false,
                "is_installed": true,
                "is_renting": true,
                "is_returning": true,
                "is_valet_station": false,
                "is_virtual_station": false,
                "last_reported": 1790213822,
                "name": "\u00c9pernay",
                "num_bikes_available": 7,
                "num_docks_available": 3,
                "rental_uris": {},
                "station_id": "st_d34n05umbtds73f5vbg0",
                "vehicle_types_available": [
                    {
                        "count": 0,
                        "vehicle_type_id": "7"
                    },
                    {
                        "count": 0,
                        "vehicle_type_id": "2"
                    },
                    {
                        "count": 7,
                        "vehicle_type_id": "4"
                    },
                    {
                        "count": 0,
                        "vehicle_type_id": "1"
                    }
                ]
            },
            "type": "Feature"
        },
        {
            "geometry": {
                "coordinates": [
                    7.63883,
                    48.42275
                ],
                "type": "Point"
            },
            "properties": {
                "capacity": 10,
                "is_charging_station": true,
                "is_installed": true,
                "is_renting": true,
                "is_returning": true,
                "is_valet_station": false,
                "is_virtual_station": false,
                "last_reported": 1790213822,
                "name": "Erstein",
                "num_bikes_available": 9,
                "num_docks_available": 1,
                "rental_uris": {},
                "station_id": "st_d34n066mbtds7381raag",
                "vehicle_types_available": [
                    {
                        "count": 0,
                        "vehicle_type_id": "2"
                    },
                    {
                        "count": 9,
                        "vehicle_type_id": "4"
                    },
                    {
                        "count": 0,
                        "vehicle_type_id": "1"
                    },
                    {
                        "count": 0,
                        "vehicle_type_id": "7"
                    }
                ]
            },
            "type": "Feature"
        },
        {
            "geometry": {
                "coordinates": [
                    6.90094,
                    49.18903
                ],
                "type": "Point"
            },
            "properties": {
                "capacity": 5,
                "is_charging_station": true,
                "is_installed": true,
                "is_renting": true,
                "is_returning": true,
                "is_valet_station": false,
                "is_virtual_station": false,
                "last_reported": 1790213822,
                "name": "Forbach",
                "num_bikes_available": 4,
                "num_docks_available": 1,
                "rental_uris": {},
                "station_id": "st_d34n066mbtds7381rad0",
                "vehicle_types_available": [
                    {
                        "count": 0,
                        "vehicle_type_id": "2"
                    },
                    {
                        "count": 4,
                        "vehicle_type_id": "4"
                    },
                    {
                        "count": 0,
                        "vehicle_type_id": "1"
                    },
                    {
                        "count": 0,
                        "vehicle_type_id": "7"
                    }
                ]
            },
            "type": "Feature"
        },
        {
            "geometry": {
                "coordinates": [
                    7.87914,
                    48.69492
                ],
                "type": "Point"
            },
            "properties": {
                "capacity": 5,
                "is_charging_station": true,
                "is_installed": true,
                "is_renting": true,
                "is_returning": true,
                "is_valet_station": false,
                "is_virtual_station": false,
                "last_reported": 1790213822,
                "name": "Gambsheim",
                "num_bikes_available": 5,
                "num_docks_available": 0,
                "rental_uris": {},
                "station_id": "st_d34n066mbtds73f5vbmg",
                "vehicle_types_available": [
                    {
                        "count": 0,
                        "vehicle_type_id": "2"
                    },
                    {
                        "count": 0,
                        "vehicle_type_id": "1"
                    },
                    {
                        "count": 5,
                        "vehicle_type_id": "4"
                    },
                    {
                        "count": 0,
                        "vehicle_type_id": "7"
                    }
                ]
            },
            "type": "Feature"
        },
        {
            "geometry": {
                "coordinates": [
                    6.16414,
                    49.25303
                ],
                "type": "Point"
            },
            "properties": {
                "capacity": 10,
                "is_charging_station": true,
                "is_installed": true,
                "is_renting": true,
                "is_returning": true,
                "is_valet_station": false,
                "is_virtual_station": false,
                "last_reported": 1790213822,
                "name": "Hagondange",
                "num_bikes_available": 7,
                "num_docks_available": 3,
                "rental_uris": {},
                "station_id": "st_d34n06embtds7381rajg",
                "vehicle_types_available": [
                    {
                        "count": 0,
                        "vehicle_type_id": "1"
                    },
                    {
                        "count": 0,
                        "vehicle_type_id": "2"
                    },
                    {
                        "count": 7,
                        "vehicle_type_id": "4"
                    },
                    {
                        "count": 0,
                        "vehicle_type_id": "7"
                    }
                ]
            },
            "type": "Feature"
        },
        {
            "geometry": {
                "coordinates": [
                    7.78313,
                    48.81342
                ],
                "type": "Point"
            },
            "properties": {
                "capacity": 15,
                "is_charging_station": true,
                "is_installed": true,
                "is_renting": true,
                "is_returning": true,
                "is_valet_station": false,
                "is_virtual_station": false,
                "last_reported": 1790213822,
                "name": "Haguenau",
                "num_bikes_available": 13,
                "num_docks_available": 2,
                "rental_uris": {},
                "station_id": "st_d34n06embtds73f5vbp0",
                "vehicle_types_available": [
                    {
                        "count": 0,
                        "vehicle_type_id": "2"
                    },
                    {
                        "count": 0,
                        "vehicle_type_id": "1"
                    },
                    {
                        "count": 13,
                        "vehicle_type_id": "4"
                    },
                    {
                        "count": 0,
                        "vehicle_type_id": "7"
                    }
                ]
            },
            "type": "Feature"
        },
        {
            "geometry": {
                "coordinates": [
                    6.15725,
                    49.40744
                ],
                "type": "Point"
            },
            "properties": {
                "capacity": 10,
                "is_charging_station": false,
                "is_installed": true,
                "is_renting": true,
                "is_returning": true,
                "is_valet_station": false,
                "is_virtual_station": false,
                "last_reported": 1790213822,
                "name": "Hettange-Grande",
                "num_bikes_available": 7,
                "num_docks_available": 3,
                "rental_uris": {},
                "station_id": "st_d34n06umbtds7381raq0",
                "vehicle_types_available": [
                    {
                        "count": 7,
                        "vehicle_type_id": "4"
                    },
                    {
                        "count": 0,
                        "vehicle_type_id": "7"
                    },
                    {
                        "count": 0,
                        "vehicle_type_id": "1"
                    },
                    {
                        "count": 0,
                        "vehicle_type_id": "2"
                    }
                ]
            },
            "type": "Feature"
        },
        {
            "geometry": {
                "coordinates": [
                    5.881116,
                    48.67896
                ],
                "type": "Point"
            },
            "properties": {
                "capacity": 5,
                "is_charging_station": false,
                "is_installed": true,
                "is_renting": true,
                "is_returning": true,
                "is_valet_station": false,
                "is_virtual_station": false,
                "last_reported": 1790213822,
                "name": "Toul",
                "num_bikes_available": 4,
                "num_docks_available": 0,
                "rental_uris": {},
                "station_id": "st_d34n06umbtds7381rarg",
                "vehicle_types_available": [
                    {
                        "count": 0,
                        "vehicle_type_id": "1"
                    },
                    {
                        "count": 4,
                        "vehicle_type_id": "4"
                    },
                    {
                        "count": 0,
                        "vehicle_type_id": "7"
                    },
                    {
                        "count": 0,
                        "vehicle_type_id": "2"
                    }
                ]
            },
            "type": "Feature"
        },
        {
            "geometry": {
                "coordinates": [
                    5.34406,
                    47.87717
                ],
                "type": "Point"
            },
            "properties": {
                "capacity": 5,
                "is_charging_station": true,
                "is_installed": true,
                "is_renting": true,
                "is_returning": true,
                "is_valet_station": false,
                "is_virtual_station": false,
                "last_reported": 1790213822,
                "name": "Langres",
                "num_bikes_available": 5,
                "num_docks_available": 0,
                "rental_uris": {},
                "station_id": "st_d34n06umbtds7381rav0",
                "vehicle_types_available": [
                    {
                        "count": 5,
                        "vehicle_type_id": "4"
                    },
                    {
                        "count": 0,
                        "vehicle_type_id": "7"
                    },
                    {
                        "count": 0,
                        "vehicle_type_id": "1"
                    },
                    {
                        "count": 0,
                        "vehicle_type_id": "2"
                    }
                ]
            },
            "type": "Feature"
        },
        {
            "geometry": {
                "coordinates": [
                    5.76947,
                    49.51301
                ],
                "type": "Point"
            },
            "properties": {
                "capacity": 10,
                "is_charging_station": false,
                "is_installed": true,
                "is_renting": false,
                "is_returning": false,
                "is_valet_station": false,
                "is_virtual_station": true,
                "last_reported": 1790213822,
                "name": "Longwy",
                "num_bikes_available": 0,
                "num_docks_available": 0,
                "rental_uris": {},
                "station_id": "st_d34n076mbtds73f5vc0g",
                "vehicle_types_available": [
                    {
                        "count": 0,
                        "vehicle_type_id": "7"
                    },
                    {
                        "count": 0,
                        "vehicle_type_id": "2"
                    },
                    {
                        "count": 0,
                        "vehicle_type_id": "1"
                    },
                    {
                        "count": 0,
                        "vehicle_type_id": "4"
                    }
                ]
            },
            "type": "Feature"
        },
        {
            "geometry": {
                "coordinates": [
                    6.49764,
                    48.58825
                ],
                "type": "Point"
            },
            "properties": {
                "capacity": 10,
                "is_charging_station": true,
                "is_installed": true,
                "is_renting": true,
                "is_returning": true,
                "is_valet_station": false,
                "is_virtual_station": false,
                "last_reported": 1790213822,
                "name": "Lun\u00e9ville",
                "num_bikes_available": 10,
                "num_docks_available": 0,
                "rental_uris": {},
                "station_id": "st_d34n07embtds7381rb3g",
                "vehicle_types_available": [
                    {
                        "count": 0,
                        "vehicle_type_id": "1"
                    },
                    {
                        "count": 10,
                        "vehicle_type_id": "4"
                    },
                    {
                        "count": 0,
                        "vehicle_type_id": "7"
                    },
                    {
                        "count": 0,
                        "vehicle_type_id": "2"
                    }
                ]
            },
            "type": "Feature"
        },
        {
            "geometry": {
                "coordinates": [
                    6.175339,
                    49.108926
                ],
                "type": "Point"
            },
            "properties": {
                "capacity": 20,
                "is_charging_station": false,
                "is_installed": true,
                "is_renting": true,
                "is_returning": true,
                "is_valet_station": false,
                "is_virtual_station": false,
                "last_reported": 1790213822,
                "name": "Metz",
                "num_bikes_available": 18,
                "num_docks_available": 2,
                "rental_uris": {},
                "station_id": "st_d34n07embtds73f5vc40",
                "vehicle_types_available": [
                    {
                        "count": 0,
                        "vehicle_type_id": "7"
                    },
                    {
                        "count": 0,
                        "vehicle_type_id": "2"
                    },
                    {
                        "count": 0,
                        "vehicle_type_id": "1"
                    },
                    {
                        "count": 18,
                        "vehicle_type_id": "4"
                    }
                ]
            },
            "type": "Feature"
        },
        {
            "geometry": {
                "coordinates": [
                    7.34287,
                    47.74243
                ],
                "type": "Point"
            },
            "properties": {
                "capacity": 15,
                "is_charging_station": false,
                "is_installed": true,
                "is_renting": false,
                "is_returning": false,
                "is_valet_station": false,
                "is_virtual_station": true,
                "last_reported": 1790213822,
                "name": "Mulhouse",
                "num_bikes_available": 0,
                "num_docks_available": 0,
                "rental_uris": {},
                "station_id": "st_d34n07umbtds7381rb90",
                "vehicle_types_available": [
                    {
                        "count": 0,
                        "vehicle_type_id": "1"
                    },
                    {
                        "count": 0,
                        "vehicle_type_id": "4"
                    },
                    {
                        "count": 0,
                        "vehicle_type_id": "7"
                    },
                    {
                        "count": 0,
                        "vehicle_type_id": "2"
                    }
                ]
            },
            "type": "Feature"
        },
        {
            "geometry": {
                "coordinates": [
                    7.4569,
                    48.40367
                ],
                "type": "Point"
            },
            "properties": {
                "capacity": 5,
                "is_charging_station": true,
                "is_installed": true,
                "is_renting": true,
                "is_returning": true,
                "is_valet_station": false,
                "is_virtual_station": false,
                "last_reported": 1790213822,
                "name": "Barr",
                "num_bikes_available": 2,
                "num_docks_available": 3,
                "rental_uris": {},
                "station_id": "st_d34n07umbtds73f5vc7g",
                "vehicle_types_available": [
                    {
                        "count": 2,
                        "vehicle_type_id": "4"
                    },
                    {
                        "count": 0,
                        "vehicle_type_id": "1"
                    },
                    {
                        "count": 0,
                        "vehicle_type_id": "7"
                    },
                    {
                        "count": 0,
                        "vehicle_type_id": "2"
                    }
                ]
            },
            "type": "Feature"
        },
        {
            "geometry": {
                "coordinates": [
                    7.58407,
                    48.37345
                ],
                "type": "Point"
            },
            "properties": {
                "capacity": 10,
                "is_charging_station": true,
                "is_installed": true,
                "is_renting": true,
                "is_returning": true,
                "is_valet_station": false,
                "is_virtual_station": false,
                "last_reported": 1790213822,
                "name": "Benfeld",
                "num_bikes_available": 7,
                "num_docks_available": 3,
                "rental_uris": {},
                "station_id": "st_d34n086mbtds7381rbdg",
                "vehicle_types_available": [
                    {
                        "count": 0,
                        "vehicle_type_id": "2"
                    },
                    {
                        "count": 0,
                        "vehicle_type_id": "1"
                    },
                    {
                        "count": 7,
                        "vehicle_type_id": "4"
                    },
                    {
                        "count": 0,
                        "vehicle_type_id": "7"
                    }
                ]
            },
            "type": "Feature"
        },
        {
            "geometry": {
                "coordinates": [
                    7.48873,
                    48.46191
                ],
                "type": "Point"
            },
            "properties": {
                "capacity": 10,
                "is_charging_station": true,
                "is_installed": true,
                "is_renting": true,
                "is_returning": true,
                "is_valet_station": false,
                "is_virtual_station": false,
                "last_reported": 1790213822,
                "name": "Obernai",
                "num_bikes_available": 9,
                "num_docks_available": 1,
                "rental_uris": {},
                "station_id": "st_d34n086mbtds7381rbf0",
                "vehicle_types_available": [
                    {
                        "count": 9,
                        "vehicle_type_id": "4"
                    },
                    {
                        "count": 0,
                        "vehicle_type_id": "7"
                    },
                    {
                        "count": 0,
                        "vehicle_type_id": "2"
                    },
                    {
                        "count": 0,
                        "vehicle_type_id": "1"
                    }
                ]
            },
            "type": "Feature"
        },
        {
            "geometry": {
                "coordinates": [
                    4.93042,
                    49.69528
                ],
                "type": "Point"
            },
            "properties": {
                "capacity": 5,
                "is_charging_station": true,
                "is_installed": true,
                "is_renting": true,
                "is_returning": true,
                "is_valet_station": false,
                "is_virtual_station": false,
                "last_reported": 1790213822,
                "name": "Sedan",
                "num_bikes_available": 3,
                "num_docks_available": 2,
                "rental_uris": {},
                "station_id": "st_d34n086mbtds7381rbig",
                "vehicle_types_available": [
                    {
                        "count": 0,
                        "vehicle_type_id": "7"
                    },
                    {
                        "count": 0,
                        "vehicle_type_id": "2"
                    },
                    {
                        "count": 0,
                        "vehicle_type_id": "1"
                    },
                    {
                        "count": 3,
                        "vehicle_type_id": "4"
                    }
                ]
            },
            "type": "Feature"
        },
        {
            "geometry": {
                "coordinates": [
                    7.13453,
                    48.03822
                ],
                "type": "Point"
            },
            "properties": {
                "capacity": 5,
                "is_charging_station": true,
                "is_installed": true,
                "is_renting": true,
                "is_returning": true,
                "is_valet_station": false,
                "is_virtual_station": false,
                "last_reported": 1790213822,
                "name": "Munster",
                "num_bikes_available": 3,
                "num_docks_available": 2,
                "rental_uris": {},
                "station_id": "st_d34n086mbtds73f5vcc0",
                "vehicle_types_available": [
                    {
                        "count": 3,
                        "vehicle_type_id": "4"
                    },
                    {
                        "count": 0,
                        "vehicle_type_id": "7"
                    },
                    {
                        "count": 0,
                        "vehicle_type_id": "2"
                    },
                    {
                        "count": 0,
                        "vehicle_type_id": "1"
                    }
                ]
            },
            "type": "Feature"
        },
        {
            "geometry": {
                "coordinates": [
                    6.17505,
                    48.689376
                ],
                "type": "Point"
            },
            "properties": {
                "capacity": 20,
                "is_charging_station": true,
                "is_installed": true,
                "is_renting": true,
                "is_returning": true,
                "is_valet_station": false,
                "is_virtual_station": false,
                "last_reported": 1790213822,
                "name": "Nancy",
                "num_bikes_available": 17,
                "num_docks_available": 3,
                "rental_uris": {},
                "station_id": "st_d34n086mbtds73f5vceg",
                "vehicle_types_available": [
                    {
                        "count": 17,
                        "vehicle_type_id": "4"
                    },
                    {
                        "count": 0,
                        "vehicle_type_id": "7"
                    },
                    {
                        "count": 0,
                        "vehicle_type_id": "2"
                    },
                    {
                        "count": 0,
                        "vehicle_type_id": "1"
                    }
                ]
            },
            "type": "Feature"
        },
        {
            "geometry": {
                "coordinates": [
                    6.02486,
                    48.98517
                ],
                "type": "Point"
            },
            "properties": {
                "capacity": 5,
                "is_charging_station": true,
                "is_installed": true,
                "is_renting": true,
                "is_returning": true,
                "is_valet_station": false,
                "is_virtual_station": false,
                "last_reported": 1790213822,
                "name": "Pagny-sur-Moselle",
                "num_bikes_available": 5,
                "num_docks_available": 0,
                "rental_uris": {},
                "station_id": "st_d34n086mbtds73f5vcl0",
                "vehicle_types_available": [
                    {
                        "count": 0,
                        "vehicle_type_id": "2"
                    },
                    {
                        "count": 5,
                        "vehicle_type_id": "4"
                    },
                    {
                        "count": 0,
                        "vehicle_type_id": "7"
                    },
                    {
                        "count": 0,
                        "vehicle_type_id": "1"
                    }
                ]
            },
            "type": "Feature"
        },
        {
            "geometry": {
                "coordinates": [
                    6.59925,
                    48.01614
                ],
                "type": "Point"
            },
            "properties": {
                "capacity": 5,
                "is_charging_station": true,
                "is_installed": true,
                "is_renting": true,
                "is_returning": true,
                "is_valet_station": false,
                "is_virtual_station": false,
                "last_reported": 1790213822,
                "name": "Remiremont",
                "num_bikes_available": 5,
                "num_docks_available": 0,
                "rental_uris": {},
                "station_id": "st_d34n08embtds7381rbn0",
                "vehicle_types_available": [
                    {
                        "count": 0,
                        "vehicle_type_id": "7"
                    },
                    {
                        "count": 0,
                        "vehicle_type_id": "2"
                    },
                    {
                        "count": 0,
                        "vehicle_type_id": "1"
                    },
                    {
                        "count": 5,
                        "vehicle_type_id": "4"
                    }
                ]
            },
            "type": "Feature"
        },
        {
            "geometry": {
                "coordinates": [
                    4.642259,
                    49.938827
                ],
                "type": "Point"
            },
            "properties": {
                "capacity": 5,
                "is_charging_station": false,
                "is_installed": true,
                "is_renting": true,
                "is_returning": true,
                "is_valet_station": false,
                "is_virtual_station": false,
                "last_reported": 1790213822,
                "name": "Revin",
                "num_bikes_available": 5,
                "num_docks_available": 0,
                "rental_uris": {},
                "station_id": "st_d34n08embtds7381rbqg",
                "vehicle_types_available": [
                    {
                        "count": 5,
                        "vehicle_type_id": "4"
                    },
                    {
                        "count": 0,
                        "vehicle_type_id": "1"
                    },
                    {
                        "count": 0,
                        "vehicle_type_id": "7"
                    },
                    {
                        "count": 0,
                        "vehicle_type_id": "2"
                    }
                ]
            },
            "type": "Feature"
        },
        {
            "geometry": {
                "coordinates": [
                    3.49364,
                    48.49758
                ],
                "type": "Point"
            },
            "properties": {
                "capacity": 5,
                "is_charging_station": true,
                "is_installed": true,
                "is_renting": true,
                "is_returning": true,
                "is_valet_station": false,
                "is_virtual_station": false,
                "last_reported": 1790213822,
                "name": "Nogent-sur-Seine",
                "num_bikes_available": 5,
                "num_docks_available": 0,
                "rental_uris": {},
                "station_id": "st_d34n08embtds7381rbv0",
                "vehicle_types_available": [
                    {
                        "count": 5,
                        "vehicle_type_id": "4"
                    },
                    {
                        "count": 0,
                        "vehicle_type_id": "1"
                    },
                    {
                        "count": 0,
                        "vehicle_type_id": "7"
                    },
                    {
                        "count": 0,
                        "vehicle_type_id": "2"
                    }
                ]
            },
            "type": "Feature"
        },
        {
            "geometry": {
                "coordinates": [
                    4.024222,
                    49.258519
                ],
                "type": "Point"
            },
            "properties": {
                "capacity": 15,
                "is_charging_station": false,
                "is_installed": true,
                "is_renting": true,
                "is_returning": true,
                "is_valet_station": false,
                "is_virtual_station": false,
                "last_reported": 1790213822,
                "name": "Reims",
                "num_bikes_available": 13,
                "num_docks_available": 1,
                "rental_uris": {},
                "station_id": "st_d34n08embtds73f5vcog",
                "vehicle_types_available": [
                    {
                        "count": 13,
                        "vehicle_type_id": "4"
                    },
                    {
                        "count": 0,
                        "vehicle_type_id": "7"
                    },
                    {
                        "count": 0,
                        "vehicle_type_id": "2"
                    },
                    {
                        "count": 0,
                        "vehicle_type_id": "1"
                    }
                ]
            },
            "type": "Feature"
        },
        {
            "geometry": {
                "coordinates": [
                    4.36972,
                    49.50458
                ],
                "type": "Point"
            },
            "properties": {
                "capacity": 5,
                "is_charging_station": true,
                "is_installed": true,
                "is_renting": true,
                "is_returning": true,
                "is_valet_station": false,
                "is_virtual_station": false,
                "last_reported": 1790213822,
                "name": "Rethel",
                "num_bikes_available": 5,
                "num_docks_available": 0,
                "rental_uris": {},
                "station_id": "st_d34n08embtds73f5vct0",
                "vehicle_types_available": [
                    {
                        "count": 5,
                        "vehicle_type_id": "4"
                    },
                    {
                        "count": 0,
                        "vehicle_type_id": "7"
                    },
                    {
                        "count": 0,
                        "vehicle_type_id": "2"
                    },
                    {
                        "count": 0,
                        "vehicle_type_id": "1"
                    }
                ]
            },
            "type": "Feature"
        },
        {
            "geometry": {
                "coordinates": [
                    7.50064,
                    48.53728
                ],
                "type": "Point"
            },
            "properties": {
                "capacity": 10,
                "is_charging_station": false,
                "is_installed": true,
                "is_renting": false,
                "is_returning": false,
                "is_valet_station": false,
                "is_virtual_station": true,
                "last_reported": 1790213822,
                "name": "Molsheim",
                "num_bikes_available": 0,
                "num_docks_available": 0,
                "rental_uris": {},
                "station_id": "st_d34n08embtds73f5vd0g",
                "vehicle_types_available": [
                    {
                        "count": 0,
                        "vehicle_type_id": "1"
                    },
                    {
                        "count": 0,
                        "vehicle_type_id": "4"
                    },
                    {
                        "count": 0,
                        "vehicle_type_id": "7"
                    },
                    {
                        "count": 0,
                        "vehicle_type_id": "2"
                    }
                ]
            },
            "type": "Feature"
        },
        {
            "geometry": {
                "coordinates": [
                    7.05297,
                    48.738
                ],
                "type": "Point"
            },
            "properties": {
                "capacity": 10,
                "is_charging_station": true,
                "is_installed": true,
                "is_renting": true,
                "is_returning": true,
                "is_valet_station": false,
                "is_virtual_station": false,
                "last_reported": 1790213822,
                "name": "Sarrebourg",
                "num_bikes_available": 10,
                "num_docks_available": 0,
                "rental_uris": {},
                "station_id": "st_d34n08embtds73f5vd20",
                "vehicle_types_available": [
                    {
                        "count": 10,
                        "vehicle_type_id": "4"
                    },
                    {
                        "count": 0,
                        "vehicle_type_id": "2"
                    },
                    {
                        "count": 0,
                        "vehicle_type_id": "1"
                    },
                    {
                        "count": 0,
                        "vehicle_type_id": "7"
                    }
                ]
            },
            "type": "Feature"
        },
        {
            "geometry": {
                "coordinates": [
                    5.13478,
                    48.110102
                ],
                "type": "Point"
            },
            "properties": {
                "capacity": 5,
                "is_charging_station": false,
                "is_installed": true,
                "is_renting": true,
                "is_returning": true,
                "is_valet_station": false,
                "is_virtual_station": false,
                "last_reported": 1790213822,
                "name": "Chaumont",
                "num_bikes_available": 5,
                "num_docks_available": 0,
                "rental_uris": {},
                "station_id": "st_d34n08mmbtds7381rc2g",
                "vehicle_types_available": [
                    {
                        "count": 5,
                        "vehicle_type_id": "4"
                    },
                    {
                        "count": 0,
                        "vehicle_type_id": "7"
                    },
                    {
                        "count": 0,
                        "vehicle_type_id": "2"
                    },
                    {
                        "count": 0,
                        "vehicle_type_id": "1"
                    }
                ]
            },
            "type": "Feature"
        },
        {
            "geometry": {
                "coordinates": [
                    6.05139,
                    48.90033
                ],
                "type": "Point"
            },
            "properties": {
                "capacity": 10,
                "is_charging_station": true,
                "is_installed": true,
                "is_renting": true,
                "is_returning": true,
                "is_valet_station": false,
                "is_virtual_station": false,
                "last_reported": 1790213822,
                "name": "Pont-\u00e0-Mousson",
                "num_bikes_available": 10,
                "num_docks_available": 0,
                "rental_uris": {},
                "station_id": "st_d34n08mmbtds7381rc60",
                "vehicle_types_available": [
                    {
                        "count": 0,
                        "vehicle_type_id": "1"
                    },
                    {
                        "count": 0,
                        "vehicle_type_id": "2"
                    },
                    {
                        "count": 0,
                        "vehicle_type_id": "7"
                    },
                    {
                        "count": 10,
                        "vehicle_type_id": "4"
                    }
                ]
            },
            "type": "Feature"
        },
        {
            "geometry": {
                "coordinates": [
                    7.55608,
                    47.59056
                ],
                "type": "Point"
            },
            "properties": {
                "capacity": 10,
                "is_charging_station": true,
                "is_installed": true,
                "is_renting": true,
                "is_returning": true,
                "is_valet_station": false,
                "is_virtual_station": false,
                "last_reported": 1790213822,
                "name": "Saint-Louis",
                "num_bikes_available": 5,
                "num_docks_available": 5,
                "rental_uris": {},
                "station_id": "st_d34n08mmbtds73f5vd7g",
                "vehicle_types_available": [
                    {
                        "count": 0,
                        "vehicle_type_id": "2"
                    },
                    {
                        "count": 0,
                        "vehicle_type_id": "1"
                    },
                    {
                        "count": 5,
                        "vehicle_type_id": "4"
                    },
                    {
                        "count": 0,
                        "vehicle_type_id": "7"
                    }
                ]
            },
            "type": "Feature"
        },
        {
            "geometry": {
                "coordinates": [
                    7.06894,
                    49.10686
                ],
                "type": "Point"
            },
            "properties": {
                "capacity": 10,
                "is_charging_station": true,
                "is_installed": true,
                "is_renting": true,
                "is_returning": true,
                "is_valet_station": false,
                "is_virtual_station": false,
                "last_reported": 1790213822,
                "name": "Sarreguemines",
                "num_bikes_available": 9,
                "num_docks_available": 1,
                "rental_uris": {},
                "station_id": "st_d34n08mmbtds73f5vd90",
                "vehicle_types_available": [
                    {
                        "count": 9,
                        "vehicle_type_id": "4"
                    },
                    {
                        "count": 0,
                        "vehicle_type_id": "7"
                    },
                    {
                        "count": 0,
                        "vehicle_type_id": "2"
                    },
                    {
                        "count": 0,
                        "vehicle_type_id": "1"
                    }
                ]
            },
            "type": "Feature"
        },
        {
            "geometry": {
                "coordinates": [
                    7.36161,
                    48.74439
                ],
                "type": "Point"
            },
            "properties": {
                "capacity": 10,
                "is_charging_station": false,
                "is_installed": true,
                "is_renting": false,
                "is_returning": false,
                "is_valet_station": false,
                "is_virtual_station": true,
                "last_reported": 1790213822,
                "name": "Saverne",
                "num_bikes_available": 0,
                "num_docks_available": 0,
                "rental_uris": {},
                "station_id": "st_d34n08mmbtds73f5vdcg",
                "vehicle_types_available": [
                    {
                        "count": 0,
                        "vehicle_type_id": "7"
                    },
                    {
                        "count": 0,
                        "vehicle_type_id": "2"
                    },
                    {
                        "count": 0,
                        "vehicle_type_id": "4"
                    },
                    {
                        "count": 0,
                        "vehicle_type_id": "1"
                    }
                ]
            },
            "type": "Feature"
        },
        {
            "geometry": {
                "coordinates": [
                    3.72944,
                    48.51436
                ],
                "type": "Point"
            },
            "properties": {
                "capacity": 5,
                "is_charging_station": true,
                "is_installed": true,
                "is_renting": true,
                "is_returning": true,
                "is_valet_station": false,
                "is_virtual_station": false,
                "last_reported": 1790213822,
                "name": "Romilly-sur-Seine",
                "num_bikes_available": 5,
                "num_docks_available": 0,
                "rental_uris": {},
                "station_id": "st_d34n08umbtds7381rc8g",
                "vehicle_types_available": [
                    {
                        "count": 0,
                        "vehicle_type_id": "2"
                    },
                    {
                        "count": 0,
                        "vehicle_type_id": "7"
                    },
                    {
                        "count": 5,
                        "vehicle_type_id": "4"
                    },
                    {
                        "count": 0,
                        "vehicle_type_id": "1"
                    }
                ]
            },
            "type": "Feature"
        },
        {
            "geometry": {
                "coordinates": [
                    5.37962,
                    49.1655
                ],
                "type": "Point"
            },
            "properties": {
                "capacity": 5,
                "is_charging_station": false,
                "is_installed": true,
                "is_renting": false,
                "is_returning": false,
                "is_valet_station": false,
                "is_virtual_station": true,
                "last_reported": 1790213822,
                "name": "Verdun",
                "num_bikes_available": 0,
                "num_docks_available": 0,
                "rental_uris": {},
                "station_id": "st_d34n08umbtds73f5vdi0",
                "vehicle_types_available": [
                    {
                        "count": 0,
                        "vehicle_type_id": "2"
                    },
                    {
                        "count": 0,
                        "vehicle_type_id": "7"
                    },
                    {
                        "count": 0,
                        "vehicle_type_id": "1"
                    },
                    {
                        "count": 0,
                        "vehicle_type_id": "4"
                    }
                ]
            },
            "type": "Feature"
        },
        {
            "geometry": {
                "coordinates": [
                    7.88274,
                    48.93469
                ],
                "type": "Point"
            },
            "properties": {
                "capacity": 5,
                "is_charging_station": true,
                "is_installed": true,
                "is_renting": true,
                "is_returning": true,
                "is_valet_station": false,
                "is_virtual_station": false,
                "last_reported": 1790213822,
                "name": "Soultz-sous-For\u00eats",
                "num_bikes_available": 5,
                "num_docks_available": 0,
                "rental_uris": {},
                "station_id": "st_d34n08umbtds73f5vdjg",
                "vehicle_types_available": [
                    {
                        "count": 0,
                        "vehicle_type_id": "2"
                    },
                    {
                        "count": 5,
                        "vehicle_type_id": "4"
                    },
                    {
                        "count": 0,
                        "vehicle_type_id": "7"
                    },
                    {
                        "count": 0,
                        "vehicle_type_id": "1"
                    }
                ]
            },
            "type": "Feature"
        },
        {
            "geometry": {
                "coordinates": [
                    6.94861,
                    48.28199
                ],
                "type": "Point"
            },
            "properties": {
                "capacity": 10,
                "is_charging_station": false,
                "is_installed": true,
                "is_renting": false,
                "is_returning": false,
                "is_valet_station": false,
                "is_virtual_station": true,
                "last_reported": 1790213822,
                "name": "Saint-Di\u00e9-des-Vosges",
                "num_bikes_available": 0,
                "num_docks_available": 0,
                "rental_uris": {},
                "station_id": "st_d34n08umbtds73f5vdl0",
                "vehicle_types_available": [
                    {
                        "count": 0,
                        "vehicle_type_id": "4"
                    },
                    {
                        "count": 0,
                        "vehicle_type_id": "7"
                    },
                    {
                        "count": 0,
                        "vehicle_type_id": "1"
                    },
                    {
                        "count": 0,
                        "vehicle_type_id": "2"
                    }
                ]
            },
            "type": "Feature"
        },
        {
            "geometry": {
                "coordinates": [
                    7.21619,
                    48.47994
                ],
                "type": "Point"
            },
            "properties": {
                "capacity": 5,
                "is_charging_station": true,
                "is_installed": true,
                "is_renting": true,
                "is_returning": true,
                "is_valet_station": false,
                "is_virtual_station": false,
                "last_reported": 1790213822,
                "name": "Schirmeck - La Broque",
                "num_bikes_available": 4,
                "num_docks_available": 1,
                "rental_uris": {},
                "station_id": "st_d34n08umbtds73f5vdng",
                "vehicle_types_available": [
                    {
                        "count": 4,
                        "vehicle_type_id": "4"
                    },
                    {
                        "count": 0,
                        "vehicle_type_id": "1"
                    },
                    {
                        "count": 0,
                        "vehicle_type_id": "7"
                    },
                    {
                        "count": 0,
                        "vehicle_type_id": "2"
                    }
                ]
            },
            "type": "Feature"
        },
        {
            "geometry": {
                "coordinates": [
                    6.169099,
                    49.354067
                ],
                "type": "Point"
            },
            "properties": {
                "capacity": 15,
                "is_charging_station": true,
                "is_installed": true,
                "is_renting": true,
                "is_returning": true,
                "is_valet_station": false,
                "is_virtual_station": false,
                "last_reported": 1790213822,
                "name": "Thionville",
                "num_bikes_available": 8,
                "num_docks_available": 7,
                "rental_uris": {},
                "station_id": "st_d34n09embtds73f5vdp0",
                "vehicle_types_available": [
                    {
                        "count": 0,
                        "vehicle_type_id": "2"
                    },
                    {
                        "count": 8,
                        "vehicle_type_id": "4"
                    },
                    {
                        "count": 0,
                        "vehicle_type_id": "1"
                    },
                    {
                        "count": 0,
                        "vehicle_type_id": "7"
                    }
                ]
            },
            "type": "Feature"
        },
        {
            "geometry": {
                "coordinates": [
                    4.06544,
                    48.29581
                ],
                "type": "Point"
            },
            "properties": {
                "capacity": 10,
                "is_charging_station": false,
                "is_installed": true,
                "is_renting": false,
                "is_returning": false,
                "is_valet_station": false,
                "is_virtual_station": true,
                "last_reported": 1790213822,
                "name": "Troyes",
                "num_bikes_available": 0,
                "num_docks_available": 0,
                "rental_uris": {},
                "station_id": "st_d34n09mmbtds73f5vdsg",
                "vehicle_types_available": [
                    {
                        "count": 0,
                        "vehicle_type_id": "2"
                    },
                    {
                        "count": 0,
                        "vehicle_type_id": "4"
                    },
                    {
                        "count": 0,
                        "vehicle_type_id": "7"
                    },
                    {
                        "count": 0,
                        "vehicle_type_id": "1"
                    }
                ]
            },
            "type": "Feature"
        },
        {
            "geometry": {
                "coordinates": [
                    7.94977,
                    49.03209
                ],
                "type": "Point"
            },
            "properties": {
                "capacity": 5,
                "is_charging_station": true,
                "is_installed": true,
                "is_renting": true,
                "is_returning": true,
                "is_valet_station": false,
                "is_virtual_station": false,
                "last_reported": 1790213822,
                "name": "Wissembourg",
                "num_bikes_available": 3,
                "num_docks_available": 2,
                "rental_uris": {},
                "station_id": "st_d34n09umbtds73f5vdv0",
                "vehicle_types_available": [
                    {
                        "count": 3,
                        "vehicle_type_id": "4"
                    },
                    {
                        "count": 0,
                        "vehicle_type_id": "1"
                    },
                    {
                        "count": 0,
                        "vehicle_type_id": "7"
                    },
                    {
                        "count": 0,
                        "vehicle_type_id": "2"
                    }
                ]
            },
            "type": "Feature"
        },
        {
            "geometry": {
                "coordinates": [
                    4.94857,
                    48.64214
                ],
                "type": "Point"
            },
            "properties": {
                "capacity": 10,
                "is_charging_station": true,
                "is_installed": true,
                "is_renting": true,
                "is_returning": true,
                "is_valet_station": false,
                "is_virtual_station": false,
                "last_reported": 1790213822,
                "name": "Saint-Dizier",
                "num_bikes_available": 10,
                "num_docks_available": 0,
                "rental_uris": {},
                "station_id": "st_d34n0aembtds73f5ve0g",
                "vehicle_types_available": [
                    {
                        "count": 0,
                        "vehicle_type_id": "1"
                    },
                    {
                        "count": 0,
                        "vehicle_type_id": "7"
                    },
                    {
                        "count": 0,
                        "vehicle_type_id": "2"
                    },
                    {
                        "count": 10,
                        "vehicle_type_id": "4"
                    }
                ]
            },
            "type": "Feature"
        }
    ],
    "gbfs": {
        "station_information": {
            "last_updated": 1790213822,
            "ttl": 60,
            "version": "2.2"
        },
        "station_status": {
            "last_updated": 1790213822,
            "ttl": 60,
            "version": "2.2"
        }
    },
    "type": "FeatureCollection"
}