{
    "features": [
        {
            "geometry": {
                "coordinates": [
                    8.660046,
                    50.574348
                ],
                "type": "Point"
            },
            "properties": {
                "capacity": 7,
                "is_installed": true,
                "is_renting": true,
                "is_returning": true,
                "is_virtual_station": false,
                "last_reported": 1789286503,
                "name": "JLU Seltersberg / Veterin\u00e4rmedizin",
                "num_bikes_available": 1,
                "num_docks_available": 6,
                "region_id": "467",
                "rental_uris": {
                    "android": "https://app.nextbike.net/station?id=10095597",
                    "ios": "https://app.nextbike.net/station?id=10095597",
                    "web": "https://nxtb.it/p/10095597"
                },
                "short_name": "4925",
                "station_id": "10095597",
                "vehicle_types_available": [
                    {
                        "count": 1,
                        "vehicle_type_id": "431"
                    }
                ]
            },
            "type": "Feature"
        },
        {
            "geometry": {
                "coordinates": [
                    8.67848,
                    50.579946
                ],
                "type": "Point"
            },
            "properties": {
                "capacity": 40,
                "is_installed": true,
                "is_renting": true,
                "is_returning": true,
                "is_virtual_station": false,
                "last_reported": 1789286503,
                "name": "JLU Innenstadt / Universit\u00e4tszentrum CARGO",
                "num_bikes_available": 16,
                "num_docks_available": 23,
                "region_id": "467",
                "rental_uris": {
                    "android": "https://app.nextbike.net/station?id=11792717",
                    "ios": "https://app.nextbike.net/station?id=11792717",
                    "web": "https://nxtb.it/p/11792717"
                },
                "short_name": "4926",
                "station_id": "11792717",
                "vehicle_types_available": [
                    {
                        "count": 14,
                        "vehicle_type_id": "196"
                    },
                    {
                        "count": 2,
                        "vehicle_type_id": "431"
                    }
                ]
            },
            "type": "Feature"
        },
        {
            "geometry": {
                "coordinates": [
                    8.6798,
                    50.58431
                ],
                "type": "Point"
            },
            "properties": {
                "capacity": 30,
                "is_installed": true,
                "is_renting": true,
                "is_returning": true,
                "is_virtual_station": false,
                "last_reported": 1789286503,
                "name": "Rathaus / Berliner Platz",
                "num_bikes_available": 17,
                "num_docks_available": 12,
                "region_id": "467",
                "rental_uris": {
                    "android": "https://app.nextbike.net/station?id=18602464",
                    "ios": "https://app.nextbike.net/station?id=18602464",
                    "web": "https://nxtb.it/p/18602464"
                },
                "short_name": "4927",
                "station_id": "18602464",
                "vehicle_types_available": [
                    {
                        "count": 14,
                        "vehicle_type_id": "196"
                    },
                    {
                        "count": 3,
                        "vehicle_type_id": "431"
                    }
                ]
            },
            "type": "Feature"
        },
        {
            "geometry": {
                "coordinates": [
                    8.668395,
                    50.587726
                ],
                "type": "Point"
            },
            "properties": {
                "capacity": 20,
                "is_installed": true,
                "is_renting": true,
                "is_returning": true,
                "is_virtual_station": false,
                "last_reported": 1789286503,
                "name": "Bahnhof Oswaldsgarten",
                "num_bikes_available": 12,
                "num_docks_available": 8,
                "region_id": "467",
                "rental_uris": {
                    "android": "https://app.nextbike.net/station?id=18605055",
                    "ios": "https://app.nextbike.net/station?id=18605055",
                    "web": "https://nxtb.it/p/18605055"
                },
                "short_name": "4928",
                "station_id": "18605055",
                "vehicle_types_available": [
                    {
                        "count": 9,
                        "vehicle_type_id": "196"
                    },
                    {
                        "count": 3,
                        "vehicle_type_id": "431"
                    }
                ]
            },
            "type": "Feature"
        },
        {
            "geometry": {
                "coordinates": [
                    8.672911,
                    50.588952
                ],
                "type": "Point"
            },
            "properties": {
                "capacity": 10,
                "is_installed": true,
                "is_renting": true,
                "is_returning": true,
                "is_virtual_station": false,
                "last_reported": 1789286503,
                "name": "Dammstra\u00dfe / Nordanlage CARGO",
                "num_bikes_available": 8,
                "num_docks_available": 1,
                "region_id": "467",
                "rental_uris": {
                    "android": "https://app.nextbike.net/station?id=199524500",
                    "ios": "https://app.nextbike.net/station?id=199524500",
                    "web": "https://nxtb.it/p/199524500"
                },
                "short_name": "4953",
                "station_id": "199524500",
                "vehicle_types_available": [
                    {
                        "count": 6,
                        "vehicle_type_id": "196"
                    },
                    {
                        "count": 2,
                        "vehicle_type_id": "431"
                    }
                ]
            },
            "type": "Feature"
        },
        {
            "geometry": {
                "coordinates": [
                    8.673988,
                    50.582722
                ],
                "type": "Point"
            },
            "properties": {
                "capacity": 25,
                "is_installed": true,
                "is_renting": true,
                "is_returning": true,
                "is_virtual_station": false,
                "last_reported": 1789286503,
                "name": "Johanneskirche CARGO",
                "num_bikes_available": 2,
                "num_docks_available": 23,
                "region_id": "467",
                "rental_uris": {
                    "android": "https://app.nextbike.net/station?id=22249045",
                    "ios": "https://app.nextbike.net/station?id=22249045",
                    "web": "https://nxtb.it/p/22249045"
                },
                "short_name": "4922",
                "station_id": "22249045",
                "vehicle_types_available": [
                    {
                        "count": 1,
                        "vehicle_type_id": "196"
                    },
                    {
                        "count": 1,
                        "vehicle_type_id": "431"
                    }
                ]
            },
            "type": "Feature"
        },
        {
            "geometry": {
                "coordinates": [
                    8.687189,
                    50.565264
                ],
                "type": "Point"
            },
            "properties": {
                "capacity": 10,
                "is_installed": true,
                "is_renting": true,
                "is_returning": true,
                "is_virtual_station": true,
                "last_reported": 1789286503,
                "name": "Day Night Sports",
                "num_bikes_available": 1,
                "num_docks_available": 9,
                "region_id": "467",
                "rental_uris": {
                    "android": "https://app.nextbike.net/station?id=31067477",
                    "ios": "https://app.nextbike.net/station?id=31067477",
                    "web": "https://nxtb.it/p/31067477"
                },
                "short_name": "4944",
                "station_area": {
                    "coordinates": [
                        [
                            [
                                [
                                    8.687189,
                                    50.565489
                                ],
                                [
                                    8.687495,
                                    50.565376
                                ],
                                [
                                    8.687495,
                                    50.565152
                                ],
                                [
                                    8.687189,
                                    50.565039
                                ],
                                [
                                    8.686883,
                                    50.565152
                                ],
                                [
                                    8.686883,
                                    50.565376
                                ],
                                [
                                    8.687189,
                                    50.565489
                                ]
                            ]
                        ]
                    ],
                    "type": "MultiPolygon"
                },
                "station_id": "31067477",
                "vehicle_types_available": [
                    {
                        "count": 1,
                        "vehicle_type_id": "196"
                    }
                ]
            },
            "type": "Feature"
        },
        {
            "geometry": {
                "coordinates": [
                    8.70932,
                    50.575709
                ],
                "type": "Point"
            },
            "properties": {
                "capacity": 10,
                "is_installed": true,
                "is_renting": true,
                "is_returning": true,
                "is_virtual_station": false,
                "last_reported": 1789286503,
                "name": "Landkreis Gie\u00dfen / Riversplatz",
                "num_bikes_available": 3,
                "num_docks_available": 6,
                "region_id": "467",
                "rental_uris": {
                    "android": "https://app.nextbike.net/station?id=31067717",
                    "ios": "https://app.nextbike.net/station?id=31067717",
                    "web": "https://nxtb.it/p/31067717"
                },
                "short_name": "4947",
                "station_id": "31067717",
                "vehicle_types_available": [
                    {
                        "count": 3,
                        "vehicle_type_id": "196"
                    }
                ]
            },
            "type": "Feature"
        },
        {
            "geometry": {
                "coordinates": [
                    8.682867,
                    50.572309
                ],
                "type": "Point"
            },
            "properties": {
                "capacity": 15,
                "is_installed": true,
                "is_renting": true,
                "is_returning": true,
                "is_virtual_station": false,
                "last_reported": 1789286503,
                "name": "Bahnhaltepunkt Erdkauter Weg",
                "num_bikes_available": 0,
                "num_docks_available": 15,
                "region_id": "467",
                "rental_uris": {
                    "android": "https://app.nextbike.net/station?id=31068744",
                    "ios": "https://app.nextbike.net/station?id=31068744",
                    "web": "https://nxtb.it/p/31068744"
                },
                "short_name": "4945",
                "station_id": "31068744",
                "vehicle_types_available": []
            },
            "type": "Feature"
        },
        {
            "geometry": {
                "coordinates": [
                    8.696279,
                    50.581435
                ],
                "type": "Point"
            },
            "properties": {
                "capacity": 7,
                "is_installed": true,
                "is_renting": true,
                "is_returning": true,
                "is_virtual_station": false,
                "last_reported": 1789286503,
                "name": "Bahnhaltepunkt Licher Stra\u00dfe",
                "num_bikes_available": 0,
                "num_docks_available": 7,
                "region_id": "467",
                "rental_uris": {
                    "android": "https://app.nextbike.net/station?id=31069103",
                    "ios": "https://app.nextbike.net/station?id=31069103",
                    "web": "https://nxtb.it/p/31069103"
                },
                "short_name": "4946",
                "station_id": "31069103",
                "vehicle_types_available": []
            },
            "type": "Feature"
        },
        {
            "geometry": {
                "coordinates": [
                    8.664509,
                    50.578991
                ],
                "type": "Point"
            },
            "properties": {
                "capacity": 10,
                "is_installed": true,
                "is_renting": true,
                "is_returning": true,
                "is_virtual_station": false,
                "last_reported": 1789286503,
                "name": "Bahnhof / Alter Wetzlarer Weg CARGO",
                "num_bikes_available": 4,
                "num_docks_available": 6,
                "region_id": "467",
                "rental_uris": {
                    "android": "https://app.nextbike.net/station?id=320948129",
                    "ios": "https://app.nextbike.net/station?id=320948129",
                    "web": "https://nxtb.it/p/320948129"
                },
                "short_name": "4954",
                "station_id": "320948129",
                "vehicle_types_available": [
                    {
                        "count": 3,
                        "vehicle_type_id": "196"
                    },
                    {
                        "count": 1,
                        "vehicle_type_id": "431"
                    }
                ]
            },
            "type": "Feature"
        },
        {
            "geometry": {
                "coordinates": [
                    8.647932,
                    50.568294
                ],
                "type": "Point"
            },
            "properties": {
                "capacity": 10,
                "is_installed": true,
                "is_renting": true,
                "is_returning": true,
                "is_virtual_station": false,
                "last_reported": 1789286503,
                "name": "Landkreis Gie\u00dfen / Bachweg",
                "num_bikes_available": 1,
                "num_docks_available": 9,
                "region_id": "467",
                "rental_uris": {
                    "android": "https://app.nextbike.net/station?id=33395116",
                    "ios": "https://app.nextbike.net/station?id=33395116",
                    "web": "https://nxtb.it/p/33395116"
                },
                "short_name": "4948",
                "station_id": "33395116",
                "vehicle_types_available": [
                    {
                        "count": 1,
                        "vehicle_type_id": "431"
                    }
                ]
            },
            "type": "Feature"
        },
        {
            "geometry": {
                "coordinates": [
                    8.677491,
                    50.588102
                ],
                "type": "Point"
            },
            "properties": {
                "capacity": 20,
                "is_installed": true,
                "is_renting": true,
                "is_returning": true,
                "is_virtual_station": false,
                "last_reported": 1789286503,
                "name": "Landgraf-Philipp-Platz",
                "num_bikes_available": 16,
                "num_docks_available": 4,
                "region_id": "467",
                "rental_uris": {
                    "android": "https://app.nextbike.net/station?id=37022407",
                    "ios": "https://app.nextbike.net/station?id=37022407",
                    "web": "https://nxtb.it/p/37022407"
                },
                "short_name": "4929",
                "station_id": "37022407",
                "vehicle_types_available": [
                    {
                        "count": 10,
                        "vehicle_type_id": "196"
                    },
                    {
                        "count": 6,
                        "vehicle_type_id": "431"
                    }
                ]
            },
            "type": "Feature"
        },
        {
            "geometry": {
                "coordinates": [
                    8.664379,
                    50.581152
                ],
                "type": "Point"
            },
            "properties": {
                "capacity": 20,
                "is_installed": true,
                "is_renting": true,
                "is_returning": true,
                "is_virtual_station": true,
                "last_reported": 1789286503,
                "name": "Bahnhof/ Hinter der neuen Post",
                "num_bikes_available": 4,
                "num_docks_available": 16,
                "region_id": "467",
                "rental_uris": {
                    "android": "https://app.nextbike.net/station?id=373906191",
                    "ios": "https://app.nextbike.net/station?id=373906191",
                    "web": "https://nxtb.it/p/373906191"
                },
                "short_name": "4955",
                "station_area": {
                    "coordinates": [
                        [
                            [
                                [
                                    8.664379,
                                    50.581377
                                ],
                                [
                                    8.664686,
                                    50.581264
                                ],
                                [
                                    8.664686,
                                    50.58104
                                ],
                                [
                                    8.664379,
                                    50.580927
                                ],
                                [
                                    8.664072,
                                    50.58104
                                ],
                                [
                                    8.664072,
                                    50.581264
                                ],
                                [
                                    8.664379,
                                    50.581377
                                ]
                            ]
                        ]
                    ],
                    "type": "MultiPolygon"
                },
                "station_id": "373906191",
                "vehicle_types_available": [
                    {
                        "count": 4,
                        "vehicle_type_id": "196"
                    }
                ]
            },
            "type": "Feature"
        },
        {
            "geometry": {
                "coordinates": [
                    8.67049,
                    50.582076
                ],
                "type": "Point"
            },
            "properties": {
                "capacity": 10,
                "is_installed": true,
                "is_renting": true,
                "is_returning": true,
                "is_virtual_station": false,
                "last_reported": 1789286503,
                "name": "Elefantenklo / Seltersweg",
                "num_bikes_available": 1,
                "num_docks_available": 1,
                "region_id": "467",
                "rental_uris": {
                    "android": "https://app.nextbike.net/station?id=381684271",
                    "ios": "https://app.nextbike.net/station?id=381684271",
                    "web": "https://nxtb.it/p/381684271"
                },
                "short_name": "4956",
                "station_id": "381684271",
                "vehicle_types_available": [
                    {
                        "count": 1,
                        "vehicle_type_id": "196"
                    }
                ]
            },
            "type": "Feature"
        },
        {
            "geometry": {
                "coordinates": [
                    8.671877,
                    50.585137
                ],
                "type": "Point"
            },
            "properties": {
                "capacity": 30,
                "is_installed": true,
                "is_renting": true,
                "is_returning": true,
                "is_virtual_station": false,
                "last_reported": 1789286503,
                "name": "Bahnhofstra\u00dfe",
                "num_bikes_available": 20,
                "num_docks_available": 10,
                "region_id": "467",
                "rental_uris": {
                    "android": "https://app.nextbike.net/station?id=39051609",
                    "ios": "https://app.nextbike.net/station?id=39051609",
                    "web": "https://nxtb.it/p/39051609"
                },
                "short_name": "4949",
                "station_id": "39051609",
                "vehicle_types_available": [
                    {
                        "count": 18,
                        "vehicle_type_id": "196"
                    },
                    {
                        "count": 2,
                        "vehicle_type_id": "431"
                    }
                ]
            },
            "type": "Feature"
        },
        {
            "geometry": {
                "coordinates": [
                    8.662469,
                    50.588971
                ],
                "type": "Point"
            },
            "properties": {
                "capacity": 8,
                "is_installed": true,
                "is_renting": true,
                "is_returning": true,
                "is_virtual_station": false,
                "last_reported": 1789286503,
                "name": "Rodheimer Stra\u00dfe",
                "num_bikes_available": 4,
                "num_docks_available": 4,
                "region_id": "467",
                "rental_uris": {
                    "android": "https://app.nextbike.net/station?id=410303716",
                    "ios": "https://app.nextbike.net/station?id=410303716",
                    "web": "https://nxtb.it/p/410303716"
                },
                "short_name": "4958",
                "station_id": "410303716",
                "vehicle_types_available": [
                    {
                        "count": 3,
                        "vehicle_type_id": "196"
                    },
                    {
                        "count": 1,
                        "vehicle_type_id": "431"
                    }
                ]
            },
            "type": "Feature"
        },
        {
            "geometry": {
                "coordinates": [
                    8.657575,
                    50.585716
                ],
                "type": "Point"
            },
            "properties": {
                "capacity": 15,
                "is_installed": true,
                "is_renting": true,
                "is_returning": true,
                "is_virtual_station": true,
                "last_reported": 1789286503,
                "name": "An den Hessenhallen",
                "num_bikes_available": 12,
                "num_docks_available": 3,
                "region_id": "467",
                "rental_uris": {
                    "android": "https://app.nextbike.net/station?id=448135955",
                    "ios": "https://app.nextbike.net/station?id=448135955",
                    "web": "https://nxtb.it/p/448135955"
                },
                "short_name": "4959",
                "station_area": {
                    "coordinates": [
                        [
                            [
                                [
                                    8.657575,
                                    50.585941
                                ],
                                [
                                    8.657882,
                                    50.585828
                                ],
                                [
                                    8.657882,
                                    50.585604
                                ],
                                [
                                    8.657575,
                                    50.585491
                                ],
                                [
                                    8.657268,
                                    50.585604
                                ],
                                [
                                    8.657268,
                                    50.585828
                                ],
                                [
                                    8.657575,
                                    50.585941
                                ]
                            ]
                        ]
                    ],
                    "type": "MultiPolygon"
                },
                "station_id": "448135955",
                "vehicle_types_available": [
                    {
                        "count": 7,
                        "vehicle_type_id": "196"
                    },
                    {
                        "count": 5,
                        "vehicle_type_id": "431"
                    }
                ]
            },
            "type": "Feature"
        },
        {
            "geometry": {
                "coordinates": [
                    8.684306,
                    50.590141
                ],
                "type": "Point"
            },
            "properties": {
                "capacity": 10,
                "is_installed": true,
                "is_renting": true,
                "is_returning": true,
                "is_virtual_station": false,
                "last_reported": 1789286503,
                "name": "Badezentrum Ringallee",
                "num_bikes_available": 10,
                "num_docks_available": 0,
                "region_id": "467",
                "rental_uris": {
                    "android": "https://app.nextbike.net/station?id=457276510",
                    "ios": "https://app.nextbike.net/station?id=457276510",
                    "web": "https://nxtb.it/p/457276510"
                },
                "short_name": "4960",
                "station_id": "457276510",
                "vehicle_types_available": [
                    {
                        "count": 6,
                        "vehicle_type_id": "196"
                    },
                    {
                        "count": 4,
                        "vehicle_type_id": "431"
                    }
                ]
            },
            "type": "Feature"
        },
        {
            "geometry": {
                "coordinates": [
                    8.65186,
                    50.565941
                ],
                "type": "Point"
            },
            "properties": {
                "capacity": 10,
                "is_installed": true,
                "is_renting": true,
                "is_returning": true,
                "is_virtual_station": false,
                "last_reported": 1789286503,
                "name": "Kleinlinden Autobahnbr\u00fccke CARGO",
                "num_bikes_available": 19,
                "num_docks_available": 0,
                "region_id": "467",
                "rental_uris": {
                    "android": "https://app.nextbike.net/station?id=457278656",
                    "ios": "https://app.nextbike.net/station?id=457278656",
                    "web": "https://nxtb.it/p/457278656"
                },
                "short_name": "4962",
                "station_id": "457278656",
                "vehicle_types_available": [
                    {
                        "count": 1,
                        "vehicle_type_id": "338"
                    },
                    {
                        "count": 15,
                        "vehicle_type_id": "196"
                    },
                    {
                        "count": 3,
                        "vehicle_type_id": "431"
                    }
                ]
            },
            "type": "Feature"
        },
        {
            "geometry": {
                "coordinates": [
                    8.66542,
                    50.592037
                ],
                "type": "Point"
            },
            "properties": {
                "capacity": 15,
                "is_installed": true,
                "is_renting": true,
                "is_returning": true,
                "is_virtual_station": false,
                "last_reported": 1789286503,
                "name": "Sch\u00fctzenstra\u00dfe CARGO",
                "num_bikes_available": 28,
                "num_docks_available": 0,
                "region_id": "467",
                "rental_uris": {
                    "android": "https://app.nextbike.net/station?id=457279354",
                    "ios": "https://app.nextbike.net/station?id=457279354",
                    "web": "https://nxtb.it/p/457279354"
                },
                "short_name": "4963",
                "station_id": "457279354",
                "vehicle_types_available": [
                    {
                        "count": 25,
                        "vehicle_type_id": "196"
                    },
                    {
                        "count": 1,
                        "vehicle_type_id": "338"
                    },
                    {
                        "count": 2,
                        "vehicle_type_id": "431"
                    }
                ]
            },
            "type": "Feature"
        },
        {
            "geometry": {
                "coordinates": [
                    8.66348,
                    50.584309
                ],
                "type": "Point"
            },
            "properties": {
                "capacity": 8,
                "is_installed": true,
                "is_renting": true,
                "is_returning": true,
                "is_virtual_station": false,
                "last_reported": 1789286503,
                "name": "Stadtwerke Gie\u00dfen",
                "num_bikes_available": 1,
                "num_docks_available": 5,
                "region_id": "467",
                "rental_uris": {
                    "android": "https://app.nextbike.net/station?id=457280874",
                    "ios": "https://app.nextbike.net/station?id=457280874",
                    "web": "https://nxtb.it/p/457280874"
                },
                "short_name": "4964",
                "station_id": "457280874",
                "vehicle_types_available": [
                    {
                        "count": 1,
                        "vehicle_type_id": "431"
                    }
                ]
            },
            "type": "Feature"
        },
        {
            "geometry": {
                "coordinates": [
                    8.67637,
                    50.585692
                ],
                "type": "Point"
            },
            "properties": {
                "capacity": 8,
                "is_installed": true,
                "is_renting": true,
                "is_returning": true,
                "is_virtual_station": false,
                "last_reported": 1789286503,
                "name": "Neuen B\u00e4ue CARGO",
                "num_bikes_available": 7,
                "num_docks_available": 1,
                "region_id": "467",
                "rental_uris": {
                    "android": "https://app.nextbike.net/station?id=474323909",
                    "ios": "https://app.nextbike.net/station?id=474323909",
                    "web": "https://nxtb.it/p/474323909"
                },
                "short_name": "4966",
                "station_id": "474323909",
                "vehicle_types_available": [
                    {
                        "count": 6,
                        "vehicle_type_id": "196"
                    },
                    {
                        "count": 1,
                        "vehicle_type_id": "431"
                    }
                ]
            },
            "type": "Feature"
        },
        {
            "geometry": {
                "coordinates": [
                    8.647997,
                    50.562927
                ],
                "type": "Point"
            },
            "properties": {
                "capacity": 30,
                "is_installed": true,
                "is_renting": true,
                "is_returning": true,
                "is_virtual_station": false,
                "last_reported": 1789286503,
                "name": "Kleinlinden Freibad",
                "num_bikes_available": 4,
                "num_docks_available": 25,
                "region_id": "467",
                "rental_uris": {
                    "android": "https://app.nextbike.net/station?id=477962166",
                    "ios": "https://app.nextbike.net/station?id=477962166",
                    "web": "https://nxtb.it/p/477962166"
                },
                "short_name": "4967",
                "station_id": "477962166",
                "vehicle_types_available": [
                    {
                        "count": 3,
                        "vehicle_type_id": "196"
                    },
                    {
                        "count": 1,
                        "vehicle_type_id": "431"
                    }
                ]
            },
            "type": "Feature"
        },
        {
            "geometry": {
                "coordinates": [
                    8.692892,
                    50.59863
                ],
                "type": "Point"
            },
            "properties": {
                "capacity": 10,
                "is_installed": true,
                "is_renting": true,
                "is_returning": true,
                "is_virtual_station": false,
                "last_reported": 1789286503,
                "name": "Wiesecker Weg / Karl-Keller-Stra\u00dfe",
                "num_bikes_available": 0,
                "num_docks_available": 10,
                "region_id": "467",
                "rental_uris": {
                    "android": "https://app.nextbike.net/station?id=477962791",
                    "ios": "https://app.nextbike.net/station?id=477962791",
                    "web": "https://nxtb.it/p/477962791"
                },
                "short_name": "4968",
                "station_id": "477962791",
                "vehicle_types_available": []
            },
            "type": "Feature"
        },
        {
            "geometry": {
                "coordinates": [
                    8.675346,
                    50.588132
                ],
                "type": "Point"
            },
            "properties": {
                "capacity": 6,
                "is_installed": true,
                "is_renting": true,
                "is_returning": true,
                "is_virtual_station": false,
                "last_reported": 1789286503,
                "name": "D\u00f6nerdreieck",
                "num_bikes_available": 27,
                "num_docks_available": 0,
                "region_id": "467",
                "rental_uris": {
                    "android": "https://app.nextbike.net/station?id=494150646",
                    "ios": "https://app.nextbike.net/station?id=494150646",
                    "web": "https://nxtb.it/p/494150646"
                },
                "short_name": "4969",
                "station_id": "494150646",
                "vehicle_types_available": [
                    {
                        "count": 24,
                        "vehicle_type_id": "196"
                    },
                    {
                        "count": 3,
                        "vehicle_type_id": "431"
                    }
                ]
            },
            "type": "Feature"
        },
        {
            "geometry": {
                "coordinates": [
                    8.697553,
                    50.605915
                ],
                "type": "Point"
            },
            "properties": {
                "capacity": 8,
                "is_installed": true,
                "is_renting": true,
                "is_returning": true,
                "is_virtual_station": false,
                "last_reported": 1789286503,
                "name": "Lichtenauer Weg / Johannsberg",
                "num_bikes_available": 0,
                "num_docks_available": 8,
                "region_id": "467",
                "rental_uris": {
                    "android": "https://app.nextbike.net/station?id=498499872",
                    "ios": "https://app.nextbike.net/station?id=498499872",
                    "web": "https://nxtb.it/p/498499872"
                },
                "short_name": "4970",
                "station_id": "498499872",
                "vehicle_types_available": []
            },
            "type": "Feature"
        },
        {
            "geometry": {
                "coordinates": [
                    8.685646,
                    50.593419
                ],
                "type": "Point"
            },
            "properties": {
                "capacity": 20,
                "is_installed": true,
                "is_renting": true,
                "is_returning": true,
                "is_virtual_station": false,
                "last_reported": 1789286503,
                "name": "Stadtpark / Strandbar ",
                "num_bikes_available": 13,
                "num_docks_available": 7,
                "region_id": "467",
                "rental_uris": {
                    "android": "https://app.nextbike.net/station?id=542855413",
                    "ios": "https://app.nextbike.net/station?id=542855413",
                    "web": "https://nxtb.it/p/542855413"
                },
                "short_name": "4971",
                "station_id": "542855413",
                "vehicle_types_available": [
                    {
                        "count": 9,
                        "vehicle_type_id": "196"
                    },
                    {
                        "count": 4,
                        "vehicle_type_id": "431"
                    }
                ]
            },
            "type": "Feature"
        },
        {
            "geometry": {
                "coordinates": [
                    8.69766,
                    50.587636
                ],
                "type": "Point"
            },
            "properties": {
                "capacity": 8,
                "is_installed": true,
                "is_renting": true,
                "is_returning": true,
                "is_virtual_station": false,
                "last_reported": 1789286503,
                "name": "Volkshochschule",
                "num_bikes_available": 2,
                "num_docks_available": 5,
                "region_id": "467",
                "rental_uris": {
                    "android": "https://app.nextbike.net/station?id=561686712",
                    "ios": "https://app.nextbike.net/station?id=561686712",
                    "web": "https://nxtb.it/p/561686712"
                },
                "short_name": "4972",
                "station_id": "561686712",
                "vehicle_types_available": [
                    {
                        "count": 2,
                        "vehicle_type_id": "196"
                    }
                ]
            },
            "type": "Feature"
        },
        {
            "geometry": {
                "coordinates": [
                    8.672103,
                    50.586235
                ],
                "type": "Point"
            },
            "properties": {
                "capacity": 12,
                "is_installed": true,
                "is_renting": true,
                "is_returning": true,
                "is_virtual_station": false,
                "last_reported": 1789286503,
                "name": "L\u00f6bershof / Neustadt CARGO",
                "num_bikes_available": 14,
                "num_docks_available": 0,
                "region_id": "467",
                "rental_uris": {
                    "android": "https://app.nextbike.net/station?id=561687477",
                    "ios": "https://app.nextbike.net/station?id=561687477",
                    "web": "https://nxtb.it/p/561687477"
                },
                "short_name": "4973",
                "station_id": "561687477",
                "vehicle_types_available": [
                    {
                        "count": 12,
                        "vehicle_type_id": "196"
                    },
                    {
                        "count": 2,
                        "vehicle_type_id": "431"
                    }
                ]
            },
            "type": "Feature"
        },
        {
            "geometry": {
                "coordinates": [
                    8.707213,
                    50.605632
                ],
                "type": "Point"
            },
            "properties": {
                "capacity": 8,
                "is_installed": true,
                "is_renting": true,
                "is_returning": true,
                "is_virtual_station": true,
                "last_reported": 1789286503,
                "name": "Friedhof Wieseck",
                "num_bikes_available": 6,
                "num_docks_available": 2,
                "region_id": "467",
                "rental_uris": {
                    "android": "https://app.nextbike.net/station?id=561688348",
                    "ios": "https://app.nextbike.net/station?id=561688348",
                    "web": "https://nxtb.it/p/561688348"
                },
                "short_name": "4974",
                "station_area": {
                    "coordinates": [
                        [
                            [
                                [
                                    8.707213,
                                    50.605857
                                ],
                                [
                                    8.70752,
                                    50.605744
                                ],
                                [
                                    8.70752,
                                    50.60552
                                ],
                                [
                                    8.707213,
                                    50.605407
                                ],
                                [
                                    8.706906,
                                    50.60552
                                ],
                                [
                                    8.706906,
                                    50.605744
                                ],
                                [
                                    8.707213,
                                    50.605857
                                ]
                            ]
                        ]
                    ],
                    "type": "MultiPolygon"
                },
                "station_id": "561688348",
                "vehicle_types_available": [
                    {
                        "count": 4,
                        "vehicle_type_id": "196"
                    },
                    {
                        "count": 2,
                        "vehicle_type_id": "431"
                    }
                ]
            },
            "type": "Feature"
        },
        {
            "geometry": {
                "coordinates": [
                    8.655036,
                    50.57683
                ],
                "type": "Point"
            },
            "properties": {
                "capacity": 8,
                "is_installed": true,
                "is_renting": true,
                "is_returning": true,
                "is_virtual_station": true,
                "last_reported": 1789286503,
                "name": "Margaretenh\u00fctte",
                "num_bikes_available": 5,
                "num_docks_available": 3,
                "region_id": "467",
                "rental_uris": {
                    "android": "https://app.nextbike.net/station?id=562851831",
                    "ios": "https://app.nextbike.net/station?id=562851831",
                    "web": "https://nxtb.it/p/562851831"
                },
                "short_name": "4975",
                "station_area": {
                    "coordinates": [
                        [
                            [
                                [
                                    8.655036,
                                    50.577055
                                ],
                                [
                                    8.655343,
                                    50.576942
                                ],
                                [
                                    8.655343,
                                    50.576718
                                ],
                                [
                                    8.655036,
                                    50.576605
                                ],
                                [
                                    8.654729,
                                    50.576718
                                ],
                                [
                                    8.654729,
                                    50.576942
                                ],
                                [
                                    8.655036,
                                    50.577055
                                ]
                            ]
                        ]
                    ],
                    "type": "MultiPolygon"
                },
                "station_id": "562851831",
                "vehicle_types_available": [
                    {
                        "count": 5,
                        "vehicle_type_id": "196"
                    }
                ]
            },
            "type": "Feature"
        },
        {
            "geometry": {
                "coordinates": [
                    8.690248,
                    50.576435
                ],
                "type": "Point"
            },
            "properties": {
                "capacity": 20,
                "is_installed": true,
                "is_renting": true,
                "is_returning": true,
                "is_virtual_station": true,
                "last_reported": 1789286503,
                "name": "OBS Mensa",
                "num_bikes_available": 34,
                "num_docks_available": 0,
                "region_id": "467",
                "rental_uris": {
                    "android": "https://app.nextbike.net/station?id=565975367",
                    "ios": "https://app.nextbike.net/station?id=565975367",
                    "web": "https://nxtb.it/p/565975367"
                },
                "short_name": "4976",
                "station_area": {
                    "coordinates": [
                        [
                            [
                                [
                                    8.690248,
                                    50.57666
                                ],
                                [
                                    8.690555,
                                    50.576547
                                ],
                                [
                                    8.690555,
                                    50.576323
                                ],
                                [
                                    8.690248,
                                    50.57621
                                ],
                                [
                                    8.689941,
                                    50.576323
                                ],
                                [
                                    8.689941,
                                    50.576547
                                ],
                                [
                                    8.690248,
                                    50.57666
                                ]
                            ]
                        ]
                    ],
                    "type": "MultiPolygon"
                },
                "station_id": "565975367",
                "vehicle_types_available": [
                    {
                        "count": 30,
                        "vehicle_type_id": "196"
                    },
                    {
                        "count": 4,
                        "vehicle_type_id": "431"
                    }
                ]
            },
            "type": "Feature"
        },
        {
            "geometry": {
                "coordinates": [
                    8.678084,
                    50.596541
                ],
                "type": "Point"
            },
            "properties": {
                "capacity": 8,
                "is_installed": true,
                "is_renting": true,
                "is_returning": true,
                "is_virtual_station": false,
                "last_reported": 1789286503,
                "name": "Nordstadtzentrum CARGO",
                "num_bikes_available": 3,
                "num_docks_available": 4,
                "region_id": "467",
                "rental_uris": {
                    "android": "https://app.nextbike.net/station?id=568512671",
                    "ios": "https://app.nextbike.net/station?id=568512671",
                    "web": "https://nxtb.it/p/568512671"
                },
                "short_name": "4978",
                "station_id": "568512671",
                "vehicle_types_available": [
                    {
                        "count": 1,
                        "vehicle_type_id": "196"
                    },
                    {
                        "count": 2,
                        "vehicle_type_id": "431"
                    }
                ]
            },
            "type": "Feature"
        },
        {
            "geometry": {
                "coordinates": [
                    8.689572,
                    50.570451
                ],
                "type": "Point"
            },
            "properties": {
                "capacity": 8,
                "is_installed": true,
                "is_renting": true,
                "is_returning": true,
                "is_virtual_station": false,
                "last_reported": 1789286503,
                "name": "Schiffenberger Tal / Ferniestra\u00dfe CARGO",
                "num_bikes_available": 0,
                "num_docks_available": 8,
                "region_id": "467",
                "rental_uris": {
                    "android": "https://app.nextbike.net/station?id=577730062",
                    "ios": "https://app.nextbike.net/station?id=577730062",
                    "web": "https://nxtb.it/p/577730062"
                },
                "short_name": "4979",
                "station_id": "577730062",
                "vehicle_types_available": []
            },
            "type": "Feature"
        },
        {
            "geometry": {
                "coordinates": [
                    8.647614,
                    50.555237
                ],
                "type": "Point"
            },
            "properties": {
                "capacity": 8,
                "is_installed": true,
                "is_renting": true,
                "is_returning": true,
                "is_virtual_station": true,
                "last_reported": 1789286503,
                "name": "Waldweide Kleinlinden",
                "num_bikes_available": 3,
                "num_docks_available": 4,
                "region_id": "467",
                "rental_uris": {
                    "android": "https://app.nextbike.net/station?id=579291947",
                    "ios": "https://app.nextbike.net/station?id=579291947",
                    "web": "https://nxtb.it/p/579291947"
                },
                "short_name": "4980",
                "station_area": {
                    "coordinates": [
                        [
                            [
                                [
                                    8.647614,
                                    50.555462
                                ],
                                [
                                    8.64792,
                                    50.555349
                                ],
                                [
                                    8.64792,
                                    50.555125
                                ],
                                [
                                    8.647614,
                                    50.555012
                                ],
                                [
                                    8.647308,
                                    50.555125
                                ],
                                [
                                    8.647308,
                                    50.555349
                                ],
                                [
                                    8.647614,
                                    50.555462
                                ]
                            ]
                        ]
                    ],
                    "type": "MultiPolygon"
                },
                "station_id": "579291947",
                "vehicle_types_available": [
                    {
                        "count": 2,
                        "vehicle_type_id": "196"
                    },
                    {
                        "count": 1,
                        "vehicle_type_id": "431"
                    }
                ]
            },
            "type": "Feature"
        },
        {
            "geometry": {
                "coordinates": [
                    8.657233,
                    50.593645
                ],
                "type": "Point"
            },
            "properties": {
                "capacity": 8,
                "is_installed": true,
                "is_renting": true,
                "is_returning": true,
                "is_virtual_station": false,
                "last_reported": 1789286503,
                "name": "Westbad",
                "num_bikes_available": 13,
                "num_docks_available": 0,
                "region_id": "467",
                "rental_uris": {
                    "android": "https://app.nextbike.net/station?id=581464958",
                    "ios": "https://app.nextbike.net/station?id=581464958",
                    "web": "https://nxtb.it/p/581464958"
                },
                "short_name": "4981",
                "station_id": "581464958",
                "vehicle_types_available": [
                    {
                        "count": 11,
                        "vehicle_type_id": "196"
                    },
                    {
                        "count": 2,
                        "vehicle_type_id": "431"
                    }
                ]
            },
            "type": "Feature"
        },
        {
            "geometry": {
                "coordinates": [
                    8.67974,
                    50.578339
                ],
                "type": "Point"
            },
            "properties": {
                "capacity": 8,
                "is_installed": true,
                "is_renting": true,
                "is_returning": true,
                "is_virtual_station": true,
                "last_reported": 1789286503,
                "name": "Gnauthstr. / Goethestr.",
                "num_bikes_available": 7,
                "num_docks_available": 0,
                "region_id": "467",
                "rental_uris": {
                    "android": "https://app.nextbike.net/station?id=591566570",
                    "ios": "https://app.nextbike.net/station?id=591566570",
                    "web": "https://nxtb.it/p/591566570"
                },
                "short_name": "4982",
                "station_area": {
                    "coordinates": [
                        [
                            [
                                [
                                    8.67974,
                                    50.578564
                                ],
                                [
                                    8.680047,
                                    50.578451
                                ],
                                [
                                    8.680047,
                                    50.578227
                                ],
                                [
                                    8.67974,
                                    50.578114
                                ],
                                [
                                    8.679433,
                                    50.578227
                                ],
                                [
                                    8.679433,
                                    50.578451
                                ],
                                [
                                    8.67974,
                                    50.578564
                                ]
                            ]
                        ]
                    ],
                    "type": "MultiPolygon"
                },
                "station_id": "591566570",
                "vehicle_types_available": [
                    {
                        "count": 6,
                        "vehicle_type_id": "196"
                    },
                    {
                        "count": 1,
                        "vehicle_type_id": "431"
                    }
                ]
            },
            "type": "Feature"
        },
        {
            "geometry": {
                "coordinates": [
                    8.727786,
                    50.573392
                ],
                "type": "Point"
            },
            "properties": {
                "capacity": 8,
                "is_installed": true,
                "is_renting": true,
                "is_returning": true,
                "is_virtual_station": true,
                "last_reported": 1789286503,
                "name": "TIG / Europaviertel",
                "num_bikes_available": 3,
                "num_docks_available": 5,
                "region_id": "467",
                "rental_uris": {
                    "android": "https://app.nextbike.net/station?id=613994850",
                    "ios": "https://app.nextbike.net/station?id=613994850",
                    "web": "https://nxtb.it/p/613994850"
                },
                "short_name": "4983",
                "station_area": {
                    "coordinates": [
                        [
                            [
                                [
                                    8.727786,
                                    50.573617
                                ],
                                [
                                    8.728092,
                                    50.573504
                                ],
                                [
                                    8.728092,
                                    50.57328
                                ],
                                [
                                    8.727786,
                                    50.573167
                                ],
                                [
                                    8.72748,
                                    50.57328
                                ],
                                [
                                    8.72748,
                                    50.573504
                                ],
                                [
                                    8.727786,
                                    50.573617
                                ]
                            ]
                        ]
                    ],
                    "type": "MultiPolygon"
                },
                "station_id": "613994850",
                "vehicle_types_available": [
                    {
                        "count": 2,
                        "vehicle_type_id": "196"
                    },
                    {
                        "count": 1,
                        "vehicle_type_id": "431"
                    }
                ]
            },
            "type": "Feature"
        },
        {
            "geometry": {
                "coordinates": [
                    8.658054,
                    50.577563
                ],
                "type": "Point"
            },
            "properties": {
                "capacity": 8,
                "is_installed": true,
                "is_renting": true,
                "is_returning": true,
                "is_virtual_station": true,
                "last_reported": 1789286503,
                "name": "Lern- und Erinnerungsort",
                "num_bikes_available": 0,
                "num_docks_available": 8,
                "region_id": "467",
                "rental_uris": {
                    "android": "https://app.nextbike.net/station?id=614619456",
                    "ios": "https://app.nextbike.net/station?id=614619456",
                    "web": "https://nxtb.it/p/614619456"
                },
                "short_name": "4987",
                "station_area": {
                    "coordinates": [
                        [
                            [
                                [
                                    8.658054,
                                    50.577788
                                ],
                                [
                                    8.658361,
                                    50.577675
                                ],
                                [
                                    8.658361,
                                    50.577451
                                ],
                                [
                                    8.658054,
                                    50.577338
                                ],
                                [
                                    8.657747,
                                    50.577451
                                ],
                                [
                                    8.657747,
                                    50.577675
                                ],
                                [
                                    8.658054,
                                    50.577788
                                ]
                            ]
                        ]
                    ],
                    "type": "MultiPolygon"
                },
                "station_id": "614619456",
                "vehicle_types_available": []
            },
            "type": "Feature"
        },
        {
            "geometry": {
                "coordinates": [
                    8.679443,
                    50.592302
                ],
                "type": "Point"
            },
            "properties": {
                "capacity": 10,
                "is_installed": true,
                "is_renting": true,
                "is_returning": true,
                "is_virtual_station": false,
                "last_reported": 1789286503,
                "name": "Marburger Stra\u00dfe",
                "num_bikes_available": 0,
                "num_docks_available": 10,
                "region_id": "467",
                "rental_uris": {
                    "android": "https://app.nextbike.net/station?id=625068313",
                    "ios": "https://app.nextbike.net/station?id=625068313",
                    "web": "https://nxtb.it/p/625068313"
                },
                "short_name": "4988",
                "station_id": "625068313",
                "vehicle_types_available": []
            },
            "type": "Feature"
        },
        {
            "geometry": {
                "coordinates": [
                    8.67175,
                    50.58975
                ],
                "type": "Point"
            },
            "properties": {
                "capacity": 8,
                "is_installed": true,
                "is_renting": true,
                "is_returning": true,
                "is_virtual_station": true,
                "last_reported": 1789286503,
                "name": "Pop-Up Steinstra\u00dfe",
                "num_bikes_available": 2,
                "num_docks_available": 6,
                "region_id": "467",
                "rental_uris": {
                    "android": "https://app.nextbike.net/station?id=630566327",
                    "ios": "https://app.nextbike.net/station?id=630566327",
                    "web": "https://nxtb.it/p/630566327"
                },
                "short_name": "4989",
                "station_area": {
                    "coordinates": [
                        [
                            [
                                [
                                    8.67175,
                                    50.589975
                                ],
                                [
                                    8.672057,
                                    50.589862
                                ],
                                [
                                    8.672057,
                                    50.589638
                                ],
                                [
                                    8.67175,
                                    50.589525
                                ],
                                [
                                    8.671443,
                                    50.589638
                                ],
                                [
                                    8.671443,
                                    50.589862
                                ],
                                [
                                    8.67175,
                                    50.589975
                                ]
                            ]
                        ]
                    ],
                    "type": "MultiPolygon"
                },
                "station_id": "630566327",
                "vehicle_types_available": [
                    {
                        "count": 2,
                        "vehicle_type_id": "196"
                    }
                ]
            },
            "type": "Feature"
        },
        {
            "geometry": {
                "coordinates": [
                    8.677573,
                    50.564109
                ],
                "type": "Point"
            },
            "properties": {
                "capacity": 10,
                "is_installed": true,
                "is_renting": true,
                "is_returning": true,
                "is_virtual_station": false,
                "last_reported": 1789286503,
                "name": "Leihgesterner Weg / Unterhof CARGO",
                "num_bikes_available": 0,
                "num_docks_available": 10,
                "region_id": "467",
                "rental_uris": {
                    "android": "https://app.nextbike.net/station?id=63085276",
                    "ios": "https://app.nextbike.net/station?id=63085276",
                    "web": "https://nxtb.it/p/63085276"
                },
                "short_name": "4950",
                "station_id": "63085276",
                "vehicle_types_available": []
            },
            "type": "Feature"
        },
        {
            "geometry": {
                "coordinates": [
                    8.70796,
                    50.58266
                ],
                "type": "Point"
            },
            "properties": {
                "capacity": 45,
                "is_installed": true,
                "is_renting": true,
                "is_returning": true,
                "is_virtual_station": false,
                "last_reported": 1789286503,
                "name": "Eichendorffring CARGO",
                "num_bikes_available": 6,
                "num_docks_available": 39,
                "region_id": "467",
                "rental_uris": {
                    "android": "https://app.nextbike.net/station?id=63085409",
                    "ios": "https://app.nextbike.net/station?id=63085409",
                    "web": "https://nxtb.it/p/63085409"
                },
                "short_name": "4951",
                "station_id": "63085409",
                "vehicle_types_available": [
                    {
                        "count": 1,
                        "vehicle_type_id": "338"
                    },
                    {
                        "count": 5,
                        "vehicle_type_id": "196"
                    }
                ]
            },
            "type": "Feature"
        },
        {
            "geometry": {
                "coordinates": [
                    8.71319,
                    50.585204
                ],
                "type": "Point"
            },
            "properties": {
                "capacity": 50,
                "is_installed": true,
                "is_renting": true,
                "is_returning": true,
                "is_virtual_station": false,
                "last_reported": 1789286503,
                "name": "Gr\u00fcnberger Stra\u00dfe",
                "num_bikes_available": 21,
                "num_docks_available": 29,
                "region_id": "467",
                "rental_uris": {
                    "android": "https://app.nextbike.net/station?id=63085530",
                    "ios": "https://app.nextbike.net/station?id=63085530",
                    "web": "https://nxtb.it/p/63085530"
                },
                "short_name": "4952",
                "station_id": "63085530",
                "vehicle_types_available": [
                    {
                        "count": 17,
                        "vehicle_type_id": "196"
                    },
                    {
                        "count": 4,
                        "vehicle_type_id": "431"
                    }
                ]
            },
            "type": "Feature"
        },
        {
            "geometry": {
                "coordinates": [
                    8.700008,
                    50.573486
                ],
                "type": "Point"
            },
            "properties": {
                "capacity": 15,
                "is_installed": true,
                "is_renting": true,
                "is_returning": true,
                "is_virtual_station": false,
                "last_reported": 1789286503,
                "name": "JLU Phil. II / Haus F",
                "num_bikes_available": 4,
                "num_docks_available": 10,
                "region_id": "467",
                "rental_uris": {
                    "android": "https://app.nextbike.net/station?id=6494751",
                    "ios": "https://app.nextbike.net/station?id=6494751",
                    "web": "https://nxtb.it/p/6494751"
                },
                "short_name": "4930",
                "station_id": "6494751",
                "vehicle_types_available": [
                    {
                        "count": 3,
                        "vehicle_type_id": "196"
                    },
                    {
                        "count": 1,
                        "vehicle_type_id": "431"
                    }
                ]
            },
            "type": "Feature"
        },
        {
            "geometry": {
                "coordinates": [
                    8.697667,
                    50.57525
                ],
                "type": "Point"
            },
            "properties": {
                "capacity": 20,
                "is_installed": true,
                "is_renting": true,
                "is_returning": true,
                "is_virtual_station": false,
                "last_reported": 1789286503,
                "name": "Rathenaustra\u00dfe",
                "num_bikes_available": 3,
                "num_docks_available": 17,
                "region_id": "467",
                "rental_uris": {
                    "android": "https://app.nextbike.net/station?id=6494917",
                    "ios": "https://app.nextbike.net/station?id=6494917",
                    "web": "https://nxtb.it/p/6494917"
                },
                "short_name": "4931",
                "station_id": "6494917",
                "vehicle_types_available": [
                    {
                        "count": 2,
                        "vehicle_type_id": "196"
                    },
                    {
                        "count": 1,
                        "vehicle_type_id": "431"
                    }
                ]
            },
            "type": "Feature"
        },
        {
            "geometry": {
                "coordinates": [
                    8.69397,
                    50.576216
                ],
                "type": "Point"
            },
            "properties": {
                "capacity": 20,
                "is_installed": true,
                "is_renting": true,
                "is_returning": true,
                "is_virtual_station": false,
                "last_reported": 1789286503,
                "name": "JLU Phil. I / Haus A",
                "num_bikes_available": 10,
                "num_docks_available": 7,
                "region_id": "467",
                "rental_uris": {
                    "android": "https://app.nextbike.net/station?id=6510530",
                    "ios": "https://app.nextbike.net/station?id=6510530",
                    "web": "https://nxtb.it/p/6510530"
                },
                "short_name": "4932",
                "station_id": "6510530",
                "vehicle_types_available": [
                    {
                        "count": 7,
                        "vehicle_type_id": "196"
                    },
                    {
                        "count": 3,
                        "vehicle_type_id": "431"
                    }
                ]
            },
            "type": "Feature"
        },
        {
            "geometry": {
                "coordinates": [
                    8.694906,
                    50.576775
                ],
                "type": "Point"
            },
            "properties": {
                "capacity": 15,
                "is_installed": true,
                "is_renting": true,
                "is_returning": true,
                "is_virtual_station": false,
                "last_reported": 1789286503,
                "name": "JLU Phil. I / GCSC",
                "num_bikes_available": 2,
                "num_docks_available": 11,
                "region_id": "467",
                "rental_uris": {
                    "android": "https://app.nextbike.net/station?id=6510628",
                    "ios": "https://app.nextbike.net/station?id=6510628",
                    "web": "https://nxtb.it/p/6510628"
                },
                "short_name": "4933",
                "station_id": "6510628",
                "vehicle_types_available": [
                    {
                        "count": 2,
                        "vehicle_type_id": "196"
                    }
                ]
            },
            "type": "Feature"
        },
        {
            "geometry": {
                "coordinates": [
                    8.692147,
                    50.576661
                ],
                "type": "Point"
            },
            "properties": {
                "capacity": 20,
                "is_installed": true,
                "is_renting": true,
                "is_returning": true,
                "is_virtual_station": false,
                "last_reported": 1789286503,
                "name": "JLU Phil. I / Haus F",
                "num_bikes_available": 13,
                "num_docks_available": 2,
                "region_id": "467",
                "rental_uris": {
                    "android": "https://app.nextbike.net/station?id=6510643",
                    "ios": "https://app.nextbike.net/station?id=6510643",
                    "web": "https://nxtb.it/p/6510643"
                },
                "short_name": "4934",
                "station_id": "6510643",
                "vehicle_types_available": [
                    {
                        "count": 11,
                        "vehicle_type_id": "196"
                    },
                    {
                        "count": 2,
                        "vehicle_type_id": "431"
                    }
                ]
            },
            "type": "Feature"
        },
        {
            "geometry": {
                "coordinates": [
                    8.699665,
                    50.585239
                ],
                "type": "Point"
            },
            "properties": {
                "capacity": 30,
                "is_installed": true,
                "is_renting": true,
                "is_returning": true,
                "is_virtual_station": false,
                "last_reported": 1789286503,
                "name": "JLU Sport / Kugelberg",
                "num_bikes_available": 8,
                "num_docks_available": 21,
                "region_id": "467",
                "rental_uris": {
                    "android": "https://app.nextbike.net/station?id=6510660",
                    "ios": "https://app.nextbike.net/station?id=6510660",
                    "web": "https://nxtb.it/p/6510660"
                },
                "short_name": "4935",
                "station_id": "6510660",
                "vehicle_types_available": [
                    {
                        "count": 2,
                        "vehicle_type_id": "338"
                    },
                    {
                        "count": 4,
                        "vehicle_type_id": "196"
                    },
                    {
                        "count": 2,
                        "vehicle_type_id": "431"
                    }
                ]
            },
            "type": "Feature"
        },
        {
            "geometry": {
                "coordinates": [
                    8.695099,
                    50.580753
                ],
                "type": "Point"
            },
            "properties": {
                "capacity": 60,
                "is_installed": true,
                "is_renting": true,
                "is_returning": true,
                "is_virtual_station": false,
                "last_reported": 1789286503,
                "name": "JLU Recht und Wirtschaft",
                "num_bikes_available": 1,
                "num_docks_available": 59,
                "region_id": "467",
                "rental_uris": {
                    "android": "https://app.nextbike.net/station?id=6510709",
                    "ios": "https://app.nextbike.net/station?id=6510709",
                    "web": "https://nxtb.it/p/6510709"
                },
                "short_name": "4936",
                "station_id": "6510709",
                "vehicle_types_available": [
                    {
                        "count": 1,
                        "vehicle_type_id": "196"
                    }
                ]
            },
            "type": "Feature"
        },
        {
            "geometry": {
                "coordinates": [
                    8.674602,
                    50.571078
                ],
                "type": "Point"
            },
            "properties": {
                "capacity": 40,
                "is_installed": true,
                "is_renting": true,
                "is_returning": true,
                "is_virtual_station": false,
                "last_reported": 1789286503,
                "name": "JLU Seltersberg / Leihgesterner Weg",
                "num_bikes_available": 3,
                "num_docks_available": 37,
                "region_id": "467",
                "rental_uris": {
                    "android": "https://app.nextbike.net/station?id=6510738",
                    "ios": "https://app.nextbike.net/station?id=6510738",
                    "web": "https://nxtb.it/p/6510738"
                },
                "short_name": "4937",
                "station_id": "6510738",
                "vehicle_types_available": [
                    {
                        "count": 3,
                        "vehicle_type_id": "196"
                    }
                ]
            },
            "type": "Feature"
        },
        {
            "geometry": {
                "coordinates": [
                    8.672389,
                    50.570978
                ],
                "type": "Point"
            },
            "properties": {
                "capacity": 15,
                "is_installed": true,
                "is_renting": true,
                "is_returning": true,
                "is_virtual_station": false,
                "last_reported": 1789286503,
                "name": "JLU Seltersberg / HRZ",
                "num_bikes_available": 0,
                "num_docks_available": 15,
                "region_id": "467",
                "rental_uris": {
                    "android": "https://app.nextbike.net/station?id=6510764",
                    "ios": "https://app.nextbike.net/station?id=6510764",
                    "web": "https://nxtb.it/p/6510764"
                },
                "short_name": "4938",
                "station_id": "6510764",
                "vehicle_types_available": []
            },
            "type": "Feature"
        },
        {
            "geometry": {
                "coordinates": [
                    8.66441,
                    50.580174
                ],
                "type": "Point"
            },
            "properties": {
                "capacity": 40,
                "is_installed": true,
                "is_renting": true,
                "is_returning": true,
                "is_virtual_station": false,
                "last_reported": 1789286503,
                "name": "Bahnhof / Alte Post",
                "num_bikes_available": 3,
                "num_docks_available": 37,
                "region_id": "467",
                "rental_uris": {
                    "android": "https://app.nextbike.net/station?id=6510782",
                    "ios": "https://app.nextbike.net/station?id=6510782",
                    "web": "https://nxtb.it/p/6510782"
                },
                "short_name": "4939",
                "station_id": "6510782",
                "vehicle_types_available": [
                    {
                        "count": 3,
                        "vehicle_type_id": "196"
                    }
                ]
            },
            "type": "Feature"
        },
        {
            "geometry": {
                "coordinates": [
                    8.682158,
                    50.587148
                ],
                "type": "Point"
            },
            "properties": {
                "capacity": 100,
                "is_installed": true,
                "is_renting": true,
                "is_returning": true,
                "is_virtual_station": false,
                "last_reported": 1789286503,
                "name": "THM A / Wiesenstra\u00dfe",
                "num_bikes_available": 5,
                "num_docks_available": 95,
                "region_id": "467",
                "rental_uris": {
                    "android": "https://app.nextbike.net/station?id=6510910",
                    "ios": "https://app.nextbike.net/station?id=6510910",
                    "web": "https://nxtb.it/p/6510910"
                },
                "short_name": "4940",
                "station_id": "6510910",
                "vehicle_types_available": [
                    {
                        "count": 3,
                        "vehicle_type_id": "196"
                    },
                    {
                        "count": 2,
                        "vehicle_type_id": "431"
                    }
                ]
            },
            "type": "Feature"
        },
        {
            "geometry": {
                "coordinates": [
                    8.684702,
                    50.585584
                ],
                "type": "Point"
            },
            "properties": {
                "capacity": 25,
                "is_installed": true,
                "is_renting": true,
                "is_returning": true,
                "is_virtual_station": false,
                "last_reported": 1789286503,
                "name": "THM C / Moltkestra\u00dfe",
                "num_bikes_available": 3,
                "num_docks_available": 22,
                "region_id": "467",
                "rental_uris": {
                    "android": "https://app.nextbike.net/station?id=6510935",
                    "ios": "https://app.nextbike.net/station?id=6510935",
                    "web": "https://nxtb.it/p/6510935"
                },
                "short_name": "4941",
                "station_id": "6510935",
                "vehicle_types_available": [
                    {
                        "count": 1,
                        "vehicle_type_id": "196"
                    },
                    {
                        "count": 2,
                        "vehicle_type_id": "431"
                    }
                ]
            },
            "type": "Feature"
        },
        {
            "geometry": {
                "coordinates": [
                    8.681104,
                    50.589469
                ],
                "type": "Point"
            },
            "properties": {
                "capacity": 25,
                "is_installed": true,
                "is_renting": true,
                "is_returning": true,
                "is_virtual_station": false,
                "last_reported": 1789286503,
                "name": "THM D / Gutfleischstra\u00dfe",
                "num_bikes_available": 3,
                "num_docks_available": 21,
                "region_id": "467",
                "rental_uris": {
                    "android": "https://app.nextbike.net/station?id=6510957",
                    "ios": "https://app.nextbike.net/station?id=6510957",
                    "web": "https://nxtb.it/p/6510957"
                },
                "short_name": "4942",
                "station_id": "6510957",
                "vehicle_types_available": [
                    {
                        "count": 3,
                        "vehicle_type_id": "196"
                    }
                ]
            },
            "type": "Feature"
        },
        {
            "geometry": {
                "coordinates": [
                    8.676482,
                    50.582892
                ],
                "type": "Point"
            },
            "properties": {
                "capacity": 10,
                "is_installed": true,
                "is_renting": true,
                "is_returning": true,
                "is_virtual_station": false,
                "last_reported": 1789286503,
                "name": "THM E / Bismarckstra\u00dfe",
                "num_bikes_available": 15,
                "num_docks_available": 0,
                "region_id": "467",
                "rental_uris": {
                    "android": "https://app.nextbike.net/station?id=6510981",
                    "ios": "https://app.nextbike.net/station?id=6510981",
                    "web": "https://nxtb.it/p/6510981"
                },
                "short_name": "4943",
                "station_id": "6510981",
                "vehicle_types_available": [
                    {
                        "count": 14,
                        "vehicle_type_id": "196"
                    },
                    {
                        "count": 1,
                        "vehicle_type_id": "431"
                    }
                ]
            },
            "type": "Feature"
        },
        {
            "geometry": {
                "coordinates": [
                    8.665858,
                    50.570486
                ],
                "type": "Point"
            },
            "properties": {
                "capacity": 12,
                "is_installed": true,
                "is_renting": true,
                "is_returning": true,
                "is_virtual_station": false,
                "last_reported": 1789286503,
                "name": "JLU Medizin / BFS",
                "num_bikes_available": 0,
                "num_docks_available": 12,
                "region_id": "467",
                "rental_uris": {
                    "android": "https://app.nextbike.net/station?id=9916411",
                    "ios": "https://app.nextbike.net/station?id=9916411",
                    "web": "https://nxtb.it/p/9916411"
                },
                "short_name": "4924",
                "station_id": "9916411",
                "vehicle_types_available": []
            },
            "type": "Feature"
        }
    ],
    "gbfs": {
        "station_information": {
            "last_updated": 1789286503,
            "ttl": 60,
            "version": "2.3"
        },
        "station_status": {
            "last_updated": 1789286503,
            "ttl": 60,
            "version": "2.3"
        }
    },
    "type": "FeatureCollection"
}