{
    "features": [
        {
            "geometry": {
                "coordinates": [
                    15.514117,
                    51.925131
                ],
                "type": "Point"
            },
            "properties": {
                "capacity": 10,
                "is_installed": true,
                "is_renting": true,
                "is_returning": true,
                "is_virtual_station": false,
                "last_reported": 1789125173,
                "name": "Nowa/Browarna",
                "num_bikes_available": 7,
                "num_docks_available": 3,
                "region_id": "529",
                "rental_uris": {
                    "android": "https://app.nextbike.net/station?id=12970446",
                    "ios": "https://app.nextbike.net/station?id=12970446",
                    "web": "https://nxtb.it/p/12970446"
                },
                "short_name": "1158",
                "station_id": "12970446",
                "vehicle_types_available": [
                    {
                        "count": 2,
                        "vehicle_type_id": "183"
                    },
                    {
                        "count": 5,
                        "vehicle_type_id": "196"
                    }
                ]
            },
            "type": "Feature"
        },
        {
            "geometry": {
                "coordinates": [
                    15.48514,
                    51.952502
                ],
                "type": "Point"
            },
            "properties": {
                "capacity": 10,
                "is_installed": true,
                "is_renting": true,
                "is_returning": true,
                "is_virtual_station": false,
                "last_reported": 1789125173,
                "name": "Zjednoczenia/Dekoracyjna",
                "num_bikes_available": 7,
                "num_docks_available": 3,
                "region_id": "529",
                "rental_uris": {
                    "android": "https://app.nextbike.net/station?id=12970450",
                    "ios": "https://app.nextbike.net/station?id=12970450",
                    "web": "https://nxtb.it/p/12970450"
                },
                "short_name": "1159",
                "station_id": "12970450",
                "vehicle_types_available": [
                    {
                        "count": 2,
                        "vehicle_type_id": "352"
                    },
                    {
                        "count": 4,
                        "vehicle_type_id": "196"
                    },
                    {
                        "count": 1,
                        "vehicle_type_id": "183"
                    }
                ]
            },
            "type": "Feature"
        },
        {
            "geometry": {
                "coordinates": [
                    15.47696,
                    51.933368
                ],
                "type": "Point"
            },
            "properties": {
                "capacity": 10,
                "is_installed": true,
                "is_renting": true,
                "is_returning": true,
                "is_virtual_station": false,
                "last_reported": 1789125173,
                "name": "Francuska/Dunikowskiego",
                "num_bikes_available": 4,
                "num_docks_available": 6,
                "region_id": "529",
                "rental_uris": {
                    "android": "https://app.nextbike.net/station?id=12970457",
                    "ios": "https://app.nextbike.net/station?id=12970457",
                    "web": "https://nxtb.it/p/12970457"
                },
                "short_name": "1160",
                "station_id": "12970457",
                "vehicle_types_available": [
                    {
                        "count": 4,
                        "vehicle_type_id": "196"
                    }
                ]
            },
            "type": "Feature"
        },
        {
            "geometry": {
                "coordinates": [
                    15.487686,
                    51.90488
                ],
                "type": "Point"
            },
            "properties": {
                "capacity": 10,
                "is_installed": true,
                "is_renting": true,
                "is_returning": true,
                "is_virtual_station": false,
                "last_reported": 1789125173,
                "name": "Botaniczna (K\u0105pielisko H2Ochla)",
                "num_bikes_available": 8,
                "num_docks_available": 2,
                "region_id": "529",
                "rental_uris": {
                    "android": "https://app.nextbike.net/station?id=530041324",
                    "ios": "https://app.nextbike.net/station?id=530041324",
                    "web": "https://nxtb.it/p/530041324"
                },
                "short_name": "1161",
                "station_id": "530041324",
                "vehicle_types_available": [
                    {
                        "count": 3,
                        "vehicle_type_id": "352"
                    },
                    {
                        "count": 5,
                        "vehicle_type_id": "196"
                    }
                ]
            },
            "type": "Feature"
        },
        {
            "geometry": {
                "coordinates": [
                    15.476626,
                    51.890521
                ],
                "type": "Point"
            },
            "properties": {
                "capacity": 10,
                "is_installed": true,
                "is_renting": true,
                "is_returning": true,
                "is_virtual_station": false,
                "last_reported": 1789125173,
                "name": "Muzeum Etnograficzne (Skansen)",
                "num_bikes_available": 0,
                "num_docks_available": 10,
                "region_id": "529",
                "rental_uris": {
                    "android": "https://app.nextbike.net/station?id=530041341",
                    "ios": "https://app.nextbike.net/station?id=530041341",
                    "web": "https://nxtb.it/p/530041341"
                },
                "short_name": "1162",
                "station_id": "530041341",
                "vehicle_types_available": []
            },
            "type": "Feature"
        },
        {
            "geometry": {
                "coordinates": [
                    15.565327,
                    51.861754
                ],
                "type": "Point"
            },
            "properties": {
                "is_installed": true,
                "is_renting": true,
                "is_returning": true,
                "is_virtual_station": false,
                "last_reported": 1789125173,
                "name": "Zatonie/Park Ksi\u0105\u017c\u0119cy",
                "num_bikes_available": 11,
                "num_docks_available": 0,
                "region_id": "529",
                "rental_uris": {
                    "android": "https://app.nextbike.net/station?id=607788910",
                    "ios": "https://app.nextbike.net/station?id=607788910",
                    "web": "https://nxtb.it/p/607788910"
                },
                "short_name": "1163",
                "station_id": "607788910",
                "vehicle_types_available": [
                    {
                        "count": 3,
                        "vehicle_type_id": "183"
                    },
                    {
                        "count": 8,
                        "vehicle_type_id": "196"
                    }
                ]
            },
            "type": "Feature"
        },
        {
            "geometry": {
                "coordinates": [
                    15.503267,
                    51.933454
                ],
                "type": "Point"
            },
            "properties": {
                "is_installed": true,
                "is_renting": true,
                "is_returning": true,
                "is_virtual_station": false,
                "last_reported": 1789125173,
                "name": "Fabryczna (Targowisko)",
                "num_bikes_available": 6,
                "num_docks_available": 0,
                "region_id": "529",
                "rental_uris": {
                    "android": "https://app.nextbike.net/station?id=607788995",
                    "ios": "https://app.nextbike.net/station?id=607788995",
                    "web": "https://nxtb.it/p/607788995"
                },
                "short_name": "1164",
                "station_id": "607788995",
                "vehicle_types_available": [
                    {
                        "count": 6,
                        "vehicle_type_id": "196"
                    }
                ]
            },
            "type": "Feature"
        },
        {
            "geometry": {
                "coordinates": [
                    15.514996,
                    51.955939
                ],
                "type": "Point"
            },
            "properties": {
                "capacity": 10,
                "is_installed": true,
                "is_renting": true,
                "is_returning": true,
                "is_virtual_station": false,
                "last_reported": 1789125173,
                "name": "Zdrojowa",
                "num_bikes_available": 9,
                "num_docks_available": 1,
                "region_id": "529",
                "rental_uris": {
                    "android": "https://app.nextbike.net/station?id=9122279",
                    "ios": "https://app.nextbike.net/station?id=9122279",
                    "web": "https://nxtb.it/p/9122279"
                },
                "short_name": "1124",
                "station_id": "9122279",
                "vehicle_types_available": [
                    {
                        "count": 4,
                        "vehicle_type_id": "352"
                    },
                    {
                        "count": 5,
                        "vehicle_type_id": "196"
                    }
                ]
            },
            "type": "Feature"
        },
        {
            "geometry": {
                "coordinates": [
                    15.504489,
                    51.940938
                ],
                "type": "Point"
            },
            "properties": {
                "capacity": 10,
                "is_installed": true,
                "is_renting": true,
                "is_returning": true,
                "is_virtual_station": false,
                "last_reported": 1789125173,
                "name": "Kupiecka/Wojska Polskiego",
                "num_bikes_available": 13,
                "num_docks_available": 0,
                "region_id": "529",
                "rental_uris": {
                    "android": "https://app.nextbike.net/station?id=9122285",
                    "ios": "https://app.nextbike.net/station?id=9122285",
                    "web": "https://nxtb.it/p/9122285"
                },
                "short_name": "1125",
                "station_id": "9122285",
                "vehicle_types_available": [
                    {
                        "count": 13,
                        "vehicle_type_id": "196"
                    }
                ]
            },
            "type": "Feature"
        },
        {
            "geometry": {
                "coordinates": [
                    15.502008,
                    51.939505
                ],
                "type": "Point"
            },
            "properties": {
                "capacity": 10,
                "is_installed": true,
                "is_renting": true,
                "is_returning": true,
                "is_virtual_station": false,
                "last_reported": 1789125173,
                "name": "Wojska Polskiego/Reja",
                "num_bikes_available": 14,
                "num_docks_available": 0,
                "region_id": "529",
                "rental_uris": {
                    "android": "https://app.nextbike.net/station?id=9122309",
                    "ios": "https://app.nextbike.net/station?id=9122309",
                    "web": "https://nxtb.it/p/9122309"
                },
                "short_name": "1126",
                "station_id": "9122309",
                "vehicle_types_available": [
                    {
                        "count": 1,
                        "vehicle_type_id": "183"
                    },
                    {
                        "count": 13,
                        "vehicle_type_id": "196"
                    }
                ]
            },
            "type": "Feature"
        },
        {
            "geometry": {
                "coordinates": [
                    15.513041,
                    51.940114
                ],
                "type": "Point"
            },
            "properties": {
                "capacity": 10,
                "is_installed": true,
                "is_renting": true,
                "is_returning": true,
                "is_virtual_station": false,
                "last_reported": 1789125173,
                "name": "Rondo 11 Listopada",
                "num_bikes_available": 8,
                "num_docks_available": 2,
                "region_id": "529",
                "rental_uris": {
                    "android": "https://app.nextbike.net/station?id=9122314",
                    "ios": "https://app.nextbike.net/station?id=9122314",
                    "web": "https://nxtb.it/p/9122314"
                },
                "short_name": "1127",
                "station_id": "9122314",
                "vehicle_types_available": [
                    {
                        "count": 2,
                        "vehicle_type_id": "352"
                    },
                    {
                        "count": 6,
                        "vehicle_type_id": "196"
                    }
                ]
            },
            "type": "Feature"
        },
        {
            "geometry": {
                "coordinates": [
                    15.524012,
                    51.939487
                ],
                "type": "Point"
            },
            "properties": {
                "capacity": 10,
                "is_installed": true,
                "is_renting": true,
                "is_returning": true,
                "is_virtual_station": false,
                "last_reported": 1789125173,
                "name": "Podg\u00f3rna/Wary\u0144skiego",
                "num_bikes_available": 6,
                "num_docks_available": 4,
                "region_id": "529",
                "rental_uris": {
                    "android": "https://app.nextbike.net/station?id=9122351",
                    "ios": "https://app.nextbike.net/station?id=9122351",
                    "web": "https://nxtb.it/p/9122351"
                },
                "short_name": "1128",
                "station_id": "9122351",
                "vehicle_types_available": [
                    {
                        "count": 6,
                        "vehicle_type_id": "196"
                    }
                ]
            },
            "type": "Feature"
        },
        {
            "geometry": {
                "coordinates": [
                    15.528694,
                    51.93941
                ],
                "type": "Point"
            },
            "properties": {
                "capacity": 10,
                "is_installed": true,
                "is_renting": true,
                "is_returning": true,
                "is_virtual_station": false,
                "last_reported": 1789125173,
                "name": "Podg\u00f3rna (UZ)",
                "num_bikes_available": 4,
                "num_docks_available": 6,
                "region_id": "529",
                "rental_uris": {
                    "android": "https://app.nextbike.net/station?id=9122355",
                    "ios": "https://app.nextbike.net/station?id=9122355",
                    "web": "https://nxtb.it/p/9122355"
                },
                "short_name": "1129",
                "station_id": "9122355",
                "vehicle_types_available": [
                    {
                        "count": 1,
                        "vehicle_type_id": "352"
                    },
                    {
                        "count": 3,
                        "vehicle_type_id": "196"
                    }
                ]
            },
            "type": "Feature"
        },
        {
            "geometry": {
                "coordinates": [
                    15.528763,
                    51.942213
                ],
                "type": "Point"
            },
            "properties": {
                "capacity": 10,
                "is_installed": true,
                "is_renting": true,
                "is_returning": true,
                "is_virtual_station": false,
                "last_reported": 1789125173,
                "name": "Szafrana (UZ)",
                "num_bikes_available": 8,
                "num_docks_available": 2,
                "region_id": "529",
                "rental_uris": {
                    "android": "https://app.nextbike.net/station?id=9122357",
                    "ios": "https://app.nextbike.net/station?id=9122357",
                    "web": "https://nxtb.it/p/9122357"
                },
                "short_name": "1130",
                "station_id": "9122357",
                "vehicle_types_available": [
                    {
                        "count": 8,
                        "vehicle_type_id": "196"
                    }
                ]
            },
            "type": "Feature"
        },
        {
            "geometry": {
                "coordinates": [
                    15.559479,
                    51.937489
                ],
                "type": "Point"
            },
            "properties": {
                "capacity": 10,
                "is_installed": true,
                "is_renting": true,
                "is_returning": true,
                "is_virtual_station": false,
                "last_reported": 1789125173,
                "name": "Osiedle Pomorskie",
                "num_bikes_available": 9,
                "num_docks_available": 1,
                "region_id": "529",
                "rental_uris": {
                    "android": "https://app.nextbike.net/station?id=9122367",
                    "ios": "https://app.nextbike.net/station?id=9122367",
                    "web": "https://nxtb.it/p/9122367"
                },
                "short_name": "1131",
                "station_id": "9122367",
                "vehicle_types_available": [
                    {
                        "count": 9,
                        "vehicle_type_id": "196"
                    }
                ]
            },
            "type": "Feature"
        },
        {
            "geometry": {
                "coordinates": [
                    15.555892,
                    51.933619
                ],
                "type": "Point"
            },
            "properties": {
                "capacity": 10,
                "is_installed": true,
                "is_renting": false,
                "is_returning": false,
                "is_virtual_station": false,
                "last_reported": 1789125173,
                "name": "Osiedle \u015al\u0105skie",
                "num_bikes_available": 5,
                "num_docks_available": 5,
                "region_id": "529",
                "rental_uris": {
                    "android": "https://app.nextbike.net/station?id=9122377",
                    "ios": "https://app.nextbike.net/station?id=9122377",
                    "web": "https://nxtb.it/p/9122377"
                },
                "short_name": "1132",
                "station_id": "9122377",
                "vehicle_types_available": [
                    {
                        "count": 5,
                        "vehicle_type_id": "196"
                    }
                ]
            },
            "type": "Feature"
        },
        {
            "geometry": {
                "coordinates": [
                    15.516136,
                    51.931691
                ],
                "type": "Point"
            },
            "properties": {
                "capacity": 10,
                "is_installed": true,
                "is_renting": true,
                "is_returning": true,
                "is_virtual_station": false,
                "last_reported": 1789125173,
                "name": "Morelowa",
                "num_bikes_available": 7,
                "num_docks_available": 3,
                "region_id": "529",
                "rental_uris": {
                    "android": "https://app.nextbike.net/station?id=9122383",
                    "ios": "https://app.nextbike.net/station?id=9122383",
                    "web": "https://nxtb.it/p/9122383"
                },
                "short_name": "1133",
                "station_id": "9122383",
                "vehicle_types_available": [
                    {
                        "count": 1,
                        "vehicle_type_id": "183"
                    },
                    {
                        "count": 6,
                        "vehicle_type_id": "196"
                    }
                ]
            },
            "type": "Feature"
        },
        {
            "geometry": {
                "coordinates": [
                    15.4823,
                    51.939282
                ],
                "type": "Point"
            },
            "properties": {
                "capacity": 10,
                "is_installed": true,
                "is_renting": true,
                "is_returning": true,
                "is_virtual_station": false,
                "last_reported": 1789125173,
                "name": "Wojska Polskiego/Wyszy\u0144skiego",
                "num_bikes_available": 11,
                "num_docks_available": 0,
                "region_id": "529",
                "rental_uris": {
                    "android": "https://app.nextbike.net/station?id=9122390",
                    "ios": "https://app.nextbike.net/station?id=9122390",
                    "web": "https://nxtb.it/p/9122390"
                },
                "short_name": "1134",
                "station_id": "9122390",
                "vehicle_types_available": [
                    {
                        "count": 11,
                        "vehicle_type_id": "196"
                    }
                ]
            },
            "type": "Feature"
        },
        {
            "geometry": {
                "coordinates": [
                    15.47705,
                    51.937964
                ],
                "type": "Point"
            },
            "properties": {
                "capacity": 10,
                "is_installed": true,
                "is_renting": true,
                "is_returning": true,
                "is_virtual_station": false,
                "last_reported": 1789125173,
                "name": "Kraljevska",
                "num_bikes_available": 3,
                "num_docks_available": 7,
                "region_id": "529",
                "rental_uris": {
                    "android": "https://app.nextbike.net/station?id=9122401",
                    "ios": "https://app.nextbike.net/station?id=9122401",
                    "web": "https://nxtb.it/p/9122401"
                },
                "short_name": "1135",
                "station_id": "9122401",
                "vehicle_types_available": [
                    {
                        "count": 1,
                        "vehicle_type_id": "352"
                    },
                    {
                        "count": 2,
                        "vehicle_type_id": "196"
                    }
                ]
            },
            "type": "Feature"
        },
        {
            "geometry": {
                "coordinates": [
                    15.474271,
                    51.939154
                ],
                "type": "Point"
            },
            "properties": {
                "capacity": 10,
                "is_installed": true,
                "is_renting": true,
                "is_returning": true,
                "is_virtual_station": false,
                "last_reported": 1789125173,
                "name": "Wojska Polskiego (UZ)",
                "num_bikes_available": 5,
                "num_docks_available": 5,
                "region_id": "529",
                "rental_uris": {
                    "android": "https://app.nextbike.net/station?id=9122416",
                    "ios": "https://app.nextbike.net/station?id=9122416",
                    "web": "https://nxtb.it/p/9122416"
                },
                "short_name": "1136",
                "station_id": "9122416",
                "vehicle_types_available": [
                    {
                        "count": 1,
                        "vehicle_type_id": "183"
                    },
                    {
                        "count": 1,
                        "vehicle_type_id": "352"
                    },
                    {
                        "count": 3,
                        "vehicle_type_id": "196"
                    }
                ]
            },
            "type": "Feature"
        },
        {
            "geometry": {
                "coordinates": [
                    15.470365,
                    51.944455
                ],
                "type": "Point"
            },
            "properties": {
                "capacity": 10,
                "is_installed": true,
                "is_renting": true,
                "is_returning": true,
                "is_virtual_station": false,
                "last_reported": 1789125173,
                "name": "Agrestowa",
                "num_bikes_available": 9,
                "num_docks_available": 1,
                "region_id": "529",
                "rental_uris": {
                    "android": "https://app.nextbike.net/station?id=9122425",
                    "ios": "https://app.nextbike.net/station?id=9122425",
                    "web": "https://nxtb.it/p/9122425"
                },
                "short_name": "1137",
                "station_id": "9122425",
                "vehicle_types_available": [
                    {
                        "count": 3,
                        "vehicle_type_id": "352"
                    },
                    {
                        "count": 6,
                        "vehicle_type_id": "196"
                    }
                ]
            },
            "type": "Feature"
        },
        {
            "geometry": {
                "coordinates": [
                    15.5002,
                    51.920544
                ],
                "type": "Point"
            },
            "properties": {
                "capacity": 10,
                "is_installed": true,
                "is_renting": true,
                "is_returning": true,
                "is_virtual_station": false,
                "last_reported": 1789125173,
                "name": "Botaniczna (Ogr\u00f3d botaniczny - Mini ZOO) ",
                "num_bikes_available": 13,
                "num_docks_available": 0,
                "region_id": "529",
                "rental_uris": {
                    "android": "https://app.nextbike.net/station?id=9122438",
                    "ios": "https://app.nextbike.net/station?id=9122438",
                    "web": "https://nxtb.it/p/9122438"
                },
                "short_name": "1139",
                "station_id": "9122438",
                "vehicle_types_available": [
                    {
                        "count": 13,
                        "vehicle_type_id": "196"
                    }
                ]
            },
            "type": "Feature"
        },
        {
            "geometry": {
                "coordinates": [
                    15.454651,
                    51.945975
                ],
                "type": "Point"
            },
            "properties": {
                "capacity": 10,
                "is_installed": true,
                "is_renting": true,
                "is_returning": true,
                "is_virtual_station": false,
                "last_reported": 1789125173,
                "name": "Cisowa",
                "num_bikes_available": 9,
                "num_docks_available": 1,
                "region_id": "529",
                "rental_uris": {
                    "android": "https://app.nextbike.net/station?id=9122444",
                    "ios": "https://app.nextbike.net/station?id=9122444",
                    "web": "https://nxtb.it/p/9122444"
                },
                "short_name": "1140",
                "station_id": "9122444",
                "vehicle_types_available": [
                    {
                        "count": 3,
                        "vehicle_type_id": "352"
                    },
                    {
                        "count": 6,
                        "vehicle_type_id": "196"
                    }
                ]
            },
            "type": "Feature"
        },
        {
            "geometry": {
                "coordinates": [
                    15.488124,
                    51.93766
                ],
                "type": "Point"
            },
            "properties": {
                "capacity": 10,
                "is_installed": true,
                "is_renting": true,
                "is_returning": true,
                "is_virtual_station": false,
                "last_reported": 1789125173,
                "name": "Kro\u015bnie\u0144ska (Zielona Strza\u0142a)",
                "num_bikes_available": 6,
                "num_docks_available": 4,
                "region_id": "529",
                "rental_uris": {
                    "android": "https://app.nextbike.net/station?id=9122448",
                    "ios": "https://app.nextbike.net/station?id=9122448",
                    "web": "https://nxtb.it/p/9122448"
                },
                "short_name": "1141",
                "station_id": "9122448",
                "vehicle_types_available": [
                    {
                        "count": 6,
                        "vehicle_type_id": "196"
                    }
                ]
            },
            "type": "Feature"
        },
        {
            "geometry": {
                "coordinates": [
                    15.481439,
                    51.935456
                ],
                "type": "Point"
            },
            "properties": {
                "capacity": 10,
                "is_installed": true,
                "is_renting": true,
                "is_returning": true,
                "is_virtual_station": false,
                "last_reported": 1789125173,
                "name": "Wyszy\u0144skiego/S\u0142owacka",
                "num_bikes_available": 8,
                "num_docks_available": 2,
                "region_id": "529",
                "rental_uris": {
                    "android": "https://app.nextbike.net/station?id=9122452",
                    "ios": "https://app.nextbike.net/station?id=9122452",
                    "web": "https://nxtb.it/p/9122452"
                },
                "short_name": "1142",
                "station_id": "9122452",
                "vehicle_types_available": [
                    {
                        "count": 8,
                        "vehicle_type_id": "196"
                    }
                ]
            },
            "type": "Feature"
        },
        {
            "geometry": {
                "coordinates": [
                    15.485354,
                    51.931494
                ],
                "type": "Point"
            },
            "properties": {
                "capacity": 10,
                "is_installed": true,
                "is_renting": true,
                "is_returning": true,
                "is_virtual_station": false,
                "last_reported": 1789125173,
                "name": "Wyszy\u0144skiego/Monte Cassino",
                "num_bikes_available": 3,
                "num_docks_available": 7,
                "region_id": "529",
                "rental_uris": {
                    "android": "https://app.nextbike.net/station?id=9122461",
                    "ios": "https://app.nextbike.net/station?id=9122461",
                    "web": "https://nxtb.it/p/9122461"
                },
                "short_name": "1143",
                "station_id": "9122461",
                "vehicle_types_available": [
                    {
                        "count": 3,
                        "vehicle_type_id": "196"
                    }
                ]
            },
            "type": "Feature"
        },
        {
            "geometry": {
                "coordinates": [
                    15.487514,
                    51.928661
                ],
                "type": "Point"
            },
            "properties": {
                "capacity": 10,
                "is_installed": true,
                "is_renting": true,
                "is_returning": true,
                "is_virtual_station": false,
                "last_reported": 1789125173,
                "name": "Zawadzkiego/Cyryla i Metodego",
                "num_bikes_available": 2,
                "num_docks_available": 8,
                "region_id": "529",
                "rental_uris": {
                    "android": "https://app.nextbike.net/station?id=9122467",
                    "ios": "https://app.nextbike.net/station?id=9122467",
                    "web": "https://nxtb.it/p/9122467"
                },
                "short_name": "1144",
                "station_id": "9122467",
                "vehicle_types_available": [
                    {
                        "count": 2,
                        "vehicle_type_id": "196"
                    }
                ]
            },
            "type": "Feature"
        },
        {
            "geometry": {
                "coordinates": [
                    15.492318,
                    51.929966
                ],
                "type": "Point"
            },
            "properties": {
                "capacity": 10,
                "is_installed": true,
                "is_renting": true,
                "is_returning": true,
                "is_virtual_station": false,
                "last_reported": 1789125173,
                "name": "Wyszy\u0144skiego/Wi\u015bniowa",
                "num_bikes_available": 4,
                "num_docks_available": 6,
                "region_id": "529",
                "rental_uris": {
                    "android": "https://app.nextbike.net/station?id=9122469",
                    "ios": "https://app.nextbike.net/station?id=9122469",
                    "web": "https://nxtb.it/p/9122469"
                },
                "short_name": "1145",
                "station_id": "9122469",
                "vehicle_types_available": [
                    {
                        "count": 4,
                        "vehicle_type_id": "196"
                    }
                ]
            },
            "type": "Feature"
        },
        {
            "geometry": {
                "coordinates": [
                    15.498337,
                    51.933249
                ],
                "type": "Point"
            },
            "properties": {
                "capacity": 10,
                "is_installed": true,
                "is_renting": true,
                "is_returning": true,
                "is_virtual_station": false,
                "last_reported": 1789125173,
                "name": "1 Maja (Zielona Strza\u0142a)",
                "num_bikes_available": 3,
                "num_docks_available": 6,
                "region_id": "529",
                "rental_uris": {
                    "android": "https://app.nextbike.net/station?id=9122476",
                    "ios": "https://app.nextbike.net/station?id=9122476",
                    "web": "https://nxtb.it/p/9122476"
                },
                "short_name": "1146",
                "station_id": "9122476",
                "vehicle_types_available": [
                    {
                        "count": 3,
                        "vehicle_type_id": "196"
                    }
                ]
            },
            "type": "Feature"
        },
        {
            "geometry": {
                "coordinates": [
                    15.498984,
                    51.953189
                ],
                "type": "Point"
            },
            "properties": {
                "capacity": 10,
                "is_installed": true,
                "is_renting": true,
                "is_returning": true,
                "is_virtual_station": false,
                "last_reported": 1789125173,
                "name": "Batorego/Obywatelska",
                "num_bikes_available": 4,
                "num_docks_available": 6,
                "region_id": "529",
                "rental_uris": {
                    "android": "https://app.nextbike.net/station?id=9122487",
                    "ios": "https://app.nextbike.net/station?id=9122487",
                    "web": "https://nxtb.it/p/9122487"
                },
                "short_name": "1147",
                "station_id": "9122487",
                "vehicle_types_available": [
                    {
                        "count": 2,
                        "vehicle_type_id": "352"
                    },
                    {
                        "count": 2,
                        "vehicle_type_id": "196"
                    }
                ]
            },
            "type": "Feature"
        },
        {
            "geometry": {
                "coordinates": [
                    15.503058,
                    51.936806
                ],
                "type": "Point"
            },
            "properties": {
                "capacity": 10,
                "is_installed": true,
                "is_renting": true,
                "is_returning": true,
                "is_virtual_station": false,
                "last_reported": 1789125173,
                "name": "Plac S\u0142owia\u0144ski",
                "num_bikes_available": 12,
                "num_docks_available": 0,
                "region_id": "529",
                "rental_uris": {
                    "android": "https://app.nextbike.net/station?id=9122494",
                    "ios": "https://app.nextbike.net/station?id=9122494",
                    "web": "https://nxtb.it/p/9122494"
                },
                "short_name": "1148",
                "station_id": "9122494",
                "vehicle_types_available": [
                    {
                        "count": 12,
                        "vehicle_type_id": "196"
                    }
                ]
            },
            "type": "Feature"
        },
        {
            "geometry": {
                "coordinates": [
                    15.506481,
                    51.935897
                ],
                "type": "Point"
            },
            "properties": {
                "capacity": 10,
                "is_installed": true,
                "is_renting": true,
                "is_returning": true,
                "is_virtual_station": false,
                "last_reported": 1789125173,
                "name": "Konstytucji 3 Maja (Wenus)",
                "num_bikes_available": 9,
                "num_docks_available": 1,
                "region_id": "529",
                "rental_uris": {
                    "android": "https://app.nextbike.net/station?id=9122506",
                    "ios": "https://app.nextbike.net/station?id=9122506",
                    "web": "https://nxtb.it/p/9122506"
                },
                "short_name": "1149",
                "station_id": "9122506",
                "vehicle_types_available": [
                    {
                        "count": 1,
                        "vehicle_type_id": "352"
                    },
                    {
                        "count": 8,
                        "vehicle_type_id": "196"
                    }
                ]
            },
            "type": "Feature"
        },
        {
            "geometry": {
                "coordinates": [
                    15.523532,
                    51.956863
                ],
                "type": "Point"
            },
            "properties": {
                "capacity": 10,
                "is_installed": true,
                "is_renting": true,
                "is_returning": true,
                "is_virtual_station": false,
                "last_reported": 1789125173,
                "name": "Sulechowska (CRS)",
                "num_bikes_available": 9,
                "num_docks_available": 1,
                "region_id": "529",
                "rental_uris": {
                    "android": "https://app.nextbike.net/station?id=9122511",
                    "ios": "https://app.nextbike.net/station?id=9122511",
                    "web": "https://nxtb.it/p/9122511"
                },
                "short_name": "1150",
                "station_id": "9122511",
                "vehicle_types_available": [
                    {
                        "count": 1,
                        "vehicle_type_id": "183"
                    },
                    {
                        "count": 1,
                        "vehicle_type_id": "352"
                    },
                    {
                        "count": 7,
                        "vehicle_type_id": "196"
                    }
                ]
            },
            "type": "Feature"
        },
        {
            "geometry": {
                "coordinates": [
                    15.534448,
                    51.969102
                ],
                "type": "Point"
            },
            "properties": {
                "capacity": 10,
                "is_installed": true,
                "is_renting": true,
                "is_returning": true,
                "is_virtual_station": false,
                "last_reported": 1789125173,
                "name": "Kr\u0119powska (Chyn\u00f3w)",
                "num_bikes_available": 10,
                "num_docks_available": 0,
                "region_id": "529",
                "rental_uris": {
                    "android": "https://app.nextbike.net/station?id=9122515",
                    "ios": "https://app.nextbike.net/station?id=9122515",
                    "web": "https://nxtb.it/p/9122515"
                },
                "short_name": "1151",
                "station_id": "9122515",
                "vehicle_types_available": [
                    {
                        "count": 5,
                        "vehicle_type_id": "352"
                    },
                    {
                        "count": 5,
                        "vehicle_type_id": "196"
                    }
                ]
            },
            "type": "Feature"
        },
        {
            "geometry": {
                "coordinates": [
                    15.513635,
                    51.947112
                ],
                "type": "Point"
            },
            "properties": {
                "capacity": 10,
                "is_installed": true,
                "is_renting": true,
                "is_returning": true,
                "is_virtual_station": false,
                "last_reported": 1789125173,
                "name": "Dworcowa (dworzec PKP)",
                "num_bikes_available": 10,
                "num_docks_available": 0,
                "region_id": "529",
                "rental_uris": {
                    "android": "https://app.nextbike.net/station?id=9122526",
                    "ios": "https://app.nextbike.net/station?id=9122526",
                    "web": "https://nxtb.it/p/9122526"
                },
                "short_name": "1152",
                "station_id": "9122526",
                "vehicle_types_available": [
                    {
                        "count": 1,
                        "vehicle_type_id": "183"
                    },
                    {
                        "count": 9,
                        "vehicle_type_id": "196"
                    }
                ]
            },
            "type": "Feature"
        },
        {
            "geometry": {
                "coordinates": [
                    15.510964,
                    51.946735
                ],
                "type": "Point"
            },
            "properties": {
                "capacity": 10,
                "is_installed": true,
                "is_renting": true,
                "is_returning": true,
                "is_virtual_station": false,
                "last_reported": 1789125173,
                "name": "Dworcowa (dworzec PKS)",
                "num_bikes_available": 10,
                "num_docks_available": 0,
                "region_id": "529",
                "rental_uris": {
                    "android": "https://app.nextbike.net/station?id=9122530",
                    "ios": "https://app.nextbike.net/station?id=9122530",
                    "web": "https://nxtb.it/p/9122530"
                },
                "short_name": "1153",
                "station_id": "9122530",
                "vehicle_types_available": [
                    {
                        "count": 1,
                        "vehicle_type_id": "183"
                    },
                    {
                        "count": 9,
                        "vehicle_type_id": "196"
                    }
                ]
            },
            "type": "Feature"
        },
        {
            "geometry": {
                "coordinates": [
                    15.52091,
                    51.945175
                ],
                "type": "Point"
            },
            "properties": {
                "capacity": 10,
                "is_installed": true,
                "is_renting": true,
                "is_returning": true,
                "is_virtual_station": false,
                "last_reported": 1789125173,
                "name": "Wyspia\u0144skiego (p\u0142ywalnia)",
                "num_bikes_available": 8,
                "num_docks_available": 2,
                "region_id": "529",
                "rental_uris": {
                    "android": "https://app.nextbike.net/station?id=9122536",
                    "ios": "https://app.nextbike.net/station?id=9122536",
                    "web": "https://nxtb.it/p/9122536"
                },
                "short_name": "1154",
                "station_id": "9122536",
                "vehicle_types_available": [
                    {
                        "count": 8,
                        "vehicle_type_id": "196"
                    }
                ]
            },
            "type": "Feature"
        },
        {
            "geometry": {
                "coordinates": [
                    15.496729,
                    51.958425
                ],
                "type": "Point"
            },
            "properties": {
                "capacity": 10,
                "is_installed": true,
                "is_renting": true,
                "is_returning": true,
                "is_virtual_station": false,
                "last_reported": 1789125173,
                "name": "Batorego/Zamoyskiego",
                "num_bikes_available": 13,
                "num_docks_available": 0,
                "region_id": "529",
                "rental_uris": {
                    "android": "https://app.nextbike.net/station?id=9122546",
                    "ios": "https://app.nextbike.net/station?id=9122546",
                    "web": "https://nxtb.it/p/9122546"
                },
                "short_name": "1155",
                "station_id": "9122546",
                "vehicle_types_available": [
                    {
                        "count": 3,
                        "vehicle_type_id": "183"
                    },
                    {
                        "count": 10,
                        "vehicle_type_id": "196"
                    }
                ]
            },
            "type": "Feature"
        },
        {
            "geometry": {
                "coordinates": [
                    15.486797,
                    51.978576
                ],
                "type": "Point"
            },
            "properties": {
                "capacity": 10,
                "is_installed": true,
                "is_renting": true,
                "is_returning": true,
                "is_virtual_station": false,
                "last_reported": 1789125173,
                "name": "Odrza\u0144ska (Czarkowo)",
                "num_bikes_available": 7,
                "num_docks_available": 3,
                "region_id": "529",
                "rental_uris": {
                    "android": "https://app.nextbike.net/station?id=9122552",
                    "ios": "https://app.nextbike.net/station?id=9122552",
                    "web": "https://nxtb.it/p/9122552"
                },
                "short_name": "1156",
                "station_id": "9122552",
                "vehicle_types_available": [
                    {
                        "count": 2,
                        "vehicle_type_id": "183"
                    },
                    {
                        "count": 4,
                        "vehicle_type_id": "352"
                    },
                    {
                        "count": 1,
                        "vehicle_type_id": "196"
                    }
                ]
            },
            "type": "Feature"
        },
        {
            "geometry": {
                "coordinates": [
                    15.507264,
                    51.905833
                ],
                "type": "Point"
            },
            "properties": {
                "capacity": 10,
                "is_installed": true,
                "is_renting": true,
                "is_returning": true,
                "is_virtual_station": false,
                "last_reported": 1789125173,
                "name": "Nowoj\u0119drzychowska/Makowa",
                "num_bikes_available": 7,
                "num_docks_available": 3,
                "region_id": "529",
                "rental_uris": {
                    "android": "https://app.nextbike.net/station?id=9737421",
                    "ios": "https://app.nextbike.net/station?id=9737421",
                    "web": "https://nxtb.it/p/9737421"
                },
                "short_name": "1157",
                "station_id": "9737421",
                "vehicle_types_available": [
                    {
                        "count": 2,
                        "vehicle_type_id": "352"
                    },
                    {
                        "count": 4,
                        "vehicle_type_id": "196"
                    },
                    {
                        "count": 1,
                        "vehicle_type_id": "183"
                    }
                ]
            },
            "type": "Feature"
        }
    ],
    "gbfs": {
        "station_information": {
            "last_updated": 1789125173,
            "ttl": 60,
            "version": "2.3"
        },
        "station_status": {
            "last_updated": 1789125173,
            "ttl": 60,
            "version": "2.3"
        }
    },
    "type": "FeatureCollection"
}