{
    "features": [
        {
            "geometry": {
                "coordinates": [
                    6.022567,
                    47.246419
                ],
                "type": "Point"
            },
            "properties": {
                "address": "GARE VIOTTE Parc des Glacis - Entr\u00e9e Avenue de la Paix",
                "available_bike_stands": 15,
                "available_bikes": 14,
                "banking": false,
                "bike_stands": 30,
                "bonus": false,
                "contract_name": "besancon",
                "last_update": 1789125844000,
                "name": "01 - GARE VIOTTE (CB)",
                "number": 1,
                "status": "OPEN"
            },
            "type": "Feature"
        },
        {
            "geometry": {
                "coordinates": [
                    6.021877,
                    47.243497
                ],
                "type": "Point"
            },
            "properties": {
                "address": "Rue Battant (au niveau du Square Bouchot)",
                "available_bike_stands": 6,
                "available_bikes": 4,
                "banking": false,
                "bike_stands": 10,
                "bonus": false,
                "contract_name": "besancon",
                "last_update": 1789125354000,
                "name": "02 - REMPARTS",
                "number": 2,
                "status": "OPEN"
            },
            "type": "Feature"
        },
        {
            "geometry": {
                "coordinates": [
                    6.019691,
                    47.239978
                ],
                "type": "Point"
            },
            "properties": {
                "address": "Rue de la Madeleine- Face \u00e0 la rue de l'Ecole",
                "available_bike_stands": 6,
                "available_bikes": 9,
                "banking": true,
                "bike_stands": 15,
                "bonus": false,
                "contract_name": "besancon",
                "last_update": 1789125926000,
                "name": "03 - BATTANT (CB)",
                "number": 3,
                "status": "OPEN"
            },
            "type": "Feature"
        },
        {
            "geometry": {
                "coordinates": [
                    6.02813727356559,
                    47.2457632861862
                ],
                "type": "Point"
            },
            "properties": {
                "address": "7 rue de la Cassotte",
                "available_bike_stands": 7,
                "available_bikes": 4,
                "banking": false,
                "bike_stands": 11,
                "bonus": false,
                "contract_name": "besancon",
                "last_update": 1789125746000,
                "name": "04 - FLORE",
                "number": 4,
                "status": "OPEN"
            },
            "type": "Feature"
        },
        {
            "geometry": {
                "coordinates": [
                    6.025208,
                    47.242745
                ],
                "type": "Point"
            },
            "properties": {
                "address": "Quai de Strasbourg (Pont Denfert Rochereau)",
                "available_bike_stands": 8,
                "available_bikes": 1,
                "banking": false,
                "bike_stands": 10,
                "bonus": false,
                "contract_name": "besancon",
                "last_update": 1789125583000,
                "name": "05 - ISENBART",
                "number": 5,
                "status": "OPEN"
            },
            "type": "Feature"
        },
        {
            "geometry": {
                "coordinates": [
                    6.029757,
                    47.242575
                ],
                "type": "Point"
            },
            "properties": {
                "address": "Avenue Edouard Droz",
                "available_bike_stands": 11,
                "available_bikes": 4,
                "banking": true,
                "bike_stands": 15,
                "bonus": false,
                "contract_name": "besancon",
                "last_update": 1789125570000,
                "name": "06 - PARC MICAUD (CB)",
                "number": 6,
                "status": "OPEN"
            },
            "type": "Feature"
        },
        {
            "geometry": {
                "coordinates": [
                    6.033776,
                    47.240147
                ],
                "type": "Point"
            },
            "properties": {
                "address": "Parvis de la Gare",
                "available_bike_stands": 14,
                "available_bikes": 4,
                "banking": false,
                "bike_stands": 18,
                "bonus": false,
                "contract_name": "besancon",
                "last_update": 1789125734000,
                "name": "07 - GARE MOUILLERE",
                "number": 7,
                "status": "OPEN"
            },
            "type": "Feature"
        },
        {
            "geometry": {
                "coordinates": [
                    6.015261,
                    47.235434
                ],
                "type": "Point"
            },
            "properties": {
                "address": "Avenue Louise Michel angle rue Plan\u00e7on",
                "available_bike_stands": 12,
                "available_bikes": 8,
                "banking": false,
                "bike_stands": 20,
                "bonus": false,
                "contract_name": "besancon",
                "last_update": 1789125828000,
                "name": "09 - LA CITY",
                "number": 9,
                "status": "OPEN"
            },
            "type": "Feature"
        },
        {
            "geometry": {
                "coordinates": [
                    6.024183,
                    47.237686
                ],
                "type": "Point"
            },
            "properties": {
                "address": "Place du 8 Septembre",
                "available_bike_stands": 7,
                "available_bikes": 8,
                "banking": true,
                "bike_stands": 15,
                "bonus": false,
                "contract_name": "besancon",
                "last_update": 1789125398000,
                "name": "10 - 8 SEPTEMBRE (CB)",
                "number": 10,
                "status": "OPEN"
            },
            "type": "Feature"
        },
        {
            "geometry": {
                "coordinates": [
                    6.028817,
                    47.236363
                ],
                "type": "Point"
            },
            "properties": {
                "address": "Place Jean Cornet",
                "available_bike_stands": 6,
                "available_bikes": 4,
                "banking": false,
                "bike_stands": 10,
                "bonus": false,
                "contract_name": "besancon",
                "last_update": 1789125364000,
                "name": "11 - JEAN CORNET",
                "number": 11,
                "status": "OPEN"
            },
            "type": "Feature"
        },
        {
            "geometry": {
                "coordinates": [
                    6.025724,
                    47.235437
                ],
                "type": "Point"
            },
            "properties": {
                "address": "Place Granvelle",
                "available_bike_stands": 8,
                "available_bikes": 7,
                "banking": true,
                "bike_stands": 15,
                "bonus": false,
                "contract_name": "besancon",
                "last_update": 1789125407000,
                "name": "12 - GRANVELLE (CB)",
                "number": 12,
                "status": "OPEN"
            },
            "type": "Feature"
        },
        {
            "geometry": {
                "coordinates": [
                    6.029566,
                    47.234749
                ],
                "type": "Point"
            },
            "properties": {
                "address": "Place Victor Hugo (au niveau de la porte Noire, entr\u00e9e de la Citadelle)",
                "available_bike_stands": 11,
                "available_bikes": 3,
                "banking": true,
                "bike_stands": 14,
                "bonus": false,
                "contract_name": "besancon",
                "last_update": 1789125434000,
                "name": "13 - VICTOR HUGO (CB)",
                "number": 13,
                "status": "OPEN"
            },
            "type": "Feature"
        },
        {
            "geometry": {
                "coordinates": [
                    6.033161,
                    47.234525
                ],
                "type": "Point"
            },
            "properties": {
                "address": "Place Jacobins",
                "available_bike_stands": 4,
                "available_bikes": 6,
                "banking": false,
                "bike_stands": 10,
                "bonus": false,
                "contract_name": "besancon",
                "last_update": 1789125927000,
                "name": "14 - JACOBINS",
                "number": 14,
                "status": "OPEN"
            },
            "type": "Feature"
        },
        {
            "geometry": {
                "coordinates": [
                    6.026907,
                    47.231188
                ],
                "type": "Point"
            },
            "properties": {
                "address": "Place De Lattre de Tassigny, 25000 Besancon",
                "available_bike_stands": 9,
                "available_bikes": 1,
                "banking": false,
                "bike_stands": 10,
                "bonus": false,
                "contract_name": "besancon",
                "last_update": 1789125739000,
                "name": "15 - LECOURBE",
                "number": 15,
                "status": "OPEN"
            },
            "type": "Feature"
        },
        {
            "geometry": {
                "coordinates": [
                    6.032556,
                    47.244981
                ],
                "type": "Point"
            },
            "properties": {
                "address": "Avenue Fontaine Argent angle rue Beauregard",
                "available_bike_stands": 7,
                "available_bikes": 4,
                "banking": false,
                "bike_stands": 11,
                "bonus": false,
                "contract_name": "besancon",
                "last_update": 1789125454000,
                "name": "16 - FONTAINE ARGENT",
                "number": 16,
                "status": "OPEN"
            },
            "type": "Feature"
        },
        {
            "geometry": {
                "coordinates": [
                    6.020116,
                    47.232903
                ],
                "type": "Point"
            },
            "properties": {
                "address": "Avenue de la Gare d'Eau face commissariat",
                "available_bike_stands": 3,
                "available_bikes": 11,
                "banking": false,
                "bike_stands": 14,
                "bonus": false,
                "contract_name": "besancon",
                "last_update": 1789125611000,
                "name": "17 - CHAMARS",
                "number": 17,
                "status": "OPEN"
            },
            "type": "Feature"
        },
        {
            "geometry": {
                "coordinates": [
                    6.021363,
                    47.23526
                ],
                "type": "Point"
            },
            "properties": {
                "address": "Place Saint Jacques (en face de l'hopital)",
                "available_bike_stands": 10,
                "available_bikes": 10,
                "banking": true,
                "bike_stands": 20,
                "bonus": false,
                "contract_name": "besancon",
                "last_update": 1789125450000,
                "name": "18 - CHAMARS ESPLANADE (CB)",
                "number": 18,
                "status": "OPEN"
            },
            "type": "Feature"
        },
        {
            "geometry": {
                "coordinates": [
                    6.023395,
                    47.239533
                ],
                "type": "Point"
            },
            "properties": {
                "address": "Place de la R\u00e9volution rue Luc Breton",
                "available_bike_stands": 12,
                "available_bikes": 2,
                "banking": false,
                "bike_stands": 15,
                "bonus": false,
                "contract_name": "besancon",
                "last_update": 1789125779000,
                "name": "19 - REVOLUTION",
                "number": 19,
                "status": "OPEN"
            },
            "type": "Feature"
        },
        {
            "geometry": {
                "coordinates": [
                    6.03642,
                    47.247808
                ],
                "type": "Point"
            },
            "properties": {
                "address": "Avenue Fontaine Argent angle Bld Diderot",
                "available_bike_stands": 5,
                "available_bikes": 7,
                "banking": false,
                "bike_stands": 12,
                "bonus": false,
                "contract_name": "besancon",
                "last_update": 1789125754000,
                "name": "20 - TRISTAN BERNARD",
                "number": 20,
                "status": "OPEN"
            },
            "type": "Feature"
        },
        {
            "geometry": {
                "coordinates": [
                    6.028587,
                    47.24746
                ],
                "type": "Point"
            },
            "properties": {
                "address": "Place de la Libert\u00e9",
                "available_bike_stands": 10,
                "available_bikes": 1,
                "banking": false,
                "bike_stands": 12,
                "bonus": false,
                "contract_name": "besancon",
                "last_update": 1789125871000,
                "name": "21 - LIBERTE",
                "number": 21,
                "status": "OPEN"
            },
            "type": "Feature"
        },
        {
            "geometry": {
                "coordinates": [
                    6.035007,
                    47.23219
                ],
                "type": "Point"
            },
            "properties": {
                "address": "20 faubourg Rivotte",
                "available_bike_stands": 10,
                "available_bikes": 2,
                "banking": false,
                "bike_stands": 12,
                "bonus": false,
                "contract_name": "besancon",
                "last_update": 1789125394000,
                "name": "22 - RIVOTTE",
                "number": 22,
                "status": "OPEN"
            },
            "type": "Feature"
        },
        {
            "geometry": {
                "coordinates": [
                    6.0273503,
                    47.2400989
                ],
                "type": "Point"
            },
            "properties": {
                "address": "Rue de la R\u00e9publique angle rue d'Alsace face \u00e0 la m\u00e9diath\u00e8que",
                "available_bike_stands": 4,
                "available_bikes": 6,
                "banking": false,
                "bike_stands": 10,
                "bonus": false,
                "contract_name": "besancon",
                "last_update": 1789125399000,
                "name": "23 - REPUBLIQUE",
                "number": 23,
                "status": "OPEN"
            },
            "type": "Feature"
        },
        {
            "geometry": {
                "coordinates": [
                    6.026293,
                    47.238129
                ],
                "type": "Point"
            },
            "properties": {
                "address": "2 rue Morand",
                "available_bike_stands": 6,
                "available_bikes": 6,
                "banking": false,
                "bike_stands": 12,
                "bonus": false,
                "contract_name": "besancon",
                "last_update": 1789125490000,
                "name": "24 - GRANGES",
                "number": 24,
                "status": "OPEN"
            },
            "type": "Feature"
        },
        {
            "geometry": {
                "coordinates": [
                    6.029562,
                    47.23886
                ],
                "type": "Point"
            },
            "properties": {
                "address": "Place de la 7\u00e8me Brigade blind\u00e9e",
                "available_bike_stands": 6,
                "available_bikes": 4,
                "banking": false,
                "bike_stands": 10,
                "bonus": false,
                "contract_name": "besancon",
                "last_update": 1789125403000,
                "name": "25 - BERSOT",
                "number": 25,
                "status": "OPEN"
            },
            "type": "Feature"
        },
        {
            "geometry": {
                "coordinates": [
                    6.022309,
                    47.236806
                ],
                "type": "Point"
            },
            "properties": {
                "address": "Rue Megevand",
                "available_bike_stands": 7,
                "available_bikes": 8,
                "banking": false,
                "bike_stands": 15,
                "bonus": false,
                "contract_name": "besancon",
                "last_update": 1789125891000,
                "name": "26 - MAIRIE",
                "number": 26,
                "status": "OPEN"
            },
            "type": "Feature"
        },
        {
            "geometry": {
                "coordinates": [
                    6.0144482,
                    47.2422671
                ],
                "type": "Point"
            },
            "properties": {
                "address": "Place Leclerc",
                "available_bike_stands": 10,
                "available_bikes": 0,
                "banking": false,
                "bike_stands": 10,
                "bonus": false,
                "contract_name": "besancon",
                "last_update": 1789125400000,
                "name": "27 - LECLERC",
                "number": 27,
                "status": "OPEN"
            },
            "type": "Feature"
        },
        {
            "geometry": {
                "coordinates": [
                    6.030818,
                    47.248886
                ],
                "type": "Point"
            },
            "properties": {
                "address": "Rue de Belfort angle rue Suard",
                "available_bike_stands": 7,
                "available_bikes": 5,
                "banking": false,
                "bike_stands": 12,
                "bonus": false,
                "contract_name": "besancon",
                "last_update": 1789125428000,
                "name": "28 - MARIE LOUISE",
                "number": 28,
                "status": "OPEN"
            },
            "type": "Feature"
        },
        {
            "geometry": {
                "coordinates": [
                    6.009141,
                    47.242184
                ],
                "type": "Point"
            },
            "properties": {
                "address": "carrefour Xavier Marmier Ousmane Sow",
                "available_bike_stands": 12,
                "available_bikes": 0,
                "banking": false,
                "bike_stands": 12,
                "bonus": false,
                "contract_name": "besancon",
                "last_update": 1789125590000,
                "name": "29 - GIBELOTTE",
                "number": 29,
                "status": "OPEN"
            },
            "type": "Feature"
        },
        {
            "geometry": {
                "coordinates": [
                    6.00441576239895,
                    47.2441399547006
                ],
                "type": "Point"
            },
            "properties": {
                "address": "Rue Alphonse Delacroix",
                "available_bike_stands": 17,
                "available_bikes": 3,
                "banking": false,
                "bike_stands": 20,
                "bonus": false,
                "contract_name": "besancon",
                "last_update": 1789125821000,
                "name": "30 - LEO LAGRANGE",
                "number": 30,
                "status": "OPEN"
            },
            "type": "Feature"
        },
        {
            "geometry": {
                "coordinates": [
                    5.99224899414656,
                    47.2473689429309
                ],
                "type": "Point"
            },
            "properties": {
                "address": "Avenue de l'observatoire",
                "available_bike_stands": 14,
                "available_bikes": 6,
                "banking": false,
                "bike_stands": 20,
                "bonus": false,
                "contract_name": "besancon",
                "last_update": 1789125351000,
                "name": "31 - IUT",
                "number": 31,
                "status": "OPEN"
            },
            "type": "Feature"
        },
        {
            "geometry": {
                "coordinates": [
                    5.98692891794015,
                    47.248487919182
                ],
                "type": "Point"
            },
            "properties": {
                "address": "35 Avenue de l'Observatoire",
                "available_bike_stands": 27,
                "available_bikes": 14,
                "banking": false,
                "bike_stands": 42,
                "bonus": false,
                "contract_name": "besancon",
                "last_update": 1789125781000,
                "name": "32 - CROUS UNIVERSITE",
                "number": 32,
                "status": "OPEN"
            },
            "type": "Feature"
        }
    ],
    "type": "FeatureCollection"
}