{
    "features": [
        {
            "geometry": {
                "coordinates": [
                    8.644604,
                    50.251589
                ],
                "type": "Point"
            },
            "properties": {
                "capacity": 7,
                "is_installed": true,
                "is_renting": true,
                "is_returning": true,
                "is_virtual_station": false,
                "last_reported": 1789254094,
                "name": "Friedrichsdorf Bahnhof",
                "num_bikes_available": 2,
                "num_docks_available": 5,
                "region_id": "954",
                "rental_uris": {
                    "android": "https://app.nextbike.net/station?id=358144932",
                    "ios": "https://app.nextbike.net/station?id=358144932",
                    "web": "https://nxtb.it/p/358144932"
                },
                "short_name": "42450",
                "station_id": "358144932",
                "vehicle_types_available": [
                    {
                        "count": 2,
                        "vehicle_type_id": "204"
                    }
                ]
            },
            "type": "Feature"
        },
        {
            "geometry": {
                "coordinates": [
                    8.646804,
                    50.270114
                ],
                "type": "Point"
            },
            "properties": {
                "capacity": 6,
                "is_installed": true,
                "is_renting": true,
                "is_returning": true,
                "is_virtual_station": false,
                "last_reported": 1789254094,
                "name": "K\u00f6ppern Bahnhof",
                "num_bikes_available": 6,
                "num_docks_available": 0,
                "region_id": "954",
                "rental_uris": {
                    "android": "https://app.nextbike.net/station?id=358145462",
                    "ios": "https://app.nextbike.net/station?id=358145462",
                    "web": "https://nxtb.it/p/358145462"
                },
                "short_name": "42451",
                "station_id": "358145462",
                "vehicle_types_available": [
                    {
                        "count": 6,
                        "vehicle_type_id": "204"
                    }
                ]
            },
            "type": "Feature"
        },
        {
            "geometry": {
                "coordinates": [
                    8.646293,
                    50.243881
                ],
                "type": "Point"
            },
            "properties": {
                "capacity": 5,
                "is_installed": true,
                "is_renting": true,
                "is_returning": true,
                "is_virtual_station": false,
                "last_reported": 1789254094,
                "name": "Hardtwaldallee",
                "num_bikes_available": 5,
                "num_docks_available": 0,
                "region_id": "954",
                "rental_uris": {
                    "android": "https://app.nextbike.net/station?id=358146964",
                    "ios": "https://app.nextbike.net/station?id=358146964",
                    "web": "https://nxtb.it/p/358146964"
                },
                "short_name": "42452",
                "station_id": "358146964",
                "vehicle_types_available": [
                    {
                        "count": 5,
                        "vehicle_type_id": "204"
                    }
                ]
            },
            "type": "Feature"
        },
        {
            "geometry": {
                "coordinates": [
                    8.639261,
                    50.255095
                ],
                "type": "Point"
            },
            "properties": {
                "capacity": 5,
                "is_installed": true,
                "is_renting": true,
                "is_returning": true,
                "is_virtual_station": false,
                "last_reported": 1789254094,
                "name": "Rathaus / Innenstadt",
                "num_bikes_available": 4,
                "num_docks_available": 1,
                "region_id": "954",
                "rental_uris": {
                    "android": "https://app.nextbike.net/station?id=358183608",
                    "ios": "https://app.nextbike.net/station?id=358183608",
                    "web": "https://nxtb.it/p/358183608"
                },
                "short_name": "42453",
                "station_id": "358183608",
                "vehicle_types_available": [
                    {
                        "count": 2,
                        "vehicle_type_id": "204"
                    },
                    {
                        "count": 1,
                        "vehicle_type_id": "290"
                    },
                    {
                        "count": 1,
                        "vehicle_type_id": "287"
                    }
                ]
            },
            "type": "Feature"
        },
        {
            "geometry": {
                "coordinates": [
                    8.65124,
                    50.275172
                ],
                "type": "Point"
            },
            "properties": {
                "capacity": 4,
                "is_installed": true,
                "is_renting": true,
                "is_returning": true,
                "is_virtual_station": false,
                "last_reported": 1789254094,
                "name": "Im Hahlgarten",
                "num_bikes_available": 4,
                "num_docks_available": 0,
                "region_id": "954",
                "rental_uris": {
                    "android": "https://app.nextbike.net/station?id=358184174",
                    "ios": "https://app.nextbike.net/station?id=358184174",
                    "web": "https://nxtb.it/p/358184174"
                },
                "short_name": "42455",
                "station_id": "358184174",
                "vehicle_types_available": [
                    {
                        "count": 3,
                        "vehicle_type_id": "204"
                    },
                    {
                        "count": 1,
                        "vehicle_type_id": "289"
                    }
                ]
            },
            "type": "Feature"
        },
        {
            "geometry": {
                "coordinates": [
                    8.656192,
                    50.256469
                ],
                "type": "Point"
            },
            "properties": {
                "capacity": 5,
                "is_installed": true,
                "is_renting": true,
                "is_returning": true,
                "is_virtual_station": false,
                "last_reported": 1789254094,
                "name": "Sportpark",
                "num_bikes_available": 4,
                "num_docks_available": 1,
                "region_id": "954",
                "rental_uris": {
                    "android": "https://app.nextbike.net/station?id=358184802",
                    "ios": "https://app.nextbike.net/station?id=358184802",
                    "web": "https://nxtb.it/p/358184802"
                },
                "short_name": "42456",
                "station_id": "358184802",
                "vehicle_types_available": [
                    {
                        "count": 4,
                        "vehicle_type_id": "204"
                    }
                ]
            },
            "type": "Feature"
        },
        {
            "geometry": {
                "coordinates": [
                    8.634652,
                    50.25995
                ],
                "type": "Point"
            },
            "properties": {
                "capacity": 5,
                "is_installed": true,
                "is_renting": true,
                "is_returning": true,
                "is_virtual_station": false,
                "last_reported": 1789254094,
                "name": "Hoher Weg",
                "num_bikes_available": 4,
                "num_docks_available": 1,
                "region_id": "954",
                "rental_uris": {
                    "android": "https://app.nextbike.net/station?id=358185102",
                    "ios": "https://app.nextbike.net/station?id=358185102",
                    "web": "https://nxtb.it/p/358185102"
                },
                "short_name": "42457",
                "station_id": "358185102",
                "vehicle_types_available": [
                    {
                        "count": 4,
                        "vehicle_type_id": "204"
                    }
                ]
            },
            "type": "Feature"
        },
        {
            "geometry": {
                "coordinates": [
                    8.514749,
                    50.301814
                ],
                "type": "Point"
            },
            "properties": {
                "capacity": 6,
                "is_installed": true,
                "is_renting": true,
                "is_returning": true,
                "is_virtual_station": false,
                "last_reported": 1789254094,
                "name": "Neu-Anspach Bahnhof",
                "num_bikes_available": 10,
                "num_docks_available": 0,
                "region_id": "955",
                "rental_uris": {
                    "android": "https://app.nextbike.net/station?id=358185453",
                    "ios": "https://app.nextbike.net/station?id=358185453",
                    "web": "https://nxtb.it/p/358185453"
                },
                "short_name": "42460",
                "station_id": "358185453",
                "vehicle_types_available": [
                    {
                        "count": 10,
                        "vehicle_type_id": "204"
                    }
                ]
            },
            "type": "Feature"
        },
        {
            "geometry": {
                "coordinates": [
                    8.528479,
                    50.330661
                ],
                "type": "Point"
            },
            "properties": {
                "capacity": 4,
                "is_installed": true,
                "is_renting": true,
                "is_returning": true,
                "is_virtual_station": false,
                "last_reported": 1789254094,
                "name": "Usingen Bahnhof",
                "num_bikes_available": 0,
                "num_docks_available": 4,
                "region_id": "956",
                "rental_uris": {
                    "android": "https://app.nextbike.net/station?id=358185993",
                    "ios": "https://app.nextbike.net/station?id=358185993",
                    "web": "https://nxtb.it/p/358185993"
                },
                "short_name": "42465",
                "station_id": "358185993",
                "vehicle_types_available": []
            },
            "type": "Feature"
        },
        {
            "geometry": {
                "coordinates": [
                    8.676,
                    50.257829
                ],
                "type": "Point"
            },
            "properties": {
                "capacity": 4,
                "is_installed": true,
                "is_renting": true,
                "is_returning": true,
                "is_virtual_station": false,
                "last_reported": 1789254094,
                "name": "Burgholzhausen Bahnhof",
                "num_bikes_available": 1,
                "num_docks_available": 3,
                "region_id": "954",
                "rental_uris": {
                    "android": "https://app.nextbike.net/station?id=396789185",
                    "ios": "https://app.nextbike.net/station?id=396789185",
                    "web": "https://nxtb.it/p/396789185"
                },
                "short_name": "42458",
                "station_id": "396789185",
                "vehicle_types_available": [
                    {
                        "count": 1,
                        "vehicle_type_id": "204"
                    }
                ]
            },
            "type": "Feature"
        },
        {
            "geometry": {
                "coordinates": [
                    8.64378,
                    50.262712
                ],
                "type": "Point"
            },
            "properties": {
                "capacity": 4,
                "is_installed": true,
                "is_renting": true,
                "is_returning": true,
                "is_virtual_station": false,
                "last_reported": 1789254094,
                "name": "\u00d6kosiedlung",
                "num_bikes_available": 4,
                "num_docks_available": 0,
                "region_id": "954",
                "rental_uris": {
                    "android": "https://app.nextbike.net/station?id=396789510",
                    "ios": "https://app.nextbike.net/station?id=396789510",
                    "web": "https://nxtb.it/p/396789510"
                },
                "short_name": "42454",
                "station_id": "396789510",
                "vehicle_types_available": [
                    {
                        "count": 4,
                        "vehicle_type_id": "204"
                    }
                ]
            },
            "type": "Feature"
        },
        {
            "geometry": {
                "coordinates": [
                    8.50481,
                    50.29427
                ],
                "type": "Point"
            },
            "properties": {
                "capacity": 5,
                "is_installed": true,
                "is_renting": true,
                "is_returning": true,
                "is_virtual_station": false,
                "last_reported": 1789254094,
                "name": "Raiffeisenstra\u00dfe/H\u00e4userweg",
                "num_bikes_available": 3,
                "num_docks_available": 2,
                "region_id": "955",
                "rental_uris": {
                    "android": "https://app.nextbike.net/station?id=396790529",
                    "ios": "https://app.nextbike.net/station?id=396790529",
                    "web": "https://nxtb.it/p/396790529"
                },
                "short_name": "42461",
                "station_id": "396790529",
                "vehicle_types_available": [
                    {
                        "count": 3,
                        "vehicle_type_id": "204"
                    }
                ]
            },
            "type": "Feature"
        },
        {
            "geometry": {
                "coordinates": [
                    8.50709,
                    50.29975
                ],
                "type": "Point"
            },
            "properties": {
                "capacity": 5,
                "is_installed": true,
                "is_renting": true,
                "is_returning": true,
                "is_virtual_station": false,
                "last_reported": 1789254094,
                "name": "B\u00fcrgerhaus/Feldberg Center",
                "num_bikes_available": 1,
                "num_docks_available": 4,
                "region_id": "955",
                "rental_uris": {
                    "android": "https://app.nextbike.net/station?id=396791275",
                    "ios": "https://app.nextbike.net/station?id=396791275",
                    "web": "https://nxtb.it/p/396791275"
                },
                "short_name": "42462",
                "station_id": "396791275",
                "vehicle_types_available": [
                    {
                        "count": 1,
                        "vehicle_type_id": "204"
                    }
                ]
            },
            "type": "Feature"
        },
        {
            "geometry": {
                "coordinates": [
                    8.52531,
                    50.31367
                ],
                "type": "Point"
            },
            "properties": {
                "capacity": 5,
                "is_installed": true,
                "is_renting": true,
                "is_returning": true,
                "is_virtual_station": false,
                "last_reported": 1789254094,
                "name": "Westerfeld",
                "num_bikes_available": 2,
                "num_docks_available": 3,
                "region_id": "955",
                "rental_uris": {
                    "android": "https://app.nextbike.net/station?id=396791941",
                    "ios": "https://app.nextbike.net/station?id=396791941",
                    "web": "https://nxtb.it/p/396791941"
                },
                "short_name": "42463",
                "station_id": "396791941",
                "vehicle_types_available": [
                    {
                        "count": 2,
                        "vehicle_type_id": "204"
                    }
                ]
            },
            "type": "Feature"
        },
        {
            "geometry": {
                "coordinates": [
                    8.53386,
                    50.33775
                ],
                "type": "Point"
            },
            "properties": {
                "capacity": 5,
                "is_installed": true,
                "is_renting": true,
                "is_returning": true,
                "is_virtual_station": false,
                "last_reported": 1789254094,
                "name": "Hattsteiner Allee",
                "num_bikes_available": 3,
                "num_docks_available": 2,
                "region_id": "956",
                "rental_uris": {
                    "android": "https://app.nextbike.net/station?id=396792380",
                    "ios": "https://app.nextbike.net/station?id=396792380",
                    "web": "https://nxtb.it/p/396792380"
                },
                "short_name": "42466",
                "station_id": "396792380",
                "vehicle_types_available": [
                    {
                        "count": 2,
                        "vehicle_type_id": "204"
                    },
                    {
                        "count": 1,
                        "vehicle_type_id": "313"
                    }
                ]
            },
            "type": "Feature"
        },
        {
            "geometry": {
                "coordinates": [
                    8.53608,
                    50.35528
                ],
                "type": "Point"
            },
            "properties": {
                "capacity": 4,
                "is_installed": true,
                "is_renting": true,
                "is_returning": true,
                "is_virtual_station": false,
                "last_reported": 1789254094,
                "name": "Eschbach",
                "num_bikes_available": 3,
                "num_docks_available": 1,
                "region_id": "956",
                "rental_uris": {
                    "android": "https://app.nextbike.net/station?id=396792686",
                    "ios": "https://app.nextbike.net/station?id=396792686",
                    "web": "https://nxtb.it/p/396792686"
                },
                "short_name": "42467",
                "station_id": "396792686",
                "vehicle_types_available": [
                    {
                        "count": 2,
                        "vehicle_type_id": "204"
                    },
                    {
                        "count": 1,
                        "vehicle_type_id": "314"
                    }
                ]
            },
            "type": "Feature"
        },
        {
            "geometry": {
                "coordinates": [
                    8.53431,
                    50.32858
                ],
                "type": "Point"
            },
            "properties": {
                "capacity": 5,
                "is_installed": true,
                "is_renting": true,
                "is_returning": true,
                "is_virtual_station": false,
                "last_reported": 1789254094,
                "name": "Schleichenbach II",
                "num_bikes_available": 4,
                "num_docks_available": 1,
                "region_id": "956",
                "rental_uris": {
                    "android": "https://app.nextbike.net/station?id=396792929",
                    "ios": "https://app.nextbike.net/station?id=396792929",
                    "web": "https://nxtb.it/p/396792929"
                },
                "short_name": "42468",
                "station_id": "396792929",
                "vehicle_types_available": [
                    {
                        "count": 3,
                        "vehicle_type_id": "204"
                    },
                    {
                        "count": 1,
                        "vehicle_type_id": "314"
                    }
                ]
            },
            "type": "Feature"
        }
    ],
    "gbfs": {
        "station_information": {
            "last_updated": 1789254094,
            "ttl": 60,
            "version": "2.3"
        },
        "station_status": {
            "last_updated": 1789254094,
            "ttl": 60,
            "version": "2.3"
        }
    },
    "type": "FeatureCollection"
}