{
    "features": [
        {
            "geometry": {
                "coordinates": [
                    15.22541,
                    49.43098
                ],
                "type": "Point"
            },
            "properties": {
                "is_installed": true,
                "is_renting": true,
                "is_returning": true,
                "is_virtual_station": false,
                "last_reported": 1789293697,
                "name": "P\u0159\u00edkopy",
                "num_bikes_available": 0,
                "num_docks_available": 0,
                "region_id": "919",
                "rental_uris": {
                    "android": "https://app.nextbike.net/station?id=211979604",
                    "ios": "https://app.nextbike.net/station?id=211979604",
                    "web": "https://nxtb.it/p/211979604"
                },
                "short_name": "45015",
                "station_id": "211979604",
                "vehicle_types_available": []
            },
            "type": "Feature"
        },
        {
            "geometry": {
                "coordinates": [
                    15.2237,
                    49.42579
                ],
                "type": "Point"
            },
            "properties": {
                "is_installed": true,
                "is_renting": true,
                "is_returning": true,
                "is_virtual_station": false,
                "last_reported": 1789293697,
                "name": "Autobusov\u00e9 n\u00e1dra\u017e\u00ed",
                "num_bikes_available": 3,
                "num_docks_available": 0,
                "region_id": "919",
                "rental_uris": {
                    "android": "https://app.nextbike.net/station?id=211980513",
                    "ios": "https://app.nextbike.net/station?id=211980513",
                    "web": "https://nxtb.it/p/211980513"
                },
                "short_name": "45016",
                "station_id": "211980513",
                "vehicle_types_available": [
                    {
                        "count": 3,
                        "vehicle_type_id": "302"
                    }
                ]
            },
            "type": "Feature"
        },
        {
            "geometry": {
                "coordinates": [
                    15.223037,
                    49.41949
                ],
                "type": "Point"
            },
            "properties": {
                "is_installed": true,
                "is_renting": true,
                "is_returning": true,
                "is_virtual_station": false,
                "last_reported": 1789293697,
                "name": "Vlakov\u00e9 n\u00e1dra\u017e\u00ed",
                "num_bikes_available": 6,
                "num_docks_available": 0,
                "region_id": "919",
                "rental_uris": {
                    "android": "https://app.nextbike.net/station?id=211980725",
                    "ios": "https://app.nextbike.net/station?id=211980725",
                    "web": "https://nxtb.it/p/211980725"
                },
                "short_name": "45017",
                "station_id": "211980725",
                "vehicle_types_available": [
                    {
                        "count": 6,
                        "vehicle_type_id": "302"
                    }
                ]
            },
            "type": "Feature"
        },
        {
            "geometry": {
                "coordinates": [
                    15.222428,
                    49.43106
                ],
                "type": "Point"
            },
            "properties": {
                "is_installed": true,
                "is_renting": true,
                "is_returning": true,
                "is_virtual_station": false,
                "last_reported": 1789293697,
                "name": "D\u011bkansk\u00e1",
                "num_bikes_available": 5,
                "num_docks_available": 0,
                "region_id": "919",
                "rental_uris": {
                    "android": "https://app.nextbike.net/station?id=211981365",
                    "ios": "https://app.nextbike.net/station?id=211981365",
                    "web": "https://nxtb.it/p/211981365"
                },
                "short_name": "45018",
                "station_id": "211981365",
                "vehicle_types_available": [
                    {
                        "count": 5,
                        "vehicle_type_id": "302"
                    }
                ]
            },
            "type": "Feature"
        },
        {
            "geometry": {
                "coordinates": [
                    15.211081,
                    49.438824
                ],
                "type": "Point"
            },
            "properties": {
                "is_installed": true,
                "is_renting": true,
                "is_returning": true,
                "is_virtual_station": false,
                "last_reported": 1789293697,
                "name": "Obchodn\u00ed park",
                "num_bikes_available": 1,
                "num_docks_available": 0,
                "region_id": "919",
                "rental_uris": {
                    "android": "https://app.nextbike.net/station?id=211981786",
                    "ios": "https://app.nextbike.net/station?id=211981786",
                    "web": "https://nxtb.it/p/211981786"
                },
                "short_name": "45019",
                "station_id": "211981786",
                "vehicle_types_available": [
                    {
                        "count": 1,
                        "vehicle_type_id": "254"
                    }
                ]
            },
            "type": "Feature"
        },
        {
            "geometry": {
                "coordinates": [
                    15.211365,
                    49.437108
                ],
                "type": "Point"
            },
            "properties": {
                "is_installed": true,
                "is_renting": true,
                "is_returning": true,
                "is_virtual_station": false,
                "last_reported": 1789293697,
                "name": "Osvobozen\u00ed",
                "num_bikes_available": 0,
                "num_docks_available": 0,
                "region_id": "919",
                "rental_uris": {
                    "android": "https://app.nextbike.net/station?id=211981973",
                    "ios": "https://app.nextbike.net/station?id=211981973",
                    "web": "https://nxtb.it/p/211981973"
                },
                "short_name": "45020",
                "station_id": "211981973",
                "vehicle_types_available": []
            },
            "type": "Feature"
        },
        {
            "geometry": {
                "coordinates": [
                    15.221371,
                    49.428841
                ],
                "type": "Point"
            },
            "properties": {
                "is_installed": true,
                "is_renting": true,
                "is_returning": true,
                "is_virtual_station": false,
                "last_reported": 1789293697,
                "name": "Gymn\u00e1zium",
                "num_bikes_available": 0,
                "num_docks_available": 0,
                "region_id": "919",
                "rental_uris": {
                    "android": "https://app.nextbike.net/station?id=211982262",
                    "ios": "https://app.nextbike.net/station?id=211982262",
                    "web": "https://nxtb.it/p/211982262"
                },
                "short_name": "45021",
                "station_id": "211982262",
                "vehicle_types_available": []
            },
            "type": "Feature"
        },
        {
            "geometry": {
                "coordinates": [
                    15.227044,
                    49.430559
                ],
                "type": "Point"
            },
            "properties": {
                "is_installed": true,
                "is_renting": true,
                "is_returning": true,
                "is_virtual_station": false,
                "last_reported": 1789293697,
                "name": "V\u00e1clava Petr\u016f ",
                "num_bikes_available": 1,
                "num_docks_available": 0,
                "region_id": "919",
                "rental_uris": {
                    "android": "https://app.nextbike.net/station?id=211982919",
                    "ios": "https://app.nextbike.net/station?id=211982919",
                    "web": "https://nxtb.it/p/211982919"
                },
                "short_name": "45022",
                "station_id": "211982919",
                "vehicle_types_available": [
                    {
                        "count": 1,
                        "vehicle_type_id": "302"
                    }
                ]
            },
            "type": "Feature"
        },
        {
            "geometry": {
                "coordinates": [
                    15.223458,
                    49.435217
                ],
                "type": "Point"
            },
            "properties": {
                "is_installed": true,
                "is_renting": true,
                "is_returning": true,
                "is_virtual_station": false,
                "last_reported": 1789293697,
                "name": "Rad\u011bt\u00ednsk\u00e1 - workout h\u0159i\u0161t\u011b",
                "num_bikes_available": 6,
                "num_docks_available": 0,
                "region_id": "919",
                "rental_uris": {
                    "android": "https://app.nextbike.net/station?id=211985205",
                    "ios": "https://app.nextbike.net/station?id=211985205",
                    "web": "https://nxtb.it/p/211985205"
                },
                "short_name": "45023",
                "station_id": "211985205",
                "vehicle_types_available": [
                    {
                        "count": 6,
                        "vehicle_type_id": "302"
                    }
                ]
            },
            "type": "Feature"
        },
        {
            "geometry": {
                "coordinates": [
                    15.211709,
                    49.434347
                ],
                "type": "Point"
            },
            "properties": {
                "is_installed": true,
                "is_renting": true,
                "is_returning": true,
                "is_virtual_station": false,
                "last_reported": 1789293697,
                "name": "Dolnokub\u00ednsk\u00e1",
                "num_bikes_available": 0,
                "num_docks_available": 0,
                "region_id": "919",
                "rental_uris": {
                    "android": "https://app.nextbike.net/station?id=211985468",
                    "ios": "https://app.nextbike.net/station?id=211985468",
                    "web": "https://nxtb.it/p/211985468"
                },
                "short_name": "45024",
                "station_id": "211985468",
                "vehicle_types_available": []
            },
            "type": "Feature"
        },
        {
            "geometry": {
                "coordinates": [
                    15.215266,
                    49.426825
                ],
                "type": "Point"
            },
            "properties": {
                "is_installed": true,
                "is_renting": true,
                "is_returning": true,
                "is_virtual_station": false,
                "last_reported": 1789293697,
                "name": "Dru\u017estevn\u00ed - COOP",
                "num_bikes_available": 2,
                "num_docks_available": 0,
                "region_id": "919",
                "rental_uris": {
                    "android": "https://app.nextbike.net/station?id=211985660",
                    "ios": "https://app.nextbike.net/station?id=211985660",
                    "web": "https://nxtb.it/p/211985660"
                },
                "short_name": "45025",
                "station_id": "211985660",
                "vehicle_types_available": [
                    {
                        "count": 2,
                        "vehicle_type_id": "302"
                    }
                ]
            },
            "type": "Feature"
        },
        {
            "geometry": {
                "coordinates": [
                    15.211778,
                    49.431286
                ],
                "type": "Point"
            },
            "properties": {
                "is_installed": true,
                "is_renting": true,
                "is_returning": true,
                "is_virtual_station": false,
                "last_reported": 1789293697,
                "name": "Bo\u017eeny N\u011bmcov\u00e9",
                "num_bikes_available": 1,
                "num_docks_available": 0,
                "region_id": "919",
                "rental_uris": {
                    "android": "https://app.nextbike.net/station?id=211985901",
                    "ios": "https://app.nextbike.net/station?id=211985901",
                    "web": "https://nxtb.it/p/211985901"
                },
                "short_name": "45026",
                "station_id": "211985901",
                "vehicle_types_available": [
                    {
                        "count": 1,
                        "vehicle_type_id": "302"
                    }
                ]
            },
            "type": "Feature"
        },
        {
            "geometry": {
                "coordinates": [
                    15.235637,
                    49.435242
                ],
                "type": "Point"
            },
            "properties": {
                "is_installed": true,
                "is_renting": true,
                "is_returning": true,
                "is_virtual_station": false,
                "last_reported": 1789293697,
                "name": "Okru\u017en\u00ed",
                "num_bikes_available": 2,
                "num_docks_available": 0,
                "region_id": "919",
                "rental_uris": {
                    "android": "https://app.nextbike.net/station?id=211986364",
                    "ios": "https://app.nextbike.net/station?id=211986364",
                    "web": "https://nxtb.it/p/211986364"
                },
                "short_name": "45027",
                "station_id": "211986364",
                "vehicle_types_available": [
                    {
                        "count": 2,
                        "vehicle_type_id": "302"
                    }
                ]
            },
            "type": "Feature"
        },
        {
            "geometry": {
                "coordinates": [
                    15.21673,
                    49.432985
                ],
                "type": "Point"
            },
            "properties": {
                "is_installed": true,
                "is_renting": true,
                "is_returning": true,
                "is_virtual_station": false,
                "last_reported": 1789293697,
                "name": "U Rendl\u00edku",
                "num_bikes_available": 0,
                "num_docks_available": 0,
                "region_id": "919",
                "rental_uris": {
                    "android": "https://app.nextbike.net/station?id=211986592",
                    "ios": "https://app.nextbike.net/station?id=211986592",
                    "web": "https://nxtb.it/p/211986592"
                },
                "short_name": "45028",
                "station_id": "211986592",
                "vehicle_types_available": []
            },
            "type": "Feature"
        },
        {
            "geometry": {
                "coordinates": [
                    15.230681,
                    49.425379
                ],
                "type": "Point"
            },
            "properties": {
                "is_installed": true,
                "is_renting": true,
                "is_returning": true,
                "is_virtual_station": false,
                "last_reported": 1789293697,
                "name": "Habrov\u00e1",
                "num_bikes_available": 2,
                "num_docks_available": 0,
                "region_id": "919",
                "rental_uris": {
                    "android": "https://app.nextbike.net/station?id=211986782",
                    "ios": "https://app.nextbike.net/station?id=211986782",
                    "web": "https://nxtb.it/p/211986782"
                },
                "short_name": "45029",
                "station_id": "211986782",
                "vehicle_types_available": [
                    {
                        "count": 2,
                        "vehicle_type_id": "302"
                    }
                ]
            },
            "type": "Feature"
        },
        {
            "geometry": {
                "coordinates": [
                    15.22433,
                    49.432799
                ],
                "type": "Point"
            },
            "properties": {
                "is_installed": true,
                "is_renting": true,
                "is_returning": true,
                "is_virtual_station": false,
                "last_reported": 1789293697,
                "name": "Svatov\u00edtsk\u00e9 n\u00e1m\u011bst\u00ed - po\u0161ta",
                "num_bikes_available": 3,
                "num_docks_available": 0,
                "region_id": "919",
                "rental_uris": {
                    "android": "https://app.nextbike.net/station?id=211990112",
                    "ios": "https://app.nextbike.net/station?id=211990112",
                    "web": "https://nxtb.it/p/211990112"
                },
                "short_name": "45032",
                "station_id": "211990112",
                "vehicle_types_available": [
                    {
                        "count": 3,
                        "vehicle_type_id": "302"
                    }
                ]
            },
            "type": "Feature"
        },
        {
            "geometry": {
                "coordinates": [
                    15.224779,
                    49.424534
                ],
                "type": "Point"
            },
            "properties": {
                "is_installed": true,
                "is_renting": true,
                "is_returning": true,
                "is_virtual_station": false,
                "last_reported": 1789293697,
                "name": "Sportovn\u00ed hala",
                "num_bikes_available": 1,
                "num_docks_available": 0,
                "region_id": "919",
                "rental_uris": {
                    "android": "https://app.nextbike.net/station?id=211990472",
                    "ios": "https://app.nextbike.net/station?id=211990472",
                    "web": "https://nxtb.it/p/211990472"
                },
                "short_name": "45036",
                "station_id": "211990472",
                "vehicle_types_available": [
                    {
                        "count": 1,
                        "vehicle_type_id": "302"
                    }
                ]
            },
            "type": "Feature"
        },
        {
            "geometry": {
                "coordinates": [
                    15.221371,
                    49.433734
                ],
                "type": "Point"
            },
            "properties": {
                "is_installed": true,
                "is_renting": true,
                "is_returning": true,
                "is_virtual_station": false,
                "last_reported": 1789293697,
                "name": "M\u011bstsk\u00fd \u00fa\u0159ad",
                "num_bikes_available": 1,
                "num_docks_available": 0,
                "region_id": "919",
                "rental_uris": {
                    "android": "https://app.nextbike.net/station?id=211990747",
                    "ios": "https://app.nextbike.net/station?id=211990747",
                    "web": "https://nxtb.it/p/211990747"
                },
                "short_name": "45037",
                "station_id": "211990747",
                "vehicle_types_available": [
                    {
                        "count": 1,
                        "vehicle_type_id": "302"
                    }
                ]
            },
            "type": "Feature"
        },
        {
            "geometry": {
                "coordinates": [
                    15.208748,
                    49.424453
                ],
                "type": "Point"
            },
            "properties": {
                "is_installed": true,
                "is_renting": true,
                "is_returning": true,
                "is_virtual_station": false,
                "last_reported": 1789293697,
                "name": "Rybn\u00edk Str\u00e1\u017e",
                "num_bikes_available": 0,
                "num_docks_available": 0,
                "region_id": "919",
                "rental_uris": {
                    "android": "https://app.nextbike.net/station?id=211991612",
                    "ios": "https://app.nextbike.net/station?id=211991612",
                    "web": "https://nxtb.it/p/211991612"
                },
                "short_name": "45039",
                "station_id": "211991612",
                "vehicle_types_available": []
            },
            "type": "Feature"
        },
        {
            "geometry": {
                "coordinates": [
                    15.215351,
                    49.435656
                ],
                "type": "Point"
            },
            "properties": {
                "is_installed": true,
                "is_renting": true,
                "is_returning": true,
                "is_virtual_station": false,
                "last_reported": 1789293697,
                "name": "Architekta Jan\u00e1ka",
                "num_bikes_available": 0,
                "num_docks_available": 0,
                "region_id": "919",
                "rental_uris": {
                    "android": "https://app.nextbike.net/station?id=211995112",
                    "ios": "https://app.nextbike.net/station?id=211995112",
                    "web": "https://nxtb.it/p/211995112"
                },
                "short_name": "45049",
                "station_id": "211995112",
                "vehicle_types_available": []
            },
            "type": "Feature"
        },
        {
            "geometry": {
                "coordinates": [
                    15.21533,
                    49.41326
                ],
                "type": "Point"
            },
            "properties": {
                "capacity": 2,
                "is_installed": true,
                "is_renting": true,
                "is_returning": true,
                "is_virtual_station": false,
                "last_reported": 1789293697,
                "name": "Myslot\u00ednsk\u00e1 - Agrostroj",
                "num_bikes_available": 3,
                "num_docks_available": 0,
                "region_id": "919",
                "rental_uris": {
                    "android": "https://app.nextbike.net/station?id=261036020",
                    "ios": "https://app.nextbike.net/station?id=261036020",
                    "web": "https://nxtb.it/p/261036020"
                },
                "short_name": "46487",
                "station_id": "261036020",
                "vehicle_types_available": [
                    {
                        "count": 3,
                        "vehicle_type_id": "302"
                    }
                ]
            },
            "type": "Feature"
        },
        {
            "geometry": {
                "coordinates": [
                    15.23117,
                    49.45033
                ],
                "type": "Point"
            },
            "properties": {
                "capacity": 2,
                "is_installed": true,
                "is_renting": true,
                "is_returning": true,
                "is_virtual_station": false,
                "last_reported": 1789293697,
                "name": "Ml\u00fdn Rad\u011bt\u00edn",
                "num_bikes_available": 2,
                "num_docks_available": 0,
                "region_id": "919",
                "rental_uris": {
                    "android": "https://app.nextbike.net/station?id=261036338",
                    "ios": "https://app.nextbike.net/station?id=261036338",
                    "web": "https://nxtb.it/p/261036338"
                },
                "short_name": "46488",
                "station_id": "261036338",
                "vehicle_types_available": [
                    {
                        "count": 2,
                        "vehicle_type_id": "302"
                    }
                ]
            },
            "type": "Feature"
        },
        {
            "geometry": {
                "coordinates": [
                    15.218829,
                    49.437424
                ],
                "type": "Point"
            },
            "properties": {
                "capacity": 2,
                "is_installed": true,
                "is_renting": true,
                "is_returning": true,
                "is_virtual_station": false,
                "last_reported": 1789293697,
                "name": "Hod\u011bjovick\u00e1",
                "num_bikes_available": 1,
                "num_docks_available": 1,
                "region_id": "919",
                "rental_uris": {
                    "android": "https://app.nextbike.net/station?id=265509659",
                    "ios": "https://app.nextbike.net/station?id=265509659",
                    "web": "https://nxtb.it/p/265509659"
                },
                "short_name": "46489",
                "station_id": "265509659",
                "vehicle_types_available": [
                    {
                        "count": 1,
                        "vehicle_type_id": "302"
                    }
                ]
            },
            "type": "Feature"
        },
        {
            "geometry": {
                "coordinates": [
                    15.24157,
                    49.41348
                ],
                "type": "Point"
            },
            "properties": {
                "is_installed": true,
                "is_renting": true,
                "is_returning": true,
                "is_virtual_station": false,
                "last_reported": 1789293697,
                "name": "Skr\u00fd\u0161ov",
                "num_bikes_available": 0,
                "num_docks_available": 0,
                "region_id": "919",
                "rental_uris": {
                    "android": "https://app.nextbike.net/station?id=561318243",
                    "ios": "https://app.nextbike.net/station?id=561318243",
                    "web": "https://nxtb.it/p/561318243"
                },
                "short_name": "48768",
                "station_id": "561318243",
                "vehicle_types_available": []
            },
            "type": "Feature"
        },
        {
            "geometry": {
                "coordinates": [
                    15.19664,
                    49.43555
                ],
                "type": "Point"
            },
            "properties": {
                "is_installed": true,
                "is_renting": true,
                "is_returning": true,
                "is_virtual_station": false,
                "last_reported": 1789293697,
                "name": "Star\u00fd Pelh\u0159imov",
                "num_bikes_available": 1,
                "num_docks_available": 0,
                "region_id": "919",
                "rental_uris": {
                    "android": "https://app.nextbike.net/station?id=561318377",
                    "ios": "https://app.nextbike.net/station?id=561318377",
                    "web": "https://nxtb.it/p/561318377"
                },
                "short_name": "48767",
                "station_id": "561318377",
                "vehicle_types_available": [
                    {
                        "count": 1,
                        "vehicle_type_id": "302"
                    }
                ]
            },
            "type": "Feature"
        },
        {
            "geometry": {
                "coordinates": [
                    15.23095,
                    49.41667
                ],
                "type": "Point"
            },
            "properties": {
                "is_installed": true,
                "is_renting": true,
                "is_returning": true,
                "is_virtual_station": false,
                "last_reported": 1789293697,
                "name": "Pod H\u00e1jkem",
                "num_bikes_available": 0,
                "num_docks_available": 0,
                "region_id": "919",
                "rental_uris": {
                    "android": "https://app.nextbike.net/station?id=561318579",
                    "ios": "https://app.nextbike.net/station?id=561318579",
                    "web": "https://nxtb.it/p/561318579"
                },
                "short_name": "48766",
                "station_id": "561318579",
                "vehicle_types_available": []
            },
            "type": "Feature"
        },
        {
            "geometry": {
                "coordinates": [
                    15.21923,
                    49.42725
                ],
                "type": "Point"
            },
            "properties": {
                "is_installed": true,
                "is_renting": true,
                "is_returning": true,
                "is_virtual_station": false,
                "last_reported": 1789293697,
                "name": "Komensk\u00e9ho/Friedova",
                "num_bikes_available": 0,
                "num_docks_available": 0,
                "region_id": "919",
                "rental_uris": {
                    "android": "https://app.nextbike.net/station?id=561318751",
                    "ios": "https://app.nextbike.net/station?id=561318751",
                    "web": "https://nxtb.it/p/561318751"
                },
                "short_name": "48765",
                "station_id": "561318751",
                "vehicle_types_available": []
            },
            "type": "Feature"
        },
        {
            "geometry": {
                "coordinates": [
                    15.225303,
                    49.42775
                ],
                "type": "Point"
            },
            "properties": {
                "is_installed": true,
                "is_renting": true,
                "is_returning": true,
                "is_virtual_station": false,
                "last_reported": 1789293697,
                "name": "N\u00e1dra\u017en\u00ed",
                "num_bikes_available": 1,
                "num_docks_available": 0,
                "region_id": "919",
                "rental_uris": {
                    "android": "https://app.nextbike.net/station?id=636297939",
                    "ios": "https://app.nextbike.net/station?id=636297939",
                    "web": "https://nxtb.it/p/636297939"
                },
                "short_name": "48761",
                "station_id": "636297939",
                "vehicle_types_available": [
                    {
                        "count": 1,
                        "vehicle_type_id": "302"
                    }
                ]
            },
            "type": "Feature"
        }
    ],
    "gbfs": {
        "station_information": {
            "last_updated": 1789293697,
            "ttl": 60,
            "version": "2.3"
        },
        "station_status": {
            "last_updated": 1789293697,
            "ttl": 60,
            "version": "2.3"
        }
    },
    "type": "FeatureCollection"
}