{
    "features": [
        {
            "geometry": {
                "coordinates": [
                    -3.000994,
                    47.679769
                ],
                "type": "Point"
            },
            "properties": {
                "capacity": 30,
                "is_charging_station": false,
                "is_installed": true,
                "is_renting": true,
                "is_returning": true,
                "is_valet_station": false,
                "is_virtual_station": false,
                "last_reported": 1789129498,
                "name": "Gare Auray",
                "num_bikes_available": 16,
                "num_docks_available": 14,
                "rental_uris": {
                    "android": "todo://app?sid=cqocpihmrgc3lc0gde50",
                    "ios": "todo://app?sid=cqocpihmrgc3lc0gde50"
                },
                "station_id": "cqocpihmrgc3lc0gde50",
                "vehicle_type_capacity": {
                    "1": 20,
                    "10": 0,
                    "14": 0,
                    "15": 0,
                    "2": 20,
                    "4": 20,
                    "5": 0,
                    "6": 0,
                    "7": 20
                },
                "vehicle_types_available": [
                    {
                        "count": 0,
                        "vehicle_type_id": "1"
                    },
                    {
                        "count": 0,
                        "vehicle_type_id": "2"
                    },
                    {
                        "count": 0,
                        "vehicle_type_id": "7"
                    },
                    {
                        "count": 16,
                        "vehicle_type_id": "4"
                    }
                ]
            },
            "type": "Feature"
        },
        {
            "geometry": {
                "coordinates": [
                    -2.9971,
                    47.67239
                ],
                "type": "Point"
            },
            "properties": {
                "capacity": 10,
                "is_charging_station": false,
                "is_installed": true,
                "is_renting": true,
                "is_returning": true,
                "is_valet_station": false,
                "is_virtual_station": false,
                "last_reported": 1789129498,
                "name": "M.A.L.",
                "num_bikes_available": 4,
                "num_docks_available": 6,
                "rental_uris": {
                    "android": "todo://app?sid=cqocpipmrgc3lc0gde6g",
                    "ios": "todo://app?sid=cqocpipmrgc3lc0gde6g"
                },
                "station_id": "cqocpipmrgc3lc0gde6g",
                "vehicle_type_capacity": {
                    "1": 6,
                    "10": 0,
                    "14": 0,
                    "15": 0,
                    "2": 6,
                    "4": 6,
                    "5": 0,
                    "6": 0,
                    "7": 6
                },
                "vehicle_types_available": [
                    {
                        "count": 4,
                        "vehicle_type_id": "4"
                    },
                    {
                        "count": 0,
                        "vehicle_type_id": "1"
                    },
                    {
                        "count": 0,
                        "vehicle_type_id": "2"
                    },
                    {
                        "count": 0,
                        "vehicle_type_id": "7"
                    }
                ]
            },
            "type": "Feature"
        },
        {
            "geometry": {
                "coordinates": [
                    -2.988584,
                    47.670789
                ],
                "type": "Point"
            },
            "properties": {
                "capacity": 10,
                "is_charging_station": false,
                "is_installed": true,
                "is_renting": true,
                "is_returning": true,
                "is_valet_station": false,
                "is_virtual_station": false,
                "last_reported": 1789129498,
                "name": "Skatepark Auray",
                "num_bikes_available": 2,
                "num_docks_available": 8,
                "rental_uris": {
                    "android": "todo://app?sid=cqocpipmrgc3lc0gde80",
                    "ios": "todo://app?sid=cqocpipmrgc3lc0gde80"
                },
                "station_id": "cqocpipmrgc3lc0gde80",
                "vehicle_type_capacity": {
                    "1": 8,
                    "10": 0,
                    "14": 0,
                    "15": 0,
                    "2": 8,
                    "4": 8,
                    "5": 0,
                    "6": 0,
                    "7": 8
                },
                "vehicle_types_available": [
                    {
                        "count": 0,
                        "vehicle_type_id": "1"
                    },
                    {
                        "count": 0,
                        "vehicle_type_id": "2"
                    },
                    {
                        "count": 2,
                        "vehicle_type_id": "4"
                    },
                    {
                        "count": 0,
                        "vehicle_type_id": "7"
                    }
                ]
            },
            "type": "Feature"
        },
        {
            "geometry": {
                "coordinates": [
                    -2.984011,
                    47.667605
                ],
                "type": "Point"
            },
            "properties": {
                "capacity": 20,
                "is_charging_station": false,
                "is_installed": true,
                "is_renting": true,
                "is_returning": true,
                "is_valet_station": false,
                "is_virtual_station": false,
                "last_reported": 1789129498,
                "name": "K\u00e9riolet",
                "num_bikes_available": 12,
                "num_docks_available": 8,
                "rental_uris": {
                    "android": "todo://app?sid=cqocpitlh8lv2r319lug",
                    "ios": "todo://app?sid=cqocpitlh8lv2r319lug"
                },
                "station_id": "cqocpitlh8lv2r319lug",
                "vehicle_type_capacity": {
                    "1": 14,
                    "10": 0,
                    "14": 0,
                    "15": 0,
                    "2": 14,
                    "4": 14,
                    "5": 0,
                    "6": 0,
                    "7": 14
                },
                "vehicle_types_available": [
                    {
                        "count": 0,
                        "vehicle_type_id": "7"
                    },
                    {
                        "count": 12,
                        "vehicle_type_id": "4"
                    },
                    {
                        "count": 0,
                        "vehicle_type_id": "1"
                    },
                    {
                        "count": 0,
                        "vehicle_type_id": "2"
                    }
                ]
            },
            "type": "Feature"
        },
        {
            "geometry": {
                "coordinates": [
                    -2.97967,
                    47.66675
                ],
                "type": "Point"
            },
            "properties": {
                "capacity": 20,
                "is_charging_station": false,
                "is_installed": true,
                "is_renting": true,
                "is_returning": true,
                "is_valet_station": false,
                "is_virtual_station": false,
                "last_reported": 1789129498,
                "name": "Saint-Goustan",
                "num_bikes_available": 9,
                "num_docks_available": 11,
                "rental_uris": {
                    "android": "todo://app?sid=cqocpitlh8lv2r319m00",
                    "ios": "todo://app?sid=cqocpitlh8lv2r319m00"
                },
                "station_id": "cqocpitlh8lv2r319m00",
                "vehicle_type_capacity": {
                    "1": 11,
                    "10": 0,
                    "14": 0,
                    "15": 0,
                    "2": 11,
                    "4": 11,
                    "5": 0,
                    "6": 0,
                    "7": 11
                },
                "vehicle_types_available": [
                    {
                        "count": 0,
                        "vehicle_type_id": "1"
                    },
                    {
                        "count": 0,
                        "vehicle_type_id": "2"
                    },
                    {
                        "count": 0,
                        "vehicle_type_id": "7"
                    },
                    {
                        "count": 9,
                        "vehicle_type_id": "4"
                    }
                ]
            },
            "type": "Feature"
        },
        {
            "geometry": {
                "coordinates": [
                    -2.98848,
                    47.66561
                ],
                "type": "Point"
            },
            "properties": {
                "capacity": 20,
                "is_charging_station": false,
                "is_installed": true,
                "is_renting": true,
                "is_returning": true,
                "is_valet_station": false,
                "is_virtual_station": false,
                "last_reported": 1789129498,
                "name": "Ath\u00e9na",
                "num_bikes_available": 3,
                "num_docks_available": 17,
                "rental_uris": {
                    "android": "todo://app?sid=cqocpitlh8lv2r319m1g",
                    "ios": "todo://app?sid=cqocpitlh8lv2r319m1g"
                },
                "station_id": "cqocpitlh8lv2r319m1g",
                "vehicle_type_capacity": {
                    "1": 17,
                    "10": 0,
                    "14": 0,
                    "15": 0,
                    "2": 17,
                    "4": 17,
                    "5": 0,
                    "6": 0,
                    "7": 17
                },
                "vehicle_types_available": [
                    {
                        "count": 0,
                        "vehicle_type_id": "7"
                    },
                    {
                        "count": 3,
                        "vehicle_type_id": "4"
                    },
                    {
                        "count": 0,
                        "vehicle_type_id": "1"
                    },
                    {
                        "count": 0,
                        "vehicle_type_id": "2"
                    }
                ]
            },
            "type": "Feature"
        },
        {
            "geometry": {
                "coordinates": [
                    -2.96199,
                    47.67869
                ],
                "type": "Point"
            },
            "properties": {
                "capacity": 10,
                "is_charging_station": false,
                "is_installed": true,
                "is_renting": true,
                "is_returning": true,
                "is_valet_station": false,
                "is_virtual_station": false,
                "last_reported": 1789129498,
                "name": "Gare Saint-Anne - Pluneret",
                "num_bikes_available": 10,
                "num_docks_available": 0,
                "rental_uris": {
                    "android": "todo://app?sid=cqocpitlh8lv2r319m40",
                    "ios": "todo://app?sid=cqocpitlh8lv2r319m40"
                },
                "station_id": "cqocpitlh8lv2r319m40",
                "vehicle_type_capacity": {
                    "1": 0,
                    "10": 0,
                    "14": 0,
                    "15": 0,
                    "2": 0,
                    "4": 0,
                    "5": 0,
                    "6": 0,
                    "7": 0
                },
                "vehicle_types_available": [
                    {
                        "count": 0,
                        "vehicle_type_id": "7"
                    },
                    {
                        "count": 10,
                        "vehicle_type_id": "4"
                    },
                    {
                        "count": 0,
                        "vehicle_type_id": "1"
                    },
                    {
                        "count": 0,
                        "vehicle_type_id": "2"
                    }
                ]
            },
            "type": "Feature"
        },
        {
            "geometry": {
                "coordinates": [
                    -2.95908,
                    47.67393
                ],
                "type": "Point"
            },
            "properties": {
                "capacity": 10,
                "is_charging_station": false,
                "is_installed": true,
                "is_renting": true,
                "is_returning": true,
                "is_valet_station": false,
                "is_virtual_station": false,
                "last_reported": 1789129498,
                "name": "Biblioth\u00e8que de Pluneret",
                "num_bikes_available": 10,
                "num_docks_available": 0,
                "rental_uris": {
                    "android": "todo://app?sid=cqocpj5lh8lv2r319m6g",
                    "ios": "todo://app?sid=cqocpj5lh8lv2r319m6g"
                },
                "station_id": "cqocpj5lh8lv2r319m6g",
                "vehicle_type_capacity": {
                    "1": 2,
                    "10": 0,
                    "14": 0,
                    "15": 0,
                    "2": 2,
                    "4": 2,
                    "5": 0,
                    "6": 0,
                    "7": 2
                },
                "vehicle_types_available": [
                    {
                        "count": 0,
                        "vehicle_type_id": "1"
                    },
                    {
                        "count": 0,
                        "vehicle_type_id": "2"
                    },
                    {
                        "count": 0,
                        "vehicle_type_id": "7"
                    },
                    {
                        "count": 0,
                        "vehicle_type_id": "10"
                    },
                    {
                        "count": 10,
                        "vehicle_type_id": "4"
                    }
                ]
            },
            "type": "Feature"
        },
        {
            "geometry": {
                "coordinates": [
                    -2.99769,
                    47.68234
                ],
                "type": "Point"
            },
            "properties": {
                "capacity": 10,
                "is_charging_station": false,
                "is_installed": true,
                "is_renting": true,
                "is_returning": true,
                "is_valet_station": false,
                "is_virtual_station": false,
                "last_reported": 1789129498,
                "name": "Penho\u00ebt",
                "num_bikes_available": 2,
                "num_docks_available": 8,
                "rental_uris": {
                    "android": "todo://app?sid=cqocpj5lh8lv2r319m80",
                    "ios": "todo://app?sid=cqocpj5lh8lv2r319m80"
                },
                "station_id": "cqocpj5lh8lv2r319m80",
                "vehicle_type_capacity": {
                    "1": 8,
                    "10": 0,
                    "14": 0,
                    "15": 0,
                    "2": 8,
                    "4": 8,
                    "5": 0,
                    "6": 0,
                    "7": 8
                },
                "vehicle_types_available": [
                    {
                        "count": 0,
                        "vehicle_type_id": "7"
                    },
                    {
                        "count": 0,
                        "vehicle_type_id": "1"
                    },
                    {
                        "count": 2,
                        "vehicle_type_id": "4"
                    },
                    {
                        "count": 0,
                        "vehicle_type_id": "2"
                    }
                ]
            },
            "type": "Feature"
        },
        {
            "geometry": {
                "coordinates": [
                    -3.00889,
                    47.66906
                ],
                "type": "Point"
            },
            "properties": {
                "capacity": 20,
                "is_charging_station": false,
                "is_installed": true,
                "is_renting": true,
                "is_returning": true,
                "is_valet_station": false,
                "is_virtual_station": false,
                "last_reported": 1789129498,
                "name": "Alre\u2019o",
                "num_bikes_available": 9,
                "num_docks_available": 10,
                "rental_uris": {
                    "android": "todo://app?sid=cqocpj5lh8lv2r319m9g",
                    "ios": "todo://app?sid=cqocpj5lh8lv2r319m9g"
                },
                "station_id": "cqocpj5lh8lv2r319m9g",
                "vehicle_type_capacity": {
                    "1": 11,
                    "10": 0,
                    "14": 0,
                    "15": 0,
                    "2": 11,
                    "4": 11,
                    "5": 0,
                    "6": 0,
                    "7": 11
                },
                "vehicle_types_available": [
                    {
                        "count": 9,
                        "vehicle_type_id": "4"
                    },
                    {
                        "count": 0,
                        "vehicle_type_id": "2"
                    },
                    {
                        "count": 0,
                        "vehicle_type_id": "7"
                    },
                    {
                        "count": 0,
                        "vehicle_type_id": "1"
                    }
                ]
            },
            "type": "Feature"
        },
        {
            "geometry": {
                "coordinates": [
                    -3.003809,
                    47.664435
                ],
                "type": "Point"
            },
            "properties": {
                "capacity": 10,
                "is_charging_station": true,
                "is_installed": true,
                "is_renting": true,
                "is_returning": true,
                "is_valet_station": false,
                "is_virtual_station": false,
                "last_reported": 1789129498,
                "name": "Porte Oc\u00e9ane",
                "num_bikes_available": 3,
                "num_docks_available": 7,
                "rental_uris": {
                    "android": "todo://app?sid=st_d60avfncp9is73bkr8t0",
                    "ios": "todo://app?sid=st_d60avfncp9is73bkr8t0"
                },
                "station_id": "st_d60avfncp9is73bkr8t0",
                "vehicle_type_capacity": {
                    "1": 7,
                    "10": 0,
                    "14": 0,
                    "15": 0,
                    "2": 7,
                    "4": 7,
                    "5": 0,
                    "6": 0,
                    "7": 7
                },
                "vehicle_types_available": [
                    {
                        "count": 3,
                        "vehicle_type_id": "4"
                    },
                    {
                        "count": 0,
                        "vehicle_type_id": "1"
                    },
                    {
                        "count": 0,
                        "vehicle_type_id": "2"
                    },
                    {
                        "count": 0,
                        "vehicle_type_id": "7"
                    }
                ]
            },
            "type": "Feature"
        },
        {
            "geometry": {
                "coordinates": [
                    -2.981947,
                    47.671521
                ],
                "type": "Point"
            },
            "properties": {
                "capacity": 10,
                "is_charging_station": false,
                "is_installed": true,
                "is_renting": true,
                "is_returning": true,
                "is_valet_station": false,
                "is_virtual_station": false,
                "last_reported": 1789129498,
                "name": "La For\u00eat",
                "num_bikes_available": 6,
                "num_docks_available": 4,
                "rental_uris": {
                    "android": "todo://app?sid=st_d7fk9cjanpnc73dgjs10",
                    "ios": "todo://app?sid=st_d7fk9cjanpnc73dgjs10"
                },
                "station_id": "st_d7fk9cjanpnc73dgjs10",
                "vehicle_type_capacity": {
                    "1": 10,
                    "10": 0,
                    "14": 0,
                    "15": 0,
                    "2": 10,
                    "4": 10,
                    "5": 0,
                    "6": 0,
                    "7": 10
                },
                "vehicle_types_available": [
                    {
                        "count": 0,
                        "vehicle_type_id": "1"
                    },
                    {
                        "count": 0,
                        "vehicle_type_id": "2"
                    },
                    {
                        "count": 0,
                        "vehicle_type_id": "7"
                    },
                    {
                        "count": 6,
                        "vehicle_type_id": "4"
                    }
                ]
            },
            "type": "Feature"
        }
    ],
    "gbfs": {
        "station_information": {
            "last_updated": 1789129529,
            "ttl": 60,
            "version": "2.2"
        },
        "station_status": {
            "last_updated": 1789129498,
            "ttl": 60,
            "version": "2.2"
        }
    },
    "type": "FeatureCollection"
}