{
    "features": [
        {
            "geometry": {
                "coordinates": [
                    15.549549,
                    45.482469
                ],
                "type": "Point"
            },
            "properties": {
                "is_installed": true,
                "is_renting": true,
                "is_returning": true,
                "is_virtual_station": false,
                "last_reported": 1789136028,
                "name": "Grabrik, Karlovac",
                "num_bikes_available": 1,
                "num_docks_available": 0,
                "region_id": "305",
                "rental_uris": {
                    "android": "https://app.nextbike.net/station?id=203350002",
                    "ios": "https://app.nextbike.net/station?id=203350002",
                    "web": "https://nxtb.it/p/203350002"
                },
                "short_name": "2357",
                "station_id": "203350002",
                "vehicle_types_available": [
                    {
                        "count": 1,
                        "vehicle_type_id": "150"
                    }
                ]
            },
            "type": "Feature"
        },
        {
            "geometry": {
                "coordinates": [
                    15.549844,
                    45.492179
                ],
                "type": "Point"
            },
            "properties": {
                "is_installed": true,
                "is_renting": true,
                "is_returning": true,
                "is_virtual_station": false,
                "last_reported": 1789136028,
                "name": "Centar Zorin dom, Karlovac",
                "num_bikes_available": 2,
                "num_docks_available": 0,
                "region_id": "305",
                "rental_uris": {
                    "android": "https://app.nextbike.net/station?id=396975854",
                    "ios": "https://app.nextbike.net/station?id=396975854",
                    "web": "https://nxtb.it/p/396975854"
                },
                "short_name": "2336",
                "station_id": "396975854",
                "vehicle_types_available": [
                    {
                        "count": 1,
                        "vehicle_type_id": "150"
                    },
                    {
                        "count": 1,
                        "vehicle_type_id": "71"
                    }
                ]
            },
            "type": "Feature"
        },
        {
            "geometry": {
                "coordinates": [
                    15.551464,
                    45.493868
                ],
                "type": "Point"
            },
            "properties": {
                "is_installed": true,
                "is_renting": true,
                "is_returning": true,
                "is_virtual_station": false,
                "last_reported": 1789136028,
                "name": "Korzo centar, Karlovac",
                "num_bikes_available": 2,
                "num_docks_available": 0,
                "region_id": "305",
                "rental_uris": {
                    "android": "https://app.nextbike.net/station?id=418380",
                    "ios": "https://app.nextbike.net/station?id=418380",
                    "web": "https://nxtb.it/p/418380"
                },
                "short_name": "2370",
                "station_id": "418380",
                "vehicle_types_available": [
                    {
                        "count": 1,
                        "vehicle_type_id": "71"
                    },
                    {
                        "count": 1,
                        "vehicle_type_id": "150"
                    }
                ]
            },
            "type": "Feature"
        },
        {
            "geometry": {
                "coordinates": [
                    15.548825,
                    45.488682
                ],
                "type": "Point"
            },
            "properties": {
                "is_installed": true,
                "is_renting": true,
                "is_returning": true,
                "is_virtual_station": false,
                "last_reported": 1789136028,
                "name": "\u017deljezni\u010dka postaja centar, Karlovac",
                "num_bikes_available": 0,
                "num_docks_available": 0,
                "region_id": "305",
                "rental_uris": {
                    "android": "https://app.nextbike.net/station?id=43949053",
                    "ios": "https://app.nextbike.net/station?id=43949053",
                    "web": "https://nxtb.it/p/43949053"
                },
                "short_name": "2374",
                "station_id": "43949053",
                "vehicle_types_available": []
            },
            "type": "Feature"
        },
        {
            "geometry": {
                "coordinates": [
                    15.55626,
                    45.483447
                ],
                "type": "Point"
            },
            "properties": {
                "is_installed": true,
                "is_renting": true,
                "is_returning": true,
                "is_virtual_station": false,
                "last_reported": 1789136028,
                "name": "Rakovac, Karlovac",
                "num_bikes_available": 0,
                "num_docks_available": 0,
                "region_id": "305",
                "rental_uris": {
                    "android": "https://app.nextbike.net/station?id=43949527",
                    "ios": "https://app.nextbike.net/station?id=43949527",
                    "web": "https://nxtb.it/p/43949527"
                },
                "short_name": "2372",
                "station_id": "43949527",
                "vehicle_types_available": []
            },
            "type": "Feature"
        },
        {
            "geometry": {
                "coordinates": [
                    15.54655,
                    45.483127
                ],
                "type": "Point"
            },
            "properties": {
                "is_installed": true,
                "is_renting": true,
                "is_returning": true,
                "is_virtual_station": false,
                "last_reported": 1789136028,
                "name": "Lu\u0161\u010di\u0107 - Grabrik, Karlovac",
                "num_bikes_available": 3,
                "num_docks_available": 0,
                "region_id": "305",
                "rental_uris": {
                    "android": "https://app.nextbike.net/station?id=43949674",
                    "ios": "https://app.nextbike.net/station?id=43949674",
                    "web": "https://nxtb.it/p/43949674"
                },
                "short_name": "2373",
                "station_id": "43949674",
                "vehicle_types_available": [
                    {
                        "count": 2,
                        "vehicle_type_id": "71"
                    },
                    {
                        "count": 1,
                        "vehicle_type_id": "150"
                    }
                ]
            },
            "type": "Feature"
        },
        {
            "geometry": {
                "coordinates": [
                    15.541159,
                    45.490352
                ],
                "type": "Point"
            },
            "properties": {
                "is_installed": true,
                "is_renting": true,
                "is_returning": true,
                "is_virtual_station": false,
                "last_reported": 1789136028,
                "name": "Krle\u017eina, Karlovac",
                "num_bikes_available": 2,
                "num_docks_available": 0,
                "region_id": "305",
                "rental_uris": {
                    "android": "https://app.nextbike.net/station?id=43949773",
                    "ios": "https://app.nextbike.net/station?id=43949773",
                    "web": "https://nxtb.it/p/43949773"
                },
                "short_name": "2371",
                "station_id": "43949773",
                "vehicle_types_available": [
                    {
                        "count": 2,
                        "vehicle_type_id": "150"
                    }
                ]
            },
            "type": "Feature"
        },
        {
            "geometry": {
                "coordinates": [
                    15.562016,
                    45.484987
                ],
                "type": "Point"
            },
            "properties": {
                "is_installed": true,
                "is_renting": true,
                "is_returning": true,
                "is_virtual_station": false,
                "last_reported": 1789136028,
                "name": "Aquatika, Karlovac",
                "num_bikes_available": 0,
                "num_docks_available": 0,
                "region_id": "305",
                "rental_uris": {
                    "android": "https://app.nextbike.net/station?id=44409847",
                    "ios": "https://app.nextbike.net/station?id=44409847",
                    "web": "https://nxtb.it/p/44409847"
                },
                "short_name": "2375",
                "station_id": "44409847",
                "vehicle_types_available": []
            },
            "type": "Feature"
        },
        {
            "geometry": {
                "coordinates": [
                    15.554618,
                    45.493619
                ],
                "type": "Point"
            },
            "properties": {
                "is_installed": true,
                "is_renting": true,
                "is_returning": true,
                "is_virtual_station": false,
                "last_reported": 1789136028,
                "name": "Gradska uprava, Karlovac",
                "num_bikes_available": 3,
                "num_docks_available": 0,
                "region_id": "305",
                "rental_uris": {
                    "android": "https://app.nextbike.net/station?id=461388",
                    "ios": "https://app.nextbike.net/station?id=461388",
                    "web": "https://nxtb.it/p/461388"
                },
                "short_name": "2358",
                "station_id": "461388",
                "vehicle_types_available": [
                    {
                        "count": 3,
                        "vehicle_type_id": "150"
                    }
                ]
            },
            "type": "Feature"
        },
        {
            "geometry": {
                "coordinates": [
                    15.559949,
                    45.487686
                ],
                "type": "Point"
            },
            "properties": {
                "is_installed": true,
                "is_renting": true,
                "is_returning": true,
                "is_virtual_station": false,
                "last_reported": 1789136028,
                "name": "Korana, Karlovac",
                "num_bikes_available": 3,
                "num_docks_available": 0,
                "region_id": "305",
                "rental_uris": {
                    "android": "https://app.nextbike.net/station?id=52011837",
                    "ios": "https://app.nextbike.net/station?id=52011837",
                    "web": "https://nxtb.it/p/52011837"
                },
                "short_name": "2354",
                "station_id": "52011837",
                "vehicle_types_available": [
                    {
                        "count": 2,
                        "vehicle_type_id": "150"
                    },
                    {
                        "count": 1,
                        "vehicle_type_id": "71"
                    }
                ]
            },
            "type": "Feature"
        },
        {
            "geometry": {
                "coordinates": [
                    15.547392,
                    45.488231
                ],
                "type": "Point"
            },
            "properties": {
                "is_installed": true,
                "is_renting": true,
                "is_returning": true,
                "is_virtual_station": false,
                "last_reported": 1789136028,
                "name": "Kod suda, Karlovac",
                "num_bikes_available": 0,
                "num_docks_available": 0,
                "region_id": "305",
                "rental_uris": {
                    "android": "https://app.nextbike.net/station?id=52011978",
                    "ios": "https://app.nextbike.net/station?id=52011978",
                    "web": "https://nxtb.it/p/52011978"
                },
                "short_name": "2356",
                "station_id": "52011978",
                "vehicle_types_available": []
            },
            "type": "Feature"
        },
        {
            "geometry": {
                "coordinates": [
                    15.557218,
                    45.496745
                ],
                "type": "Point"
            },
            "properties": {
                "is_installed": true,
                "is_renting": true,
                "is_returning": true,
                "is_virtual_station": false,
                "last_reported": 1789136028,
                "name": "Ga\u017eanski trg, Karlovac",
                "num_bikes_available": 1,
                "num_docks_available": 0,
                "region_id": "305",
                "rental_uris": {
                    "android": "https://app.nextbike.net/station?id=616880329",
                    "ios": "https://app.nextbike.net/station?id=616880329",
                    "web": "https://nxtb.it/p/616880329"
                },
                "short_name": "2353",
                "station_id": "616880329",
                "vehicle_types_available": [
                    {
                        "count": 1,
                        "vehicle_type_id": "71"
                    }
                ]
            },
            "type": "Feature"
        },
        {
            "geometry": {
                "coordinates": [
                    15.556283,
                    45.489689
                ],
                "type": "Point"
            },
            "properties": {
                "is_installed": true,
                "is_renting": true,
                "is_returning": true,
                "is_virtual_station": false,
                "last_reported": 1789136028,
                "name": "Ul. Stjepana Radi\u0107a, Karlovac",
                "num_bikes_available": 1,
                "num_docks_available": 0,
                "region_id": "305",
                "rental_uris": {
                    "android": "https://app.nextbike.net/station?id=616880976",
                    "ios": "https://app.nextbike.net/station?id=616880976",
                    "web": "https://nxtb.it/p/616880976"
                },
                "short_name": "2352",
                "station_id": "616880976",
                "vehicle_types_available": [
                    {
                        "count": 1,
                        "vehicle_type_id": "71"
                    }
                ]
            },
            "type": "Feature"
        }
    ],
    "gbfs": {
        "station_information": {
            "last_updated": 1789136028,
            "ttl": 60,
            "version": "2.3"
        },
        "station_status": {
            "last_updated": 1789136028,
            "ttl": 60,
            "version": "2.3"
        }
    },
    "type": "FeatureCollection"
}