{
    "features": [
        {
            "geometry": {
                "coordinates": [
                    10.231673,
                    53.375095
                ],
                "type": "Point"
            },
            "properties": {
                "is_installed": true,
                "is_renting": true,
                "is_returning": true,
                "is_virtual_station": true,
                "last_reported": 1789274244,
                "name": "Gewerbegebiet Osterwiesen",
                "num_bikes_available": 3,
                "num_docks_available": 0,
                "region_id": "794",
                "rental_uris": {
                    "android": "https://app.nextbike.net/station?id=108134967",
                    "ios": "https://app.nextbike.net/station?id=108134967",
                    "web": "https://nxtb.it/p/108134967"
                },
                "short_name": "2185",
                "station_area": {
                    "coordinates": [
                        [
                            [
                                [
                                    10.231673,
                                    53.37532
                                ],
                                [
                                    10.231999,
                                    53.375207
                                ],
                                [
                                    10.231999,
                                    53.374983
                                ],
                                [
                                    10.231673,
                                    53.37487
                                ],
                                [
                                    10.231347,
                                    53.374983
                                ],
                                [
                                    10.231347,
                                    53.375207
                                ],
                                [
                                    10.231673,
                                    53.37532
                                ]
                            ]
                        ]
                    ],
                    "type": "MultiPolygon"
                },
                "station_id": "108134967",
                "vehicle_types_available": [
                    {
                        "count": 3,
                        "vehicle_type_id": "196"
                    }
                ]
            },
            "type": "Feature"
        },
        {
            "geometry": {
                "coordinates": [
                    10.18593,
                    53.366907
                ],
                "type": "Point"
            },
            "properties": {
                "is_installed": true,
                "is_renting": true,
                "is_returning": true,
                "is_virtual_station": true,
                "last_reported": 1789274244,
                "name": "Astrid Lindgren Stra\u00dfe",
                "num_bikes_available": 2,
                "num_docks_available": 0,
                "region_id": "794",
                "rental_uris": {
                    "android": "https://app.nextbike.net/station?id=108135072",
                    "ios": "https://app.nextbike.net/station?id=108135072",
                    "web": "https://nxtb.it/p/108135072"
                },
                "short_name": "2184",
                "station_area": {
                    "coordinates": [
                        [
                            [
                                [
                                    10.18593,
                                    53.367132
                                ],
                                [
                                    10.186256,
                                    53.367019
                                ],
                                [
                                    10.186256,
                                    53.366795
                                ],
                                [
                                    10.18593,
                                    53.366682
                                ],
                                [
                                    10.185604,
                                    53.366795
                                ],
                                [
                                    10.185604,
                                    53.367019
                                ],
                                [
                                    10.18593,
                                    53.367132
                                ]
                            ]
                        ]
                    ],
                    "type": "MultiPolygon"
                },
                "station_id": "108135072",
                "vehicle_types_available": [
                    {
                        "count": 2,
                        "vehicle_type_id": "196"
                    }
                ]
            },
            "type": "Feature"
        },
        {
            "geometry": {
                "coordinates": [
                    10.208037,
                    53.354192
                ],
                "type": "Point"
            },
            "properties": {
                "is_installed": true,
                "is_renting": true,
                "is_returning": true,
                "is_virtual_station": false,
                "last_reported": 1789274244,
                "name": "An der Kleinbahn",
                "num_bikes_available": 0,
                "num_docks_available": 0,
                "region_id": "794",
                "rental_uris": {
                    "android": "https://app.nextbike.net/station?id=149876031",
                    "ios": "https://app.nextbike.net/station?id=149876031",
                    "web": "https://nxtb.it/p/149876031"
                },
                "short_name": "2182",
                "station_id": "149876031",
                "vehicle_types_available": []
            },
            "type": "Feature"
        },
        {
            "geometry": {
                "coordinates": [
                    10.211749,
                    53.365288
                ],
                "type": "Point"
            },
            "properties": {
                "is_installed": true,
                "is_renting": true,
                "is_returning": true,
                "is_virtual_station": false,
                "last_reported": 1789274244,
                "name": "Bleiche",
                "num_bikes_available": 0,
                "num_docks_available": 0,
                "region_id": "794",
                "rental_uris": {
                    "android": "https://app.nextbike.net/station?id=149877579",
                    "ios": "https://app.nextbike.net/station?id=149877579",
                    "web": "https://nxtb.it/p/149877579"
                },
                "short_name": "2181",
                "station_id": "149877579",
                "vehicle_types_available": []
            },
            "type": "Feature"
        },
        {
            "geometry": {
                "coordinates": [
                    10.214882,
                    53.348598
                ],
                "type": "Point"
            },
            "properties": {
                "is_installed": true,
                "is_renting": true,
                "is_returning": true,
                "is_virtual_station": false,
                "last_reported": 1789274244,
                "name": "Borsteler Weg",
                "num_bikes_available": 0,
                "num_docks_available": 0,
                "region_id": "794",
                "rental_uris": {
                    "android": "https://app.nextbike.net/station?id=149878288",
                    "ios": "https://app.nextbike.net/station?id=149878288",
                    "web": "https://nxtb.it/p/149878288"
                },
                "short_name": "2180",
                "station_id": "149878288",
                "vehicle_types_available": []
            },
            "type": "Feature"
        },
        {
            "geometry": {
                "coordinates": [
                    10.193987,
                    53.379908
                ],
                "type": "Point"
            },
            "properties": {
                "is_installed": true,
                "is_renting": true,
                "is_returning": true,
                "is_virtual_station": false,
                "last_reported": 1789274244,
                "name": "Dorfgemeinschaftshaus St\u00f6ckte",
                "num_bikes_available": 14,
                "num_docks_available": 0,
                "region_id": "794",
                "rental_uris": {
                    "android": "https://app.nextbike.net/station?id=149881121",
                    "ios": "https://app.nextbike.net/station?id=149881121",
                    "web": "https://nxtb.it/p/149881121"
                },
                "short_name": "2179",
                "station_id": "149881121",
                "vehicle_types_available": [
                    {
                        "count": 13,
                        "vehicle_type_id": "196"
                    },
                    {
                        "count": 1,
                        "vehicle_type_id": "150"
                    }
                ]
            },
            "type": "Feature"
        },
        {
            "geometry": {
                "coordinates": [
                    10.220793,
                    53.333522
                ],
                "type": "Point"
            },
            "properties": {
                "is_installed": true,
                "is_renting": true,
                "is_returning": true,
                "is_virtual_station": false,
                "last_reported": 1789274244,
                "name": "Gewerbegebiet Luhdorf",
                "num_bikes_available": 22,
                "num_docks_available": 0,
                "region_id": "794",
                "rental_uris": {
                    "android": "https://app.nextbike.net/station?id=149881931",
                    "ios": "https://app.nextbike.net/station?id=149881931",
                    "web": "https://nxtb.it/p/149881931"
                },
                "short_name": "2178",
                "station_id": "149881931",
                "vehicle_types_available": [
                    {
                        "count": 22,
                        "vehicle_type_id": "196"
                    }
                ]
            },
            "type": "Feature"
        },
        {
            "geometry": {
                "coordinates": [
                    10.212492,
                    53.358417
                ],
                "type": "Point"
            },
            "properties": {
                "is_installed": true,
                "is_renting": true,
                "is_returning": true,
                "is_virtual_station": false,
                "last_reported": 1789274244,
                "name": "Albert-Schweitzer-Stra\u00dfe",
                "num_bikes_available": 1,
                "num_docks_available": 0,
                "region_id": "794",
                "rental_uris": {
                    "android": "https://app.nextbike.net/station?id=162363388",
                    "ios": "https://app.nextbike.net/station?id=162363388",
                    "web": "https://nxtb.it/p/162363388"
                },
                "short_name": "2177",
                "station_id": "162363388",
                "vehicle_types_available": [
                    {
                        "count": 1,
                        "vehicle_type_id": "196"
                    }
                ]
            },
            "type": "Feature"
        },
        {
            "geometry": {
                "coordinates": [
                    10.206048,
                    53.354821
                ],
                "type": "Point"
            },
            "properties": {
                "capacity": 10,
                "is_installed": true,
                "is_renting": true,
                "is_returning": true,
                "is_virtual_station": false,
                "last_reported": 1789274244,
                "name": "Bahnhof",
                "num_bikes_available": 0,
                "num_docks_available": 9,
                "region_id": "794",
                "rental_uris": {
                    "android": "https://app.nextbike.net/station?id=87638190",
                    "ios": "https://app.nextbike.net/station?id=87638190",
                    "web": "https://nxtb.it/p/87638190"
                },
                "short_name": "2186",
                "station_id": "87638190",
                "vehicle_types_available": []
            },
            "type": "Feature"
        },
        {
            "geometry": {
                "coordinates": [
                    10.201833,
                    53.350467
                ],
                "type": "Point"
            },
            "properties": {
                "capacity": 5,
                "is_installed": true,
                "is_renting": true,
                "is_returning": true,
                "is_virtual_station": false,
                "last_reported": 1789274244,
                "name": "Krankenhaus",
                "num_bikes_available": 0,
                "num_docks_available": 5,
                "region_id": "794",
                "rental_uris": {
                    "android": "https://app.nextbike.net/station?id=87638952",
                    "ios": "https://app.nextbike.net/station?id=87638952",
                    "web": "https://nxtb.it/p/87638952"
                },
                "short_name": "2187",
                "station_id": "87638952",
                "vehicle_types_available": []
            },
            "type": "Feature"
        },
        {
            "geometry": {
                "coordinates": [
                    10.197905,
                    53.330394
                ],
                "type": "Point"
            },
            "properties": {
                "capacity": 3,
                "is_installed": true,
                "is_renting": true,
                "is_returning": true,
                "is_virtual_station": false,
                "last_reported": 1789274244,
                "name": "Feuerwehr Luhdorf",
                "num_bikes_available": 4,
                "num_docks_available": 0,
                "region_id": "794",
                "rental_uris": {
                    "android": "https://app.nextbike.net/station?id=87640448",
                    "ios": "https://app.nextbike.net/station?id=87640448",
                    "web": "https://nxtb.it/p/87640448"
                },
                "short_name": "2188",
                "station_id": "87640448",
                "vehicle_types_available": [
                    {
                        "count": 4,
                        "vehicle_type_id": "196"
                    }
                ]
            },
            "type": "Feature"
        },
        {
            "geometry": {
                "coordinates": [
                    10.208329,
                    53.362346
                ],
                "type": "Point"
            },
            "properties": {
                "capacity": 5,
                "is_installed": true,
                "is_renting": true,
                "is_returning": true,
                "is_virtual_station": false,
                "last_reported": 1789274244,
                "name": "Eckermannstr.",
                "num_bikes_available": 0,
                "num_docks_available": 4,
                "region_id": "794",
                "rental_uris": {
                    "android": "https://app.nextbike.net/station?id=87640674",
                    "ios": "https://app.nextbike.net/station?id=87640674",
                    "web": "https://nxtb.it/p/87640674"
                },
                "short_name": "2189",
                "station_id": "87640674",
                "vehicle_types_available": []
            },
            "type": "Feature"
        },
        {
            "geometry": {
                "coordinates": [
                    10.206213,
                    53.357535
                ],
                "type": "Point"
            },
            "properties": {
                "capacity": 5,
                "is_installed": true,
                "is_renting": true,
                "is_returning": true,
                "is_virtual_station": false,
                "last_reported": 1789274244,
                "name": "Kapelle St. Georg",
                "num_bikes_available": 0,
                "num_docks_available": 5,
                "region_id": "794",
                "rental_uris": {
                    "android": "https://app.nextbike.net/station?id=87641918",
                    "ios": "https://app.nextbike.net/station?id=87641918",
                    "web": "https://nxtb.it/p/87641918"
                },
                "short_name": "2190",
                "station_id": "87641918",
                "vehicle_types_available": []
            },
            "type": "Feature"
        },
        {
            "geometry": {
                "coordinates": [
                    10.192948,
                    53.362323
                ],
                "type": "Point"
            },
            "properties": {
                "capacity": 5,
                "is_installed": true,
                "is_renting": true,
                "is_returning": true,
                "is_virtual_station": false,
                "last_reported": 1789274244,
                "name": "Luhepark",
                "num_bikes_available": 1,
                "num_docks_available": 2,
                "region_id": "794",
                "rental_uris": {
                    "android": "https://app.nextbike.net/station?id=87642035",
                    "ios": "https://app.nextbike.net/station?id=87642035",
                    "web": "https://nxtb.it/p/87642035"
                },
                "short_name": "2191",
                "station_id": "87642035",
                "vehicle_types_available": [
                    {
                        "count": 1,
                        "vehicle_type_id": "196"
                    }
                ]
            },
            "type": "Feature"
        },
        {
            "geometry": {
                "coordinates": [
                    10.206349,
                    53.360639
                ],
                "type": "Point"
            },
            "properties": {
                "capacity": 5,
                "is_installed": true,
                "is_renting": true,
                "is_returning": true,
                "is_virtual_station": false,
                "last_reported": 1789274244,
                "name": "Von-Somnitz-Ring",
                "num_bikes_available": 0,
                "num_docks_available": 5,
                "region_id": "794",
                "rental_uris": {
                    "android": "https://app.nextbike.net/station?id=87642200",
                    "ios": "https://app.nextbike.net/station?id=87642200",
                    "web": "https://nxtb.it/p/87642200"
                },
                "short_name": "2192",
                "station_id": "87642200",
                "vehicle_types_available": []
            },
            "type": "Feature"
        },
        {
            "geometry": {
                "coordinates": [
                    10.206418,
                    53.362814
                ],
                "type": "Point"
            },
            "properties": {
                "capacity": 5,
                "is_installed": true,
                "is_renting": true,
                "is_returning": true,
                "is_virtual_station": false,
                "last_reported": 1789274244,
                "name": "Schlossplatz / Rathaus",
                "num_bikes_available": 0,
                "num_docks_available": 5,
                "region_id": "794",
                "rental_uris": {
                    "android": "https://app.nextbike.net/station?id=87642371",
                    "ios": "https://app.nextbike.net/station?id=87642371",
                    "web": "https://nxtb.it/p/87642371"
                },
                "short_name": "2193",
                "station_id": "87642371",
                "vehicle_types_available": []
            },
            "type": "Feature"
        },
        {
            "geometry": {
                "coordinates": [
                    10.219383,
                    53.363489
                ],
                "type": "Point"
            },
            "properties": {
                "capacity": 5,
                "is_installed": true,
                "is_renting": true,
                "is_returning": true,
                "is_virtual_station": false,
                "last_reported": 1789274244,
                "name": "Die Insel",
                "num_bikes_available": 1,
                "num_docks_available": 4,
                "region_id": "794",
                "rental_uris": {
                    "android": "https://app.nextbike.net/station?id=87642602",
                    "ios": "https://app.nextbike.net/station?id=87642602",
                    "web": "https://nxtb.it/p/87642602"
                },
                "short_name": "2195",
                "station_id": "87642602",
                "vehicle_types_available": [
                    {
                        "count": 1,
                        "vehicle_type_id": "196"
                    }
                ]
            },
            "type": "Feature"
        },
        {
            "geometry": {
                "coordinates": [
                    10.20796,
                    53.351635
                ],
                "type": "Point"
            },
            "properties": {
                "capacity": 5,
                "is_installed": true,
                "is_renting": true,
                "is_returning": true,
                "is_virtual_station": false,
                "last_reported": 1789274244,
                "name": "Stadthalle",
                "num_bikes_available": 0,
                "num_docks_available": 5,
                "region_id": "794",
                "rental_uris": {
                    "android": "https://app.nextbike.net/station?id=87642769",
                    "ios": "https://app.nextbike.net/station?id=87642769",
                    "web": "https://nxtb.it/p/87642769"
                },
                "short_name": "2196",
                "station_id": "87642769",
                "vehicle_types_available": []
            },
            "type": "Feature"
        },
        {
            "geometry": {
                "coordinates": [
                    10.203529,
                    53.365021
                ],
                "type": "Point"
            },
            "properties": {
                "capacity": 5,
                "is_installed": true,
                "is_renting": true,
                "is_returning": true,
                "is_virtual_station": false,
                "last_reported": 1789274244,
                "name": "Deichstr.",
                "num_bikes_available": 2,
                "num_docks_available": 3,
                "region_id": "794",
                "rental_uris": {
                    "android": "https://app.nextbike.net/station?id=87642883",
                    "ios": "https://app.nextbike.net/station?id=87642883",
                    "web": "https://nxtb.it/p/87642883"
                },
                "short_name": "2197",
                "station_id": "87642883",
                "vehicle_types_available": [
                    {
                        "count": 2,
                        "vehicle_type_id": "196"
                    }
                ]
            },
            "type": "Feature"
        },
        {
            "geometry": {
                "coordinates": [
                    10.237891,
                    53.350868
                ],
                "type": "Point"
            },
            "properties": {
                "capacity": 3,
                "is_installed": true,
                "is_renting": true,
                "is_returning": true,
                "is_virtual_station": false,
                "last_reported": 1789274244,
                "name": "FFW Borstel",
                "num_bikes_available": 3,
                "num_docks_available": 0,
                "region_id": "794",
                "rental_uris": {
                    "android": "https://app.nextbike.net/station?id=87643036",
                    "ios": "https://app.nextbike.net/station?id=87643036",
                    "web": "https://nxtb.it/p/87643036"
                },
                "short_name": "2198",
                "station_id": "87643036",
                "vehicle_types_available": [
                    {
                        "count": 3,
                        "vehicle_type_id": "196"
                    }
                ]
            },
            "type": "Feature"
        },
        {
            "geometry": {
                "coordinates": [
                    10.226185,
                    53.360659
                ],
                "type": "Point"
            },
            "properties": {
                "capacity": 5,
                "is_installed": true,
                "is_renting": true,
                "is_returning": true,
                "is_virtual_station": false,
                "last_reported": 1789274244,
                "name": "Schirwindter Str.",
                "num_bikes_available": 7,
                "num_docks_available": 0,
                "region_id": "794",
                "rental_uris": {
                    "android": "https://app.nextbike.net/station?id=87643153",
                    "ios": "https://app.nextbike.net/station?id=87643153",
                    "web": "https://nxtb.it/p/87643153"
                },
                "short_name": "2199",
                "station_id": "87643153",
                "vehicle_types_available": [
                    {
                        "count": 7,
                        "vehicle_type_id": "196"
                    }
                ]
            },
            "type": "Feature"
        }
    ],
    "gbfs": {
        "station_information": {
            "last_updated": 1789274244,
            "ttl": 60,
            "version": "2.3"
        },
        "station_status": {
            "last_updated": 1789274244,
            "ttl": 60,
            "version": "2.3"
        }
    },
    "type": "FeatureCollection"
}