{
    "features": [
        {
            "geometry": {
                "coordinates": [
                    20.45076,
                    52.03703
                ],
                "type": "Point"
            },
            "properties": {
                "capacity": 15,
                "is_installed": true,
                "is_renting": true,
                "is_returning": true,
                "is_virtual_station": false,
                "last_reported": 1789335489,
                "name": "Zalew \u017byrardowski",
                "num_bikes_available": 12,
                "num_docks_available": 2,
                "region_id": "551",
                "rental_uris": {
                    "android": "https://app.nextbike.net/station?id=17131331",
                    "ios": "https://app.nextbike.net/station?id=17131331",
                    "web": "https://nxtb.it/p/17131331"
                },
                "short_name": "8225",
                "station_id": "17131331",
                "vehicle_types_available": [
                    {
                        "count": 9,
                        "vehicle_type_id": "71"
                    },
                    {
                        "count": 3,
                        "vehicle_type_id": "170"
                    }
                ]
            },
            "type": "Feature"
        },
        {
            "geometry": {
                "coordinates": [
                    20.44694,
                    52.06789
                ],
                "type": "Point"
            },
            "properties": {
                "capacity": 15,
                "is_installed": true,
                "is_renting": true,
                "is_returning": true,
                "is_virtual_station": false,
                "last_reported": 1789335489,
                "name": "Aqua",
                "num_bikes_available": 10,
                "num_docks_available": 4,
                "region_id": "551",
                "rental_uris": {
                    "android": "https://app.nextbike.net/station?id=17131341",
                    "ios": "https://app.nextbike.net/station?id=17131341",
                    "web": "https://nxtb.it/p/17131341"
                },
                "short_name": "8226",
                "station_id": "17131341",
                "vehicle_types_available": [
                    {
                        "count": 9,
                        "vehicle_type_id": "71"
                    },
                    {
                        "count": 1,
                        "vehicle_type_id": "170"
                    }
                ]
            },
            "type": "Feature"
        },
        {
            "geometry": {
                "coordinates": [
                    20.433208,
                    52.068167
                ],
                "type": "Point"
            },
            "properties": {
                "capacity": 15,
                "is_installed": true,
                "is_renting": true,
                "is_returning": true,
                "is_virtual_station": false,
                "last_reported": 1789335489,
                "name": "Eko-park",
                "num_bikes_available": 14,
                "num_docks_available": 1,
                "region_id": "551",
                "rental_uris": {
                    "android": "https://app.nextbike.net/station?id=44166996",
                    "ios": "https://app.nextbike.net/station?id=44166996",
                    "web": "https://nxtb.it/p/44166996"
                },
                "short_name": "8227",
                "station_id": "44166996",
                "vehicle_types_available": [
                    {
                        "count": 14,
                        "vehicle_type_id": "71"
                    }
                ]
            },
            "type": "Feature"
        },
        {
            "geometry": {
                "coordinates": [
                    20.427961,
                    52.052839
                ],
                "type": "Point"
            },
            "properties": {
                "capacity": 15,
                "is_installed": true,
                "is_renting": true,
                "is_returning": true,
                "is_virtual_station": false,
                "last_reported": 1789335489,
                "name": "Park Seniora",
                "num_bikes_available": 10,
                "num_docks_available": 5,
                "region_id": "551",
                "rental_uris": {
                    "android": "https://app.nextbike.net/station?id=9799761",
                    "ios": "https://app.nextbike.net/station?id=9799761",
                    "web": "https://nxtb.it/p/9799761"
                },
                "short_name": "8221",
                "station_id": "9799761",
                "vehicle_types_available": [
                    {
                        "count": 9,
                        "vehicle_type_id": "71"
                    },
                    {
                        "count": 1,
                        "vehicle_type_id": "170"
                    }
                ]
            },
            "type": "Feature"
        },
        {
            "geometry": {
                "coordinates": [
                    20.451433,
                    52.05179
                ],
                "type": "Point"
            },
            "properties": {
                "capacity": 15,
                "is_installed": true,
                "is_renting": true,
                "is_returning": true,
                "is_virtual_station": false,
                "last_reported": 1789335489,
                "name": "Towarowa",
                "num_bikes_available": 7,
                "num_docks_available": 8,
                "region_id": "551",
                "rental_uris": {
                    "android": "https://app.nextbike.net/station?id=9799767",
                    "ios": "https://app.nextbike.net/station?id=9799767",
                    "web": "https://nxtb.it/p/9799767"
                },
                "short_name": "8222",
                "station_id": "9799767",
                "vehicle_types_available": [
                    {
                        "count": 7,
                        "vehicle_type_id": "71"
                    }
                ]
            },
            "type": "Feature"
        },
        {
            "geometry": {
                "coordinates": [
                    20.447711,
                    52.053432
                ],
                "type": "Point"
            },
            "properties": {
                "capacity": 15,
                "is_installed": true,
                "is_renting": true,
                "is_returning": true,
                "is_virtual_station": false,
                "last_reported": 1789335489,
                "name": "Dworzec PKP",
                "num_bikes_available": 1,
                "num_docks_available": 13,
                "region_id": "551",
                "rental_uris": {
                    "android": "https://app.nextbike.net/station?id=9799770",
                    "ios": "https://app.nextbike.net/station?id=9799770",
                    "web": "https://nxtb.it/p/9799770"
                },
                "short_name": "8223",
                "station_id": "9799770",
                "vehicle_types_available": [
                    {
                        "count": 1,
                        "vehicle_type_id": "71"
                    }
                ]
            },
            "type": "Feature"
        },
        {
            "geometry": {
                "coordinates": [
                    20.437741,
                    52.056359
                ],
                "type": "Point"
            },
            "properties": {
                "capacity": 15,
                "is_installed": true,
                "is_renting": true,
                "is_returning": true,
                "is_virtual_station": false,
                "last_reported": 1789335489,
                "name": "Urz\u0105d Miasta",
                "num_bikes_available": 18,
                "num_docks_available": 0,
                "region_id": "551",
                "rental_uris": {
                    "android": "https://app.nextbike.net/station?id=9799774",
                    "ios": "https://app.nextbike.net/station?id=9799774",
                    "web": "https://nxtb.it/p/9799774"
                },
                "short_name": "8224",
                "station_id": "9799774",
                "vehicle_types_available": [
                    {
                        "count": 18,
                        "vehicle_type_id": "71"
                    }
                ]
            },
            "type": "Feature"
        }
    ],
    "gbfs": {
        "station_information": {
            "last_updated": 1789335489,
            "ttl": 60,
            "version": "2.3"
        },
        "station_status": {
            "last_updated": 1789335489,
            "ttl": 60,
            "version": "2.3"
        }
    },
    "type": "FeatureCollection"
}