{
    "features": [
        {
            "geometry": {
                "coordinates": [
                    14.034476,
                    49.954851
                ],
                "type": "Point"
            },
            "properties": {
                "capacity": 8,
                "is_installed": true,
                "is_renting": true,
                "is_returning": true,
                "is_virtual_station": false,
                "last_reported": 1789331827,
                "name": "Kr\u00e1l\u016fv Dv\u016fr - T\u0159i Vr\u0161ky",
                "num_bikes_available": 23,
                "num_docks_available": 2,
                "region_id": "655",
                "rental_uris": {
                    "android": "https://app.nextbike.net/station?id=115069377",
                    "ios": "https://app.nextbike.net/station?id=115069377",
                    "web": "https://nxtb.it/p/115069377"
                },
                "short_name": "49506",
                "station_id": "115069377",
                "vehicle_types_available": [
                    {
                        "count": 22,
                        "vehicle_type_id": "211"
                    },
                    {
                        "count": 1,
                        "vehicle_type_id": "204"
                    }
                ]
            },
            "type": "Feature"
        },
        {
            "geometry": {
                "coordinates": [
                    14.052292,
                    49.963827
                ],
                "type": "Point"
            },
            "properties": {
                "capacity": 3,
                "is_installed": true,
                "is_renting": true,
                "is_returning": true,
                "is_virtual_station": false,
                "last_reported": 1789331827,
                "name": "Koll\u00e1rova/Za Vini\u010dnou (cyklostojan - nenab\u00edjec\u00ed)",
                "num_bikes_available": 24,
                "num_docks_available": 0,
                "region_id": "655",
                "rental_uris": {
                    "android": "https://app.nextbike.net/station?id=214089473",
                    "ios": "https://app.nextbike.net/station?id=214089473",
                    "web": "https://nxtb.it/p/214089473"
                },
                "short_name": "45057",
                "station_id": "214089473",
                "vehicle_types_available": [
                    {
                        "count": 20,
                        "vehicle_type_id": "211"
                    },
                    {
                        "count": 4,
                        "vehicle_type_id": "204"
                    }
                ]
            },
            "type": "Feature"
        },
        {
            "geometry": {
                "coordinates": [
                    14.078422,
                    49.966298
                ],
                "type": "Point"
            },
            "properties": {
                "capacity": 3,
                "is_installed": true,
                "is_renting": true,
                "is_returning": true,
                "is_virtual_station": false,
                "last_reported": 1789331827,
                "name": "V\u00e1clavsk\u00e9 n\u00e1m\u011bst\u00ed (cyklostojan - nenab\u00edjec\u00ed)",
                "num_bikes_available": 0,
                "num_docks_available": 3,
                "region_id": "655",
                "rental_uris": {
                    "android": "https://app.nextbike.net/station?id=214089979",
                    "ios": "https://app.nextbike.net/station?id=214089979",
                    "web": "https://nxtb.it/p/214089979"
                },
                "short_name": "45060",
                "station_id": "214089979",
                "vehicle_types_available": []
            },
            "type": "Feature"
        },
        {
            "geometry": {
                "coordinates": [
                    14.017696,
                    49.930098
                ],
                "type": "Point"
            },
            "properties": {
                "capacity": 8,
                "is_installed": true,
                "is_renting": true,
                "is_returning": true,
                "is_virtual_station": false,
                "last_reported": 1789331827,
                "name": "Kr\u00e1l\u016fv Dv\u016fr - Popovice",
                "num_bikes_available": 13,
                "num_docks_available": 2,
                "region_id": "655",
                "rental_uris": {
                    "android": "https://app.nextbike.net/station?id=234424171",
                    "ios": "https://app.nextbike.net/station?id=234424171",
                    "web": "https://nxtb.it/p/234424171"
                },
                "short_name": "45398",
                "station_id": "234424171",
                "vehicle_types_available": [
                    {
                        "count": 13,
                        "vehicle_type_id": "211"
                    }
                ]
            },
            "type": "Feature"
        },
        {
            "geometry": {
                "coordinates": [
                    14.101338,
                    49.94966
                ],
                "type": "Point"
            },
            "properties": {
                "capacity": 20,
                "is_installed": true,
                "is_renting": true,
                "is_returning": true,
                "is_virtual_station": false,
                "last_reported": 1789331827,
                "name": "Tet\u00edn",
                "num_bikes_available": 3,
                "num_docks_available": 14,
                "region_id": "655",
                "rental_uris": {
                    "android": "https://app.nextbike.net/station?id=29411190",
                    "ios": "https://app.nextbike.net/station?id=29411190",
                    "web": "https://nxtb.it/p/29411190"
                },
                "short_name": "45401",
                "station_id": "29411190",
                "vehicle_types_available": [
                    {
                        "count": 3,
                        "vehicle_type_id": "211"
                    }
                ]
            },
            "type": "Feature"
        },
        {
            "geometry": {
                "coordinates": [
                    14.047147,
                    49.987649
                ],
                "type": "Point"
            },
            "properties": {
                "capacity": 20,
                "is_installed": true,
                "is_renting": true,
                "is_returning": true,
                "is_virtual_station": false,
                "last_reported": 1789331827,
                "name": "H\u00fdskov",
                "num_bikes_available": 3,
                "num_docks_available": 17,
                "region_id": "655",
                "rental_uris": {
                    "android": "https://app.nextbike.net/station?id=29411299",
                    "ios": "https://app.nextbike.net/station?id=29411299",
                    "web": "https://nxtb.it/p/29411299"
                },
                "short_name": "45400",
                "station_id": "29411299",
                "vehicle_types_available": [
                    {
                        "count": 3,
                        "vehicle_type_id": "211"
                    }
                ]
            },
            "type": "Feature"
        },
        {
            "geometry": {
                "coordinates": [
                    14.0305,
                    49.9474
                ],
                "type": "Point"
            },
            "properties": {
                "capacity": 20,
                "is_installed": true,
                "is_renting": true,
                "is_returning": true,
                "is_virtual_station": false,
                "last_reported": 1789331827,
                "name": "Kr\u00e1l\u016fv Dv\u016fr - Sportovn\u00ed hala",
                "num_bikes_available": 10,
                "num_docks_available": 9,
                "region_id": "655",
                "rental_uris": {
                    "android": "https://app.nextbike.net/station?id=29411314",
                    "ios": "https://app.nextbike.net/station?id=29411314",
                    "web": "https://nxtb.it/p/29411314"
                },
                "short_name": "45402",
                "station_id": "29411314",
                "vehicle_types_available": [
                    {
                        "count": 10,
                        "vehicle_type_id": "211"
                    }
                ]
            },
            "type": "Feature"
        },
        {
            "geometry": {
                "coordinates": [
                    14.0395,
                    49.9444
                ],
                "type": "Point"
            },
            "properties": {
                "capacity": 20,
                "is_installed": true,
                "is_renting": true,
                "is_returning": true,
                "is_virtual_station": false,
                "last_reported": 1789331827,
                "name": "Kr\u00e1l\u016fv Dv\u016fr - Radnice",
                "num_bikes_available": 13,
                "num_docks_available": 7,
                "region_id": "655",
                "rental_uris": {
                    "android": "https://app.nextbike.net/station?id=29411316",
                    "ios": "https://app.nextbike.net/station?id=29411316",
                    "web": "https://nxtb.it/p/29411316"
                },
                "short_name": "45403",
                "station_id": "29411316",
                "vehicle_types_available": [
                    {
                        "count": 13,
                        "vehicle_type_id": "211"
                    }
                ]
            },
            "type": "Feature"
        },
        {
            "geometry": {
                "coordinates": [
                    14.018989,
                    49.938882
                ],
                "type": "Point"
            },
            "properties": {
                "capacity": 20,
                "is_installed": true,
                "is_renting": true,
                "is_returning": true,
                "is_virtual_station": false,
                "last_reported": 1789331827,
                "name": "Kr\u00e1l\u016fv Dv\u016fr - Po\u010daply",
                "num_bikes_available": 2,
                "num_docks_available": 18,
                "region_id": "655",
                "rental_uris": {
                    "android": "https://app.nextbike.net/station?id=29411661",
                    "ios": "https://app.nextbike.net/station?id=29411661",
                    "web": "https://nxtb.it/p/29411661"
                },
                "short_name": "45404",
                "station_id": "29411661",
                "vehicle_types_available": [
                    {
                        "count": 2,
                        "vehicle_type_id": "211"
                    }
                ]
            },
            "type": "Feature"
        },
        {
            "geometry": {
                "coordinates": [
                    14.075729,
                    49.964234
                ],
                "type": "Point"
            },
            "properties": {
                "capacity": 10,
                "is_installed": true,
                "is_renting": true,
                "is_returning": true,
                "is_virtual_station": false,
                "last_reported": 1789331827,
                "name": "Za Radnic\u00ed",
                "num_bikes_available": 0,
                "num_docks_available": 9,
                "region_id": "655",
                "rental_uris": {
                    "android": "https://app.nextbike.net/station?id=29411666",
                    "ios": "https://app.nextbike.net/station?id=29411666",
                    "web": "https://nxtb.it/p/29411666"
                },
                "short_name": "45405",
                "station_id": "29411666",
                "vehicle_types_available": []
            },
            "type": "Feature"
        },
        {
            "geometry": {
                "coordinates": [
                    14.0525,
                    49.9553
                ],
                "type": "Point"
            },
            "properties": {
                "capacity": 20,
                "is_installed": true,
                "is_renting": true,
                "is_returning": true,
                "is_virtual_station": false,
                "last_reported": 1789331827,
                "name": "Ml\u00e1de\u017ee",
                "num_bikes_available": 0,
                "num_docks_available": 20,
                "region_id": "655",
                "rental_uris": {
                    "android": "https://app.nextbike.net/station?id=29411670",
                    "ios": "https://app.nextbike.net/station?id=29411670",
                    "web": "https://nxtb.it/p/29411670"
                },
                "short_name": "45406",
                "station_id": "29411670",
                "vehicle_types_available": []
            },
            "type": "Feature"
        },
        {
            "geometry": {
                "coordinates": [
                    14.0607,
                    49.9614
                ],
                "type": "Point"
            },
            "properties": {
                "capacity": 20,
                "is_installed": true,
                "is_renting": true,
                "is_returning": true,
                "is_virtual_station": false,
                "last_reported": 1789331827,
                "name": "Jungmannova",
                "num_bikes_available": 7,
                "num_docks_available": 11,
                "region_id": "655",
                "rental_uris": {
                    "android": "https://app.nextbike.net/station?id=29411673",
                    "ios": "https://app.nextbike.net/station?id=29411673",
                    "web": "https://nxtb.it/p/29411673"
                },
                "short_name": "45407",
                "station_id": "29411673",
                "vehicle_types_available": [
                    {
                        "count": 6,
                        "vehicle_type_id": "211"
                    },
                    {
                        "count": 1,
                        "vehicle_type_id": "204"
                    }
                ]
            },
            "type": "Feature"
        },
        {
            "geometry": {
                "coordinates": [
                    14.060011,
                    49.958288
                ],
                "type": "Point"
            },
            "properties": {
                "capacity": 20,
                "is_installed": true,
                "is_renting": true,
                "is_returning": true,
                "is_virtual_station": false,
                "last_reported": 1789331827,
                "name": "Obchodn\u00ed z\u00f3na",
                "num_bikes_available": 2,
                "num_docks_available": 18,
                "region_id": "655",
                "rental_uris": {
                    "android": "https://app.nextbike.net/station?id=29411677",
                    "ios": "https://app.nextbike.net/station?id=29411677",
                    "web": "https://nxtb.it/p/29411677"
                },
                "short_name": "45408",
                "station_id": "29411677",
                "vehicle_types_available": [
                    {
                        "count": 2,
                        "vehicle_type_id": "211"
                    }
                ]
            },
            "type": "Feature"
        },
        {
            "geometry": {
                "coordinates": [
                    14.0653,
                    49.9676
                ],
                "type": "Point"
            },
            "properties": {
                "capacity": 20,
                "is_installed": true,
                "is_renting": true,
                "is_returning": true,
                "is_virtual_station": false,
                "last_reported": 1789331827,
                "name": "Dra\u0161arova",
                "num_bikes_available": 6,
                "num_docks_available": 12,
                "region_id": "655",
                "rental_uris": {
                    "android": "https://app.nextbike.net/station?id=29411682",
                    "ios": "https://app.nextbike.net/station?id=29411682",
                    "web": "https://nxtb.it/p/29411682"
                },
                "short_name": "45409",
                "station_id": "29411682",
                "vehicle_types_available": [
                    {
                        "count": 6,
                        "vehicle_type_id": "211"
                    }
                ]
            },
            "type": "Feature"
        },
        {
            "geometry": {
                "coordinates": [
                    14.0691,
                    49.9699
                ],
                "type": "Point"
            },
            "properties": {
                "capacity": 20,
                "is_installed": true,
                "is_renting": true,
                "is_returning": true,
                "is_virtual_station": false,
                "last_reported": 1789331827,
                "name": "Na \u010cern\u00e9m vr\u0161ku",
                "num_bikes_available": 5,
                "num_docks_available": 15,
                "region_id": "655",
                "rental_uris": {
                    "android": "https://app.nextbike.net/station?id=29411686",
                    "ios": "https://app.nextbike.net/station?id=29411686",
                    "web": "https://nxtb.it/p/29411686"
                },
                "short_name": "45410",
                "station_id": "29411686",
                "vehicle_types_available": [
                    {
                        "count": 4,
                        "vehicle_type_id": "211"
                    },
                    {
                        "count": 1,
                        "vehicle_type_id": "204"
                    }
                ]
            },
            "type": "Feature"
        },
        {
            "geometry": {
                "coordinates": [
                    14.075578,
                    49.957833
                ],
                "type": "Point"
            },
            "properties": {
                "capacity": 20,
                "is_installed": true,
                "is_renting": true,
                "is_returning": true,
                "is_virtual_station": false,
                "last_reported": 1789331827,
                "name": "N\u00e1dra\u017en\u00ed",
                "num_bikes_available": 1,
                "num_docks_available": 18,
                "region_id": "655",
                "rental_uris": {
                    "android": "https://app.nextbike.net/station?id=29411691",
                    "ios": "https://app.nextbike.net/station?id=29411691",
                    "web": "https://nxtb.it/p/29411691"
                },
                "short_name": "45411",
                "station_id": "29411691",
                "vehicle_types_available": [
                    {
                        "count": 1,
                        "vehicle_type_id": "211"
                    }
                ]
            },
            "type": "Feature"
        },
        {
            "geometry": {
                "coordinates": [
                    14.0728,
                    49.9663
                ],
                "type": "Point"
            },
            "properties": {
                "capacity": 20,
                "is_installed": true,
                "is_renting": true,
                "is_returning": true,
                "is_virtual_station": false,
                "last_reported": 1789331827,
                "name": "Verona - Tipsport",
                "num_bikes_available": 0,
                "num_docks_available": 20,
                "region_id": "655",
                "rental_uris": {
                    "android": "https://app.nextbike.net/station?id=29411692",
                    "ios": "https://app.nextbike.net/station?id=29411692",
                    "web": "https://nxtb.it/p/29411692"
                },
                "short_name": "45412",
                "station_id": "29411692",
                "vehicle_types_available": []
            },
            "type": "Feature"
        },
        {
            "geometry": {
                "coordinates": [
                    14.0487,
                    49.9574
                ],
                "type": "Point"
            },
            "properties": {
                "capacity": 20,
                "is_installed": true,
                "is_renting": true,
                "is_returning": true,
                "is_virtual_station": false,
                "last_reported": 1789331827,
                "name": "Sport. Centrum Eden",
                "num_bikes_available": 11,
                "num_docks_available": 9,
                "region_id": "655",
                "rental_uris": {
                    "android": "https://app.nextbike.net/station?id=29411705",
                    "ios": "https://app.nextbike.net/station?id=29411705",
                    "web": "https://nxtb.it/p/29411705"
                },
                "short_name": "45413",
                "station_id": "29411705",
                "vehicle_types_available": [
                    {
                        "count": 8,
                        "vehicle_type_id": "211"
                    },
                    {
                        "count": 3,
                        "vehicle_type_id": "204"
                    }
                ]
            },
            "type": "Feature"
        },
        {
            "geometry": {
                "coordinates": [
                    14.09518,
                    49.964121
                ],
                "type": "Point"
            },
            "properties": {
                "capacity": 20,
                "is_installed": true,
                "is_renting": true,
                "is_returning": true,
                "is_virtual_station": false,
                "last_reported": 1789331827,
                "name": "Nemocnice",
                "num_bikes_available": 1,
                "num_docks_available": 19,
                "region_id": "655",
                "rental_uris": {
                    "android": "https://app.nextbike.net/station?id=29411710",
                    "ios": "https://app.nextbike.net/station?id=29411710",
                    "web": "https://nxtb.it/p/29411710"
                },
                "short_name": "45414",
                "station_id": "29411710",
                "vehicle_types_available": [
                    {
                        "count": 1,
                        "vehicle_type_id": "211"
                    }
                ]
            },
            "type": "Feature"
        },
        {
            "geometry": {
                "coordinates": [
                    14.020679,
                    49.952863
                ],
                "type": "Point"
            },
            "properties": {
                "capacity": 8,
                "is_installed": true,
                "is_renting": true,
                "is_returning": true,
                "is_virtual_station": false,
                "last_reported": 1789331827,
                "name": "Zaho\u0159any",
                "num_bikes_available": 11,
                "num_docks_available": 1,
                "region_id": "655",
                "rental_uris": {
                    "android": "https://app.nextbike.net/station?id=395384185",
                    "ios": "https://app.nextbike.net/station?id=395384185",
                    "web": "https://nxtb.it/p/395384185"
                },
                "short_name": "45418",
                "station_id": "395384185",
                "vehicle_types_available": [
                    {
                        "count": 10,
                        "vehicle_type_id": "211"
                    },
                    {
                        "count": 1,
                        "vehicle_type_id": "204"
                    }
                ]
            },
            "type": "Feature"
        },
        {
            "geometry": {
                "coordinates": [
                    13.979512,
                    49.911969
                ],
                "type": "Point"
            },
            "properties": {
                "capacity": 10,
                "is_installed": true,
                "is_renting": true,
                "is_returning": true,
                "is_virtual_station": false,
                "last_reported": 1789331827,
                "name": "Zdice - Palack\u00e9ho n\u00e1m\u011bst\u00ed",
                "num_bikes_available": 2,
                "num_docks_available": 8,
                "region_id": "655",
                "rental_uris": {
                    "android": "https://app.nextbike.net/station?id=47850979",
                    "ios": "https://app.nextbike.net/station?id=47850979",
                    "web": "https://nxtb.it/p/47850979"
                },
                "short_name": "46119",
                "station_id": "47850979",
                "vehicle_types_available": [
                    {
                        "count": 2,
                        "vehicle_type_id": "211"
                    }
                ]
            },
            "type": "Feature"
        },
        {
            "geometry": {
                "coordinates": [
                    13.970972,
                    49.907633
                ],
                "type": "Point"
            },
            "properties": {
                "capacity": 10,
                "is_installed": true,
                "is_renting": true,
                "is_returning": true,
                "is_virtual_station": false,
                "last_reported": 1789331827,
                "name": "Zdice - Sportovni hala",
                "num_bikes_available": 3,
                "num_docks_available": 7,
                "region_id": "655",
                "rental_uris": {
                    "android": "https://app.nextbike.net/station?id=47851126",
                    "ios": "https://app.nextbike.net/station?id=47851126",
                    "web": "https://nxtb.it/p/47851126"
                },
                "short_name": "46120",
                "station_id": "47851126",
                "vehicle_types_available": [
                    {
                        "count": 3,
                        "vehicle_type_id": "211"
                    }
                ]
            },
            "type": "Feature"
        },
        {
            "geometry": {
                "coordinates": [
                    14.065813,
                    49.958105
                ],
                "type": "Point"
            },
            "properties": {
                "capacity": 10,
                "is_installed": true,
                "is_renting": true,
                "is_returning": true,
                "is_virtual_station": false,
                "last_reported": 1789331827,
                "name": "VIA Beroun",
                "num_bikes_available": 0,
                "num_docks_available": 10,
                "region_id": "655",
                "rental_uris": {
                    "android": "https://app.nextbike.net/station?id=567856800",
                    "ios": "https://app.nextbike.net/station?id=567856800",
                    "web": "https://nxtb.it/p/567856800"
                },
                "short_name": "46539",
                "station_id": "567856800",
                "vehicle_types_available": []
            },
            "type": "Feature"
        },
        {
            "geometry": {
                "coordinates": [
                    14.063446,
                    49.947044
                ],
                "type": "Point"
            },
            "properties": {
                "capacity": 20,
                "is_installed": true,
                "is_renting": true,
                "is_returning": true,
                "is_virtual_station": false,
                "last_reported": 1789331827,
                "name": "Jarov (nenab\u00edjec\u00ed)",
                "num_bikes_available": 2,
                "num_docks_available": 18,
                "region_id": "655",
                "rental_uris": {
                    "android": "https://app.nextbike.net/station?id=591546536",
                    "ios": "https://app.nextbike.net/station?id=591546536",
                    "web": "https://nxtb.it/p/591546536"
                },
                "short_name": "46935",
                "station_id": "591546536",
                "vehicle_types_available": [
                    {
                        "count": 2,
                        "vehicle_type_id": "211"
                    }
                ]
            },
            "type": "Feature"
        },
        {
            "geometry": {
                "coordinates": [
                    14.070124,
                    49.963573
                ],
                "type": "Point"
            },
            "properties": {
                "capacity": 20,
                "is_installed": true,
                "is_renting": true,
                "is_returning": true,
                "is_virtual_station": false,
                "last_reported": 1789331827,
                "name": "Medicentrum (nenab\u00edjec\u00ed)",
                "num_bikes_available": 0,
                "num_docks_available": 19,
                "region_id": "655",
                "rental_uris": {
                    "android": "https://app.nextbike.net/station?id=591559296",
                    "ios": "https://app.nextbike.net/station?id=591559296",
                    "web": "https://nxtb.it/p/591559296"
                },
                "short_name": "46934",
                "station_id": "591559296",
                "vehicle_types_available": []
            },
            "type": "Feature"
        },
        {
            "geometry": {
                "coordinates": [
                    14.075699,
                    49.969206
                ],
                "type": "Point"
            },
            "properties": {
                "capacity": 10,
                "is_installed": true,
                "is_renting": true,
                "is_returning": true,
                "is_virtual_station": false,
                "last_reported": 1789331827,
                "name": "VAK",
                "num_bikes_available": 7,
                "num_docks_available": 3,
                "region_id": "655",
                "rental_uris": {
                    "android": "https://app.nextbike.net/station?id=616541990",
                    "ios": "https://app.nextbike.net/station?id=616541990",
                    "web": "https://nxtb.it/p/616541990"
                },
                "short_name": "46540",
                "station_id": "616541990",
                "vehicle_types_available": [
                    {
                        "count": 7,
                        "vehicle_type_id": "211"
                    }
                ]
            },
            "type": "Feature"
        },
        {
            "geometry": {
                "coordinates": [
                    14.071823,
                    49.959186
                ],
                "type": "Point"
            },
            "properties": {
                "capacity": 10,
                "is_installed": true,
                "is_renting": true,
                "is_returning": true,
                "is_virtual_station": false,
                "last_reported": 1789331827,
                "name": "Finan\u010dn\u00ed \u00fa\u0159ad",
                "num_bikes_available": 6,
                "num_docks_available": 3,
                "region_id": "655",
                "rental_uris": {
                    "android": "https://app.nextbike.net/station?id=64032178",
                    "ios": "https://app.nextbike.net/station?id=64032178",
                    "web": "https://nxtb.it/p/64032178"
                },
                "short_name": "48387",
                "station_id": "64032178",
                "vehicle_types_available": [
                    {
                        "count": 6,
                        "vehicle_type_id": "211"
                    }
                ]
            },
            "type": "Feature"
        },
        {
            "geometry": {
                "coordinates": [
                    14.032411,
                    49.978701
                ],
                "type": "Point"
            },
            "properties": {
                "capacity": 10,
                "is_installed": true,
                "is_renting": true,
                "is_returning": true,
                "is_virtual_station": false,
                "last_reported": 1789331827,
                "name": "Zdejcina",
                "num_bikes_available": 4,
                "num_docks_available": 5,
                "region_id": "655",
                "rental_uris": {
                    "android": "https://app.nextbike.net/station?id=64032759",
                    "ios": "https://app.nextbike.net/station?id=64032759",
                    "web": "https://nxtb.it/p/64032759"
                },
                "short_name": "48388",
                "station_id": "64032759",
                "vehicle_types_available": [
                    {
                        "count": 4,
                        "vehicle_type_id": "211"
                    }
                ]
            },
            "type": "Feature"
        },
        {
            "geometry": {
                "coordinates": [
                    14.085846,
                    49.97758
                ],
                "type": "Point"
            },
            "properties": {
                "capacity": 4,
                "is_installed": true,
                "is_renting": true,
                "is_returning": true,
                "is_virtual_station": false,
                "last_reported": 1789331827,
                "name": "Royal Beroun Golf Club",
                "num_bikes_available": 3,
                "num_docks_available": 1,
                "region_id": "655",
                "rental_uris": {
                    "android": "https://app.nextbike.net/station?id=81090203",
                    "ios": "https://app.nextbike.net/station?id=81090203",
                    "web": "https://nxtb.it/p/81090203"
                },
                "short_name": "49011",
                "station_id": "81090203",
                "vehicle_types_available": [
                    {
                        "count": 2,
                        "vehicle_type_id": "211"
                    },
                    {
                        "count": 1,
                        "vehicle_type_id": "204"
                    }
                ]
            },
            "type": "Feature"
        },
        {
            "geometry": {
                "coordinates": [
                    14.013104,
                    49.935153
                ],
                "type": "Point"
            },
            "properties": {
                "capacity": 8,
                "is_installed": true,
                "is_renting": true,
                "is_returning": true,
                "is_virtual_station": false,
                "last_reported": 1789331827,
                "name": "Kr\u00e1l\u016fv Dv\u016fr - Lev\u00edn",
                "num_bikes_available": 22,
                "num_docks_available": 1,
                "region_id": "655",
                "rental_uris": {
                    "android": "https://app.nextbike.net/station?id=85025600",
                    "ios": "https://app.nextbike.net/station?id=85025600",
                    "web": "https://nxtb.it/p/85025600"
                },
                "short_name": "49411",
                "station_id": "85025600",
                "vehicle_types_available": [
                    {
                        "count": 22,
                        "vehicle_type_id": "211"
                    }
                ]
            },
            "type": "Feature"
        }
    ],
    "gbfs": {
        "station_information": {
            "last_updated": 1789331827,
            "ttl": 60,
            "version": "2.3"
        },
        "station_status": {
            "last_updated": 1789331827,
            "ttl": 60,
            "version": "2.3"
        }
    },
    "type": "FeatureCollection"
}