{
    "features": [
        {
            "geometry": {
                "coordinates": [
                    10.839493,
                    48.200894
                ],
                "type": "Point"
            },
            "properties": {
                "is_installed": true,
                "is_renting": true,
                "is_returning": true,
                "is_virtual_station": false,
                "last_reported": 1789332554,
                "name": "2871 Lidl - Logistikzentrum",
                "num_bikes_available": 12,
                "num_docks_available": 0,
                "region_id": "647",
                "rental_uris": {
                    "android": "https://app.nextbike.net/station?id=20685197",
                    "ios": "https://app.nextbike.net/station?id=20685197",
                    "web": "https://nxtb.it/p/20685197"
                },
                "short_name": "2871",
                "station_id": "20685197",
                "vehicle_types_available": [
                    {
                        "count": 5,
                        "vehicle_type_id": "196"
                    },
                    {
                        "count": 5,
                        "vehicle_type_id": "71"
                    },
                    {
                        "count": 2,
                        "vehicle_type_id": "150"
                    }
                ]
            },
            "type": "Feature"
        },
        {
            "geometry": {
                "coordinates": [
                    10.852035,
                    48.199149
                ],
                "type": "Point"
            },
            "properties": {
                "is_installed": true,
                "is_renting": true,
                "is_returning": true,
                "is_virtual_station": false,
                "last_reported": 1789332554,
                "name": "2870 Haltepunkt Gewerbepark",
                "num_bikes_available": 15,
                "num_docks_available": 0,
                "region_id": "647",
                "rental_uris": {
                    "android": "https://app.nextbike.net/station?id=21027797",
                    "ios": "https://app.nextbike.net/station?id=21027797",
                    "web": "https://nxtb.it/p/21027797"
                },
                "short_name": "2870",
                "station_id": "21027797",
                "vehicle_types_available": [
                    {
                        "count": 9,
                        "vehicle_type_id": "71"
                    },
                    {
                        "count": 4,
                        "vehicle_type_id": "196"
                    },
                    {
                        "count": 2,
                        "vehicle_type_id": "150"
                    }
                ]
            },
            "type": "Feature"
        }
    ],
    "gbfs": {
        "station_information": {
            "last_updated": 1789332554,
            "ttl": 60,
            "version": "2.3"
        },
        "station_status": {
            "last_updated": 1789332554,
            "ttl": 60,
            "version": "2.3"
        }
    },
    "type": "FeatureCollection"
}