{
    "features": [
        {
            "geometry": {
                "coordinates": [
                    8.771403,
                    50.819679
                ],
                "type": "Point"
            },
            "properties": {
                "is_installed": true,
                "is_renting": true,
                "is_returning": true,
                "is_virtual_station": false,
                "last_reported": 1789249705,
                "name": "Cafe Trauma / Aff\u00f6llerwiesen",
                "num_bikes_available": 13,
                "num_docks_available": 0,
                "region_id": "438",
                "rental_uris": {
                    "android": "https://app.nextbike.net/station?id=13391374",
                    "ios": "https://app.nextbike.net/station?id=13391374",
                    "web": "https://nxtb.it/p/13391374"
                },
                "short_name": "5146",
                "station_id": "13391374",
                "vehicle_types_available": [
                    {
                        "count": 13,
                        "vehicle_type_id": "196"
                    }
                ]
            },
            "type": "Feature"
        },
        {
            "geometry": {
                "coordinates": [
                    8.772191,
                    50.794611
                ],
                "type": "Point"
            },
            "properties": {
                "is_installed": true,
                "is_renting": true,
                "is_returning": true,
                "is_virtual_station": false,
                "last_reported": 1789249705,
                "name": "Interkulturelle G\u00e4rten / Am Richtsberg",
                "num_bikes_available": 3,
                "num_docks_available": 0,
                "region_id": "438",
                "rental_uris": {
                    "android": "https://app.nextbike.net/station?id=13391461",
                    "ios": "https://app.nextbike.net/station?id=13391461",
                    "web": "https://nxtb.it/p/13391461"
                },
                "short_name": "5143",
                "station_id": "13391461",
                "vehicle_types_available": [
                    {
                        "count": 3,
                        "vehicle_type_id": "196"
                    }
                ]
            },
            "type": "Feature"
        },
        {
            "geometry": {
                "coordinates": [
                    8.763582,
                    50.80346
                ],
                "type": "Point"
            },
            "properties": {
                "is_installed": true,
                "is_renting": true,
                "is_returning": true,
                "is_virtual_station": false,
                "last_reported": 1789249705,
                "name": "Friedrichplatz",
                "num_bikes_available": 7,
                "num_docks_available": 0,
                "region_id": "438",
                "rental_uris": {
                    "android": "https://app.nextbike.net/station?id=13391482",
                    "ios": "https://app.nextbike.net/station?id=13391482",
                    "web": "https://nxtb.it/p/13391482"
                },
                "short_name": "5142",
                "station_id": "13391482",
                "vehicle_types_available": [
                    {
                        "count": 4,
                        "vehicle_type_id": "196"
                    },
                    {
                        "count": 2,
                        "vehicle_type_id": "322"
                    },
                    {
                        "count": 1,
                        "vehicle_type_id": "330"
                    }
                ]
            },
            "type": "Feature"
        },
        {
            "geometry": {
                "coordinates": [
                    8.76616,
                    50.81395
                ],
                "type": "Point"
            },
            "properties": {
                "is_installed": true,
                "is_renting": true,
                "is_returning": true,
                "is_virtual_station": false,
                "last_reported": 1789249705,
                "name": "Ketzerbach / Zwischenhausen",
                "num_bikes_available": 1,
                "num_docks_available": 0,
                "region_id": "438",
                "rental_uris": {
                    "android": "https://app.nextbike.net/station?id=13391528",
                    "ios": "https://app.nextbike.net/station?id=13391528",
                    "web": "https://nxtb.it/p/13391528"
                },
                "short_name": "5141",
                "station_id": "13391528",
                "vehicle_types_available": [
                    {
                        "count": 1,
                        "vehicle_type_id": "196"
                    }
                ]
            },
            "type": "Feature"
        },
        {
            "geometry": {
                "coordinates": [
                    8.772242,
                    50.816058
                ],
                "type": "Point"
            },
            "properties": {
                "is_installed": true,
                "is_renting": true,
                "is_returning": true,
                "is_virtual_station": false,
                "last_reported": 1789249705,
                "name": "Anatomie",
                "num_bikes_available": 1,
                "num_docks_available": 0,
                "region_id": "438",
                "rental_uris": {
                    "android": "https://app.nextbike.net/station?id=14235672",
                    "ios": "https://app.nextbike.net/station?id=14235672",
                    "web": "https://nxtb.it/p/14235672"
                },
                "short_name": "5140",
                "station_id": "14235672",
                "vehicle_types_available": [
                    {
                        "count": 1,
                        "vehicle_type_id": "196"
                    }
                ]
            },
            "type": "Feature"
        },
        {
            "geometry": {
                "coordinates": [
                    8.773286,
                    50.818197
                ],
                "type": "Point"
            },
            "properties": {
                "is_installed": true,
                "is_renting": true,
                "is_returning": true,
                "is_virtual_station": false,
                "last_reported": 1789249705,
                "name": "ZOB",
                "num_bikes_available": 0,
                "num_docks_available": 0,
                "region_id": "438",
                "rental_uris": {
                    "android": "https://app.nextbike.net/station?id=143842773",
                    "ios": "https://app.nextbike.net/station?id=143842773",
                    "web": "https://nxtb.it/p/143842773"
                },
                "short_name": "51400",
                "station_id": "143842773",
                "vehicle_types_available": []
            },
            "type": "Feature"
        },
        {
            "geometry": {
                "coordinates": [
                    8.772637,
                    50.817585
                ],
                "type": "Point"
            },
            "properties": {
                "is_installed": true,
                "is_renting": true,
                "is_returning": true,
                "is_virtual_station": false,
                "last_reported": 1789249705,
                "name": "Elisabethbr\u00fccke",
                "num_bikes_available": 13,
                "num_docks_available": 0,
                "region_id": "438",
                "rental_uris": {
                    "android": "https://app.nextbike.net/station?id=143842973",
                    "ios": "https://app.nextbike.net/station?id=143842973",
                    "web": "https://nxtb.it/p/143842973"
                },
                "short_name": "51401",
                "station_id": "143842973",
                "vehicle_types_available": [
                    {
                        "count": 13,
                        "vehicle_type_id": "196"
                    }
                ]
            },
            "type": "Feature"
        },
        {
            "geometry": {
                "coordinates": [
                    8.771086,
                    50.814826
                ],
                "type": "Point"
            },
            "properties": {
                "is_installed": true,
                "is_renting": true,
                "is_returning": true,
                "is_virtual_station": false,
                "last_reported": 1789249705,
                "name": "Firmaneiplatz / Deutschhausstra\u00dfe",
                "num_bikes_available": 0,
                "num_docks_available": 0,
                "region_id": "438",
                "rental_uris": {
                    "android": "https://app.nextbike.net/station?id=143843165",
                    "ios": "https://app.nextbike.net/station?id=143843165",
                    "web": "https://nxtb.it/p/143843165"
                },
                "short_name": "51402",
                "station_id": "143843165",
                "vehicle_types_available": []
            },
            "type": "Feature"
        },
        {
            "geometry": {
                "coordinates": [
                    8.772625,
                    50.814973
                ],
                "type": "Point"
            },
            "properties": {
                "is_installed": true,
                "is_renting": true,
                "is_returning": true,
                "is_virtual_station": false,
                "last_reported": 1789249705,
                "name": "Firmaneistra\u00dfe",
                "num_bikes_available": 2,
                "num_docks_available": 0,
                "region_id": "438",
                "rental_uris": {
                    "android": "https://app.nextbike.net/station?id=143843254",
                    "ios": "https://app.nextbike.net/station?id=143843254",
                    "web": "https://nxtb.it/p/143843254"
                },
                "short_name": "51403",
                "station_id": "143843254",
                "vehicle_types_available": [
                    {
                        "count": 2,
                        "vehicle_type_id": "196"
                    }
                ]
            },
            "type": "Feature"
        },
        {
            "geometry": {
                "coordinates": [
                    8.772154,
                    50.808064
                ],
                "type": "Point"
            },
            "properties": {
                "is_installed": true,
                "is_renting": true,
                "is_returning": true,
                "is_virtual_station": false,
                "last_reported": 1789249705,
                "name": "Alte Universit\u00e4t",
                "num_bikes_available": 3,
                "num_docks_available": 0,
                "region_id": "438",
                "rental_uris": {
                    "android": "https://app.nextbike.net/station?id=143843398",
                    "ios": "https://app.nextbike.net/station?id=143843398",
                    "web": "https://nxtb.it/p/143843398"
                },
                "short_name": "51404",
                "station_id": "143843398",
                "vehicle_types_available": [
                    {
                        "count": 3,
                        "vehicle_type_id": "196"
                    }
                ]
            },
            "type": "Feature"
        },
        {
            "geometry": {
                "coordinates": [
                    8.773507,
                    50.806868
                ],
                "type": "Point"
            },
            "properties": {
                "is_installed": true,
                "is_renting": true,
                "is_returning": true,
                "is_virtual_station": false,
                "last_reported": 1789249705,
                "name": "Trojedamm",
                "num_bikes_available": 3,
                "num_docks_available": 0,
                "region_id": "438",
                "rental_uris": {
                    "android": "https://app.nextbike.net/station?id=143843534",
                    "ios": "https://app.nextbike.net/station?id=143843534",
                    "web": "https://nxtb.it/p/143843534"
                },
                "short_name": "51405",
                "station_id": "143843534",
                "vehicle_types_available": [
                    {
                        "count": 3,
                        "vehicle_type_id": "196"
                    }
                ]
            },
            "type": "Feature"
        },
        {
            "geometry": {
                "coordinates": [
                    8.765566,
                    50.801883
                ],
                "type": "Point"
            },
            "properties": {
                "is_installed": true,
                "is_renting": true,
                "is_returning": true,
                "is_virtual_station": false,
                "last_reported": 1789249705,
                "name": "Friedrichsstra\u00dfe / Frankfurter Stra\u00dfe",
                "num_bikes_available": 17,
                "num_docks_available": 0,
                "region_id": "438",
                "rental_uris": {
                    "android": "https://app.nextbike.net/station?id=143843635",
                    "ios": "https://app.nextbike.net/station?id=143843635",
                    "web": "https://nxtb.it/p/143843635"
                },
                "short_name": "51406",
                "station_id": "143843635",
                "vehicle_types_available": [
                    {
                        "count": 17,
                        "vehicle_type_id": "196"
                    }
                ]
            },
            "type": "Feature"
        },
        {
            "geometry": {
                "coordinates": [
                    8.77353,
                    50.778555
                ],
                "type": "Point"
            },
            "properties": {
                "is_installed": true,
                "is_renting": true,
                "is_returning": true,
                "is_virtual_station": false,
                "last_reported": 1789249705,
                "name": "Am Teich",
                "num_bikes_available": 0,
                "num_docks_available": 0,
                "region_id": "438",
                "rental_uris": {
                    "android": "https://app.nextbike.net/station?id=143843801",
                    "ios": "https://app.nextbike.net/station?id=143843801",
                    "web": "https://nxtb.it/p/143843801"
                },
                "short_name": "51407",
                "station_id": "143843801",
                "vehicle_types_available": []
            },
            "type": "Feature"
        },
        {
            "geometry": {
                "coordinates": [
                    8.750664,
                    50.843732
                ],
                "type": "Point"
            },
            "properties": {
                "is_installed": true,
                "is_renting": true,
                "is_returning": true,
                "is_virtual_station": false,
                "last_reported": 1789249705,
                "name": "Ernst-Lemmer-Stra\u00dfe",
                "num_bikes_available": 7,
                "num_docks_available": 0,
                "region_id": "438",
                "rental_uris": {
                    "android": "https://app.nextbike.net/station?id=146902992",
                    "ios": "https://app.nextbike.net/station?id=146902992",
                    "web": "https://nxtb.it/p/146902992"
                },
                "short_name": "51408",
                "station_id": "146902992",
                "vehicle_types_available": [
                    {
                        "count": 6,
                        "vehicle_type_id": "196"
                    },
                    {
                        "count": 1,
                        "vehicle_type_id": "370"
                    }
                ]
            },
            "type": "Feature"
        },
        {
            "geometry": {
                "coordinates": [
                    8.776125,
                    50.800813
                ],
                "type": "Point"
            },
            "properties": {
                "is_installed": true,
                "is_renting": true,
                "is_returning": true,
                "is_virtual_station": false,
                "last_reported": 1789249705,
                "name": "Adolf-Reichwein-Schule / Abendschulen",
                "num_bikes_available": 3,
                "num_docks_available": 0,
                "region_id": "438",
                "rental_uris": {
                    "android": "https://app.nextbike.net/station?id=148824174",
                    "ios": "https://app.nextbike.net/station?id=148824174",
                    "web": "https://nxtb.it/p/148824174"
                },
                "short_name": "5179",
                "station_id": "148824174",
                "vehicle_types_available": [
                    {
                        "count": 3,
                        "vehicle_type_id": "196"
                    }
                ]
            },
            "type": "Feature"
        },
        {
            "geometry": {
                "coordinates": [
                    8.762167,
                    50.831831
                ],
                "type": "Point"
            },
            "properties": {
                "is_installed": true,
                "is_renting": true,
                "is_returning": true,
                "is_virtual_station": false,
                "last_reported": 1789249705,
                "name": "Hebronberg / Wehrdaer Stra\u00dfe",
                "num_bikes_available": 10,
                "num_docks_available": 0,
                "region_id": "438",
                "rental_uris": {
                    "android": "https://app.nextbike.net/station?id=194826996",
                    "ios": "https://app.nextbike.net/station?id=194826996",
                    "web": "https://nxtb.it/p/194826996"
                },
                "short_name": "51409",
                "station_id": "194826996",
                "vehicle_types_available": [
                    {
                        "count": 10,
                        "vehicle_type_id": "196"
                    }
                ]
            },
            "type": "Feature"
        },
        {
            "geometry": {
                "coordinates": [
                    8.771832,
                    50.824742
                ],
                "type": "Point"
            },
            "properties": {
                "is_installed": true,
                "is_renting": true,
                "is_returning": true,
                "is_virtual_station": false,
                "last_reported": 1789249705,
                "name": "Schlosserstra\u00dfe/ Neue Kasseler Stra\u00dfe",
                "num_bikes_available": 12,
                "num_docks_available": 0,
                "region_id": "438",
                "rental_uris": {
                    "android": "https://app.nextbike.net/station?id=194829274",
                    "ios": "https://app.nextbike.net/station?id=194829274",
                    "web": "https://nxtb.it/p/194829274"
                },
                "short_name": "51410",
                "station_id": "194829274",
                "vehicle_types_available": [
                    {
                        "count": 12,
                        "vehicle_type_id": "196"
                    }
                ]
            },
            "type": "Feature"
        },
        {
            "geometry": {
                "coordinates": [
                    8.762436,
                    50.805821
                ],
                "type": "Point"
            },
            "properties": {
                "is_installed": true,
                "is_renting": true,
                "is_returning": true,
                "is_virtual_station": false,
                "last_reported": 1789249705,
                "name": "Bismarckstra\u00dfe",
                "num_bikes_available": 1,
                "num_docks_available": 0,
                "region_id": "438",
                "rental_uris": {
                    "android": "https://app.nextbike.net/station?id=194830689",
                    "ios": "https://app.nextbike.net/station?id=194830689",
                    "web": "https://nxtb.it/p/194830689"
                },
                "short_name": "51411",
                "station_id": "194830689",
                "vehicle_types_available": [
                    {
                        "count": 1,
                        "vehicle_type_id": "196"
                    }
                ]
            },
            "type": "Feature"
        },
        {
            "geometry": {
                "coordinates": [
                    8.755519,
                    50.800664
                ],
                "type": "Point"
            },
            "properties": {
                "is_installed": true,
                "is_renting": true,
                "is_returning": true,
                "is_virtual_station": false,
                "last_reported": 1789249705,
                "name": "Leopold-Lucas-Stra\u00dfe",
                "num_bikes_available": 5,
                "num_docks_available": 0,
                "region_id": "438",
                "rental_uris": {
                    "android": "https://app.nextbike.net/station?id=194831489",
                    "ios": "https://app.nextbike.net/station?id=194831489",
                    "web": "https://nxtb.it/p/194831489"
                },
                "short_name": "51412",
                "station_id": "194831489",
                "vehicle_types_available": [
                    {
                        "count": 5,
                        "vehicle_type_id": "196"
                    }
                ]
            },
            "type": "Feature"
        },
        {
            "geometry": {
                "coordinates": [
                    8.773546,
                    50.785687
                ],
                "type": "Point"
            },
            "properties": {
                "is_installed": true,
                "is_renting": true,
                "is_returning": true,
                "is_virtual_station": false,
                "last_reported": 1789249705,
                "name": "Kreisverwaltung Marburg",
                "num_bikes_available": 2,
                "num_docks_available": 0,
                "region_id": "438",
                "rental_uris": {
                    "android": "https://app.nextbike.net/station?id=367728862",
                    "ios": "https://app.nextbike.net/station?id=367728862",
                    "web": "https://nxtb.it/p/367728862"
                },
                "short_name": "51413",
                "station_id": "367728862",
                "vehicle_types_available": [
                    {
                        "count": 2,
                        "vehicle_type_id": "196"
                    }
                ]
            },
            "type": "Feature"
        },
        {
            "geometry": {
                "coordinates": [
                    8.777366,
                    50.81194
                ],
                "type": "Point"
            },
            "properties": {
                "is_installed": true,
                "is_renting": true,
                "is_returning": true,
                "is_virtual_station": false,
                "last_reported": 1789249705,
                "name": "Uferstra\u00dfe",
                "num_bikes_available": 8,
                "num_docks_available": 0,
                "region_id": "438",
                "rental_uris": {
                    "android": "https://app.nextbike.net/station?id=39482783",
                    "ios": "https://app.nextbike.net/station?id=39482783",
                    "web": "https://nxtb.it/p/39482783"
                },
                "short_name": "5161",
                "station_id": "39482783",
                "vehicle_types_available": [
                    {
                        "count": 8,
                        "vehicle_type_id": "196"
                    }
                ]
            },
            "type": "Feature"
        },
        {
            "geometry": {
                "coordinates": [
                    8.753373,
                    50.80245
                ],
                "type": "Point"
            },
            "properties": {
                "is_installed": true,
                "is_renting": true,
                "is_returning": true,
                "is_virtual_station": false,
                "last_reported": 1789249705,
                "name": "Ockersh\u00e4user Allee",
                "num_bikes_available": 4,
                "num_docks_available": 0,
                "region_id": "438",
                "rental_uris": {
                    "android": "https://app.nextbike.net/station?id=39482836",
                    "ios": "https://app.nextbike.net/station?id=39482836",
                    "web": "https://nxtb.it/p/39482836"
                },
                "short_name": "5167",
                "station_id": "39482836",
                "vehicle_types_available": [
                    {
                        "count": 4,
                        "vehicle_type_id": "196"
                    }
                ]
            },
            "type": "Feature"
        },
        {
            "geometry": {
                "coordinates": [
                    8.750628,
                    50.81699
                ],
                "type": "Point"
            },
            "properties": {
                "is_installed": true,
                "is_renting": true,
                "is_returning": true,
                "is_virtual_station": false,
                "last_reported": 1789249705,
                "name": "B\u00fcrgerhaus Marbach CARGO",
                "num_bikes_available": 1,
                "num_docks_available": 0,
                "region_id": "438",
                "rental_uris": {
                    "android": "https://app.nextbike.net/station?id=473983573",
                    "ios": "https://app.nextbike.net/station?id=473983573",
                    "web": "https://nxtb.it/p/473983573"
                },
                "short_name": "51414",
                "station_id": "473983573",
                "vehicle_types_available": [
                    {
                        "count": 1,
                        "vehicle_type_id": "327"
                    }
                ]
            },
            "type": "Feature"
        },
        {
            "geometry": {
                "coordinates": [
                    8.774458,
                    50.788519
                ],
                "type": "Point"
            },
            "properties": {
                "is_installed": true,
                "is_renting": true,
                "is_returning": true,
                "is_virtual_station": false,
                "last_reported": 1789249705,
                "name": "Friedrich-Ebert-Stra\u00dfe",
                "num_bikes_available": 1,
                "num_docks_available": 0,
                "region_id": "438",
                "rental_uris": {
                    "android": "https://app.nextbike.net/station?id=473983934",
                    "ios": "https://app.nextbike.net/station?id=473983934",
                    "web": "https://nxtb.it/p/473983934"
                },
                "short_name": "51415",
                "station_id": "473983934",
                "vehicle_types_available": [
                    {
                        "count": 1,
                        "vehicle_type_id": "196"
                    }
                ]
            },
            "type": "Feature"
        },
        {
            "geometry": {
                "coordinates": [
                    8.767435,
                    50.8075
                ],
                "type": "Point"
            },
            "properties": {
                "is_installed": true,
                "is_renting": true,
                "is_returning": true,
                "is_virtual_station": false,
                "last_reported": 1789249705,
                "name": "Am Plan",
                "num_bikes_available": 1,
                "num_docks_available": 0,
                "region_id": "438",
                "rental_uris": {
                    "android": "https://app.nextbike.net/station?id=473984339",
                    "ios": "https://app.nextbike.net/station?id=473984339",
                    "web": "https://nxtb.it/p/473984339"
                },
                "short_name": "51417",
                "station_id": "473984339",
                "vehicle_types_available": [
                    {
                        "count": 1,
                        "vehicle_type_id": "320"
                    }
                ]
            },
            "type": "Feature"
        },
        {
            "geometry": {
                "coordinates": [
                    8.774681,
                    50.822927
                ],
                "type": "Point"
            },
            "properties": {
                "is_installed": true,
                "is_renting": true,
                "is_returning": true,
                "is_virtual_station": false,
                "last_reported": 1789249705,
                "name": "J\u00e4gertunnel",
                "num_bikes_available": 1,
                "num_docks_available": 0,
                "region_id": "438",
                "rental_uris": {
                    "android": "https://app.nextbike.net/station?id=4774204",
                    "ios": "https://app.nextbike.net/station?id=4774204",
                    "web": "https://nxtb.it/p/4774204"
                },
                "short_name": "5150",
                "station_id": "4774204",
                "vehicle_types_available": [
                    {
                        "count": 1,
                        "vehicle_type_id": "196"
                    }
                ]
            },
            "type": "Feature"
        },
        {
            "geometry": {
                "coordinates": [
                    8.756438,
                    50.789508
                ],
                "type": "Point"
            },
            "properties": {
                "is_installed": true,
                "is_renting": true,
                "is_returning": true,
                "is_virtual_station": false,
                "last_reported": 1789249705,
                "name": "Am Krekel / Stadtwerke Marburg",
                "num_bikes_available": 1,
                "num_docks_available": 0,
                "region_id": "438",
                "rental_uris": {
                    "android": "https://app.nextbike.net/station?id=4774235",
                    "ios": "https://app.nextbike.net/station?id=4774235",
                    "web": "https://nxtb.it/p/4774235"
                },
                "short_name": "5151",
                "station_id": "4774235",
                "vehicle_types_available": [
                    {
                        "count": 1,
                        "vehicle_type_id": "196"
                    }
                ]
            },
            "type": "Feature"
        },
        {
            "geometry": {
                "coordinates": [
                    8.782821,
                    50.805809
                ],
                "type": "Point"
            },
            "properties": {
                "is_installed": true,
                "is_renting": true,
                "is_returning": true,
                "is_virtual_station": false,
                "last_reported": 1789249705,
                "name": "An den Siecheng\u00e4rten",
                "num_bikes_available": 2,
                "num_docks_available": 0,
                "region_id": "438",
                "rental_uris": {
                    "android": "https://app.nextbike.net/station?id=4774277",
                    "ios": "https://app.nextbike.net/station?id=4774277",
                    "web": "https://nxtb.it/p/4774277"
                },
                "short_name": "5153",
                "station_id": "4774277",
                "vehicle_types_available": [
                    {
                        "count": 2,
                        "vehicle_type_id": "196"
                    }
                ]
            },
            "type": "Feature"
        },
        {
            "geometry": {
                "coordinates": [
                    8.767953,
                    50.77837
                ],
                "type": "Point"
            },
            "properties": {
                "is_installed": true,
                "is_renting": true,
                "is_returning": true,
                "is_virtual_station": false,
                "last_reported": 1789249705,
                "name": "August-Bebel-Platz ",
                "num_bikes_available": 4,
                "num_docks_available": 0,
                "region_id": "438",
                "rental_uris": {
                    "android": "https://app.nextbike.net/station?id=4774284",
                    "ios": "https://app.nextbike.net/station?id=4774284",
                    "web": "https://nxtb.it/p/4774284"
                },
                "short_name": "5154",
                "station_id": "4774284",
                "vehicle_types_available": [
                    {
                        "count": 2,
                        "vehicle_type_id": "196"
                    },
                    {
                        "count": 2,
                        "vehicle_type_id": "328"
                    }
                ]
            },
            "type": "Feature"
        },
        {
            "geometry": {
                "coordinates": [
                    8.77305,
                    50.808867
                ],
                "type": "Point"
            },
            "properties": {
                "is_installed": true,
                "is_renting": true,
                "is_returning": true,
                "is_virtual_station": false,
                "last_reported": 1789249705,
                "name": "Cineplex",
                "num_bikes_available": 12,
                "num_docks_available": 0,
                "region_id": "438",
                "rental_uris": {
                    "android": "https://app.nextbike.net/station?id=4774295",
                    "ios": "https://app.nextbike.net/station?id=4774295",
                    "web": "https://nxtb.it/p/4774295"
                },
                "short_name": "5155",
                "station_id": "4774295",
                "vehicle_types_available": [
                    {
                        "count": 12,
                        "vehicle_type_id": "196"
                    }
                ]
            },
            "type": "Feature"
        },
        {
            "geometry": {
                "coordinates": [
                    8.775948,
                    50.813203
                ],
                "type": "Point"
            },
            "properties": {
                "is_installed": true,
                "is_renting": true,
                "is_returning": true,
                "is_virtual_station": false,
                "last_reported": 1789249705,
                "name": "Biegenstra\u00dfe",
                "num_bikes_available": 7,
                "num_docks_available": 0,
                "region_id": "438",
                "rental_uris": {
                    "android": "https://app.nextbike.net/station?id=4774305",
                    "ios": "https://app.nextbike.net/station?id=4774305",
                    "web": "https://nxtb.it/p/4774305"
                },
                "short_name": "5156",
                "station_id": "4774305",
                "vehicle_types_available": [
                    {
                        "count": 6,
                        "vehicle_type_id": "196"
                    },
                    {
                        "count": 1,
                        "vehicle_type_id": "326"
                    }
                ]
            },
            "type": "Feature"
        },
        {
            "geometry": {
                "coordinates": [
                    8.751507,
                    50.816601
                ],
                "type": "Point"
            },
            "properties": {
                "is_installed": true,
                "is_renting": true,
                "is_returning": true,
                "is_virtual_station": false,
                "last_reported": 1789249705,
                "name": "Brunnenstra\u00dfe",
                "num_bikes_available": 0,
                "num_docks_available": 0,
                "region_id": "438",
                "rental_uris": {
                    "android": "https://app.nextbike.net/station?id=4774337",
                    "ios": "https://app.nextbike.net/station?id=4774337",
                    "web": "https://nxtb.it/p/4774337"
                },
                "short_name": "5157",
                "station_id": "4774337",
                "vehicle_types_available": []
            },
            "type": "Feature"
        },
        {
            "geometry": {
                "coordinates": [
                    8.775351,
                    50.80807
                ],
                "type": "Point"
            },
            "properties": {
                "is_installed": true,
                "is_renting": true,
                "is_returning": true,
                "is_virtual_station": false,
                "last_reported": 1789249705,
                "name": "Elisabeth-Blochmann-Platz",
                "num_bikes_available": 16,
                "num_docks_available": 0,
                "region_id": "438",
                "rental_uris": {
                    "android": "https://app.nextbike.net/station?id=4774360",
                    "ios": "https://app.nextbike.net/station?id=4774360",
                    "web": "https://nxtb.it/p/4774360"
                },
                "short_name": "5158",
                "station_id": "4774360",
                "vehicle_types_available": [
                    {
                        "count": 16,
                        "vehicle_type_id": "196"
                    }
                ]
            },
            "type": "Feature"
        },
        {
            "geometry": {
                "coordinates": [
                    8.770169,
                    50.804368
                ],
                "type": "Point"
            },
            "properties": {
                "is_installed": true,
                "is_renting": true,
                "is_returning": true,
                "is_virtual_station": false,
                "last_reported": 1789249705,
                "name": "Frankfurter Stra\u00dfe / Psychologie",
                "num_bikes_available": 14,
                "num_docks_available": 0,
                "region_id": "438",
                "rental_uris": {
                    "android": "https://app.nextbike.net/station?id=4774368",
                    "ios": "https://app.nextbike.net/station?id=4774368",
                    "web": "https://nxtb.it/p/4774368"
                },
                "short_name": "5159",
                "station_id": "4774368",
                "vehicle_types_available": [
                    {
                        "count": 14,
                        "vehicle_type_id": "196"
                    }
                ]
            },
            "type": "Feature"
        },
        {
            "geometry": {
                "coordinates": [
                    8.762144,
                    50.798841
                ],
                "type": "Point"
            },
            "properties": {
                "is_installed": true,
                "is_renting": true,
                "is_returning": true,
                "is_virtual_station": false,
                "last_reported": 1789249705,
                "name": "Frankfurter Stra\u00dfe / Theater",
                "num_bikes_available": 3,
                "num_docks_available": 0,
                "region_id": "438",
                "rental_uris": {
                    "android": "https://app.nextbike.net/station?id=4774452",
                    "ios": "https://app.nextbike.net/station?id=4774452",
                    "web": "https://nxtb.it/p/4774452"
                },
                "short_name": "5162",
                "station_id": "4774452",
                "vehicle_types_available": [
                    {
                        "count": 3,
                        "vehicle_type_id": "196"
                    }
                ]
            },
            "type": "Feature"
        },
        {
            "geometry": {
                "coordinates": [
                    8.752965,
                    50.798656
                ],
                "type": "Point"
            },
            "properties": {
                "is_installed": true,
                "is_renting": true,
                "is_returning": true,
                "is_virtual_station": false,
                "last_reported": 1789249705,
                "name": "Georg-Ga\u00dfmann-Stadion",
                "num_bikes_available": 2,
                "num_docks_available": 0,
                "region_id": "438",
                "rental_uris": {
                    "android": "https://app.nextbike.net/station?id=4774459",
                    "ios": "https://app.nextbike.net/station?id=4774459",
                    "web": "https://nxtb.it/p/4774459"
                },
                "short_name": "5163",
                "station_id": "4774459",
                "vehicle_types_available": [
                    {
                        "count": 1,
                        "vehicle_type_id": "196"
                    },
                    {
                        "count": 1,
                        "vehicle_type_id": "331"
                    }
                ]
            },
            "type": "Feature"
        },
        {
            "geometry": {
                "coordinates": [
                    8.775086,
                    50.827921
                ],
                "type": "Point"
            },
            "properties": {
                "is_installed": true,
                "is_renting": true,
                "is_returning": true,
                "is_virtual_station": false,
                "last_reported": 1789249705,
                "name": "Ginseldorfer Weg",
                "num_bikes_available": 6,
                "num_docks_available": 0,
                "region_id": "438",
                "rental_uris": {
                    "android": "https://app.nextbike.net/station?id=4774464",
                    "ios": "https://app.nextbike.net/station?id=4774464",
                    "web": "https://nxtb.it/p/4774464"
                },
                "short_name": "5164",
                "station_id": "4774464",
                "vehicle_types_available": [
                    {
                        "count": 6,
                        "vehicle_type_id": "196"
                    }
                ]
            },
            "type": "Feature"
        },
        {
            "geometry": {
                "coordinates": [
                    8.773736,
                    50.819957
                ],
                "type": "Point"
            },
            "properties": {
                "is_installed": true,
                "is_renting": true,
                "is_returning": true,
                "is_virtual_station": false,
                "last_reported": 1789249705,
                "name": "Hauptbahnhof",
                "num_bikes_available": 4,
                "num_docks_available": 0,
                "region_id": "438",
                "rental_uris": {
                    "android": "https://app.nextbike.net/station?id=4774470",
                    "ios": "https://app.nextbike.net/station?id=4774470",
                    "web": "https://nxtb.it/p/4774470"
                },
                "short_name": "5165",
                "station_id": "4774470",
                "vehicle_types_available": [
                    {
                        "count": 4,
                        "vehicle_type_id": "196"
                    }
                ]
            },
            "type": "Feature"
        },
        {
            "geometry": {
                "coordinates": [
                    8.774241,
                    50.810971
                ],
                "type": "Point"
            },
            "properties": {
                "is_installed": true,
                "is_renting": true,
                "is_returning": true,
                "is_virtual_station": false,
                "last_reported": 1789249705,
                "name": "Audimax",
                "num_bikes_available": 5,
                "num_docks_available": 0,
                "region_id": "438",
                "rental_uris": {
                    "android": "https://app.nextbike.net/station?id=4774475",
                    "ios": "https://app.nextbike.net/station?id=4774475",
                    "web": "https://nxtb.it/p/4774475"
                },
                "short_name": "5166",
                "station_id": "4774475",
                "vehicle_types_available": [
                    {
                        "count": 5,
                        "vehicle_type_id": "196"
                    }
                ]
            },
            "type": "Feature"
        },
        {
            "geometry": {
                "coordinates": [
                    8.781166,
                    50.816653
                ],
                "type": "Point"
            },
            "properties": {
                "is_installed": true,
                "is_renting": true,
                "is_returning": true,
                "is_virtual_station": false,
                "last_reported": 1789249705,
                "name": "Ortenbergplatz",
                "num_bikes_available": 2,
                "num_docks_available": 0,
                "region_id": "438",
                "rental_uris": {
                    "android": "https://app.nextbike.net/station?id=4774485",
                    "ios": "https://app.nextbike.net/station?id=4774485",
                    "web": "https://nxtb.it/p/4774485"
                },
                "short_name": "5168",
                "station_id": "4774485",
                "vehicle_types_available": [
                    {
                        "count": 2,
                        "vehicle_type_id": "196"
                    }
                ]
            },
            "type": "Feature"
        },
        {
            "geometry": {
                "coordinates": [
                    8.779728,
                    50.809243
                ],
                "type": "Point"
            },
            "properties": {
                "is_installed": true,
                "is_renting": true,
                "is_returning": true,
                "is_virtual_station": false,
                "last_reported": 1789249705,
                "name": "Philosophische Fakult\u00e4t",
                "num_bikes_available": 2,
                "num_docks_available": 0,
                "region_id": "438",
                "rental_uris": {
                    "android": "https://app.nextbike.net/station?id=4774503",
                    "ios": "https://app.nextbike.net/station?id=4774503",
                    "web": "https://nxtb.it/p/4774503"
                },
                "short_name": "5169",
                "station_id": "4774503",
                "vehicle_types_available": [
                    {
                        "count": 2,
                        "vehicle_type_id": "196"
                    }
                ]
            },
            "type": "Feature"
        },
        {
            "geometry": {
                "coordinates": [
                    8.773266,
                    50.801337
                ],
                "type": "Point"
            },
            "properties": {
                "is_installed": true,
                "is_renting": true,
                "is_returning": true,
                "is_virtual_station": false,
                "last_reported": 1789249705,
                "name": "Aquamar",
                "num_bikes_available": 18,
                "num_docks_available": 0,
                "region_id": "438",
                "rental_uris": {
                    "android": "https://app.nextbike.net/station?id=4774527",
                    "ios": "https://app.nextbike.net/station?id=4774527",
                    "web": "https://nxtb.it/p/4774527"
                },
                "short_name": "5171",
                "station_id": "4774527",
                "vehicle_types_available": [
                    {
                        "count": 18,
                        "vehicle_type_id": "196"
                    }
                ]
            },
            "type": "Feature"
        },
        {
            "geometry": {
                "coordinates": [
                    8.766054,
                    50.791482
                ],
                "type": "Point"
            },
            "properties": {
                "is_installed": true,
                "is_renting": true,
                "is_returning": true,
                "is_virtual_station": false,
                "last_reported": 1789249705,
                "name": "Stadtb\u00fcro",
                "num_bikes_available": 1,
                "num_docks_available": 0,
                "region_id": "438",
                "rental_uris": {
                    "android": "https://app.nextbike.net/station?id=4774539",
                    "ios": "https://app.nextbike.net/station?id=4774539",
                    "web": "https://nxtb.it/p/4774539"
                },
                "short_name": "5172",
                "station_id": "4774539",
                "vehicle_types_available": [
                    {
                        "count": 1,
                        "vehicle_type_id": "196"
                    }
                ]
            },
            "type": "Feature"
        },
        {
            "geometry": {
                "coordinates": [
                    8.763266,
                    50.795224
                ],
                "type": "Point"
            },
            "properties": {
                "is_installed": true,
                "is_renting": true,
                "is_returning": true,
                "is_virtual_station": false,
                "last_reported": 1789249705,
                "name": "S\u00fcdbahnhof",
                "num_bikes_available": 1,
                "num_docks_available": 0,
                "region_id": "438",
                "rental_uris": {
                    "android": "https://app.nextbike.net/station?id=4774543",
                    "ios": "https://app.nextbike.net/station?id=4774543",
                    "web": "https://nxtb.it/p/4774543"
                },
                "short_name": "5173",
                "station_id": "4774543",
                "vehicle_types_available": [
                    {
                        "count": 1,
                        "vehicle_type_id": "196"
                    }
                ]
            },
            "type": "Feature"
        },
        {
            "geometry": {
                "coordinates": [
                    8.762049,
                    50.79527
                ],
                "type": "Point"
            },
            "properties": {
                "is_installed": true,
                "is_renting": true,
                "is_returning": true,
                "is_virtual_station": false,
                "last_reported": 1789249705,
                "name": "S\u00fcdbahnhof Westseite",
                "num_bikes_available": 5,
                "num_docks_available": 0,
                "region_id": "438",
                "rental_uris": {
                    "android": "https://app.nextbike.net/station?id=4774549",
                    "ios": "https://app.nextbike.net/station?id=4774549",
                    "web": "https://nxtb.it/p/4774549"
                },
                "short_name": "5174",
                "station_id": "4774549",
                "vehicle_types_available": [
                    {
                        "count": 5,
                        "vehicle_type_id": "196"
                    }
                ]
            },
            "type": "Feature"
        },
        {
            "geometry": {
                "coordinates": [
                    8.774697,
                    50.803751
                ],
                "type": "Point"
            },
            "properties": {
                "is_installed": true,
                "is_renting": false,
                "is_returning": false,
                "is_virtual_station": false,
                "last_reported": 1789249705,
                "name": "Universit\u00e4tsstadion",
                "num_bikes_available": 13,
                "num_docks_available": 0,
                "region_id": "438",
                "rental_uris": {
                    "android": "https://app.nextbike.net/station?id=4774562",
                    "ios": "https://app.nextbike.net/station?id=4774562",
                    "web": "https://nxtb.it/p/4774562"
                },
                "short_name": "5175",
                "station_id": "4774562",
                "vehicle_types_available": [
                    {
                        "count": 13,
                        "vehicle_type_id": "196"
                    }
                ]
            },
            "type": "Feature"
        },
        {
            "geometry": {
                "coordinates": [
                    8.769918,
                    50.807063
                ],
                "type": "Point"
            },
            "properties": {
                "is_installed": true,
                "is_renting": true,
                "is_returning": true,
                "is_virtual_station": false,
                "last_reported": 1789249705,
                "name": "Universit\u00e4tsstra\u00dfe / Bibliothek Jura",
                "num_bikes_available": 7,
                "num_docks_available": 0,
                "region_id": "438",
                "rental_uris": {
                    "android": "https://app.nextbike.net/station?id=4774567",
                    "ios": "https://app.nextbike.net/station?id=4774567",
                    "web": "https://nxtb.it/p/4774567"
                },
                "short_name": "5176",
                "station_id": "4774567",
                "vehicle_types_available": [
                    {
                        "count": 7,
                        "vehicle_type_id": "196"
                    }
                ]
            },
            "type": "Feature"
        },
        {
            "geometry": {
                "coordinates": [
                    8.75701,
                    50.836215
                ],
                "type": "Point"
            },
            "properties": {
                "is_installed": true,
                "is_renting": true,
                "is_returning": true,
                "is_virtual_station": false,
                "last_reported": 1789249705,
                "name": "Wehrda B\u00fcrgerhaus",
                "num_bikes_available": 3,
                "num_docks_available": 0,
                "region_id": "438",
                "rental_uris": {
                    "android": "https://app.nextbike.net/station?id=4774572",
                    "ios": "https://app.nextbike.net/station?id=4774572",
                    "web": "https://nxtb.it/p/4774572"
                },
                "short_name": "5177",
                "station_id": "4774572",
                "vehicle_types_available": [
                    {
                        "count": 3,
                        "vehicle_type_id": "196"
                    }
                ]
            },
            "type": "Feature"
        },
        {
            "geometry": {
                "coordinates": [
                    8.759248,
                    50.804725
                ],
                "type": "Point"
            },
            "properties": {
                "is_installed": true,
                "is_renting": true,
                "is_returning": true,
                "is_virtual_station": false,
                "last_reported": 1789249705,
                "name": "Wilhelmsplatz",
                "num_bikes_available": 5,
                "num_docks_available": 0,
                "region_id": "438",
                "rental_uris": {
                    "android": "https://app.nextbike.net/station?id=4774574",
                    "ios": "https://app.nextbike.net/station?id=4774574",
                    "web": "https://nxtb.it/p/4774574"
                },
                "short_name": "5178",
                "station_id": "4774574",
                "vehicle_types_available": [
                    {
                        "count": 4,
                        "vehicle_type_id": "196"
                    },
                    {
                        "count": 1,
                        "vehicle_type_id": "369"
                    }
                ]
            },
            "type": "Feature"
        },
        {
            "geometry": {
                "coordinates": [
                    8.7725,
                    50.829543
                ],
                "type": "Point"
            },
            "properties": {
                "is_installed": true,
                "is_renting": true,
                "is_returning": true,
                "is_virtual_station": false,
                "last_reported": 1789249705,
                "name": "Am Neuen Forum",
                "num_bikes_available": 0,
                "num_docks_available": 0,
                "region_id": "438",
                "rental_uris": {
                    "android": "https://app.nextbike.net/station?id=496137689",
                    "ios": "https://app.nextbike.net/station?id=496137689",
                    "web": "https://nxtb.it/p/496137689"
                },
                "short_name": "51418",
                "station_id": "496137689",
                "vehicle_types_available": []
            },
            "type": "Feature"
        },
        {
            "geometry": {
                "coordinates": [
                    8.768305,
                    50.840561
                ],
                "type": "Point"
            },
            "properties": {
                "is_installed": true,
                "is_renting": true,
                "is_returning": true,
                "is_virtual_station": false,
                "last_reported": 1789249705,
                "name": "tegut / Kaufpark Wehrda",
                "num_bikes_available": 21,
                "num_docks_available": 0,
                "region_id": "438",
                "rental_uris": {
                    "android": "https://app.nextbike.net/station?id=500107110",
                    "ios": "https://app.nextbike.net/station?id=500107110",
                    "web": "https://nxtb.it/p/500107110"
                },
                "short_name": "51419",
                "station_id": "500107110",
                "vehicle_types_available": [
                    {
                        "count": 20,
                        "vehicle_type_id": "196"
                    },
                    {
                        "count": 1,
                        "vehicle_type_id": "331"
                    }
                ]
            },
            "type": "Feature"
        },
        {
            "geometry": {
                "coordinates": [
                    8.780602,
                    50.812779
                ],
                "type": "Point"
            },
            "properties": {
                "is_installed": true,
                "is_renting": true,
                "is_returning": true,
                "is_virtual_station": false,
                "last_reported": 1789249705,
                "name": "Am Sch\u00fclerpark",
                "num_bikes_available": 8,
                "num_docks_available": 0,
                "region_id": "438",
                "rental_uris": {
                    "android": "https://app.nextbike.net/station?id=5220935",
                    "ios": "https://app.nextbike.net/station?id=5220935",
                    "web": "https://nxtb.it/p/5220935"
                },
                "short_name": "5147",
                "station_id": "5220935",
                "vehicle_types_available": [
                    {
                        "count": 8,
                        "vehicle_type_id": "196"
                    }
                ]
            },
            "type": "Feature"
        },
        {
            "geometry": {
                "coordinates": [
                    8.756511,
                    50.795692
                ],
                "type": "Point"
            },
            "properties": {
                "capacity": 8,
                "is_installed": true,
                "is_renting": true,
                "is_returning": true,
                "is_virtual_station": true,
                "last_reported": 1789249705,
                "name": "Willy-Mock-Stra\u00dfe",
                "num_bikes_available": 6,
                "num_docks_available": 2,
                "region_id": "438",
                "rental_uris": {
                    "android": "https://app.nextbike.net/station?id=589102999",
                    "ios": "https://app.nextbike.net/station?id=589102999",
                    "web": "https://nxtb.it/p/589102999"
                },
                "short_name": "51420",
                "station_area": {
                    "coordinates": [
                        [
                            [
                                [
                                    8.756511,
                                    50.795917
                                ],
                                [
                                    8.756819,
                                    50.795804
                                ],
                                [
                                    8.756819,
                                    50.79558
                                ],
                                [
                                    8.756511,
                                    50.795467
                                ],
                                [
                                    8.756203,
                                    50.79558
                                ],
                                [
                                    8.756203,
                                    50.795804
                                ],
                                [
                                    8.756511,
                                    50.795917
                                ]
                            ]
                        ]
                    ],
                    "type": "MultiPolygon"
                },
                "station_id": "589102999",
                "vehicle_types_available": [
                    {
                        "count": 6,
                        "vehicle_type_id": "196"
                    }
                ]
            },
            "type": "Feature"
        },
        {
            "geometry": {
                "coordinates": [
                    8.771812,
                    50.810654
                ],
                "type": "Point"
            },
            "properties": {
                "capacity": 20,
                "is_installed": true,
                "is_renting": true,
                "is_returning": true,
                "is_virtual_station": true,
                "last_reported": 1789249705,
                "name": "Pilgrimstein",
                "num_bikes_available": 7,
                "num_docks_available": 13,
                "region_id": "438",
                "rental_uris": {
                    "android": "https://app.nextbike.net/station?id=595738004",
                    "ios": "https://app.nextbike.net/station?id=595738004",
                    "web": "https://nxtb.it/p/595738004"
                },
                "short_name": "51421",
                "station_area": {
                    "coordinates": [
                        [
                            [
                                [
                                    8.771812,
                                    50.810879
                                ],
                                [
                                    8.77212,
                                    50.810766
                                ],
                                [
                                    8.77212,
                                    50.810542
                                ],
                                [
                                    8.771812,
                                    50.810429
                                ],
                                [
                                    8.771504,
                                    50.810542
                                ],
                                [
                                    8.771504,
                                    50.810766
                                ],
                                [
                                    8.771812,
                                    50.810879
                                ]
                            ]
                        ]
                    ],
                    "type": "MultiPolygon"
                },
                "station_id": "595738004",
                "vehicle_types_available": [
                    {
                        "count": 7,
                        "vehicle_type_id": "196"
                    }
                ]
            },
            "type": "Feature"
        },
        {
            "geometry": {
                "coordinates": [
                    8.76967,
                    50.831989
                ],
                "type": "Point"
            },
            "properties": {
                "is_installed": true,
                "is_renting": true,
                "is_returning": true,
                "is_virtual_station": false,
                "last_reported": 1789249705,
                "name": "Day Night Sports",
                "num_bikes_available": 18,
                "num_docks_available": 0,
                "region_id": "438",
                "rental_uris": {
                    "android": "https://app.nextbike.net/station?id=62902963",
                    "ios": "https://app.nextbike.net/station?id=62902963",
                    "web": "https://nxtb.it/p/62902963"
                },
                "short_name": "5148",
                "station_id": "62902963",
                "vehicle_types_available": [
                    {
                        "count": 18,
                        "vehicle_type_id": "196"
                    }
                ]
            },
            "type": "Feature"
        },
        {
            "geometry": {
                "coordinates": [
                    8.770734,
                    50.813691
                ],
                "type": "Point"
            },
            "properties": {
                "is_installed": true,
                "is_renting": true,
                "is_returning": true,
                "is_virtual_station": false,
                "last_reported": 1789249705,
                "name": "Neue Universit\u00e4tsbibliothek",
                "num_bikes_available": 0,
                "num_docks_available": 0,
                "region_id": "438",
                "rental_uris": {
                    "android": "https://app.nextbike.net/station?id=6666288",
                    "ios": "https://app.nextbike.net/station?id=6666288",
                    "web": "https://nxtb.it/p/6666288"
                },
                "short_name": "5145",
                "station_id": "6666288",
                "vehicle_types_available": []
            },
            "type": "Feature"
        }
    ],
    "gbfs": {
        "station_information": {
            "last_updated": 1789249705,
            "ttl": 60,
            "version": "2.3"
        },
        "station_status": {
            "last_updated": 1789249705,
            "ttl": 60,
            "version": "2.3"
        }
    },
    "type": "FeatureCollection"
}