{
    "features": [
        {
            "geometry": {
                "coordinates": [
                    2.25543596655538,
                    49.8761605083311
                ],
                "type": "Point"
            },
            "properties": {
                "address": "au rond-point devant l'entr\u00e9e du CHU",
                "available_bike_stands": 21,
                "available_bikes": 9,
                "banking": false,
                "bike_stands": 30,
                "bonus": false,
                "contract_name": "amiens",
                "last_update": 1789293625000,
                "name": "101 - CHU",
                "number": 101,
                "status": "OPEN"
            },
            "type": "Feature"
        },
        {
            "geometry": {
                "coordinates": [
                    2.26430509026883,
                    49.8749468496569
                ],
                "type": "Point"
            },
            "properties": {
                "address": "35 chemin du Thil",
                "available_bike_stands": 8,
                "available_bikes": 9,
                "banking": false,
                "bike_stands": 20,
                "bonus": false,
                "contract_name": "amiens",
                "last_update": 1789293489000,
                "name": "102 - CAMPUS",
                "number": 102,
                "status": "OPEN"
            },
            "type": "Feature"
        },
        {
            "geometry": {
                "coordinates": [
                    2.26732116087094,
                    49.8797114616144
                ],
                "type": "Point"
            },
            "properties": {
                "address": "40 rue du Professeur Christian Cabrol / 50 Avenue VGE",
                "available_bike_stands": 8,
                "available_bikes": 12,
                "banking": false,
                "bike_stands": 20,
                "bonus": false,
                "contract_name": "amiens",
                "last_update": 1789293652000,
                "name": "103 - AMBROISE PARE",
                "number": 103,
                "status": "OPEN"
            },
            "type": "Feature"
        },
        {
            "geometry": {
                "coordinates": [
                    2.27041821075191,
                    49.8775222364391
                ],
                "type": "Point"
            },
            "properties": {
                "address": "217 rue Jean Moulin (devant la pharmacie)",
                "available_bike_stands": 3,
                "available_bikes": 16,
                "banking": false,
                "bike_stands": 20,
                "bonus": false,
                "contract_name": "amiens",
                "last_update": 1789293493000,
                "name": "104 - JEAN MOULIN",
                "number": 104,
                "status": "OPEN"
            },
            "type": "Feature"
        },
        {
            "geometry": {
                "coordinates": [
                    2.28926795173436,
                    49.8738001882919
                ],
                "type": "Point"
            },
            "properties": {
                "address": "99 rue Alexandre Dumas",
                "available_bike_stands": 10,
                "available_bikes": 5,
                "banking": false,
                "bike_stands": 15,
                "bonus": false,
                "contract_name": "amiens",
                "last_update": 1789293693000,
                "name": "105 - GEORGES BEAUVAIS",
                "number": 105,
                "status": "OPEN"
            },
            "type": "Feature"
        },
        {
            "geometry": {
                "coordinates": [
                    2.29980637406781,
                    49.8714882126901
                ],
                "type": "Point"
            },
            "properties": {
                "address": "74 rue Alexandre Dumas",
                "available_bike_stands": 10,
                "available_bikes": 2,
                "banking": false,
                "bike_stands": 12,
                "bonus": false,
                "contract_name": "amiens",
                "last_update": 1789293302000,
                "name": "106 - ALEXANDRE DUMAS",
                "number": 106,
                "status": "OPEN"
            },
            "type": "Feature"
        },
        {
            "geometry": {
                "coordinates": [
                    2.3075408385628,
                    49.8709231440044
                ],
                "type": "Point"
            },
            "properties": {
                "address": "2 rue Jean Marc Laurent",
                "available_bike_stands": 9,
                "available_bikes": 6,
                "banking": false,
                "bike_stands": 15,
                "bonus": false,
                "contract_name": "amiens",
                "last_update": 1789293331000,
                "name": "107 - CROIX ROMPUE",
                "number": 107,
                "status": "OPEN"
            },
            "type": "Feature"
        },
        {
            "geometry": {
                "coordinates": [
                    2.30570227016032,
                    49.8788774527287
                ],
                "type": "Point"
            },
            "properties": {
                "address": "369 blvd de Bapaume",
                "available_bike_stands": 4,
                "available_bikes": 8,
                "banking": false,
                "bike_stands": 12,
                "bonus": false,
                "contract_name": "amiens",
                "last_update": 1789293549000,
                "name": "108 - SAINT QUENTIN",
                "number": 108,
                "status": "OPEN"
            },
            "type": "Feature"
        },
        {
            "geometry": {
                "coordinates": [
                    2.31364446793846,
                    49.8811187507301
                ],
                "type": "Point"
            },
            "properties": {
                "address": "144 blvd de Bapaume",
                "available_bike_stands": 3,
                "available_bikes": 6,
                "banking": false,
                "bike_stands": 9,
                "bonus": false,
                "contract_name": "amiens",
                "last_update": 1789293333000,
                "name": "109 - BAPAUME",
                "number": 109,
                "status": "OPEN"
            },
            "type": "Feature"
        },
        {
            "geometry": {
                "coordinates": [
                    2.321192020094,
                    49.884650458198
                ],
                "type": "Point"
            },
            "properties": {
                "address": "2 blvd Pont Noyelles",
                "available_bike_stands": 5,
                "available_bikes": 10,
                "banking": false,
                "bike_stands": 15,
                "bonus": false,
                "contract_name": "amiens",
                "last_update": 1789293656000,
                "name": "110 - LYCEE DE LUZARCHES",
                "number": 110,
                "status": "OPEN"
            },
            "type": "Feature"
        },
        {
            "geometry": {
                "coordinates": [
                    2.31537913921708,
                    49.8870818163849
                ],
                "type": "Point"
            },
            "properties": {
                "address": "2 rue de Cottenchy",
                "available_bike_stands": 11,
                "available_bikes": 4,
                "banking": false,
                "bike_stands": 15,
                "bonus": false,
                "contract_name": "amiens",
                "last_update": 1789293398000,
                "name": "111 - PINCEAU",
                "number": 111,
                "status": "OPEN"
            },
            "type": "Feature"
        },
        {
            "geometry": {
                "coordinates": [
                    2.30402196301432,
                    49.8838002878618
                ],
                "type": "Point"
            },
            "properties": {
                "address": "1 rue Evrard de Fouilloy",
                "available_bike_stands": 8,
                "available_bikes": 4,
                "banking": false,
                "bike_stands": 12,
                "bonus": false,
                "contract_name": "amiens",
                "last_update": 1789293378000,
                "name": "112 - DE FOUILLOY",
                "number": 112,
                "status": "OPEN"
            },
            "type": "Feature"
        },
        {
            "geometry": {
                "coordinates": [
                    2.29613729982312,
                    49.8792174875356
                ],
                "type": "Point"
            },
            "properties": {
                "address": "68 Bd de Saint-Quentin, 80090 Amiens",
                "available_bike_stands": 35,
                "available_bikes": 3,
                "banking": false,
                "bike_stands": 40,
                "bonus": false,
                "contract_name": "amiens",
                "last_update": 1789293307000,
                "name": "113 - CITE SCOLAIRE",
                "number": 113,
                "status": "OPEN"
            },
            "type": "Feature"
        },
        {
            "geometry": {
                "coordinates": [
                    2.28512969432921,
                    49.8814901947798
                ],
                "type": "Point"
            },
            "properties": {
                "address": "387 Av. du 14 Juillet 1789, 80000 Amiens",
                "available_bike_stands": 2,
                "available_bikes": 13,
                "banking": false,
                "bike_stands": 15,
                "bonus": false,
                "contract_name": "amiens",
                "last_update": 1789293589000,
                "name": "114 - BOULEVARD DE DURY",
                "number": 114,
                "status": "OPEN"
            },
            "type": "Feature"
        },
        {
            "geometry": {
                "coordinates": [
                    2.27847661449525,
                    49.8866588519813
                ],
                "type": "Point"
            },
            "properties": {
                "address": "7, Bd de strasbourg",
                "available_bike_stands": 4,
                "available_bikes": 11,
                "banking": false,
                "bike_stands": 15,
                "bonus": false,
                "contract_name": "amiens",
                "last_update": 1789293615000,
                "name": "115 - LIBERATION",
                "number": 115,
                "status": "OPEN"
            },
            "type": "Feature"
        },
        {
            "geometry": {
                "coordinates": [
                    2.28207801990962,
                    49.8901509739887
                ],
                "type": "Point"
            },
            "properties": {
                "address": "Avenue du G\u00e9n\u00e9ral Foy, 38 Sq. Friant",
                "available_bike_stands": 18,
                "available_bikes": 2,
                "banking": false,
                "bike_stands": 20,
                "bonus": false,
                "contract_name": "amiens",
                "last_update": 1789293442000,
                "name": "116 - QUATRE CHENES",
                "number": 116,
                "status": "OPEN"
            },
            "type": "Feature"
        },
        {
            "geometry": {
                "coordinates": [
                    2.294710530633,
                    49.8840545369836
                ],
                "type": "Point"
            },
            "properties": {
                "address": "72 Rue Delpech",
                "available_bike_stands": 3,
                "available_bikes": 11,
                "banking": false,
                "bike_stands": 15,
                "bonus": false,
                "contract_name": "amiens",
                "last_update": 1789293463000,
                "name": "117 - COLLEGE SAINT MARTIN",
                "number": 117,
                "status": "OPEN"
            },
            "type": "Feature"
        },
        {
            "geometry": {
                "coordinates": [
                    2.30365520991011,
                    49.887853845216
                ],
                "type": "Point"
            },
            "properties": {
                "address": "11 Pl. du Mar\u00e9chal Joffre, 80000 Amiens",
                "available_bike_stands": 1,
                "available_bikes": 19,
                "banking": false,
                "bike_stands": 20,
                "bonus": false,
                "contract_name": "amiens",
                "last_update": 1789293286000,
                "name": "118 - JOFFRE",
                "number": 118,
                "status": "OPEN"
            },
            "type": "Feature"
        },
        {
            "geometry": {
                "coordinates": [
                    2.3091,
                    49.889774
                ],
                "type": "Point"
            },
            "properties": {
                "address": "",
                "available_bike_stands": 18,
                "available_bikes": 0,
                "banking": false,
                "bike_stands": 18,
                "bonus": false,
                "contract_name": "amiens",
                "last_update": 1789293280000,
                "name": "119 - GARE BARNI",
                "number": 119,
                "status": "OPEN"
            },
            "type": "Feature"
        },
        {
            "geometry": {
                "coordinates": [
                    2.3122958189804,
                    49.8909989692509
                ],
                "type": "Point"
            },
            "properties": {
                "address": "75 Rue de la Vall\u00e9e",
                "available_bike_stands": 14,
                "available_bikes": 6,
                "banking": false,
                "bike_stands": 20,
                "bonus": false,
                "contract_name": "amiens",
                "last_update": 1789293312000,
                "name": "120 - RUE DE LA VALLEE",
                "number": 120,
                "status": "OPEN"
            },
            "type": "Feature"
        },
        {
            "geometry": {
                "coordinates": [
                    2.30750304679748,
                    49.8905661122905
                ],
                "type": "Point"
            },
            "properties": {
                "address": "Place Alphonse Fiquet",
                "available_bike_stands": 25,
                "available_bikes": 4,
                "banking": false,
                "bike_stands": 30,
                "bonus": false,
                "contract_name": "amiens",
                "last_update": 1789293384000,
                "name": "121 - GARE PARVIS",
                "number": 121,
                "status": "OPEN"
            },
            "type": "Feature"
        },
        {
            "geometry": {
                "coordinates": [
                    2.30767104111568,
                    49.8920517826023
                ],
                "type": "Point"
            },
            "properties": {
                "address": "",
                "available_bike_stands": 14,
                "available_bikes": 3,
                "banking": false,
                "bike_stands": 18,
                "bonus": false,
                "contract_name": "amiens",
                "last_update": 1789293288000,
                "name": "122 - ALSACE LORRAINE",
                "number": 122,
                "status": "OPEN"
            },
            "type": "Feature"
        },
        {
            "geometry": {
                "coordinates": [
                    2.30214567067397,
                    49.8913855220191
                ],
                "type": "Point"
            },
            "properties": {
                "address": "26 rue Allart",
                "available_bike_stands": 14,
                "available_bikes": 5,
                "banking": false,
                "bike_stands": 20,
                "bonus": false,
                "contract_name": "amiens",
                "last_update": 1789293616000,
                "name": "123 - RENE GOBLET",
                "number": 123,
                "status": "OPEN"
            },
            "type": "Feature"
        },
        {
            "geometry": {
                "coordinates": [
                    2.29501206789825,
                    49.8890877478452
                ],
                "type": "Point"
            },
            "properties": {
                "address": "45 Maignan Larivi\u00e8re",
                "available_bike_stands": 19,
                "available_bikes": 2,
                "banking": false,
                "bike_stands": 21,
                "bonus": false,
                "contract_name": "amiens",
                "last_update": 1789293305000,
                "name": "124 - MAIGNAN LARIVIERE",
                "number": 124,
                "status": "OPEN"
            },
            "type": "Feature"
        },
        {
            "geometry": {
                "coordinates": [
                    2.29099942502232,
                    49.8900381155899
                ],
                "type": "Point"
            },
            "properties": {
                "address": "",
                "available_bike_stands": 18,
                "available_bikes": 0,
                "banking": false,
                "bike_stands": 20,
                "bonus": false,
                "contract_name": "amiens",
                "last_update": 1789293308000,
                "name": "125 - NICOLE FONTAINE",
                "number": 125,
                "status": "OPEN"
            },
            "type": "Feature"
        },
        {
            "geometry": {
                "coordinates": [
                    2.28484462878591,
                    49.8933880530537
                ],
                "type": "Point"
            },
            "properties": {
                "address": "",
                "available_bike_stands": 9,
                "available_bikes": 11,
                "banking": false,
                "bike_stands": 20,
                "bonus": false,
                "contract_name": "amiens",
                "last_update": 1789293372000,
                "name": "126 - SIMONE VEIL",
                "number": 126,
                "status": "OPEN"
            },
            "type": "Feature"
        },
        {
            "geometry": {
                "coordinates": [
                    2.28866286242507,
                    49.8936580031568
                ],
                "type": "Point"
            },
            "properties": {
                "address": "parvis du Colis\u00e9um",
                "available_bike_stands": 9,
                "available_bikes": 11,
                "banking": false,
                "bike_stands": 20,
                "bonus": false,
                "contract_name": "amiens",
                "last_update": 1789293561000,
                "name": "127 - COLISEUM",
                "number": 127,
                "status": "OPEN"
            },
            "type": "Feature"
        },
        {
            "geometry": {
                "coordinates": [
                    2.29268250553026,
                    49.8938390733709
                ],
                "type": "Point"
            },
            "properties": {
                "address": "",
                "available_bike_stands": 20,
                "available_bikes": 0,
                "banking": false,
                "bike_stands": 20,
                "bonus": false,
                "contract_name": "amiens",
                "last_update": 1789293286000,
                "name": "128 - MAISON DE LA CULTURE",
                "number": 128,
                "status": "OPEN"
            },
            "type": "Feature"
        },
        {
            "geometry": {
                "coordinates": [
                    2.29709438879077,
                    49.8927053789964
                ],
                "type": "Point"
            },
            "properties": {
                "address": "3 Rue de la R\u00e9publique, 80000 Amiens",
                "available_bike_stands": 17,
                "available_bikes": 3,
                "banking": false,
                "bike_stands": 20,
                "bonus": false,
                "contract_name": "amiens",
                "last_update": 1789293575000,
                "name": "129 - GAMBETTA",
                "number": 129,
                "status": "OPEN"
            },
            "type": "Feature"
        },
        {
            "geometry": {
                "coordinates": [
                    2.30630986276998,
                    49.8954729079771
                ],
                "type": "Point"
            },
            "properties": {
                "address": "",
                "available_bike_stands": 13,
                "available_bikes": 6,
                "banking": false,
                "bike_stands": 20,
                "bonus": false,
                "contract_name": "amiens",
                "last_update": 1789293394000,
                "name": "130 - SAMAROBRIVA",
                "number": 130,
                "status": "OPEN"
            },
            "type": "Feature"
        },
        {
            "geometry": {
                "coordinates": [
                    2.2962982161306,
                    49.8954446387332
                ],
                "type": "Point"
            },
            "properties": {
                "address": "1 rue des Chaudronniers",
                "available_bike_stands": 19,
                "available_bikes": 1,
                "banking": false,
                "bike_stands": 20,
                "bonus": false,
                "contract_name": "amiens",
                "last_update": 1789293695000,
                "name": "131 - BEFFROI",
                "number": 131,
                "status": "OPEN"
            },
            "type": "Feature"
        },
        {
            "geometry": {
                "coordinates": [
                    2.28932393008818,
                    49.8973758834323
                ],
                "type": "Point"
            },
            "properties": {
                "address": "",
                "available_bike_stands": 9,
                "available_bikes": 9,
                "banking": false,
                "bike_stands": 20,
                "bonus": false,
                "contract_name": "amiens",
                "last_update": 1789293301000,
                "name": "132 - MARCHE AUX CHEVAUX",
                "number": 132,
                "status": "OPEN"
            },
            "type": "Feature"
        },
        {
            "geometry": {
                "coordinates": [
                    2.29523624790727,
                    49.8984835646634
                ],
                "type": "Point"
            },
            "properties": {
                "address": "",
                "available_bike_stands": 16,
                "available_bikes": 3,
                "banking": false,
                "bike_stands": 20,
                "bonus": false,
                "contract_name": "amiens",
                "last_update": 1789293405000,
                "name": "133 - VOGEL",
                "number": 133,
                "status": "OPEN"
            },
            "type": "Feature"
        },
        {
            "geometry": {
                "coordinates": [
                    2.30054348664194,
                    49.8990760206489
                ],
                "type": "Point"
            },
            "properties": {
                "address": "",
                "available_bike_stands": 19,
                "available_bikes": 1,
                "banking": false,
                "bike_stands": 20,
                "bonus": false,
                "contract_name": "amiens",
                "last_update": 1789293362000,
                "name": "134 - RUE ST LEU",
                "number": 134,
                "status": "OPEN"
            },
            "type": "Feature"
        },
        {
            "geometry": {
                "coordinates": [
                    2.3030959,
                    49.9016009
                ],
                "type": "Point"
            },
            "properties": {
                "address": "",
                "available_bike_stands": 20,
                "available_bikes": 0,
                "banking": false,
                "bike_stands": 20,
                "bonus": false,
                "contract_name": "amiens",
                "last_update": 1789293318000,
                "name": "135 - ELOI MOREL",
                "number": 135,
                "status": "OPEN"
            },
            "type": "Feature"
        },
        {
            "geometry": {
                "coordinates": [
                    2.30637544083886,
                    49.903358034401
                ],
                "type": "Point"
            },
            "properties": {
                "address": "133 chauss\u00e9e St Pierre",
                "available_bike_stands": 10,
                "available_bikes": 1,
                "banking": false,
                "bike_stands": 12,
                "bonus": false,
                "contract_name": "amiens",
                "last_update": 1789293593000,
                "name": "136 - EGLISE SAINT PIERRE",
                "number": 136,
                "status": "OPEN"
            },
            "type": "Feature"
        },
        {
            "geometry": {
                "coordinates": [
                    2.30060251800544,
                    49.9102159793893
                ],
                "type": "Point"
            },
            "properties": {
                "address": "3 Rue Georges Guynemer, 80080 Amiens",
                "available_bike_stands": 2,
                "available_bikes": 10,
                "banking": false,
                "bike_stands": 12,
                "bonus": false,
                "contract_name": "amiens",
                "last_update": 1789293577000,
                "name": "137 - LE SAFRAN",
                "number": 137,
                "status": "OPEN"
            },
            "type": "Feature"
        },
        {
            "geometry": {
                "coordinates": [
                    2.30076443313824,
                    49.9042985541272
                ],
                "type": "Point"
            },
            "properties": {
                "address": "Avenue du G\u00e9n\u00e9ral de Gaulle",
                "available_bike_stands": 50,
                "available_bikes": 0,
                "banking": false,
                "bike_stands": 50,
                "bonus": false,
                "contract_name": "amiens",
                "last_update": 1789293405000,
                "name": "138 - CITADELLE",
                "number": 138,
                "status": "OPEN"
            },
            "type": "Feature"
        },
        {
            "geometry": {
                "coordinates": [
                    2.2951100317488,
                    49.9026000792339
                ],
                "type": "Point"
            },
            "properties": {
                "address": "31 rue Octave Tierce",
                "available_bike_stands": 9,
                "available_bikes": 3,
                "banking": false,
                "bike_stands": 12,
                "bonus": false,
                "contract_name": "amiens",
                "last_update": 1789293321000,
                "name": "139 - KRUGER",
                "number": 139,
                "status": "OPEN"
            },
            "type": "Feature"
        },
        {
            "geometry": {
                "coordinates": [
                    2.28286774757943,
                    49.8968625368063
                ],
                "type": "Point"
            },
            "properties": {
                "address": "",
                "available_bike_stands": 7,
                "available_bikes": 13,
                "banking": false,
                "bike_stands": 20,
                "bonus": false,
                "contract_name": "amiens",
                "last_update": 1789293575000,
                "name": "140 - PARC DE LA HOTOIE",
                "number": 140,
                "status": "OPEN"
            },
            "type": "Feature"
        },
        {
            "geometry": {
                "coordinates": [
                    2.27329699605439,
                    49.8981930893414
                ],
                "type": "Point"
            },
            "properties": {
                "address": "80 rue du B\u00e2tonnier Mahiu",
                "available_bike_stands": 2,
                "available_bikes": 16,
                "banking": false,
                "bike_stands": 20,
                "bonus": false,
                "contract_name": "amiens",
                "last_update": 1789293628000,
                "name": "141 - LYCEE LA HOTOIE",
                "number": 141,
                "status": "OPEN"
            },
            "type": "Feature"
        },
        {
            "geometry": {
                "coordinates": [
                    2.26661123460104,
                    49.8973874352118
                ],
                "type": "Point"
            },
            "properties": {
                "address": "parking du P\u00f4le Licorne",
                "available_bike_stands": 1,
                "available_bikes": 13,
                "banking": false,
                "bike_stands": 15,
                "bonus": false,
                "contract_name": "amiens",
                "last_update": 1789293587000,
                "name": "142 - POLE LICORNE",
                "number": 142,
                "status": "OPEN"
            },
            "type": "Feature"
        },
        {
            "geometry": {
                "coordinates": [
                    2.27234536350419,
                    49.9021093357713
                ],
                "type": "Point"
            },
            "properties": {
                "address": "62 rue Robert Lecoq",
                "available_bike_stands": 5,
                "available_bikes": 10,
                "banking": false,
                "bike_stands": 15,
                "bonus": false,
                "contract_name": "amiens",
                "last_update": 1789293300000,
                "name": "143 - LOUIS BLANC",
                "number": 143,
                "status": "OPEN"
            },
            "type": "Feature"
        },
        {
            "geometry": {
                "coordinates": [
                    2.2840447936974,
                    49.9020001616443
                ],
                "type": "Point"
            },
            "properties": {
                "address": "Rue du Ch\u00e2teau Milan",
                "available_bike_stands": 10,
                "available_bikes": 5,
                "banking": false,
                "bike_stands": 15,
                "bonus": false,
                "contract_name": "amiens",
                "last_update": 1789293378000,
                "name": "145 - CHATEAU MILAN",
                "number": 145,
                "status": "OPEN"
            },
            "type": "Feature"
        }
    ],
    "type": "FeatureCollection"
}