{
    "features": [
        {
            "geometry": {
                "coordinates": [
                    6.080183,
                    50.77611
                ],
                "type": "Point"
            },
            "properties": {
                "capacity": 8,
                "is_installed": true,
                "is_renting": true,
                "is_returning": true,
                "is_virtual_station": false,
                "last_reported": 1789272833,
                "name": "Annuntiatenbach",
                "num_bikes_available": 0,
                "num_docks_available": 8,
                "region_id": "1250",
                "rental_uris": {
                    "android": "https://app.nextbike.net/station?id=605871611",
                    "ios": "https://app.nextbike.net/station?id=605871611",
                    "web": "https://nxtb.it/p/605871611"
                },
                "short_name": "56005",
                "station_id": "605871611",
                "vehicle_types_available": []
            },
            "type": "Feature"
        },
        {
            "geometry": {
                "coordinates": [
                    6.141061,
                    50.714984
                ],
                "type": "Point"
            },
            "properties": {
                "capacity": 10,
                "is_installed": true,
                "is_renting": true,
                "is_returning": true,
                "is_virtual_station": false,
                "last_reported": 1789272833,
                "name": "Pascalstra\u00dfe 57",
                "num_bikes_available": 5,
                "num_docks_available": 5,
                "region_id": "1250",
                "rental_uris": {
                    "android": "https://app.nextbike.net/station?id=605871858",
                    "ios": "https://app.nextbike.net/station?id=605871858",
                    "web": "https://nxtb.it/p/605871858"
                },
                "short_name": "56012",
                "station_id": "605871858",
                "vehicle_types_available": [
                    {
                        "count": 5,
                        "vehicle_type_id": "349"
                    }
                ]
            },
            "type": "Feature"
        },
        {
            "geometry": {
                "coordinates": [
                    6.050785,
                    50.780052
                ],
                "type": "Point"
            },
            "properties": {
                "is_installed": true,
                "is_renting": true,
                "is_returning": true,
                "is_virtual_station": false,
                "last_reported": 1789272833,
                "name": "Forckenbeckstra\u00dfe",
                "num_bikes_available": 1,
                "num_docks_available": 0,
                "region_id": "1250",
                "rental_uris": {
                    "android": "https://app.nextbike.net/station?id=605872019",
                    "ios": "https://app.nextbike.net/station?id=605872019",
                    "web": "https://nxtb.it/p/605872019"
                },
                "short_name": "56032",
                "station_id": "605872019",
                "vehicle_types_available": [
                    {
                        "count": 1,
                        "vehicle_type_id": "349"
                    }
                ]
            },
            "type": "Feature"
        },
        {
            "geometry": {
                "coordinates": [
                    6.090111,
                    50.768005
                ],
                "type": "Point"
            },
            "properties": {
                "capacity": 15,
                "is_installed": true,
                "is_renting": true,
                "is_returning": true,
                "is_virtual_station": false,
                "last_reported": 1789272833,
                "name": "Hauptbahnhof",
                "num_bikes_available": 9,
                "num_docks_available": 6,
                "region_id": "1250",
                "rental_uris": {
                    "android": "https://app.nextbike.net/station?id=605872338",
                    "ios": "https://app.nextbike.net/station?id=605872338",
                    "web": "https://nxtb.it/p/605872338"
                },
                "short_name": "56047",
                "station_id": "605872338",
                "vehicle_types_available": [
                    {
                        "count": 9,
                        "vehicle_type_id": "349"
                    }
                ]
            },
            "type": "Feature"
        },
        {
            "geometry": {
                "coordinates": [
                    6.043737,
                    50.784095
                ],
                "type": "Point"
            },
            "properties": {
                "is_installed": true,
                "is_renting": true,
                "is_returning": true,
                "is_virtual_station": false,
                "last_reported": 1789272833,
                "name": "Campus Boulevard",
                "num_bikes_available": 3,
                "num_docks_available": 0,
                "region_id": "1250",
                "rental_uris": {
                    "android": "https://app.nextbike.net/station?id=605872701",
                    "ios": "https://app.nextbike.net/station?id=605872701",
                    "web": "https://nxtb.it/p/605872701"
                },
                "short_name": "56091",
                "station_id": "605872701",
                "vehicle_types_available": [
                    {
                        "count": 3,
                        "vehicle_type_id": "349"
                    }
                ]
            },
            "type": "Feature"
        },
        {
            "geometry": {
                "coordinates": [
                    6.126746,
                    50.795534
                ],
                "type": "Point"
            },
            "properties": {
                "capacity": 10,
                "is_installed": true,
                "is_renting": true,
                "is_returning": true,
                "is_virtual_station": false,
                "last_reported": 1789272833,
                "name": "Haaren-Markt",
                "num_bikes_available": 3,
                "num_docks_available": 7,
                "region_id": "1250",
                "rental_uris": {
                    "android": "https://app.nextbike.net/station?id=605872881",
                    "ios": "https://app.nextbike.net/station?id=605872881",
                    "web": "https://nxtb.it/p/605872881"
                },
                "short_name": "56043",
                "station_id": "605872881",
                "vehicle_types_available": [
                    {
                        "count": 3,
                        "vehicle_type_id": "349"
                    }
                ]
            },
            "type": "Feature"
        },
        {
            "geometry": {
                "coordinates": [
                    6.083681,
                    50.768349
                ],
                "type": "Point"
            },
            "properties": {
                "capacity": 10,
                "is_installed": true,
                "is_renting": true,
                "is_returning": true,
                "is_virtual_station": false,
                "last_reported": 1789272833,
                "name": "Mozartstra\u00dfe",
                "num_bikes_available": 1,
                "num_docks_available": 9,
                "region_id": "1250",
                "rental_uris": {
                    "android": "https://app.nextbike.net/station?id=605873112",
                    "ios": "https://app.nextbike.net/station?id=605873112",
                    "web": "https://nxtb.it/p/605873112"
                },
                "short_name": "56087",
                "station_id": "605873112",
                "vehicle_types_available": [
                    {
                        "count": 1,
                        "vehicle_type_id": "349"
                    }
                ]
            },
            "type": "Feature"
        },
        {
            "geometry": {
                "coordinates": [
                    6.09827,
                    50.78393
                ],
                "type": "Point"
            },
            "properties": {
                "is_installed": true,
                "is_renting": true,
                "is_returning": true,
                "is_virtual_station": false,
                "last_reported": 1789272833,
                "name": "Carolus Thermen",
                "num_bikes_available": 8,
                "num_docks_available": 0,
                "region_id": "1250",
                "rental_uris": {
                    "android": "https://app.nextbike.net/station?id=605873203",
                    "ios": "https://app.nextbike.net/station?id=605873203",
                    "web": "https://nxtb.it/p/605873203"
                },
                "short_name": "56020",
                "station_id": "605873203",
                "vehicle_types_available": [
                    {
                        "count": 8,
                        "vehicle_type_id": "349"
                    }
                ]
            },
            "type": "Feature"
        },
        {
            "geometry": {
                "coordinates": [
                    6.108533,
                    50.774281
                ],
                "type": "Point"
            },
            "properties": {
                "capacity": 15,
                "is_installed": true,
                "is_renting": true,
                "is_returning": true,
                "is_virtual_station": false,
                "last_reported": 1789272833,
                "name": "Josefskirche",
                "num_bikes_available": 7,
                "num_docks_available": 8,
                "region_id": "1250",
                "rental_uris": {
                    "android": "https://app.nextbike.net/station?id=605873360",
                    "ios": "https://app.nextbike.net/station?id=605873360",
                    "web": "https://nxtb.it/p/605873360"
                },
                "short_name": "56056",
                "station_id": "605873360",
                "vehicle_types_available": [
                    {
                        "count": 7,
                        "vehicle_type_id": "349"
                    }
                ]
            },
            "type": "Feature"
        },
        {
            "geometry": {
                "coordinates": [
                    6.084423,
                    50.757744
                ],
                "type": "Point"
            },
            "properties": {
                "is_installed": true,
                "is_renting": true,
                "is_returning": true,
                "is_virtual_station": false,
                "last_reported": 1789272833,
                "name": "FH - Eupener Stra\u00dfe",
                "num_bikes_available": 8,
                "num_docks_available": 0,
                "region_id": "1250",
                "rental_uris": {
                    "android": "https://app.nextbike.net/station?id=605873544",
                    "ios": "https://app.nextbike.net/station?id=605873544",
                    "web": "https://nxtb.it/p/605873544"
                },
                "short_name": "56029",
                "station_id": "605873544",
                "vehicle_types_available": [
                    {
                        "count": 8,
                        "vehicle_type_id": "349"
                    }
                ]
            },
            "type": "Feature"
        },
        {
            "geometry": {
                "coordinates": [
                    6.080643,
                    50.764573
                ],
                "type": "Point"
            },
            "properties": {
                "is_installed": true,
                "is_renting": true,
                "is_returning": true,
                "is_virtual_station": false,
                "last_reported": 1789272833,
                "name": "FH Goethestra\u00dfe",
                "num_bikes_available": 6,
                "num_docks_available": 0,
                "region_id": "1250",
                "rental_uris": {
                    "android": "https://app.nextbike.net/station?id=605873644",
                    "ios": "https://app.nextbike.net/station?id=605873644",
                    "web": "https://nxtb.it/p/605873644"
                },
                "short_name": "56030",
                "station_id": "605873644",
                "vehicle_types_available": [
                    {
                        "count": 6,
                        "vehicle_type_id": "349"
                    }
                ]
            },
            "type": "Feature"
        },
        {
            "geometry": {
                "coordinates": [
                    6.07899,
                    50.758255
                ],
                "type": "Point"
            },
            "properties": {
                "capacity": 10,
                "is_installed": true,
                "is_renting": true,
                "is_returning": true,
                "is_virtual_station": false,
                "last_reported": 1789272833,
                "name": "Maria-Theresia-Allee",
                "num_bikes_available": 3,
                "num_docks_available": 7,
                "region_id": "1250",
                "rental_uris": {
                    "android": "https://app.nextbike.net/station?id=605873718",
                    "ios": "https://app.nextbike.net/station?id=605873718",
                    "web": "https://nxtb.it/p/605873718"
                },
                "short_name": "56038",
                "station_id": "605873718",
                "vehicle_types_available": [
                    {
                        "count": 3,
                        "vehicle_type_id": "349"
                    }
                ]
            },
            "type": "Feature"
        },
        {
            "geometry": {
                "coordinates": [
                    6.150419,
                    50.763965
                ],
                "type": "Point"
            },
            "properties": {
                "is_installed": true,
                "is_renting": true,
                "is_returning": true,
                "is_virtual_station": false,
                "last_reported": 1789272833,
                "name": "Neuenhofstra\u00dfe",
                "num_bikes_available": 5,
                "num_docks_available": 0,
                "region_id": "1250",
                "rental_uris": {
                    "android": "https://app.nextbike.net/station?id=605873824",
                    "ios": "https://app.nextbike.net/station?id=605873824",
                    "web": "https://nxtb.it/p/605873824"
                },
                "short_name": "56041",
                "station_id": "605873824",
                "vehicle_types_available": [
                    {
                        "count": 5,
                        "vehicle_type_id": "349"
                    }
                ]
            },
            "type": "Feature"
        },
        {
            "geometry": {
                "coordinates": [
                    6.095809,
                    50.774668
                ],
                "type": "Point"
            },
            "properties": {
                "capacity": 10,
                "is_installed": true,
                "is_renting": true,
                "is_returning": true,
                "is_virtual_station": false,
                "last_reported": 1789272833,
                "name": "Kaiserplatz",
                "num_bikes_available": 0,
                "num_docks_available": 10,
                "region_id": "1250",
                "rental_uris": {
                    "android": "https://app.nextbike.net/station?id=605873930",
                    "ios": "https://app.nextbike.net/station?id=605873930",
                    "web": "https://nxtb.it/p/605873930"
                },
                "short_name": "56057",
                "station_id": "605873930",
                "vehicle_types_available": []
            },
            "type": "Feature"
        },
        {
            "geometry": {
                "coordinates": [
                    6.082542,
                    50.775095
                ],
                "type": "Point"
            },
            "properties": {
                "capacity": 9,
                "is_installed": true,
                "is_renting": true,
                "is_returning": true,
                "is_virtual_station": false,
                "last_reported": 1789272833,
                "name": "Klosterplatz",
                "num_bikes_available": 8,
                "num_docks_available": 1,
                "region_id": "1250",
                "rental_uris": {
                    "android": "https://app.nextbike.net/station?id=605874029",
                    "ios": "https://app.nextbike.net/station?id=605874029",
                    "web": "https://nxtb.it/p/605874029"
                },
                "short_name": "56060",
                "station_id": "605874029",
                "vehicle_types_available": [
                    {
                        "count": 8,
                        "vehicle_type_id": "349"
                    }
                ]
            },
            "type": "Feature"
        },
        {
            "geometry": {
                "coordinates": [
                    6.086289,
                    50.778469
                ],
                "type": "Point"
            },
            "properties": {
                "capacity": 10,
                "is_installed": true,
                "is_renting": true,
                "is_returning": true,
                "is_virtual_station": false,
                "last_reported": 1789272833,
                "name": "Martinstra\u00dfe",
                "num_bikes_available": 4,
                "num_docks_available": 6,
                "region_id": "1250",
                "rental_uris": {
                    "android": "https://app.nextbike.net/station?id=605874107",
                    "ios": "https://app.nextbike.net/station?id=605874107",
                    "web": "https://nxtb.it/p/605874107"
                },
                "short_name": "56066",
                "station_id": "605874107",
                "vehicle_types_available": [
                    {
                        "count": 4,
                        "vehicle_type_id": "349"
                    }
                ]
            },
            "type": "Feature"
        },
        {
            "geometry": {
                "coordinates": [
                    6.080516,
                    50.772294
                ],
                "type": "Point"
            },
            "properties": {
                "capacity": 10,
                "is_installed": true,
                "is_renting": true,
                "is_returning": true,
                "is_virtual_station": false,
                "last_reported": 1789272833,
                "name": "M\u00f6rgensstra\u00dfe",
                "num_bikes_available": 3,
                "num_docks_available": 7,
                "region_id": "1250",
                "rental_uris": {
                    "android": "https://app.nextbike.net/station?id=605874243",
                    "ios": "https://app.nextbike.net/station?id=605874243",
                    "web": "https://nxtb.it/p/605874243"
                },
                "short_name": "56069",
                "station_id": "605874243",
                "vehicle_types_available": [
                    {
                        "count": 3,
                        "vehicle_type_id": "349"
                    }
                ]
            },
            "type": "Feature"
        },
        {
            "geometry": {
                "coordinates": [
                    6.073221,
                    50.770496
                ],
                "type": "Point"
            },
            "properties": {
                "capacity": 5,
                "is_installed": true,
                "is_renting": true,
                "is_returning": true,
                "is_virtual_station": false,
                "last_reported": 1789272833,
                "name": "Schanz",
                "num_bikes_available": 5,
                "num_docks_available": 0,
                "region_id": "1250",
                "rental_uris": {
                    "android": "https://app.nextbike.net/station?id=605874310",
                    "ios": "https://app.nextbike.net/station?id=605874310",
                    "web": "https://nxtb.it/p/605874310"
                },
                "short_name": "56078",
                "station_id": "605874310",
                "vehicle_types_available": [
                    {
                        "count": 5,
                        "vehicle_type_id": "349"
                    }
                ]
            },
            "type": "Feature"
        },
        {
            "geometry": {
                "coordinates": [
                    6.092386,
                    50.780577
                ],
                "type": "Point"
            },
            "properties": {
                "is_installed": true,
                "is_renting": true,
                "is_returning": true,
                "is_virtual_station": false,
                "last_reported": 1789272833,
                "name": "Eurogress",
                "num_bikes_available": 6,
                "num_docks_available": 0,
                "region_id": "1250",
                "rental_uris": {
                    "android": "https://app.nextbike.net/station?id=605874396",
                    "ios": "https://app.nextbike.net/station?id=605874396",
                    "web": "https://nxtb.it/p/605874396"
                },
                "short_name": "56080",
                "station_id": "605874396",
                "vehicle_types_available": [
                    {
                        "count": 6,
                        "vehicle_type_id": "349"
                    }
                ]
            },
            "type": "Feature"
        },
        {
            "geometry": {
                "coordinates": [
                    6.086619,
                    50.773765
                ],
                "type": "Point"
            },
            "properties": {
                "capacity": 10,
                "is_installed": true,
                "is_renting": true,
                "is_returning": true,
                "is_virtual_station": false,
                "last_reported": 1789272833,
                "name": "Elisenbrunnen",
                "num_bikes_available": 7,
                "num_docks_available": 2,
                "region_id": "1250",
                "rental_uris": {
                    "android": "https://app.nextbike.net/station?id=605874567",
                    "ios": "https://app.nextbike.net/station?id=605874567",
                    "web": "https://nxtb.it/p/605874567"
                },
                "short_name": "56082",
                "station_id": "605874567",
                "vehicle_types_available": [
                    {
                        "count": 7,
                        "vehicle_type_id": "349"
                    }
                ]
            },
            "type": "Feature"
        },
        {
            "geometry": {
                "coordinates": [
                    6.08849,
                    50.77781
                ],
                "type": "Point"
            },
            "properties": {
                "capacity": 10,
                "is_installed": true,
                "is_renting": true,
                "is_returning": true,
                "is_virtual_station": false,
                "last_reported": 1789272833,
                "name": "Komphausbadstra\u00dfe",
                "num_bikes_available": 1,
                "num_docks_available": 9,
                "region_id": "1250",
                "rental_uris": {
                    "android": "https://app.nextbike.net/station?id=605874684",
                    "ios": "https://app.nextbike.net/station?id=605874684",
                    "web": "https://nxtb.it/p/605874684"
                },
                "short_name": "56083",
                "station_id": "605874684",
                "vehicle_types_available": [
                    {
                        "count": 1,
                        "vehicle_type_id": "349"
                    }
                ]
            },
            "type": "Feature"
        },
        {
            "geometry": {
                "coordinates": [
                    6.09104,
                    50.775857
                ],
                "type": "Point"
            },
            "properties": {
                "capacity": 10,
                "is_installed": true,
                "is_renting": true,
                "is_returning": true,
                "is_virtual_station": false,
                "last_reported": 1789272833,
                "name": "Willy-Brandt-Platz",
                "num_bikes_available": 3,
                "num_docks_available": 7,
                "region_id": "1250",
                "rental_uris": {
                    "android": "https://app.nextbike.net/station?id=605874759",
                    "ios": "https://app.nextbike.net/station?id=605874759",
                    "web": "https://nxtb.it/p/605874759"
                },
                "short_name": "56108",
                "station_id": "605874759",
                "vehicle_types_available": [
                    {
                        "count": 3,
                        "vehicle_type_id": "349"
                    }
                ]
            },
            "type": "Feature"
        },
        {
            "geometry": {
                "coordinates": [
                    6.093265,
                    50.778133
                ],
                "type": "Point"
            },
            "properties": {
                "capacity": 10,
                "is_installed": true,
                "is_renting": true,
                "is_returning": true,
                "is_virtual_station": false,
                "last_reported": 1789272833,
                "name": "Hansemannplatz",
                "num_bikes_available": 6,
                "num_docks_available": 4,
                "region_id": "1250",
                "rental_uris": {
                    "android": "https://app.nextbike.net/station?id=605874838",
                    "ios": "https://app.nextbike.net/station?id=605874838",
                    "web": "https://nxtb.it/p/605874838"
                },
                "short_name": "56045",
                "station_id": "605874838",
                "vehicle_types_available": [
                    {
                        "count": 6,
                        "vehicle_type_id": "349"
                    }
                ]
            },
            "type": "Feature"
        },
        {
            "geometry": {
                "coordinates": [
                    6.075597,
                    50.781009
                ],
                "type": "Point"
            },
            "properties": {
                "capacity": 10,
                "is_installed": true,
                "is_renting": true,
                "is_returning": true,
                "is_virtual_station": false,
                "last_reported": 1789272833,
                "name": "Audimax",
                "num_bikes_available": 13,
                "num_docks_available": 0,
                "region_id": "1250",
                "rental_uris": {
                    "android": "https://app.nextbike.net/station?id=605874890",
                    "ios": "https://app.nextbike.net/station?id=605874890",
                    "web": "https://nxtb.it/p/605874890"
                },
                "short_name": "56081",
                "station_id": "605874890",
                "vehicle_types_available": [
                    {
                        "count": 13,
                        "vehicle_type_id": "349"
                    }
                ]
            },
            "type": "Feature"
        },
        {
            "geometry": {
                "coordinates": [
                    6.096709,
                    50.790718
                ],
                "type": "Point"
            },
            "properties": {
                "capacity": 10,
                "is_installed": true,
                "is_renting": true,
                "is_returning": true,
                "is_virtual_station": false,
                "last_reported": 1789272833,
                "name": "Tivoli",
                "num_bikes_available": 1,
                "num_docks_available": 9,
                "region_id": "1250",
                "rental_uris": {
                    "android": "https://app.nextbike.net/station?id=605874954",
                    "ios": "https://app.nextbike.net/station?id=605874954",
                    "web": "https://nxtb.it/p/605874954"
                },
                "short_name": "56004",
                "station_id": "605874954",
                "vehicle_types_available": [
                    {
                        "count": 1,
                        "vehicle_type_id": "349"
                    }
                ]
            },
            "type": "Feature"
        },
        {
            "geometry": {
                "coordinates": [
                    6.116488,
                    50.770433
                ],
                "type": "Point"
            },
            "properties": {
                "capacity": 10,
                "is_installed": true,
                "is_renting": true,
                "is_returning": true,
                "is_virtual_station": false,
                "last_reported": 1789272833,
                "name": "Bahnhof Rothe Erde",
                "num_bikes_available": 2,
                "num_docks_available": 8,
                "region_id": "1250",
                "rental_uris": {
                    "android": "https://app.nextbike.net/station?id=605875014",
                    "ios": "https://app.nextbike.net/station?id=605875014",
                    "web": "https://nxtb.it/p/605875014"
                },
                "short_name": "56011",
                "station_id": "605875014",
                "vehicle_types_available": [
                    {
                        "count": 2,
                        "vehicle_type_id": "349"
                    }
                ]
            },
            "type": "Feature"
        },
        {
            "geometry": {
                "coordinates": [
                    6.087653,
                    50.745949
                ],
                "type": "Point"
            },
            "properties": {
                "is_installed": true,
                "is_renting": true,
                "is_returning": true,
                "is_virtual_station": false,
                "last_reported": 1789272833,
                "name": "Diepenbenden",
                "num_bikes_available": 3,
                "num_docks_available": 0,
                "region_id": "1250",
                "rental_uris": {
                    "android": "https://app.nextbike.net/station?id=605875287",
                    "ios": "https://app.nextbike.net/station?id=605875287",
                    "web": "https://nxtb.it/p/605875287"
                },
                "short_name": "56022",
                "station_id": "605875287",
                "vehicle_types_available": [
                    {
                        "count": 3,
                        "vehicle_type_id": "349"
                    }
                ]
            },
            "type": "Feature"
        },
        {
            "geometry": {
                "coordinates": [
                    6.101009,
                    50.779557
                ],
                "type": "Point"
            },
            "properties": {
                "is_installed": true,
                "is_renting": true,
                "is_returning": true,
                "is_virtual_station": false,
                "last_reported": 1789272833,
                "name": "digitalHUB",
                "num_bikes_available": 2,
                "num_docks_available": 0,
                "region_id": "1250",
                "rental_uris": {
                    "android": "https://app.nextbike.net/station?id=605875365",
                    "ios": "https://app.nextbike.net/station?id=605875365",
                    "web": "https://nxtb.it/p/605875365"
                },
                "short_name": "56023",
                "station_id": "605875365",
                "vehicle_types_available": [
                    {
                        "count": 2,
                        "vehicle_type_id": "349"
                    }
                ]
            },
            "type": "Feature"
        },
        {
            "geometry": {
                "coordinates": [
                    6.048899,
                    50.789078
                ],
                "type": "Point"
            },
            "properties": {
                "is_installed": true,
                "is_renting": true,
                "is_returning": true,
                "is_virtual_station": false,
                "last_reported": 1789272833,
                "name": "E.ON ERC",
                "num_bikes_available": 0,
                "num_docks_available": 0,
                "region_id": "1250",
                "rental_uris": {
                    "android": "https://app.nextbike.net/station?id=605875438",
                    "ios": "https://app.nextbike.net/station?id=605875438",
                    "web": "https://nxtb.it/p/605875438"
                },
                "short_name": "56025",
                "station_id": "605875438",
                "vehicle_types_available": []
            },
            "type": "Feature"
        },
        {
            "geometry": {
                "coordinates": [
                    6.09383,
                    50.76037
                ],
                "type": "Point"
            },
            "properties": {
                "capacity": 10,
                "is_installed": true,
                "is_renting": true,
                "is_returning": true,
                "is_virtual_station": false,
                "last_reported": 1789272833,
                "name": "Burtscheid",
                "num_bikes_available": 0,
                "num_docks_available": 10,
                "region_id": "1250",
                "rental_uris": {
                    "android": "https://app.nextbike.net/station?id=605875510",
                    "ios": "https://app.nextbike.net/station?id=605875510",
                    "web": "https://nxtb.it/p/605875510"
                },
                "short_name": "56027",
                "station_id": "605875510",
                "vehicle_types_available": []
            },
            "type": "Feature"
        },
        {
            "geometry": {
                "coordinates": [
                    6.052873,
                    50.763492
                ],
                "type": "Point"
            },
            "properties": {
                "is_installed": true,
                "is_renting": true,
                "is_returning": true,
                "is_virtual_station": false,
                "last_reported": 1789272833,
                "name": "Am Friedrich",
                "num_bikes_available": 6,
                "num_docks_available": 0,
                "region_id": "1250",
                "rental_uris": {
                    "android": "https://app.nextbike.net/station?id=605875585",
                    "ios": "https://app.nextbike.net/station?id=605875585",
                    "web": "https://nxtb.it/p/605875585"
                },
                "short_name": "56035",
                "station_id": "605875585",
                "vehicle_types_available": [
                    {
                        "count": 6,
                        "vehicle_type_id": "349"
                    }
                ]
            },
            "type": "Feature"
        },
        {
            "geometry": {
                "coordinates": [
                    6.077911,
                    50.769311
                ],
                "type": "Point"
            },
            "properties": {
                "capacity": 10,
                "is_installed": true,
                "is_renting": true,
                "is_returning": true,
                "is_virtual_station": false,
                "last_reported": 1789272833,
                "name": "Hubertusplatz",
                "num_bikes_available": 7,
                "num_docks_available": 3,
                "region_id": "1250",
                "rental_uris": {
                    "android": "https://app.nextbike.net/station?id=605875658",
                    "ios": "https://app.nextbike.net/station?id=605875658",
                    "web": "https://nxtb.it/p/605875658"
                },
                "short_name": "56052",
                "station_id": "605875658",
                "vehicle_types_available": [
                    {
                        "count": 7,
                        "vehicle_type_id": "349"
                    }
                ]
            },
            "type": "Feature"
        },
        {
            "geometry": {
                "coordinates": [
                    6.093318,
                    50.76631
                ],
                "type": "Point"
            },
            "properties": {
                "is_installed": true,
                "is_renting": true,
                "is_returning": true,
                "is_virtual_station": false,
                "last_reported": 1789272833,
                "name": "ISEA J\u00e4gerstra\u00dfe",
                "num_bikes_available": 5,
                "num_docks_available": 0,
                "region_id": "1250",
                "rental_uris": {
                    "android": "https://app.nextbike.net/station?id=605875730",
                    "ios": "https://app.nextbike.net/station?id=605875730",
                    "web": "https://nxtb.it/p/605875730"
                },
                "short_name": "56054",
                "station_id": "605875730",
                "vehicle_types_available": [
                    {
                        "count": 5,
                        "vehicle_type_id": "349"
                    }
                ]
            },
            "type": "Feature"
        },
        {
            "geometry": {
                "coordinates": [
                    6.08184,
                    50.778267
                ],
                "type": "Point"
            },
            "properties": {
                "capacity": 10,
                "is_installed": true,
                "is_renting": true,
                "is_returning": true,
                "is_virtual_station": false,
                "last_reported": 1789272833,
                "name": "Pontstra\u00dfe",
                "num_bikes_available": 3,
                "num_docks_available": 3,
                "region_id": "1250",
                "rental_uris": {
                    "android": "https://app.nextbike.net/station?id=605875810",
                    "ios": "https://app.nextbike.net/station?id=605875810",
                    "web": "https://nxtb.it/p/605875810"
                },
                "short_name": "56055",
                "station_id": "605875810",
                "vehicle_types_available": [
                    {
                        "count": 3,
                        "vehicle_type_id": "349"
                    }
                ]
            },
            "type": "Feature"
        },
        {
            "geometry": {
                "coordinates": [
                    6.083935,
                    50.773541
                ],
                "type": "Point"
            },
            "properties": {
                "capacity": 10,
                "is_installed": true,
                "is_renting": true,
                "is_returning": true,
                "is_virtual_station": false,
                "last_reported": 1789272833,
                "name": "Kleinmarschierstra\u00dfe",
                "num_bikes_available": 2,
                "num_docks_available": 8,
                "region_id": "1250",
                "rental_uris": {
                    "android": "https://app.nextbike.net/station?id=605875869",
                    "ios": "https://app.nextbike.net/station?id=605875869",
                    "web": "https://nxtb.it/p/605875869"
                },
                "short_name": "56059",
                "station_id": "605875869",
                "vehicle_types_available": [
                    {
                        "count": 2,
                        "vehicle_type_id": "349"
                    }
                ]
            },
            "type": "Feature"
        },
        {
            "geometry": {
                "coordinates": [
                    6.060665,
                    50.765974
                ],
                "type": "Point"
            },
            "properties": {
                "is_installed": true,
                "is_renting": true,
                "is_returning": true,
                "is_virtual_station": false,
                "last_reported": 1789272833,
                "name": "Kronenberg",
                "num_bikes_available": 4,
                "num_docks_available": 0,
                "region_id": "1250",
                "rental_uris": {
                    "android": "https://app.nextbike.net/station?id=605875936",
                    "ios": "https://app.nextbike.net/station?id=605875936",
                    "web": "https://nxtb.it/p/605875936"
                },
                "short_name": "56062",
                "station_id": "605875936",
                "vehicle_types_available": [
                    {
                        "count": 4,
                        "vehicle_type_id": "349"
                    }
                ]
            },
            "type": "Feature"
        },
        {
            "geometry": {
                "coordinates": [
                    6.10295,
                    50.78149
                ],
                "type": "Point"
            },
            "properties": {
                "capacity": 8,
                "is_installed": true,
                "is_renting": true,
                "is_returning": true,
                "is_virtual_station": false,
                "last_reported": 1789272833,
                "name": "Nordbahnhof",
                "num_bikes_available": 5,
                "num_docks_available": 3,
                "region_id": "1250",
                "rental_uris": {
                    "android": "https://app.nextbike.net/station?id=605876020",
                    "ios": "https://app.nextbike.net/station?id=605876020",
                    "web": "https://nxtb.it/p/605876020"
                },
                "short_name": "56071",
                "station_id": "605876020",
                "vehicle_types_available": [
                    {
                        "count": 5,
                        "vehicle_type_id": "349"
                    }
                ]
            },
            "type": "Feature"
        },
        {
            "geometry": {
                "coordinates": [
                    6.067811,
                    50.77699
                ],
                "type": "Point"
            },
            "properties": {
                "capacity": 8,
                "is_installed": true,
                "is_renting": true,
                "is_returning": true,
                "is_virtual_station": false,
                "last_reported": 1789272833,
                "name": "Studentendorf",
                "num_bikes_available": 8,
                "num_docks_available": 0,
                "region_id": "1250",
                "rental_uris": {
                    "android": "https://app.nextbike.net/station?id=605876075",
                    "ios": "https://app.nextbike.net/station?id=605876075",
                    "web": "https://nxtb.it/p/605876075"
                },
                "short_name": "56090",
                "station_id": "605876075",
                "vehicle_types_available": [
                    {
                        "count": 8,
                        "vehicle_type_id": "349"
                    }
                ]
            },
            "type": "Feature"
        },
        {
            "geometry": {
                "coordinates": [
                    6.071099,
                    50.78224
                ],
                "type": "Point"
            },
            "properties": {
                "is_installed": true,
                "is_renting": true,
                "is_returning": true,
                "is_virtual_station": false,
                "last_reported": 1789272833,
                "name": "Bendplatz",
                "num_bikes_available": 2,
                "num_docks_available": 0,
                "region_id": "1250",
                "rental_uris": {
                    "android": "https://app.nextbike.net/station?id=606822872",
                    "ios": "https://app.nextbike.net/station?id=606822872",
                    "web": "https://nxtb.it/p/606822872"
                },
                "short_name": "56013",
                "station_id": "606822872",
                "vehicle_types_available": [
                    {
                        "count": 2,
                        "vehicle_type_id": "349"
                    }
                ]
            },
            "type": "Feature"
        },
        {
            "geometry": {
                "coordinates": [
                    6.158831,
                    50.753234
                ],
                "type": "Point"
            },
            "properties": {
                "is_installed": true,
                "is_renting": true,
                "is_returning": true,
                "is_virtual_station": false,
                "last_reported": 1789272833,
                "name": "Brander Bahnhof",
                "num_bikes_available": 2,
                "num_docks_available": 0,
                "region_id": "1250",
                "rental_uris": {
                    "android": "https://app.nextbike.net/station?id=606823086",
                    "ios": "https://app.nextbike.net/station?id=606823086",
                    "web": "https://nxtb.it/p/606823086"
                },
                "short_name": "56016",
                "station_id": "606823086",
                "vehicle_types_available": [
                    {
                        "count": 2,
                        "vehicle_type_id": "349"
                    }
                ]
            },
            "type": "Feature"
        },
        {
            "geometry": {
                "coordinates": [
                    6.163342,
                    50.748675
                ],
                "type": "Point"
            },
            "properties": {
                "capacity": 10,
                "is_installed": true,
                "is_renting": true,
                "is_returning": true,
                "is_virtual_station": false,
                "last_reported": 1789272833,
                "name": "Brander Markt",
                "num_bikes_available": 0,
                "num_docks_available": 10,
                "region_id": "1250",
                "rental_uris": {
                    "android": "https://app.nextbike.net/station?id=606823305",
                    "ios": "https://app.nextbike.net/station?id=606823305",
                    "web": "https://nxtb.it/p/606823305"
                },
                "short_name": "56017",
                "station_id": "606823305",
                "vehicle_types_available": []
            },
            "type": "Feature"
        },
        {
            "geometry": {
                "coordinates": [
                    6.045743,
                    50.832584
                ],
                "type": "Point"
            },
            "properties": {
                "is_installed": true,
                "is_renting": true,
                "is_returning": true,
                "is_virtual_station": false,
                "last_reported": 1789272833,
                "name": "Horbach Gut Rosenberg",
                "num_bikes_available": 10,
                "num_docks_available": 0,
                "region_id": "1250",
                "rental_uris": {
                    "android": "https://app.nextbike.net/station?id=606823448",
                    "ios": "https://app.nextbike.net/station?id=606823448",
                    "web": "https://nxtb.it/p/606823448"
                },
                "short_name": "56051",
                "station_id": "606823448",
                "vehicle_types_available": [
                    {
                        "count": 10,
                        "vehicle_type_id": "349"
                    }
                ]
            },
            "type": "Feature"
        },
        {
            "geometry": {
                "coordinates": [
                    6.08797,
                    50.768445
                ],
                "type": "Point"
            },
            "properties": {
                "capacity": 10,
                "is_installed": true,
                "is_renting": true,
                "is_returning": true,
                "is_virtual_station": false,
                "last_reported": 1789272833,
                "name": "Marschiertor",
                "num_bikes_available": 5,
                "num_docks_available": 5,
                "region_id": "1250",
                "rental_uris": {
                    "android": "https://app.nextbike.net/station?id=606823568",
                    "ios": "https://app.nextbike.net/station?id=606823568",
                    "web": "https://nxtb.it/p/606823568"
                },
                "short_name": "56085",
                "station_id": "606823568",
                "vehicle_types_available": [
                    {
                        "count": 5,
                        "vehicle_type_id": "349"
                    }
                ]
            },
            "type": "Feature"
        },
        {
            "geometry": {
                "coordinates": [
                    6.026792,
                    50.770488
                ],
                "type": "Point"
            },
            "properties": {
                "capacity": 10,
                "is_installed": true,
                "is_renting": true,
                "is_returning": true,
                "is_virtual_station": false,
                "last_reported": 1789272833,
                "name": "Vaals Grenze",
                "num_bikes_available": 3,
                "num_docks_available": 6,
                "region_id": "1250",
                "rental_uris": {
                    "android": "https://app.nextbike.net/station?id=606823682",
                    "ios": "https://app.nextbike.net/station?id=606823682",
                    "web": "https://nxtb.it/p/606823682"
                },
                "short_name": "56101",
                "station_id": "606823682",
                "vehicle_types_available": [
                    {
                        "count": 3,
                        "vehicle_type_id": "349"
                    }
                ]
            },
            "type": "Feature"
        },
        {
            "geometry": {
                "coordinates": [
                    6.070775,
                    50.772329
                ],
                "type": "Point"
            },
            "properties": {
                "is_installed": true,
                "is_renting": true,
                "is_returning": true,
                "is_virtual_station": false,
                "last_reported": 1789272833,
                "name": "Westpark",
                "num_bikes_available": 9,
                "num_docks_available": 0,
                "region_id": "1250",
                "rental_uris": {
                    "android": "https://app.nextbike.net/station?id=606823774",
                    "ios": "https://app.nextbike.net/station?id=606823774",
                    "web": "https://nxtb.it/p/606823774"
                },
                "short_name": "56107",
                "station_id": "606823774",
                "vehicle_types_available": [
                    {
                        "count": 9,
                        "vehicle_type_id": "349"
                    }
                ]
            },
            "type": "Feature"
        },
        {
            "geometry": {
                "coordinates": [
                    6.116371,
                    50.773765
                ],
                "type": "Point"
            },
            "properties": {
                "is_installed": true,
                "is_renting": true,
                "is_returning": true,
                "is_virtual_station": false,
                "last_reported": 1789272833,
                "name": "Kennedypark",
                "num_bikes_available": 0,
                "num_docks_available": 0,
                "region_id": "1250",
                "rental_uris": {
                    "android": "https://app.nextbike.net/station?id=606823955",
                    "ios": "https://app.nextbike.net/station?id=606823955",
                    "web": "https://nxtb.it/p/606823955"
                },
                "short_name": "56111",
                "station_id": "606823955",
                "vehicle_types_available": []
            },
            "type": "Feature"
        },
        {
            "geometry": {
                "coordinates": [
                    6.130126,
                    50.785075
                ],
                "type": "Point"
            },
            "properties": {
                "capacity": 10,
                "is_installed": true,
                "is_renting": true,
                "is_returning": true,
                "is_virtual_station": false,
                "last_reported": 1789272833,
                "name": "ASEAG",
                "num_bikes_available": 1,
                "num_docks_available": 9,
                "region_id": "1250",
                "rental_uris": {
                    "android": "https://app.nextbike.net/station?id=611419590",
                    "ios": "https://app.nextbike.net/station?id=611419590",
                    "web": "https://nxtb.it/p/611419590"
                },
                "short_name": "56006",
                "station_id": "611419590",
                "vehicle_types_available": [
                    {
                        "count": 1,
                        "vehicle_type_id": "349"
                    }
                ]
            },
            "type": "Feature"
        },
        {
            "geometry": {
                "coordinates": [
                    6.124627,
                    50.796282
                ],
                "type": "Point"
            },
            "properties": {
                "capacity": 5,
                "is_installed": true,
                "is_renting": true,
                "is_returning": true,
                "is_virtual_station": false,
                "last_reported": 1789272833,
                "name": "Bezirksamt Haaren",
                "num_bikes_available": 0,
                "num_docks_available": 4,
                "region_id": "1250",
                "rental_uris": {
                    "android": "https://app.nextbike.net/station?id=611431136",
                    "ios": "https://app.nextbike.net/station?id=611431136",
                    "web": "https://nxtb.it/p/611431136"
                },
                "short_name": "56015",
                "station_id": "611431136",
                "vehicle_types_available": []
            },
            "type": "Feature"
        },
        {
            "geometry": {
                "coordinates": [
                    6.163528,
                    50.775215
                ],
                "type": "Point"
            },
            "properties": {
                "capacity": 10,
                "is_installed": true,
                "is_renting": true,
                "is_returning": true,
                "is_virtual_station": false,
                "last_reported": 1789272833,
                "name": "Breitbenden/Franz-Delheid-Stra\u00dfe",
                "num_bikes_available": 5,
                "num_docks_available": 5,
                "region_id": "1250",
                "rental_uris": {
                    "android": "https://app.nextbike.net/station?id=611431266",
                    "ios": "https://app.nextbike.net/station?id=611431266",
                    "web": "https://nxtb.it/p/611431266"
                },
                "short_name": "56018",
                "station_id": "611431266",
                "vehicle_types_available": [
                    {
                        "count": 5,
                        "vehicle_type_id": "349"
                    }
                ]
            },
            "type": "Feature"
        },
        {
            "geometry": {
                "coordinates": [
                    6.143542,
                    50.75538
                ],
                "type": "Point"
            },
            "properties": {
                "capacity": 10,
                "is_installed": true,
                "is_renting": true,
                "is_returning": true,
                "is_virtual_station": false,
                "last_reported": 1789272833,
                "name": "Driescher Hof",
                "num_bikes_available": 5,
                "num_docks_available": 5,
                "region_id": "1250",
                "rental_uris": {
                    "android": "https://app.nextbike.net/station?id=611431918",
                    "ios": "https://app.nextbike.net/station?id=611431918",
                    "web": "https://nxtb.it/p/611431918"
                },
                "short_name": "56024",
                "station_id": "611431918",
                "vehicle_types_available": [
                    {
                        "count": 5,
                        "vehicle_type_id": "349"
                    }
                ]
            },
            "type": "Feature"
        },
        {
            "geometry": {
                "coordinates": [
                    6.115715,
                    50.764341
                ],
                "type": "Point"
            },
            "properties": {
                "capacity": 10,
                "is_installed": true,
                "is_renting": true,
                "is_returning": true,
                "is_virtual_station": false,
                "last_reported": 1789272833,
                "name": "Euregiozoo",
                "num_bikes_available": 3,
                "num_docks_available": 6,
                "region_id": "1250",
                "rental_uris": {
                    "android": "https://app.nextbike.net/station?id=611432224",
                    "ios": "https://app.nextbike.net/station?id=611432224",
                    "web": "https://nxtb.it/p/611432224"
                },
                "short_name": "56026",
                "station_id": "611432224",
                "vehicle_types_available": [
                    {
                        "count": 3,
                        "vehicle_type_id": "349"
                    }
                ]
            },
            "type": "Feature"
        },
        {
            "geometry": {
                "coordinates": [
                    6.10018,
                    50.793614
                ],
                "type": "Point"
            },
            "properties": {
                "capacity": 12,
                "is_installed": true,
                "is_renting": true,
                "is_returning": true,
                "is_virtual_station": false,
                "last_reported": 1789272833,
                "name": "Finanzamt",
                "num_bikes_available": 11,
                "num_docks_available": 1,
                "region_id": "1250",
                "rental_uris": {
                    "android": "https://app.nextbike.net/station?id=611432701",
                    "ios": "https://app.nextbike.net/station?id=611432701",
                    "web": "https://nxtb.it/p/611432701"
                },
                "short_name": "56031",
                "station_id": "611432701",
                "vehicle_types_available": [
                    {
                        "count": 11,
                        "vehicle_type_id": "349"
                    }
                ]
            },
            "type": "Feature"
        },
        {
            "geometry": {
                "coordinates": [
                    6.092693,
                    50.768496
                ],
                "type": "Point"
            },
            "properties": {
                "capacity": 10,
                "is_installed": true,
                "is_renting": true,
                "is_returning": true,
                "is_virtual_station": false,
                "last_reported": 1789272833,
                "name": "Hackl\u00e4nderstra\u00dfe",
                "num_bikes_available": 5,
                "num_docks_available": 5,
                "region_id": "1250",
                "rental_uris": {
                    "android": "https://app.nextbike.net/station?id=611436972",
                    "ios": "https://app.nextbike.net/station?id=611436972",
                    "web": "https://nxtb.it/p/611436972"
                },
                "short_name": "56044",
                "station_id": "611436972",
                "vehicle_types_available": [
                    {
                        "count": 5,
                        "vehicle_type_id": "349"
                    }
                ]
            },
            "type": "Feature"
        },
        {
            "geometry": {
                "coordinates": [
                    6.092675,
                    50.771452
                ],
                "type": "Point"
            },
            "properties": {
                "capacity": 10,
                "is_installed": true,
                "is_renting": true,
                "is_returning": true,
                "is_virtual_station": false,
                "last_reported": 1789272833,
                "name": "Harscampstra\u00dfe",
                "num_bikes_available": 12,
                "num_docks_available": 0,
                "region_id": "1250",
                "rental_uris": {
                    "android": "https://app.nextbike.net/station?id=611437068",
                    "ios": "https://app.nextbike.net/station?id=611437068",
                    "web": "https://nxtb.it/p/611437068"
                },
                "short_name": "56046",
                "station_id": "611437068",
                "vehicle_types_available": [
                    {
                        "count": 12,
                        "vehicle_type_id": "349"
                    }
                ]
            },
            "type": "Feature"
        },
        {
            "geometry": {
                "coordinates": [
                    6.09752,
                    50.768844
                ],
                "type": "Point"
            },
            "properties": {
                "capacity": 10,
                "is_installed": true,
                "is_renting": true,
                "is_returning": true,
                "is_virtual_station": false,
                "last_reported": 1789272833,
                "name": "Haus der St\u00e4dteregion",
                "num_bikes_available": 9,
                "num_docks_available": 0,
                "region_id": "1250",
                "rental_uris": {
                    "android": "https://app.nextbike.net/station?id=611437187",
                    "ios": "https://app.nextbike.net/station?id=611437187",
                    "web": "https://nxtb.it/p/611437187"
                },
                "short_name": "56048",
                "station_id": "611437187",
                "vehicle_types_available": [
                    {
                        "count": 9,
                        "vehicle_type_id": "349"
                    }
                ]
            },
            "type": "Feature"
        },
        {
            "geometry": {
                "coordinates": [
                    6.139833,
                    50.711788
                ],
                "type": "Point"
            },
            "properties": {
                "capacity": 10,
                "is_installed": true,
                "is_renting": true,
                "is_returning": true,
                "is_virtual_station": false,
                "last_reported": 1789272833,
                "name": "KISTERS AG Pascalstra\u00dfe 8",
                "num_bikes_available": 3,
                "num_docks_available": 7,
                "region_id": "1250",
                "rental_uris": {
                    "android": "https://app.nextbike.net/station?id=611438751",
                    "ios": "https://app.nextbike.net/station?id=611438751",
                    "web": "https://nxtb.it/p/611438751"
                },
                "short_name": "56058",
                "station_id": "611438751",
                "vehicle_types_available": [
                    {
                        "count": 3,
                        "vehicle_type_id": "349"
                    }
                ]
            },
            "type": "Feature"
        },
        {
            "geometry": {
                "coordinates": [
                    6.177942,
                    50.728777
                ],
                "type": "Point"
            },
            "properties": {
                "capacity": 12,
                "is_installed": true,
                "is_renting": true,
                "is_returning": true,
                "is_virtual_station": false,
                "last_reported": 1789272833,
                "name": "Kornelim\u00fcnster Schulberg",
                "num_bikes_available": 0,
                "num_docks_available": 12,
                "region_id": "1250",
                "rental_uris": {
                    "android": "https://app.nextbike.net/station?id=611439133",
                    "ios": "https://app.nextbike.net/station?id=611439133",
                    "web": "https://nxtb.it/p/611439133"
                },
                "short_name": "56063",
                "station_id": "611439133",
                "vehicle_types_available": []
            },
            "type": "Feature"
        },
        {
            "geometry": {
                "coordinates": [
                    6.077713,
                    50.767904
                ],
                "type": "Point"
            },
            "properties": {
                "capacity": 12,
                "is_installed": true,
                "is_renting": true,
                "is_returning": true,
                "is_virtual_station": false,
                "last_reported": 1789272833,
                "name": "Luisenhospital Aachen",
                "num_bikes_available": 6,
                "num_docks_available": 6,
                "region_id": "1250",
                "rental_uris": {
                    "android": "https://app.nextbike.net/station?id=611439273",
                    "ios": "https://app.nextbike.net/station?id=611439273",
                    "web": "https://nxtb.it/p/611439273"
                },
                "short_name": "56064",
                "station_id": "611439273",
                "vehicle_types_available": [
                    {
                        "count": 6,
                        "vehicle_type_id": "349"
                    }
                ]
            },
            "type": "Feature"
        },
        {
            "geometry": {
                "coordinates": [
                    6.047564,
                    50.740162
                ],
                "type": "Point"
            },
            "properties": {
                "capacity": 12,
                "is_installed": true,
                "is_renting": true,
                "is_returning": true,
                "is_virtual_station": false,
                "last_reported": 1789272833,
                "name": "Preuswald",
                "num_bikes_available": 6,
                "num_docks_available": 6,
                "region_id": "1250",
                "rental_uris": {
                    "android": "https://app.nextbike.net/station?id=611440577",
                    "ios": "https://app.nextbike.net/station?id=611440577",
                    "web": "https://nxtb.it/p/611440577"
                },
                "short_name": "56074",
                "station_id": "611440577",
                "vehicle_types_available": [
                    {
                        "count": 6,
                        "vehicle_type_id": "349"
                    }
                ]
            },
            "type": "Feature"
        },
        {
            "geometry": {
                "coordinates": [
                    6.06081,
                    50.811031
                ],
                "type": "Point"
            },
            "properties": {
                "capacity": 10,
                "is_installed": true,
                "is_renting": true,
                "is_returning": true,
                "is_virtual_station": false,
                "last_reported": 1789272833,
                "name": "Richterich Markt",
                "num_bikes_available": 8,
                "num_docks_available": 2,
                "region_id": "1250",
                "rental_uris": {
                    "android": "https://app.nextbike.net/station?id=611441143",
                    "ios": "https://app.nextbike.net/station?id=611441143",
                    "web": "https://nxtb.it/p/611441143"
                },
                "short_name": "56076",
                "station_id": "611441143",
                "vehicle_types_available": [
                    {
                        "count": 8,
                        "vehicle_type_id": "349"
                    }
                ]
            },
            "type": "Feature"
        },
        {
            "geometry": {
                "coordinates": [
                    6.043582,
                    50.774523
                ],
                "type": "Point"
            },
            "properties": {
                "is_installed": true,
                "is_renting": true,
                "is_returning": true,
                "is_virtual_station": false,
                "last_reported": 1789272833,
                "name": "UKA - Verwaltung",
                "num_bikes_available": 0,
                "num_docks_available": 0,
                "region_id": "1250",
                "rental_uris": {
                    "android": "https://app.nextbike.net/station?id=611443385",
                    "ios": "https://app.nextbike.net/station?id=611443385",
                    "web": "https://nxtb.it/p/611443385"
                },
                "short_name": "56097",
                "station_id": "611443385",
                "vehicle_types_available": []
            },
            "type": "Feature"
        },
        {
            "geometry": {
                "coordinates": [
                    6.155263,
                    50.796755
                ],
                "type": "Point"
            },
            "properties": {
                "capacity": 10,
                "is_installed": true,
                "is_renting": true,
                "is_returning": true,
                "is_virtual_station": false,
                "last_reported": 1789272833,
                "name": "Verlautenheide Endstra\u00dfe",
                "num_bikes_available": 2,
                "num_docks_available": 8,
                "region_id": "1250",
                "rental_uris": {
                    "android": "https://app.nextbike.net/station?id=611444067",
                    "ios": "https://app.nextbike.net/station?id=611444067",
                    "web": "https://nxtb.it/p/611444067"
                },
                "short_name": "56102",
                "station_id": "611444067",
                "vehicle_types_available": [
                    {
                        "count": 2,
                        "vehicle_type_id": "349"
                    }
                ]
            },
            "type": "Feature"
        },
        {
            "geometry": {
                "coordinates": [
                    6.050618,
                    50.786389
                ],
                "type": "Point"
            },
            "properties": {
                "capacity": 5,
                "is_installed": true,
                "is_renting": true,
                "is_returning": true,
                "is_virtual_station": false,
                "last_reported": 1789272833,
                "name": "VKA",
                "num_bikes_available": 0,
                "num_docks_available": 5,
                "region_id": "1250",
                "rental_uris": {
                    "android": "https://app.nextbike.net/station?id=611444540",
                    "ios": "https://app.nextbike.net/station?id=611444540",
                    "web": "https://nxtb.it/p/611444540"
                },
                "short_name": "56103",
                "station_id": "611444540",
                "vehicle_types_available": []
            },
            "type": "Feature"
        },
        {
            "geometry": {
                "coordinates": [
                    6.057681,
                    50.79468
                ],
                "type": "Point"
            },
            "properties": {
                "capacity": 10,
                "is_installed": true,
                "is_renting": true,
                "is_returning": true,
                "is_virtual_station": false,
                "last_reported": 1789272833,
                "name": "Viadukt Laurensberg",
                "num_bikes_available": 5,
                "num_docks_available": 4,
                "region_id": "1250",
                "rental_uris": {
                    "android": "https://app.nextbike.net/station?id=611446466",
                    "ios": "https://app.nextbike.net/station?id=611446466",
                    "web": "https://nxtb.it/p/611446466"
                },
                "short_name": "56112",
                "station_id": "611446466",
                "vehicle_types_available": [
                    {
                        "count": 5,
                        "vehicle_type_id": "349"
                    }
                ]
            },
            "type": "Feature"
        },
        {
            "geometry": {
                "coordinates": [
                    6.157633,
                    50.746887
                ],
                "type": "Point"
            },
            "properties": {
                "capacity": 5,
                "is_installed": true,
                "is_renting": true,
                "is_returning": true,
                "is_virtual_station": false,
                "last_reported": 1789272833,
                "name": "Schwimmhalle Brand",
                "num_bikes_available": 2,
                "num_docks_available": 3,
                "region_id": "1250",
                "rental_uris": {
                    "android": "https://app.nextbike.net/station?id=611446581",
                    "ios": "https://app.nextbike.net/station?id=611446581",
                    "web": "https://nxtb.it/p/611446581"
                },
                "short_name": "56113",
                "station_id": "611446581",
                "vehicle_types_available": [
                    {
                        "count": 2,
                        "vehicle_type_id": "349"
                    }
                ]
            },
            "type": "Feature"
        },
        {
            "geometry": {
                "coordinates": [
                    6.102484,
                    50.754338
                ],
                "type": "Point"
            },
            "properties": {
                "is_installed": true,
                "is_renting": true,
                "is_returning": true,
                "is_virtual_station": false,
                "last_reported": 1789272833,
                "name": "Karl-Marx-Allee 220",
                "num_bikes_available": 1,
                "num_docks_available": 0,
                "region_id": "1250",
                "rental_uris": {
                    "android": "https://app.nextbike.net/station?id=625703985",
                    "ios": "https://app.nextbike.net/station?id=625703985",
                    "web": "https://nxtb.it/p/625703985"
                },
                "short_name": "56146",
                "station_id": "625703985",
                "vehicle_types_available": [
                    {
                        "count": 1,
                        "vehicle_type_id": "349"
                    }
                ]
            },
            "type": "Feature"
        },
        {
            "geometry": {
                "coordinates": [
                    6.12093,
                    50.779381
                ],
                "type": "Point"
            },
            "properties": {
                "capacity": 5,
                "is_installed": true,
                "is_renting": true,
                "is_returning": true,
                "is_virtual_station": false,
                "last_reported": 1789272833,
                "name": "Hirsch-Center",
                "num_bikes_available": 4,
                "num_docks_available": 1,
                "region_id": "1250",
                "rental_uris": {
                    "android": "https://app.nextbike.net/station?id=631149385",
                    "ios": "https://app.nextbike.net/station?id=631149385",
                    "web": "https://nxtb.it/p/631149385"
                },
                "short_name": "56129",
                "station_id": "631149385",
                "vehicle_types_available": [
                    {
                        "count": 4,
                        "vehicle_type_id": "349"
                    }
                ]
            },
            "type": "Feature"
        },
        {
            "geometry": {
                "coordinates": [
                    6.155077,
                    50.784683
                ],
                "type": "Point"
            },
            "properties": {
                "is_installed": true,
                "is_renting": true,
                "is_returning": true,
                "is_virtual_station": false,
                "last_reported": 1789272833,
                "name": "Hansmannstra\u00dfe - Bahnhof Eilendorf",
                "num_bikes_available": 3,
                "num_docks_available": 0,
                "region_id": "1250",
                "rental_uris": {
                    "android": "https://app.nextbike.net/station?id=631165127",
                    "ios": "https://app.nextbike.net/station?id=631165127",
                    "web": "https://nxtb.it/p/631165127"
                },
                "short_name": "56147",
                "station_id": "631165127",
                "vehicle_types_available": [
                    {
                        "count": 3,
                        "vehicle_type_id": "349"
                    }
                ]
            },
            "type": "Feature"
        },
        {
            "geometry": {
                "coordinates": [
                    6.178166,
                    50.704878
                ],
                "type": "Point"
            },
            "properties": {
                "capacity": 10,
                "is_installed": true,
                "is_renting": true,
                "is_returning": true,
                "is_virtual_station": false,
                "last_reported": 1789272833,
                "name": "Jakob-B\u00fcchel-Haus",
                "num_bikes_available": 3,
                "num_docks_available": 7,
                "region_id": "1250",
                "rental_uris": {
                    "android": "https://app.nextbike.net/station?id=631168232",
                    "ios": "https://app.nextbike.net/station?id=631168232",
                    "web": "https://nxtb.it/p/631168232"
                },
                "short_name": "56130",
                "station_id": "631168232",
                "vehicle_types_available": [
                    {
                        "count": 3,
                        "vehicle_type_id": "349"
                    }
                ]
            },
            "type": "Feature"
        },
        {
            "geometry": {
                "coordinates": [
                    6.071571,
                    50.781155
                ],
                "type": "Point"
            },
            "properties": {
                "is_installed": true,
                "is_renting": true,
                "is_returning": true,
                "is_virtual_station": false,
                "last_reported": 1789272833,
                "name": "Republikplatz",
                "num_bikes_available": 2,
                "num_docks_available": 0,
                "region_id": "1250",
                "rental_uris": {
                    "android": "https://app.nextbike.net/station?id=640662493",
                    "ios": "https://app.nextbike.net/station?id=640662493",
                    "web": "https://nxtb.it/p/640662493"
                },
                "short_name": "56149",
                "station_id": "640662493",
                "vehicle_types_available": [
                    {
                        "count": 2,
                        "vehicle_type_id": "349"
                    }
                ]
            },
            "type": "Feature"
        }
    ],
    "gbfs": {
        "station_information": {
            "last_updated": 1789272833,
            "ttl": 60,
            "version": "2.3"
        },
        "station_status": {
            "last_updated": 1789272833,
            "ttl": 60,
            "version": "2.3"
        }
    },
    "type": "FeatureCollection"
}