{
    "features": [
        {
            "geometry": {
                "coordinates": [
                    14.138918,
                    46.633848
                ],
                "type": "Point"
            },
            "properties": {
                "capacity": 6,
                "is_installed": true,
                "is_renting": true,
                "is_returning": true,
                "is_virtual_station": false,
                "last_reported": 1789130964,
                "name": "Schiffsanlegestelle P\u00f6rtschach",
                "num_bikes_available": 5,
                "num_docks_available": 1,
                "region_id": "396",
                "rental_uris": {
                    "android": "https://app.nextbike.net/station?id=16053291",
                    "ios": "https://app.nextbike.net/station?id=16053291",
                    "web": "https://nxtb.it/p/16053291"
                },
                "short_name": "3633",
                "station_id": "16053291",
                "vehicle_types_available": [
                    {
                        "count": 5,
                        "vehicle_type_id": "15"
                    }
                ]
            },
            "type": "Feature"
        },
        {
            "geometry": {
                "coordinates": [
                    14.321716,
                    46.621495
                ],
                "type": "Point"
            },
            "properties": {
                "capacity": 10,
                "is_installed": true,
                "is_renting": true,
                "is_returning": true,
                "is_virtual_station": false,
                "last_reported": 1789130964,
                "name": "S-Bahn Klagenfurt/ Ost Rudolfsbahng\u00fcrtel",
                "num_bikes_available": 6,
                "num_docks_available": 4,
                "region_id": "396",
                "rental_uris": {
                    "android": "https://app.nextbike.net/station?id=16053311",
                    "ios": "https://app.nextbike.net/station?id=16053311",
                    "web": "https://nxtb.it/p/16053311"
                },
                "short_name": "3636",
                "station_id": "16053311",
                "vehicle_types_available": [
                    {
                        "count": 6,
                        "vehicle_type_id": "15"
                    }
                ]
            },
            "type": "Feature"
        },
        {
            "geometry": {
                "coordinates": [
                    14.22176,
                    46.622528
                ],
                "type": "Point"
            },
            "properties": {
                "capacity": 8,
                "is_installed": true,
                "is_renting": true,
                "is_returning": true,
                "is_virtual_station": false,
                "last_reported": 1789130964,
                "name": "Schiffsanlegestelle Krumpendorf",
                "num_bikes_available": 6,
                "num_docks_available": 2,
                "region_id": "396",
                "rental_uris": {
                    "android": "https://app.nextbike.net/station?id=16053347",
                    "ios": "https://app.nextbike.net/station?id=16053347",
                    "web": "https://nxtb.it/p/16053347"
                },
                "short_name": "3635",
                "station_id": "16053347",
                "vehicle_types_available": [
                    {
                        "count": 4,
                        "vehicle_type_id": "15"
                    },
                    {
                        "count": 2,
                        "vehicle_type_id": "150"
                    }
                ]
            },
            "type": "Feature"
        },
        {
            "geometry": {
                "coordinates": [
                    14.264461,
                    46.613433
                ],
                "type": "Point"
            },
            "properties": {
                "capacity": 15,
                "is_installed": true,
                "is_renting": true,
                "is_returning": true,
                "is_virtual_station": false,
                "last_reported": 1789130964,
                "name": "Lakeside Park",
                "num_bikes_available": 8,
                "num_docks_available": 5,
                "region_id": "396",
                "rental_uris": {
                    "android": "https://app.nextbike.net/station?id=16053367",
                    "ios": "https://app.nextbike.net/station?id=16053367",
                    "web": "https://nxtb.it/p/16053367"
                },
                "short_name": "3639",
                "station_id": "16053367",
                "vehicle_types_available": [
                    {
                        "count": 5,
                        "vehicle_type_id": "15"
                    },
                    {
                        "count": 2,
                        "vehicle_type_id": "150"
                    },
                    {
                        "count": 1,
                        "vehicle_type_id": "224"
                    }
                ]
            },
            "type": "Feature"
        },
        {
            "geometry": {
                "coordinates": [
                    14.311115,
                    46.611082
                ],
                "type": "Point"
            },
            "properties": {
                "capacity": 6,
                "is_installed": true,
                "is_renting": true,
                "is_returning": true,
                "is_virtual_station": false,
                "last_reported": 1789130964,
                "name": "NMS St. Ruprecht",
                "num_bikes_available": 5,
                "num_docks_available": 1,
                "region_id": "396",
                "rental_uris": {
                    "android": "https://app.nextbike.net/station?id=16056413",
                    "ios": "https://app.nextbike.net/station?id=16056413",
                    "web": "https://nxtb.it/p/16056413"
                },
                "short_name": "3640",
                "station_id": "16056413",
                "vehicle_types_available": [
                    {
                        "count": 3,
                        "vehicle_type_id": "15"
                    },
                    {
                        "count": 2,
                        "vehicle_type_id": "196"
                    }
                ]
            },
            "type": "Feature"
        },
        {
            "geometry": {
                "coordinates": [
                    14.043928,
                    46.612114
                ],
                "type": "Point"
            },
            "properties": {
                "capacity": 8,
                "is_installed": true,
                "is_renting": true,
                "is_returning": true,
                "is_virtual_station": false,
                "last_reported": 1789130964,
                "name": "Schiffsanlegestelle Velden",
                "num_bikes_available": 9,
                "num_docks_available": 0,
                "region_id": "396",
                "rental_uris": {
                    "android": "https://app.nextbike.net/station?id=16056540",
                    "ios": "https://app.nextbike.net/station?id=16056540",
                    "web": "https://nxtb.it/p/16056540"
                },
                "short_name": "3634",
                "station_id": "16056540",
                "vehicle_types_available": [
                    {
                        "count": 7,
                        "vehicle_type_id": "15"
                    },
                    {
                        "count": 2,
                        "vehicle_type_id": "196"
                    }
                ]
            },
            "type": "Feature"
        },
        {
            "geometry": {
                "coordinates": [
                    14.309599,
                    46.632581
                ],
                "type": "Point"
            },
            "properties": {
                "capacity": 10,
                "is_installed": true,
                "is_renting": true,
                "is_returning": true,
                "is_virtual_station": false,
                "last_reported": 1789130964,
                "name": "FH Klinikum St. Veiter Stra\u00dfe",
                "num_bikes_available": 7,
                "num_docks_available": 3,
                "region_id": "396",
                "rental_uris": {
                    "android": "https://app.nextbike.net/station?id=16056576",
                    "ios": "https://app.nextbike.net/station?id=16056576",
                    "web": "https://nxtb.it/p/16056576"
                },
                "short_name": "3641",
                "station_id": "16056576",
                "vehicle_types_available": [
                    {
                        "count": 7,
                        "vehicle_type_id": "15"
                    }
                ]
            },
            "type": "Feature"
        },
        {
            "geometry": {
                "coordinates": [
                    14.309644,
                    46.629643
                ],
                "type": "Point"
            },
            "properties": {
                "capacity": 6,
                "is_installed": true,
                "is_renting": true,
                "is_returning": true,
                "is_virtual_station": false,
                "last_reported": 1789130964,
                "name": "STW Kundencenter",
                "num_bikes_available": 1,
                "num_docks_available": 4,
                "region_id": "396",
                "rental_uris": {
                    "android": "https://app.nextbike.net/station?id=16056607",
                    "ios": "https://app.nextbike.net/station?id=16056607",
                    "web": "https://nxtb.it/p/16056607"
                },
                "short_name": "3632",
                "station_id": "16056607",
                "vehicle_types_available": [
                    {
                        "count": 1,
                        "vehicle_type_id": "15"
                    }
                ]
            },
            "type": "Feature"
        },
        {
            "geometry": {
                "coordinates": [
                    14.319496,
                    46.615411
                ],
                "type": "Point"
            },
            "properties": {
                "capacity": 8,
                "is_installed": true,
                "is_renting": true,
                "is_returning": true,
                "is_virtual_station": false,
                "last_reported": 1789130964,
                "name": "S\u00fcdpark",
                "num_bikes_available": 7,
                "num_docks_available": 1,
                "region_id": "396",
                "rental_uris": {
                    "android": "https://app.nextbike.net/station?id=16056658",
                    "ios": "https://app.nextbike.net/station?id=16056658",
                    "web": "https://nxtb.it/p/16056658"
                },
                "short_name": "3638",
                "station_id": "16056658",
                "vehicle_types_available": [
                    {
                        "count": 6,
                        "vehicle_type_id": "15"
                    },
                    {
                        "count": 1,
                        "vehicle_type_id": "150"
                    }
                ]
            },
            "type": "Feature"
        },
        {
            "geometry": {
                "coordinates": [
                    14.333603,
                    46.616903
                ],
                "type": "Point"
            },
            "properties": {
                "capacity": 9,
                "is_installed": true,
                "is_renting": true,
                "is_returning": true,
                "is_virtual_station": false,
                "last_reported": 1789130964,
                "name": "S-Bahn Ebenthal/Fischl",
                "num_bikes_available": 3,
                "num_docks_available": 6,
                "region_id": "396",
                "rental_uris": {
                    "android": "https://app.nextbike.net/station?id=19930688",
                    "ios": "https://app.nextbike.net/station?id=19930688",
                    "web": "https://nxtb.it/p/19930688"
                },
                "short_name": "3637",
                "station_id": "19930688",
                "vehicle_types_available": [
                    {
                        "count": 3,
                        "vehicle_type_id": "15"
                    }
                ]
            },
            "type": "Feature"
        },
        {
            "geometry": {
                "coordinates": [
                    14.267074,
                    46.617211
                ],
                "type": "Point"
            },
            "properties": {
                "capacity": 10,
                "is_installed": true,
                "is_renting": true,
                "is_returning": true,
                "is_virtual_station": false,
                "last_reported": 1789130964,
                "name": "Universit\u00e4t Klagenfurt",
                "num_bikes_available": 7,
                "num_docks_available": 3,
                "region_id": "396",
                "rental_uris": {
                    "android": "https://app.nextbike.net/station?id=2721901",
                    "ios": "https://app.nextbike.net/station?id=2721901",
                    "web": "https://nxtb.it/p/2721901"
                },
                "short_name": "3602",
                "station_id": "2721901",
                "vehicle_types_available": [
                    {
                        "count": 7,
                        "vehicle_type_id": "15"
                    }
                ]
            },
            "type": "Feature"
        },
        {
            "geometry": {
                "coordinates": [
                    14.267274,
                    46.622792
                ],
                "type": "Point"
            },
            "properties": {
                "capacity": 10,
                "is_installed": true,
                "is_renting": true,
                "is_returning": true,
                "is_virtual_station": false,
                "last_reported": 1789130964,
                "name": "S-Bahn Klagenfurt West",
                "num_bikes_available": 7,
                "num_docks_available": 3,
                "region_id": "396",
                "rental_uris": {
                    "android": "https://app.nextbike.net/station?id=2721910",
                    "ios": "https://app.nextbike.net/station?id=2721910",
                    "web": "https://nxtb.it/p/2721910"
                },
                "short_name": "3603",
                "station_id": "2721910",
                "vehicle_types_available": [
                    {
                        "count": 5,
                        "vehicle_type_id": "15"
                    },
                    {
                        "count": 2,
                        "vehicle_type_id": "150"
                    }
                ]
            },
            "type": "Feature"
        },
        {
            "geometry": {
                "coordinates": [
                    14.305148,
                    46.624676
                ],
                "type": "Point"
            },
            "properties": {
                "capacity": 6,
                "is_installed": true,
                "is_renting": true,
                "is_returning": true,
                "is_virtual_station": false,
                "last_reported": 1789130964,
                "name": "Heiligengeistplatz",
                "num_bikes_available": 8,
                "num_docks_available": 0,
                "region_id": "396",
                "rental_uris": {
                    "android": "https://app.nextbike.net/station?id=2721922",
                    "ios": "https://app.nextbike.net/station?id=2721922",
                    "web": "https://nxtb.it/p/2721922"
                },
                "short_name": "3604",
                "station_id": "2721922",
                "vehicle_types_available": [
                    {
                        "count": 1,
                        "vehicle_type_id": "15"
                    },
                    {
                        "count": 2,
                        "vehicle_type_id": "150"
                    },
                    {
                        "count": 5,
                        "vehicle_type_id": "196"
                    }
                ]
            },
            "type": "Feature"
        },
        {
            "geometry": {
                "coordinates": [
                    14.308257,
                    46.626433
                ],
                "type": "Point"
            },
            "properties": {
                "capacity": 9,
                "is_installed": true,
                "is_renting": true,
                "is_returning": true,
                "is_virtual_station": false,
                "last_reported": 1789130964,
                "name": "Heuplatz",
                "num_bikes_available": 5,
                "num_docks_available": 4,
                "region_id": "396",
                "rental_uris": {
                    "android": "https://app.nextbike.net/station?id=2721936",
                    "ios": "https://app.nextbike.net/station?id=2721936",
                    "web": "https://nxtb.it/p/2721936"
                },
                "short_name": "3605",
                "station_id": "2721936",
                "vehicle_types_available": [
                    {
                        "count": 2,
                        "vehicle_type_id": "15"
                    },
                    {
                        "count": 1,
                        "vehicle_type_id": "150"
                    },
                    {
                        "count": 2,
                        "vehicle_type_id": "196"
                    }
                ]
            },
            "type": "Feature"
        },
        {
            "geometry": {
                "coordinates": [
                    14.308249,
                    46.635517
                ],
                "type": "Point"
            },
            "properties": {
                "capacity": 10,
                "is_installed": true,
                "is_renting": true,
                "is_returning": true,
                "is_virtual_station": false,
                "last_reported": 1789130964,
                "name": "Klinikum Klagenfurt",
                "num_bikes_available": 9,
                "num_docks_available": 1,
                "region_id": "396",
                "rental_uris": {
                    "android": "https://app.nextbike.net/station?id=2721949",
                    "ios": "https://app.nextbike.net/station?id=2721949",
                    "web": "https://nxtb.it/p/2721949"
                },
                "short_name": "3607",
                "station_id": "2721949",
                "vehicle_types_available": [
                    {
                        "count": 5,
                        "vehicle_type_id": "15"
                    },
                    {
                        "count": 3,
                        "vehicle_type_id": "150"
                    },
                    {
                        "count": 1,
                        "vehicle_type_id": "207"
                    }
                ]
            },
            "type": "Feature"
        },
        {
            "geometry": {
                "coordinates": [
                    14.255978,
                    46.619571
                ],
                "type": "Point"
            },
            "properties": {
                "capacity": 10,
                "is_installed": true,
                "is_renting": true,
                "is_returning": true,
                "is_virtual_station": false,
                "last_reported": 1789130964,
                "name": "Strandbad Klagenfurt",
                "num_bikes_available": 6,
                "num_docks_available": 3,
                "region_id": "396",
                "rental_uris": {
                    "android": "https://app.nextbike.net/station?id=2721971",
                    "ios": "https://app.nextbike.net/station?id=2721971",
                    "web": "https://nxtb.it/p/2721971"
                },
                "short_name": "3608",
                "station_id": "2721971",
                "vehicle_types_available": [
                    {
                        "count": 6,
                        "vehicle_type_id": "15"
                    }
                ]
            },
            "type": "Feature"
        },
        {
            "geometry": {
                "coordinates": [
                    14.330101,
                    46.610464
                ],
                "type": "Point"
            },
            "properties": {
                "capacity": 6,
                "is_installed": true,
                "is_renting": true,
                "is_returning": true,
                "is_virtual_station": false,
                "last_reported": 1789130964,
                "name": "FH K\u00e4rnten Primoschgasse",
                "num_bikes_available": 2,
                "num_docks_available": 4,
                "region_id": "396",
                "rental_uris": {
                    "android": "https://app.nextbike.net/station?id=2721978",
                    "ios": "https://app.nextbike.net/station?id=2721978",
                    "web": "https://nxtb.it/p/2721978"
                },
                "short_name": "3609",
                "station_id": "2721978",
                "vehicle_types_available": [
                    {
                        "count": 1,
                        "vehicle_type_id": "15"
                    },
                    {
                        "count": 1,
                        "vehicle_type_id": "150"
                    }
                ]
            },
            "type": "Feature"
        },
        {
            "geometry": {
                "coordinates": [
                    14.313624,
                    46.616539
                ],
                "type": "Point"
            },
            "properties": {
                "capacity": 10,
                "is_installed": true,
                "is_renting": true,
                "is_returning": true,
                "is_virtual_station": false,
                "last_reported": 1789130964,
                "name": "Hauptbahnhof Klagenfurt",
                "num_bikes_available": 15,
                "num_docks_available": 0,
                "region_id": "396",
                "rental_uris": {
                    "android": "https://app.nextbike.net/station?id=2737322",
                    "ios": "https://app.nextbike.net/station?id=2737322",
                    "web": "https://nxtb.it/p/2737322"
                },
                "short_name": "3600",
                "station_id": "2737322",
                "vehicle_types_available": [
                    {
                        "count": 4,
                        "vehicle_type_id": "15"
                    },
                    {
                        "count": 3,
                        "vehicle_type_id": "150"
                    },
                    {
                        "count": 1,
                        "vehicle_type_id": "143"
                    },
                    {
                        "count": 1,
                        "vehicle_type_id": "224"
                    },
                    {
                        "count": 2,
                        "vehicle_type_id": "207"
                    },
                    {
                        "count": 4,
                        "vehicle_type_id": "196"
                    }
                ]
            },
            "type": "Feature"
        },
        {
            "geometry": {
                "coordinates": [
                    14.307061,
                    46.624195
                ],
                "type": "Point"
            },
            "properties": {
                "capacity": 10,
                "is_installed": true,
                "is_renting": true,
                "is_returning": true,
                "is_virtual_station": false,
                "last_reported": 1789130964,
                "name": "Neuer Platz",
                "num_bikes_available": 9,
                "num_docks_available": 1,
                "region_id": "396",
                "rental_uris": {
                    "android": "https://app.nextbike.net/station?id=2737323",
                    "ios": "https://app.nextbike.net/station?id=2737323",
                    "web": "https://nxtb.it/p/2737323"
                },
                "short_name": "3601",
                "station_id": "2737323",
                "vehicle_types_available": [
                    {
                        "count": 4,
                        "vehicle_type_id": "15"
                    },
                    {
                        "count": 1,
                        "vehicle_type_id": "224"
                    },
                    {
                        "count": 3,
                        "vehicle_type_id": "207"
                    },
                    {
                        "count": 1,
                        "vehicle_type_id": "196"
                    }
                ]
            },
            "type": "Feature"
        },
        {
            "geometry": {
                "coordinates": [
                    14.308044,
                    46.617295
                ],
                "type": "Point"
            },
            "properties": {
                "capacity": 8,
                "is_installed": true,
                "is_renting": true,
                "is_returning": true,
                "is_virtual_station": false,
                "last_reported": 1789130964,
                "name": "Messe Klagenfurt",
                "num_bikes_available": 5,
                "num_docks_available": 3,
                "region_id": "396",
                "rental_uris": {
                    "android": "https://app.nextbike.net/station?id=2751542",
                    "ios": "https://app.nextbike.net/station?id=2751542",
                    "web": "https://nxtb.it/p/2751542"
                },
                "short_name": "3610",
                "station_id": "2751542",
                "vehicle_types_available": [
                    {
                        "count": 4,
                        "vehicle_type_id": "15"
                    },
                    {
                        "count": 1,
                        "vehicle_type_id": "196"
                    }
                ]
            },
            "type": "Feature"
        },
        {
            "geometry": {
                "coordinates": [
                    14.311447,
                    46.621497
                ],
                "type": "Point"
            },
            "properties": {
                "capacity": 10,
                "is_installed": true,
                "is_renting": true,
                "is_returning": true,
                "is_virtual_station": false,
                "last_reported": 1789130964,
                "name": "Landesregierung Mie\u00dftalerstra\u00dfe",
                "num_bikes_available": 5,
                "num_docks_available": 5,
                "region_id": "396",
                "rental_uris": {
                    "android": "https://app.nextbike.net/station?id=3129320",
                    "ios": "https://app.nextbike.net/station?id=3129320",
                    "web": "https://nxtb.it/p/3129320"
                },
                "short_name": "3606",
                "station_id": "3129320",
                "vehicle_types_available": [
                    {
                        "count": 2,
                        "vehicle_type_id": "15"
                    },
                    {
                        "count": 3,
                        "vehicle_type_id": "196"
                    }
                ]
            },
            "type": "Feature"
        },
        {
            "geometry": {
                "coordinates": [
                    14.307048,
                    46.620811
                ],
                "type": "Point"
            },
            "properties": {
                "capacity": 10,
                "is_installed": true,
                "is_renting": true,
                "is_returning": true,
                "is_virtual_station": false,
                "last_reported": 1789130964,
                "name": "Generali at Brain@Work",
                "num_bikes_available": 5,
                "num_docks_available": 5,
                "region_id": "396",
                "rental_uris": {
                    "android": "https://app.nextbike.net/station?id=35343020",
                    "ios": "https://app.nextbike.net/station?id=35343020",
                    "web": "https://nxtb.it/p/35343020"
                },
                "short_name": "3524",
                "station_id": "35343020",
                "vehicle_types_available": [
                    {
                        "count": 3,
                        "vehicle_type_id": "15"
                    },
                    {
                        "count": 2,
                        "vehicle_type_id": "150"
                    }
                ]
            },
            "type": "Feature"
        },
        {
            "geometry": {
                "coordinates": [
                    14.293806,
                    46.613919
                ],
                "type": "Point"
            },
            "properties": {
                "capacity": 8,
                "is_installed": true,
                "is_renting": true,
                "is_returning": true,
                "is_virtual_station": false,
                "last_reported": 1789130964,
                "name": "KSW Maximilianstra\u00dfe",
                "num_bikes_available": 4,
                "num_docks_available": 4,
                "region_id": "396",
                "rental_uris": {
                    "android": "https://app.nextbike.net/station?id=35343066",
                    "ios": "https://app.nextbike.net/station?id=35343066",
                    "web": "https://nxtb.it/p/35343066"
                },
                "short_name": "3525",
                "station_id": "35343066",
                "vehicle_types_available": [
                    {
                        "count": 1,
                        "vehicle_type_id": "15"
                    },
                    {
                        "count": 2,
                        "vehicle_type_id": "150"
                    },
                    {
                        "count": 1,
                        "vehicle_type_id": "196"
                    }
                ]
            },
            "type": "Feature"
        },
        {
            "geometry": {
                "coordinates": [
                    14.305623,
                    46.623263
                ],
                "type": "Point"
            },
            "properties": {
                "capacity": 10,
                "is_installed": true,
                "is_renting": true,
                "is_returning": true,
                "is_virtual_station": false,
                "last_reported": 1789130964,
                "name": "Benediktinerplatz",
                "num_bikes_available": 8,
                "num_docks_available": 2,
                "region_id": "396",
                "rental_uris": {
                    "android": "https://app.nextbike.net/station?id=35343095",
                    "ios": "https://app.nextbike.net/station?id=35343095",
                    "web": "https://nxtb.it/p/35343095"
                },
                "short_name": "3527",
                "station_id": "35343095",
                "vehicle_types_available": [
                    {
                        "count": 6,
                        "vehicle_type_id": "15"
                    },
                    {
                        "count": 2,
                        "vehicle_type_id": "150"
                    }
                ]
            },
            "type": "Feature"
        },
        {
            "geometry": {
                "coordinates": [
                    14.29106,
                    46.608516
                ],
                "type": "Point"
            },
            "properties": {
                "capacity": 10,
                "is_installed": true,
                "is_renting": true,
                "is_returning": true,
                "is_virtual_station": false,
                "last_reported": 1789130964,
                "name": "P\u00e4dagogische Hochschule",
                "num_bikes_available": 4,
                "num_docks_available": 6,
                "region_id": "396",
                "rental_uris": {
                    "android": "https://app.nextbike.net/station?id=35343123",
                    "ios": "https://app.nextbike.net/station?id=35343123",
                    "web": "https://nxtb.it/p/35343123"
                },
                "short_name": "3625",
                "station_id": "35343123",
                "vehicle_types_available": [
                    {
                        "count": 2,
                        "vehicle_type_id": "15"
                    },
                    {
                        "count": 2,
                        "vehicle_type_id": "150"
                    }
                ]
            },
            "type": "Feature"
        },
        {
            "geometry": {
                "coordinates": [
                    14.323619,
                    46.624367
                ],
                "type": "Point"
            },
            "properties": {
                "capacity": 5,
                "is_installed": true,
                "is_renting": true,
                "is_returning": true,
                "is_virtual_station": false,
                "last_reported": 1789130964,
                "name": "SLOG & TAK Prof.-Jane\u017ei\u010d-Platz",
                "num_bikes_available": 2,
                "num_docks_available": 3,
                "region_id": "396",
                "rental_uris": {
                    "android": "https://app.nextbike.net/station?id=35343154",
                    "ios": "https://app.nextbike.net/station?id=35343154",
                    "web": "https://nxtb.it/p/35343154"
                },
                "short_name": "3529",
                "station_id": "35343154",
                "vehicle_types_available": [
                    {
                        "count": 1,
                        "vehicle_type_id": "150"
                    },
                    {
                        "count": 1,
                        "vehicle_type_id": "196"
                    }
                ]
            },
            "type": "Feature"
        },
        {
            "geometry": {
                "coordinates": [
                    14.343033,
                    46.621824
                ],
                "type": "Point"
            },
            "properties": {
                "capacity": 15,
                "is_installed": true,
                "is_renting": true,
                "is_returning": true,
                "is_virtual_station": false,
                "last_reported": 1789130964,
                "name": "hi Harbach",
                "num_bikes_available": 17,
                "num_docks_available": 2,
                "region_id": "396",
                "rental_uris": {
                    "android": "https://app.nextbike.net/station?id=36874010",
                    "ios": "https://app.nextbike.net/station?id=36874010",
                    "web": "https://nxtb.it/p/36874010"
                },
                "short_name": "3526",
                "station_id": "36874010",
                "vehicle_types_available": [
                    {
                        "count": 9,
                        "vehicle_type_id": "15"
                    },
                    {
                        "count": 4,
                        "vehicle_type_id": "150"
                    },
                    {
                        "count": 4,
                        "vehicle_type_id": "207"
                    }
                ]
            },
            "type": "Feature"
        },
        {
            "geometry": {
                "coordinates": [
                    14.293268,
                    46.64372
                ],
                "type": "Point"
            },
            "properties": {
                "capacity": 8,
                "is_installed": true,
                "is_renting": true,
                "is_returning": true,
                "is_virtual_station": false,
                "last_reported": 1789130964,
                "name": "Unsereins / Feschnigstra\u00dfe",
                "num_bikes_available": 3,
                "num_docks_available": 5,
                "region_id": "396",
                "rental_uris": {
                    "android": "https://app.nextbike.net/station?id=453960641",
                    "ios": "https://app.nextbike.net/station?id=453960641",
                    "web": "https://nxtb.it/p/453960641"
                },
                "short_name": "3643",
                "station_id": "453960641",
                "vehicle_types_available": [
                    {
                        "count": 3,
                        "vehicle_type_id": "15"
                    }
                ]
            },
            "type": "Feature"
        },
        {
            "geometry": {
                "coordinates": [
                    14.334616,
                    46.633055
                ],
                "type": "Point"
            },
            "properties": {
                "capacity": 10,
                "is_installed": true,
                "is_renting": true,
                "is_returning": true,
                "is_virtual_station": false,
                "last_reported": 1789130964,
                "name": "Welzeneggerstra\u00dfe",
                "num_bikes_available": 2,
                "num_docks_available": 7,
                "region_id": "396",
                "rental_uris": {
                    "android": "https://app.nextbike.net/station?id=5516590",
                    "ios": "https://app.nextbike.net/station?id=5516590",
                    "web": "https://nxtb.it/p/5516590"
                },
                "short_name": "3611",
                "station_id": "5516590",
                "vehicle_types_available": [
                    {
                        "count": 2,
                        "vehicle_type_id": "15"
                    }
                ]
            },
            "type": "Feature"
        },
        {
            "geometry": {
                "coordinates": [
                    14.332796,
                    46.623558
                ],
                "type": "Point"
            },
            "properties": {
                "capacity": 5,
                "is_installed": true,
                "is_renting": true,
                "is_returning": true,
                "is_virtual_station": false,
                "last_reported": 1789130964,
                "name": "LZH - Leutschacher Stra\u00dfe",
                "num_bikes_available": 3,
                "num_docks_available": 0,
                "region_id": "396",
                "rental_uris": {
                    "android": "https://app.nextbike.net/station?id=618918098",
                    "ios": "https://app.nextbike.net/station?id=618918098",
                    "web": "https://nxtb.it/p/618918098"
                },
                "short_name": "3528",
                "station_id": "618918098",
                "vehicle_types_available": [
                    {
                        "count": 3,
                        "vehicle_type_id": "15"
                    }
                ]
            },
            "type": "Feature"
        },
        {
            "geometry": {
                "coordinates": [
                    14.29559,
                    46.62804
                ],
                "type": "Point"
            },
            "properties": {
                "capacity": 6,
                "is_installed": true,
                "is_renting": true,
                "is_returning": true,
                "is_virtual_station": false,
                "last_reported": 1789130964,
                "name": "Radetzkystra\u00dfe/Maria Hilf",
                "num_bikes_available": 3,
                "num_docks_available": 3,
                "region_id": "396",
                "rental_uris": {
                    "android": "https://app.nextbike.net/station?id=65601665",
                    "ios": "https://app.nextbike.net/station?id=65601665",
                    "web": "https://nxtb.it/p/65601665"
                },
                "short_name": "3642",
                "station_id": "65601665",
                "vehicle_types_available": [
                    {
                        "count": 1,
                        "vehicle_type_id": "15"
                    },
                    {
                        "count": 1,
                        "vehicle_type_id": "150"
                    },
                    {
                        "count": 1,
                        "vehicle_type_id": "196"
                    }
                ]
            },
            "type": "Feature"
        },
        {
            "geometry": {
                "coordinates": [
                    14.2778,
                    46.6564
                ],
                "type": "Point"
            },
            "properties": {
                "capacity": 4,
                "is_installed": true,
                "is_renting": true,
                "is_returning": true,
                "is_virtual_station": false,
                "last_reported": 1789130964,
                "name": "Lendorf",
                "num_bikes_available": 4,
                "num_docks_available": 0,
                "region_id": "396",
                "rental_uris": {
                    "android": "https://app.nextbike.net/station?id=68232883",
                    "ios": "https://app.nextbike.net/station?id=68232883",
                    "web": "https://nxtb.it/p/68232883"
                },
                "short_name": "3645",
                "station_id": "68232883",
                "vehicle_types_available": [
                    {
                        "count": 1,
                        "vehicle_type_id": "15"
                    },
                    {
                        "count": 1,
                        "vehicle_type_id": "150"
                    },
                    {
                        "count": 2,
                        "vehicle_type_id": "196"
                    }
                ]
            },
            "type": "Feature"
        },
        {
            "geometry": {
                "coordinates": [
                    14.307208,
                    46.625919
                ],
                "type": "Point"
            },
            "properties": {
                "capacity": 6,
                "is_installed": true,
                "is_renting": true,
                "is_returning": true,
                "is_virtual_station": false,
                "last_reported": 1789130964,
                "name": "Pfarrplatz",
                "num_bikes_available": 4,
                "num_docks_available": 2,
                "region_id": "396",
                "rental_uris": {
                    "android": "https://app.nextbike.net/station?id=7058868",
                    "ios": "https://app.nextbike.net/station?id=7058868",
                    "web": "https://nxtb.it/p/7058868"
                },
                "short_name": "3622",
                "station_id": "7058868",
                "vehicle_types_available": [
                    {
                        "count": 3,
                        "vehicle_type_id": "15"
                    },
                    {
                        "count": 1,
                        "vehicle_type_id": "150"
                    }
                ]
            },
            "type": "Feature"
        },
        {
            "geometry": {
                "coordinates": [
                    14.315703,
                    46.619769
                ],
                "type": "Point"
            },
            "properties": {
                "capacity": 8,
                "is_installed": true,
                "is_renting": true,
                "is_returning": true,
                "is_virtual_station": false,
                "last_reported": 1789130964,
                "name": "HTL1 Lastenstra\u00dfe",
                "num_bikes_available": 3,
                "num_docks_available": 5,
                "region_id": "396",
                "rental_uris": {
                    "android": "https://app.nextbike.net/station?id=7058924",
                    "ios": "https://app.nextbike.net/station?id=7058924",
                    "web": "https://nxtb.it/p/7058924"
                },
                "short_name": "3617",
                "station_id": "7058924",
                "vehicle_types_available": [
                    {
                        "count": 3,
                        "vehicle_type_id": "15"
                    }
                ]
            },
            "type": "Feature"
        },
        {
            "geometry": {
                "coordinates": [
                    14.273311,
                    46.590326
                ],
                "type": "Point"
            },
            "properties": {
                "capacity": 5,
                "is_installed": true,
                "is_renting": true,
                "is_returning": true,
                "is_virtual_station": false,
                "last_reported": 1789130964,
                "name": "Volksschule Viktring - Schulstra\u00dfe",
                "num_bikes_available": 4,
                "num_docks_available": 1,
                "region_id": "396",
                "rental_uris": {
                    "android": "https://app.nextbike.net/station?id=7058943",
                    "ios": "https://app.nextbike.net/station?id=7058943",
                    "web": "https://nxtb.it/p/7058943"
                },
                "short_name": "3619",
                "station_id": "7058943",
                "vehicle_types_available": [
                    {
                        "count": 3,
                        "vehicle_type_id": "15"
                    },
                    {
                        "count": 1,
                        "vehicle_type_id": "196"
                    }
                ]
            },
            "type": "Feature"
        },
        {
            "geometry": {
                "coordinates": [
                    14.309069,
                    46.622304
                ],
                "type": "Point"
            },
            "properties": {
                "capacity": 5,
                "is_installed": true,
                "is_renting": true,
                "is_returning": true,
                "is_virtual_station": false,
                "last_reported": 1789130964,
                "name": "Domplatz",
                "num_bikes_available": 2,
                "num_docks_available": 3,
                "region_id": "396",
                "rental_uris": {
                    "android": "https://app.nextbike.net/station?id=7058984",
                    "ios": "https://app.nextbike.net/station?id=7058984",
                    "web": "https://nxtb.it/p/7058984"
                },
                "short_name": "3614",
                "station_id": "7058984",
                "vehicle_types_available": [
                    {
                        "count": 2,
                        "vehicle_type_id": "15"
                    }
                ]
            },
            "type": "Feature"
        },
        {
            "geometry": {
                "coordinates": [
                    14.283305,
                    46.615716
                ],
                "type": "Point"
            },
            "properties": {
                "capacity": 6,
                "is_installed": true,
                "is_renting": true,
                "is_returning": true,
                "is_virtual_station": false,
                "last_reported": 1789130964,
                "name": "Baumbachplatz",
                "num_bikes_available": 6,
                "num_docks_available": 0,
                "region_id": "396",
                "rental_uris": {
                    "android": "https://app.nextbike.net/station?id=7059008",
                    "ios": "https://app.nextbike.net/station?id=7059008",
                    "web": "https://nxtb.it/p/7059008"
                },
                "short_name": "3624",
                "station_id": "7059008",
                "vehicle_types_available": [
                    {
                        "count": 5,
                        "vehicle_type_id": "15"
                    },
                    {
                        "count": 1,
                        "vehicle_type_id": "196"
                    }
                ]
            },
            "type": "Feature"
        },
        {
            "geometry": {
                "coordinates": [
                    14.288451,
                    46.641481
                ],
                "type": "Point"
            },
            "properties": {
                "capacity": 8,
                "is_installed": true,
                "is_renting": true,
                "is_returning": true,
                "is_virtual_station": false,
                "last_reported": 1789130964,
                "name": "Schleppeplatz",
                "num_bikes_available": 2,
                "num_docks_available": 6,
                "region_id": "396",
                "rental_uris": {
                    "android": "https://app.nextbike.net/station?id=7059282",
                    "ios": "https://app.nextbike.net/station?id=7059282",
                    "web": "https://nxtb.it/p/7059282"
                },
                "short_name": "3623",
                "station_id": "7059282",
                "vehicle_types_available": [
                    {
                        "count": 2,
                        "vehicle_type_id": "15"
                    }
                ]
            },
            "type": "Feature"
        },
        {
            "geometry": {
                "coordinates": [
                    14.312117,
                    46.623896
                ],
                "type": "Point"
            },
            "properties": {
                "capacity": 8,
                "is_installed": true,
                "is_renting": true,
                "is_returning": true,
                "is_virtual_station": false,
                "last_reported": 1789130964,
                "name": "Kardinalplatz",
                "num_bikes_available": 6,
                "num_docks_available": 2,
                "region_id": "396",
                "rental_uris": {
                    "android": "https://app.nextbike.net/station?id=7059308",
                    "ios": "https://app.nextbike.net/station?id=7059308",
                    "web": "https://nxtb.it/p/7059308"
                },
                "short_name": "3630",
                "station_id": "7059308",
                "vehicle_types_available": [
                    {
                        "count": 2,
                        "vehicle_type_id": "15"
                    },
                    {
                        "count": 2,
                        "vehicle_type_id": "150"
                    },
                    {
                        "count": 2,
                        "vehicle_type_id": "196"
                    }
                ]
            },
            "type": "Feature"
        },
        {
            "geometry": {
                "coordinates": [
                    14.283111,
                    46.62045
                ],
                "type": "Point"
            },
            "properties": {
                "capacity": 6,
                "is_installed": true,
                "is_renting": true,
                "is_returning": true,
                "is_virtual_station": false,
                "last_reported": 1789130964,
                "name": "Steinerne Br\u00fccke",
                "num_bikes_available": 6,
                "num_docks_available": 0,
                "region_id": "396",
                "rental_uris": {
                    "android": "https://app.nextbike.net/station?id=7059467",
                    "ios": "https://app.nextbike.net/station?id=7059467",
                    "web": "https://nxtb.it/p/7059467"
                },
                "short_name": "3631",
                "station_id": "7059467",
                "vehicle_types_available": [
                    {
                        "count": 6,
                        "vehicle_type_id": "15"
                    }
                ]
            },
            "type": "Feature"
        },
        {
            "geometry": {
                "coordinates": [
                    14.261236,
                    46.618267
                ],
                "type": "Point"
            },
            "properties": {
                "capacity": 10,
                "is_installed": true,
                "is_renting": true,
                "is_returning": true,
                "is_virtual_station": false,
                "last_reported": 1789130964,
                "name": "Seepark Hotel",
                "num_bikes_available": 6,
                "num_docks_available": 4,
                "region_id": "396",
                "rental_uris": {
                    "android": "https://app.nextbike.net/station?id=7059507",
                    "ios": "https://app.nextbike.net/station?id=7059507",
                    "web": "https://nxtb.it/p/7059507"
                },
                "short_name": "3613",
                "station_id": "7059507",
                "vehicle_types_available": [
                    {
                        "count": 3,
                        "vehicle_type_id": "15"
                    },
                    {
                        "count": 3,
                        "vehicle_type_id": "150"
                    }
                ]
            },
            "type": "Feature"
        },
        {
            "geometry": {
                "coordinates": [
                    14.277975,
                    46.610406
                ],
                "type": "Point"
            },
            "properties": {
                "capacity": 8,
                "is_installed": true,
                "is_renting": true,
                "is_returning": true,
                "is_virtual_station": false,
                "last_reported": 1789130964,
                "name": "Sportpark Klagenfurt",
                "num_bikes_available": 2,
                "num_docks_available": 6,
                "region_id": "396",
                "rental_uris": {
                    "android": "https://app.nextbike.net/station?id=7059527",
                    "ios": "https://app.nextbike.net/station?id=7059527",
                    "web": "https://nxtb.it/p/7059527"
                },
                "short_name": "3626",
                "station_id": "7059527",
                "vehicle_types_available": [
                    {
                        "count": 1,
                        "vehicle_type_id": "15"
                    },
                    {
                        "count": 1,
                        "vehicle_type_id": "150"
                    }
                ]
            },
            "type": "Feature"
        },
        {
            "geometry": {
                "coordinates": [
                    14.251744,
                    46.615161
                ],
                "type": "Point"
            },
            "properties": {
                "capacity": 10,
                "is_installed": true,
                "is_renting": true,
                "is_returning": true,
                "is_virtual_station": false,
                "last_reported": 1789130964,
                "name": "Strandbad Loretto",
                "num_bikes_available": 6,
                "num_docks_available": 4,
                "region_id": "396",
                "rental_uris": {
                    "android": "https://app.nextbike.net/station?id=7059539",
                    "ios": "https://app.nextbike.net/station?id=7059539",
                    "web": "https://nxtb.it/p/7059539"
                },
                "short_name": "3627",
                "station_id": "7059539",
                "vehicle_types_available": [
                    {
                        "count": 6,
                        "vehicle_type_id": "15"
                    }
                ]
            },
            "type": "Feature"
        },
        {
            "geometry": {
                "coordinates": [
                    14.304069,
                    46.61854
                ],
                "type": "Point"
            },
            "properties": {
                "capacity": 6,
                "is_installed": true,
                "is_renting": true,
                "is_returning": true,
                "is_virtual_station": false,
                "last_reported": 1789130964,
                "name": "Messe Parkhaus",
                "num_bikes_available": 5,
                "num_docks_available": 1,
                "region_id": "396",
                "rental_uris": {
                    "android": "https://app.nextbike.net/station?id=7059555",
                    "ios": "https://app.nextbike.net/station?id=7059555",
                    "web": "https://nxtb.it/p/7059555"
                },
                "short_name": "3621",
                "station_id": "7059555",
                "vehicle_types_available": [
                    {
                        "count": 4,
                        "vehicle_type_id": "15"
                    },
                    {
                        "count": 1,
                        "vehicle_type_id": "196"
                    }
                ]
            },
            "type": "Feature"
        },
        {
            "geometry": {
                "coordinates": [
                    14.297519,
                    46.63935
                ],
                "type": "Point"
            },
            "properties": {
                "capacity": 8,
                "is_installed": true,
                "is_renting": true,
                "is_returning": true,
                "is_virtual_station": false,
                "last_reported": 1789130964,
                "name": "M\u00fchlgasse",
                "num_bikes_available": 2,
                "num_docks_available": 6,
                "region_id": "396",
                "rental_uris": {
                    "android": "https://app.nextbike.net/station?id=7059571",
                    "ios": "https://app.nextbike.net/station?id=7059571",
                    "web": "https://nxtb.it/p/7059571"
                },
                "short_name": "3615",
                "station_id": "7059571",
                "vehicle_types_available": [
                    {
                        "count": 2,
                        "vehicle_type_id": "15"
                    }
                ]
            },
            "type": "Feature"
        },
        {
            "geometry": {
                "coordinates": [
                    14.255431,
                    46.622743
                ],
                "type": "Point"
            },
            "properties": {
                "capacity": 8,
                "is_installed": true,
                "is_renting": true,
                "is_returning": true,
                "is_virtual_station": false,
                "last_reported": 1789130964,
                "name": "W\u00f6rthersee Schifffahrt",
                "num_bikes_available": 6,
                "num_docks_available": 2,
                "region_id": "396",
                "rental_uris": {
                    "android": "https://app.nextbike.net/station?id=7059585",
                    "ios": "https://app.nextbike.net/station?id=7059585",
                    "web": "https://nxtb.it/p/7059585"
                },
                "short_name": "3616",
                "station_id": "7059585",
                "vehicle_types_available": [
                    {
                        "count": 4,
                        "vehicle_type_id": "15"
                    },
                    {
                        "count": 2,
                        "vehicle_type_id": "150"
                    }
                ]
            },
            "type": "Feature"
        },
        {
            "geometry": {
                "coordinates": [
                    14.31057,
                    46.625816
                ],
                "type": "Point"
            },
            "properties": {
                "capacity": 5,
                "is_installed": true,
                "is_renting": true,
                "is_returning": true,
                "is_virtual_station": false,
                "last_reported": 1789130964,
                "name": "Bahnhofstra\u00dfe/ Priesterhausgasse",
                "num_bikes_available": 3,
                "num_docks_available": 2,
                "region_id": "396",
                "rental_uris": {
                    "android": "https://app.nextbike.net/station?id=7059608",
                    "ios": "https://app.nextbike.net/station?id=7059608",
                    "web": "https://nxtb.it/p/7059608"
                },
                "short_name": "3618",
                "station_id": "7059608",
                "vehicle_types_available": [
                    {
                        "count": 1,
                        "vehicle_type_id": "15"
                    },
                    {
                        "count": 2,
                        "vehicle_type_id": "150"
                    }
                ]
            },
            "type": "Feature"
        },
        {
            "geometry": {
                "coordinates": [
                    14.243914,
                    46.610797
                ],
                "type": "Point"
            },
            "properties": {
                "capacity": 6,
                "is_installed": true,
                "is_renting": true,
                "is_returning": true,
                "is_virtual_station": false,
                "last_reported": 1789130964,
                "name": "Strandbad Maiernigg",
                "num_bikes_available": 2,
                "num_docks_available": 4,
                "region_id": "396",
                "rental_uris": {
                    "android": "https://app.nextbike.net/station?id=7059630",
                    "ios": "https://app.nextbike.net/station?id=7059630",
                    "web": "https://nxtb.it/p/7059630"
                },
                "short_name": "3628",
                "station_id": "7059630",
                "vehicle_types_available": [
                    {
                        "count": 2,
                        "vehicle_type_id": "15"
                    }
                ]
            },
            "type": "Feature"
        },
        {
            "geometry": {
                "coordinates": [
                    14.314438,
                    46.650767
                ],
                "type": "Point"
            },
            "properties": {
                "capacity": 5,
                "is_installed": true,
                "is_renting": true,
                "is_returning": true,
                "is_virtual_station": false,
                "last_reported": 1789130964,
                "name": "S-Bahn Annabichl",
                "num_bikes_available": 2,
                "num_docks_available": 3,
                "region_id": "396",
                "rental_uris": {
                    "android": "https://app.nextbike.net/station?id=7062772",
                    "ios": "https://app.nextbike.net/station?id=7062772",
                    "web": "https://nxtb.it/p/7062772"
                },
                "short_name": "3620",
                "station_id": "7062772",
                "vehicle_types_available": [
                    {
                        "count": 2,
                        "vehicle_type_id": "15"
                    }
                ]
            },
            "type": "Feature"
        },
        {
            "geometry": {
                "coordinates": [
                    14.309578,
                    46.628052
                ],
                "type": "Point"
            },
            "properties": {
                "capacity": 8,
                "is_installed": true,
                "is_renting": true,
                "is_returning": true,
                "is_virtual_station": false,
                "last_reported": 1789130964,
                "name": "BKS Bank St.Veiter Ring",
                "num_bikes_available": 3,
                "num_docks_available": 5,
                "region_id": "396",
                "rental_uris": {
                    "android": "https://app.nextbike.net/station?id=7598387",
                    "ios": "https://app.nextbike.net/station?id=7598387",
                    "web": "https://nxtb.it/p/7598387"
                },
                "short_name": "3612",
                "station_id": "7598387",
                "vehicle_types_available": [
                    {
                        "count": 2,
                        "vehicle_type_id": "15"
                    },
                    {
                        "count": 1,
                        "vehicle_type_id": "150"
                    }
                ]
            },
            "type": "Feature"
        },
        {
            "geometry": {
                "coordinates": [
                    14.305603,
                    46.610369
                ],
                "type": "Point"
            },
            "properties": {
                "capacity": 8,
                "is_installed": true,
                "is_renting": true,
                "is_returning": true,
                "is_virtual_station": false,
                "last_reported": 1789130964,
                "name": "HTL M\u00f6ssingerstra\u00dfe",
                "num_bikes_available": 3,
                "num_docks_available": 5,
                "region_id": "396",
                "rental_uris": {
                    "android": "https://app.nextbike.net/station?id=7678731",
                    "ios": "https://app.nextbike.net/station?id=7678731",
                    "web": "https://nxtb.it/p/7678731"
                },
                "short_name": "3629",
                "station_id": "7678731",
                "vehicle_types_available": [
                    {
                        "count": 3,
                        "vehicle_type_id": "15"
                    }
                ]
            },
            "type": "Feature"
        }
    ],
    "gbfs": {
        "station_information": {
            "last_updated": 1789130964,
            "ttl": 60,
            "version": "2.3"
        },
        "station_status": {
            "last_updated": 1789130964,
            "ttl": 60,
            "version": "2.3"
        }
    },
    "type": "FeatureCollection"
}