{
    "features": [
        {
            "geometry": {
                "coordinates": [
                    15.634442,
                    50.356567
                ],
                "type": "Point"
            },
            "properties": {
                "is_installed": true,
                "is_renting": true,
                "is_returning": true,
                "is_virtual_station": false,
                "last_reported": 1789254770,
                "name": "N\u00e1dra\u017e\u00ed \u010cD",
                "num_bikes_available": 4,
                "num_docks_available": 0,
                "region_id": "888",
                "rental_uris": {
                    "android": "https://app.nextbike.net/station?id=178976218",
                    "ios": "https://app.nextbike.net/station?id=178976218",
                    "web": "https://nxtb.it/p/178976218"
                },
                "short_name": "49367",
                "station_id": "178976218",
                "vehicle_types_available": [
                    {
                        "count": 4,
                        "vehicle_type_id": "333"
                    }
                ]
            },
            "type": "Feature"
        },
        {
            "geometry": {
                "coordinates": [
                    15.632329,
                    50.361289
                ],
                "type": "Point"
            },
            "properties": {
                "is_installed": true,
                "is_renting": true,
                "is_returning": true,
                "is_virtual_station": false,
                "last_reported": 1789254770,
                "name": "U Husa",
                "num_bikes_available": 0,
                "num_docks_available": 0,
                "region_id": "888",
                "rental_uris": {
                    "android": "https://app.nextbike.net/station?id=178977013",
                    "ios": "https://app.nextbike.net/station?id=178977013",
                    "web": "https://nxtb.it/p/178977013"
                },
                "short_name": "49368",
                "station_id": "178977013",
                "vehicle_types_available": []
            },
            "type": "Feature"
        },
        {
            "geometry": {
                "coordinates": [
                    15.62893,
                    50.36601
                ],
                "type": "Point"
            },
            "properties": {
                "is_installed": true,
                "is_renting": true,
                "is_returning": true,
                "is_virtual_station": false,
                "last_reported": 1789254770,
                "name": "Autobusov\u00e9 n\u00e1dra\u017e\u00ed",
                "num_bikes_available": 6,
                "num_docks_available": 0,
                "region_id": "888",
                "rental_uris": {
                    "android": "https://app.nextbike.net/station?id=178977936",
                    "ios": "https://app.nextbike.net/station?id=178977936",
                    "web": "https://nxtb.it/p/178977936"
                },
                "short_name": "49369",
                "station_id": "178977936",
                "vehicle_types_available": [
                    {
                        "count": 6,
                        "vehicle_type_id": "333"
                    }
                ]
            },
            "type": "Feature"
        },
        {
            "geometry": {
                "coordinates": [
                    15.63254,
                    50.36773
                ],
                "type": "Point"
            },
            "properties": {
                "is_installed": true,
                "is_renting": true,
                "is_returning": true,
                "is_virtual_station": false,
                "last_reported": 1789254770,
                "name": "N\u00e1m\u011bst\u00ed Ji\u0159\u00edho z Pod\u011bbrad",
                "num_bikes_available": 1,
                "num_docks_available": 0,
                "region_id": "888",
                "rental_uris": {
                    "android": "https://app.nextbike.net/station?id=178978207",
                    "ios": "https://app.nextbike.net/station?id=178978207",
                    "web": "https://nxtb.it/p/178978207"
                },
                "short_name": "49370",
                "station_id": "178978207",
                "vehicle_types_available": [
                    {
                        "count": 1,
                        "vehicle_type_id": "333"
                    }
                ]
            },
            "type": "Feature"
        },
        {
            "geometry": {
                "coordinates": [
                    15.63289,
                    50.37095
                ],
                "type": "Point"
            },
            "properties": {
                "is_installed": true,
                "is_renting": true,
                "is_returning": true,
                "is_virtual_station": false,
                "last_reported": 1789254770,
                "name": "D\u011btsk\u00e9 h\u0159i\u0161t\u011b Tov\u00e1rn\u00ed",
                "num_bikes_available": 0,
                "num_docks_available": 0,
                "region_id": "888",
                "rental_uris": {
                    "android": "https://app.nextbike.net/station?id=382910827",
                    "ios": "https://app.nextbike.net/station?id=382910827",
                    "web": "https://nxtb.it/p/382910827"
                },
                "short_name": "49374",
                "station_id": "382910827",
                "vehicle_types_available": []
            },
            "type": "Feature"
        },
        {
            "geometry": {
                "coordinates": [
                    15.64052,
                    50.36701
                ],
                "type": "Point"
            },
            "properties": {
                "is_installed": true,
                "is_renting": true,
                "is_returning": true,
                "is_virtual_station": false,
                "last_reported": 1789254770,
                "name": "Sokolovna",
                "num_bikes_available": 7,
                "num_docks_available": 0,
                "region_id": "888",
                "rental_uris": {
                    "android": "https://app.nextbike.net/station?id=382916405",
                    "ios": "https://app.nextbike.net/station?id=382916405",
                    "web": "https://nxtb.it/p/382916405"
                },
                "short_name": "49375",
                "station_id": "382916405",
                "vehicle_types_available": [
                    {
                        "count": 7,
                        "vehicle_type_id": "333"
                    }
                ]
            },
            "type": "Feature"
        },
        {
            "geometry": {
                "coordinates": [
                    15.64227,
                    50.36881
                ],
                "type": "Point"
            },
            "properties": {
                "is_installed": true,
                "is_renting": true,
                "is_returning": true,
                "is_virtual_station": false,
                "last_reported": 1789254770,
                "name": "Riegrova - COOP",
                "num_bikes_available": 2,
                "num_docks_available": 0,
                "region_id": "888",
                "rental_uris": {
                    "android": "https://app.nextbike.net/station?id=382920684",
                    "ios": "https://app.nextbike.net/station?id=382920684",
                    "web": "https://nxtb.it/p/382920684"
                },
                "short_name": "49377",
                "station_id": "382920684",
                "vehicle_types_available": [
                    {
                        "count": 2,
                        "vehicle_type_id": "333"
                    }
                ]
            },
            "type": "Feature"
        },
        {
            "geometry": {
                "coordinates": [
                    15.64104,
                    50.36113
                ],
                "type": "Point"
            },
            "properties": {
                "is_installed": true,
                "is_renting": true,
                "is_returning": true,
                "is_virtual_station": false,
                "last_reported": 1789254770,
                "name": "\u017di\u017ekova - Hru\u0161ka",
                "num_bikes_available": 1,
                "num_docks_available": 0,
                "region_id": "888",
                "rental_uris": {
                    "android": "https://app.nextbike.net/station?id=475984773",
                    "ios": "https://app.nextbike.net/station?id=475984773",
                    "web": "https://nxtb.it/p/475984773"
                },
                "short_name": "49620",
                "station_id": "475984773",
                "vehicle_types_available": [
                    {
                        "count": 1,
                        "vehicle_type_id": "333"
                    }
                ]
            },
            "type": "Feature"
        },
        {
            "geometry": {
                "coordinates": [
                    15.63141,
                    50.36374
                ],
                "type": "Point"
            },
            "properties": {
                "is_installed": true,
                "is_renting": true,
                "is_returning": true,
                "is_virtual_station": false,
                "last_reported": 1789254770,
                "name": "Ho\u0159ice - Biograf Na \u0160pici",
                "num_bikes_available": 0,
                "num_docks_available": 0,
                "region_id": "888",
                "rental_uris": {
                    "android": "https://app.nextbike.net/station?id=517307114",
                    "ios": "https://app.nextbike.net/station?id=517307114",
                    "web": "https://nxtb.it/p/517307114"
                },
                "short_name": "49626",
                "station_id": "517307114",
                "vehicle_types_available": []
            },
            "type": "Feature"
        }
    ],
    "gbfs": {
        "station_information": {
            "last_updated": 1789254770,
            "ttl": 60,
            "version": "2.3"
        },
        "station_status": {
            "last_updated": 1789254770,
            "ttl": 60,
            "version": "2.3"
        }
    },
    "type": "FeatureCollection"
}