{
    "features": [
        {
            "geometry": {
                "coordinates": [
                    4.80519,
                    43.94903
                ],
                "type": "Point"
            },
            "properties": {
                "capacity": 30,
                "is_charging_station": true,
                "is_installed": true,
                "is_renting": true,
                "is_returning": true,
                "is_valet_station": false,
                "is_virtual_station": false,
                "last_reported": 1789249715,
                "name": "H\u00f4tel de Ville",
                "num_bikes_available": 0,
                "num_docks_available": 28,
                "rental_uris": {
                    "android": "todo://app?sid=cpbfggsqessegmi81c1g",
                    "ios": "todo://app?sid=cpbfggsqessegmi81c1g"
                },
                "station_id": "cpbfggsqessegmi81c1g",
                "vehicle_type_capacity": {
                    "1": 28,
                    "10": 0,
                    "14": 0,
                    "15": 0,
                    "2": 28,
                    "4": 28,
                    "5": 0,
                    "6": 0,
                    "7": 28
                },
                "vehicle_types_available": [
                    {
                        "count": 0,
                        "vehicle_type_id": "1"
                    },
                    {
                        "count": 0,
                        "vehicle_type_id": "2"
                    },
                    {
                        "count": 0,
                        "vehicle_type_id": "4"
                    },
                    {
                        "count": 0,
                        "vehicle_type_id": "7"
                    }
                ]
            },
            "type": "Feature"
        },
        {
            "geometry": {
                "coordinates": [
                    4.80964,
                    43.94869
                ],
                "type": "Point"
            },
            "properties": {
                "capacity": 30,
                "is_charging_station": true,
                "is_installed": true,
                "is_renting": true,
                "is_returning": true,
                "is_valet_station": false,
                "is_virtual_station": false,
                "last_reported": 1789249715,
                "name": "Place Pie",
                "num_bikes_available": 1,
                "num_docks_available": 20,
                "rental_uris": {
                    "android": "todo://app?sid=cpbfggsqessegmi81c3g",
                    "ios": "todo://app?sid=cpbfggsqessegmi81c3g"
                },
                "station_id": "cpbfggsqessegmi81c3g",
                "vehicle_type_capacity": {
                    "1": 28,
                    "10": 0,
                    "14": 0,
                    "15": 0,
                    "2": 28,
                    "4": 28,
                    "5": 0,
                    "6": 0,
                    "7": 28
                },
                "vehicle_types_available": [
                    {
                        "count": 0,
                        "vehicle_type_id": "7"
                    },
                    {
                        "count": 0,
                        "vehicle_type_id": "1"
                    },
                    {
                        "count": 1,
                        "vehicle_type_id": "4"
                    },
                    {
                        "count": 0,
                        "vehicle_type_id": "2"
                    }
                ]
            },
            "type": "Feature"
        },
        {
            "geometry": {
                "coordinates": [
                    4.81424,
                    43.95083
                ],
                "type": "Point"
            },
            "properties": {
                "capacity": 30,
                "is_charging_station": true,
                "is_installed": true,
                "is_renting": true,
                "is_returning": true,
                "is_valet_station": false,
                "is_virtual_station": false,
                "last_reported": 1789249715,
                "name": "Carmes",
                "num_bikes_available": 1,
                "num_docks_available": 29,
                "rental_uris": {
                    "android": "todo://app?sid=cpbfggsqessegmi81c60",
                    "ios": "todo://app?sid=cpbfggsqessegmi81c60"
                },
                "station_id": "cpbfggsqessegmi81c60",
                "vehicle_type_capacity": {
                    "1": 29,
                    "10": 0,
                    "14": 0,
                    "15": 0,
                    "2": 29,
                    "4": 29,
                    "5": 0,
                    "6": 0,
                    "7": 29
                },
                "vehicle_types_available": [
                    {
                        "count": 0,
                        "vehicle_type_id": "7"
                    },
                    {
                        "count": 0,
                        "vehicle_type_id": "1"
                    },
                    {
                        "count": 0,
                        "vehicle_type_id": "2"
                    },
                    {
                        "count": 1,
                        "vehicle_type_id": "4"
                    }
                ]
            },
            "type": "Feature"
        },
        {
            "geometry": {
                "coordinates": [
                    4.81943,
                    43.95089
                ],
                "type": "Point"
            },
            "properties": {
                "capacity": 30,
                "is_charging_station": true,
                "is_installed": true,
                "is_renting": true,
                "is_returning": true,
                "is_valet_station": false,
                "is_virtual_station": false,
                "last_reported": 1789249715,
                "name": "Saint Lazare",
                "num_bikes_available": 4,
                "num_docks_available": 23,
                "rental_uris": {
                    "android": "todo://app?sid=cpbfggsqessegmi81c8g",
                    "ios": "todo://app?sid=cpbfggsqessegmi81c8g"
                },
                "station_id": "cpbfggsqessegmi81c8g",
                "vehicle_type_capacity": {
                    "1": 29,
                    "10": 0,
                    "14": 0,
                    "15": 0,
                    "2": 29,
                    "4": 29,
                    "5": 0,
                    "6": 0,
                    "7": 29
                },
                "vehicle_types_available": [
                    {
                        "count": 0,
                        "vehicle_type_id": "2"
                    },
                    {
                        "count": 4,
                        "vehicle_type_id": "4"
                    },
                    {
                        "count": 0,
                        "vehicle_type_id": "7"
                    },
                    {
                        "count": 0,
                        "vehicle_type_id": "1"
                    }
                ]
            },
            "type": "Feature"
        },
        {
            "geometry": {
                "coordinates": [
                    4.81753,
                    43.9465
                ],
                "type": "Point"
            },
            "properties": {
                "capacity": 20,
                "is_charging_station": true,
                "is_installed": true,
                "is_renting": true,
                "is_returning": true,
                "is_valet_station": false,
                "is_virtual_station": false,
                "last_reported": 1789249715,
                "name": "Thiers",
                "num_bikes_available": 3,
                "num_docks_available": 17,
                "rental_uris": {
                    "android": "todo://app?sid=cpbfggsqessegmi81cag",
                    "ios": "todo://app?sid=cpbfggsqessegmi81cag"
                },
                "station_id": "cpbfggsqessegmi81cag",
                "vehicle_type_capacity": {
                    "1": 17,
                    "10": 0,
                    "14": 0,
                    "15": 0,
                    "2": 17,
                    "4": 17,
                    "5": 0,
                    "6": 0,
                    "7": 17
                },
                "vehicle_types_available": [
                    {
                        "count": 0,
                        "vehicle_type_id": "7"
                    },
                    {
                        "count": 0,
                        "vehicle_type_id": "1"
                    },
                    {
                        "count": 3,
                        "vehicle_type_id": "4"
                    },
                    {
                        "count": 0,
                        "vehicle_type_id": "2"
                    }
                ]
            },
            "type": "Feature"
        },
        {
            "geometry": {
                "coordinates": [
                    4.81479,
                    43.94388
                ],
                "type": "Point"
            },
            "properties": {
                "capacity": 30,
                "is_charging_station": true,
                "is_installed": true,
                "is_renting": true,
                "is_returning": true,
                "is_valet_station": false,
                "is_virtual_station": false,
                "last_reported": 1789249715,
                "name": "Limbert",
                "num_bikes_available": 0,
                "num_docks_available": 28,
                "rental_uris": {
                    "android": "todo://app?sid=cpbfggsqessegmi81ccg",
                    "ios": "todo://app?sid=cpbfggsqessegmi81ccg"
                },
                "station_id": "cpbfggsqessegmi81ccg",
                "vehicle_type_capacity": {
                    "1": 29,
                    "10": 0,
                    "14": 0,
                    "15": 0,
                    "2": 29,
                    "4": 29,
                    "5": 0,
                    "6": 0,
                    "7": 29
                },
                "vehicle_types_available": [
                    {
                        "count": 0,
                        "vehicle_type_id": "2"
                    },
                    {
                        "count": 0,
                        "vehicle_type_id": "4"
                    },
                    {
                        "count": 0,
                        "vehicle_type_id": "7"
                    },
                    {
                        "count": 0,
                        "vehicle_type_id": "1"
                    }
                ]
            },
            "type": "Feature"
        },
        {
            "geometry": {
                "coordinates": [
                    4.80011,
                    43.94333
                ],
                "type": "Point"
            },
            "properties": {
                "capacity": 20,
                "is_charging_station": true,
                "is_installed": true,
                "is_renting": true,
                "is_returning": true,
                "is_valet_station": false,
                "is_virtual_station": false,
                "last_reported": 1789249715,
                "name": "Saint Roch",
                "num_bikes_available": 3,
                "num_docks_available": 15,
                "rental_uris": {
                    "android": "todo://app?sid=cpbfgh40a5bcngo02s80",
                    "ios": "todo://app?sid=cpbfgh40a5bcngo02s80"
                },
                "station_id": "cpbfgh40a5bcngo02s80",
                "vehicle_type_capacity": {
                    "1": 15,
                    "10": 0,
                    "14": 0,
                    "15": 0,
                    "2": 15,
                    "4": 15,
                    "5": 0,
                    "6": 0,
                    "7": 15
                },
                "vehicle_types_available": [
                    {
                        "count": 0,
                        "vehicle_type_id": "1"
                    },
                    {
                        "count": 0,
                        "vehicle_type_id": "7"
                    },
                    {
                        "count": 0,
                        "vehicle_type_id": "2"
                    },
                    {
                        "count": 3,
                        "vehicle_type_id": "4"
                    }
                ]
            },
            "type": "Feature"
        },
        {
            "geometry": {
                "coordinates": [
                    4.80215,
                    43.95005
                ],
                "type": "Point"
            },
            "properties": {
                "capacity": 20,
                "is_charging_station": true,
                "is_installed": true,
                "is_renting": true,
                "is_returning": true,
                "is_valet_station": false,
                "is_virtual_station": false,
                "last_reported": 1789249715,
                "name": "Oulle",
                "num_bikes_available": 0,
                "num_docks_available": 19,
                "rental_uris": {
                    "android": "todo://app?sid=cpbfgh40a5bcngo02sa0",
                    "ios": "todo://app?sid=cpbfgh40a5bcngo02sa0"
                },
                "station_id": "cpbfgh40a5bcngo02sa0",
                "vehicle_type_capacity": {
                    "1": 19,
                    "10": 0,
                    "14": 0,
                    "15": 0,
                    "2": 19,
                    "4": 19,
                    "5": 0,
                    "6": 0,
                    "7": 19
                },
                "vehicle_types_available": [
                    {
                        "count": 0,
                        "vehicle_type_id": "2"
                    },
                    {
                        "count": 0,
                        "vehicle_type_id": "4"
                    },
                    {
                        "count": 0,
                        "vehicle_type_id": "7"
                    },
                    {
                        "count": 0,
                        "vehicle_type_id": "1"
                    }
                ]
            },
            "type": "Feature"
        },
        {
            "geometry": {
                "coordinates": [
                    4.80006,
                    43.96318
                ],
                "type": "Point"
            },
            "properties": {
                "capacity": 30,
                "is_charging_station": true,
                "is_installed": true,
                "is_renting": true,
                "is_returning": true,
                "is_valet_station": false,
                "is_virtual_station": false,
                "last_reported": 1789249715,
                "name": "Office de tourisme",
                "num_bikes_available": 7,
                "num_docks_available": 22,
                "rental_uris": {
                    "android": "todo://app?sid=cpbfgh40a5bcngo02sc0",
                    "ios": "todo://app?sid=cpbfgh40a5bcngo02sc0"
                },
                "station_id": "cpbfgh40a5bcngo02sc0",
                "vehicle_type_capacity": {
                    "1": 28,
                    "10": 0,
                    "14": 0,
                    "15": 0,
                    "2": 28,
                    "4": 28,
                    "5": 0,
                    "6": 0,
                    "7": 28
                },
                "vehicle_types_available": [
                    {
                        "count": 0,
                        "vehicle_type_id": "7"
                    },
                    {
                        "count": 0,
                        "vehicle_type_id": "1"
                    },
                    {
                        "count": 0,
                        "vehicle_type_id": "2"
                    },
                    {
                        "count": 0,
                        "vehicle_type_id": "10"
                    },
                    {
                        "count": 7,
                        "vehicle_type_id": "4"
                    }
                ]
            },
            "type": "Feature"
        },
        {
            "geometry": {
                "coordinates": [
                    4.805933,
                    43.94232
                ],
                "type": "Point"
            },
            "properties": {
                "capacity": 30,
                "is_charging_station": true,
                "is_installed": true,
                "is_renting": true,
                "is_returning": true,
                "is_valet_station": false,
                "is_virtual_station": false,
                "last_reported": 1789249715,
                "name": "Gare centre",
                "num_bikes_available": 0,
                "num_docks_available": 29,
                "rental_uris": {
                    "android": "todo://app?sid=cpbfgh4qessegmi81ceg",
                    "ios": "todo://app?sid=cpbfgh4qessegmi81ceg"
                },
                "station_id": "cpbfgh4qessegmi81ceg",
                "vehicle_type_capacity": {
                    "1": 30,
                    "10": 0,
                    "14": 0,
                    "15": 0,
                    "2": 30,
                    "4": 30,
                    "5": 0,
                    "6": 0,
                    "7": 30
                },
                "vehicle_types_available": [
                    {
                        "count": 0,
                        "vehicle_type_id": "4"
                    },
                    {
                        "count": 0,
                        "vehicle_type_id": "7"
                    },
                    {
                        "count": 0,
                        "vehicle_type_id": "1"
                    },
                    {
                        "count": 0,
                        "vehicle_type_id": "2"
                    }
                ]
            },
            "type": "Feature"
        },
        {
            "geometry": {
                "coordinates": [
                    4.79352,
                    43.9509
                ],
                "type": "Point"
            },
            "properties": {
                "capacity": 15,
                "is_charging_station": true,
                "is_installed": true,
                "is_renting": true,
                "is_returning": true,
                "is_valet_station": false,
                "is_virtual_station": false,
                "last_reported": 1789249715,
                "name": "Parking Piot",
                "num_bikes_available": 0,
                "num_docks_available": 15,
                "rental_uris": {
                    "android": "todo://app?sid=cpbfgh4qessegmi81ci0",
                    "ios": "todo://app?sid=cpbfgh4qessegmi81ci0"
                },
                "station_id": "cpbfgh4qessegmi81ci0",
                "vehicle_type_capacity": {
                    "1": 15,
                    "10": 0,
                    "14": 0,
                    "15": 0,
                    "2": 15,
                    "4": 15,
                    "5": 0,
                    "6": 0,
                    "7": 15
                },
                "vehicle_types_available": [
                    {
                        "count": 0,
                        "vehicle_type_id": "7"
                    },
                    {
                        "count": 0,
                        "vehicle_type_id": "10"
                    },
                    {
                        "count": 0,
                        "vehicle_type_id": "4"
                    },
                    {
                        "count": 0,
                        "vehicle_type_id": "1"
                    },
                    {
                        "count": 0,
                        "vehicle_type_id": "2"
                    }
                ]
            },
            "type": "Feature"
        },
        {
            "geometry": {
                "coordinates": [
                    4.79653,
                    43.958
                ],
                "type": "Point"
            },
            "properties": {
                "capacity": 10,
                "is_charging_station": true,
                "is_installed": true,
                "is_renting": true,
                "is_returning": true,
                "is_valet_station": false,
                "is_virtual_station": false,
                "last_reported": 1789249715,
                "name": "Tour le Bel",
                "num_bikes_available": 2,
                "num_docks_available": 8,
                "rental_uris": {
                    "android": "todo://app?sid=cpbfgh4qessegmi81cr0",
                    "ios": "todo://app?sid=cpbfgh4qessegmi81cr0"
                },
                "station_id": "cpbfgh4qessegmi81cr0",
                "vehicle_type_capacity": {
                    "1": 8,
                    "10": 0,
                    "14": 0,
                    "15": 0,
                    "2": 8,
                    "4": 8,
                    "5": 0,
                    "6": 0,
                    "7": 8
                },
                "vehicle_types_available": [
                    {
                        "count": 0,
                        "vehicle_type_id": "2"
                    },
                    {
                        "count": 2,
                        "vehicle_type_id": "4"
                    },
                    {
                        "count": 0,
                        "vehicle_type_id": "1"
                    },
                    {
                        "count": 0,
                        "vehicle_type_id": "7"
                    }
                ]
            },
            "type": "Feature"
        },
        {
            "geometry": {
                "coordinates": [
                    4.805093,
                    43.937363
                ],
                "type": "Point"
            },
            "properties": {
                "capacity": 10,
                "is_charging_station": true,
                "is_installed": true,
                "is_renting": true,
                "is_returning": true,
                "is_valet_station": false,
                "is_virtual_station": false,
                "last_reported": 1789249715,
                "name": "Monod",
                "num_bikes_available": 1,
                "num_docks_available": 9,
                "rental_uris": {
                    "android": "todo://app?sid=cpbfghcqessegmi81d0g",
                    "ios": "todo://app?sid=cpbfghcqessegmi81d0g"
                },
                "station_id": "cpbfghcqessegmi81d0g",
                "vehicle_type_capacity": {
                    "1": 9,
                    "10": 0,
                    "14": 0,
                    "15": 0,
                    "2": 9,
                    "4": 9,
                    "5": 0,
                    "6": 0,
                    "7": 9
                },
                "vehicle_types_available": [
                    {
                        "count": 0,
                        "vehicle_type_id": "7"
                    },
                    {
                        "count": 0,
                        "vehicle_type_id": "1"
                    },
                    {
                        "count": 1,
                        "vehicle_type_id": "4"
                    },
                    {
                        "count": 0,
                        "vehicle_type_id": "2"
                    }
                ]
            },
            "type": "Feature"
        },
        {
            "geometry": {
                "coordinates": [
                    4.81049,
                    43.93607
                ],
                "type": "Point"
            },
            "properties": {
                "capacity": 20,
                "is_charging_station": true,
                "is_installed": true,
                "is_renting": true,
                "is_returning": true,
                "is_valet_station": false,
                "is_virtual_station": false,
                "last_reported": 1789249715,
                "name": "Place Saint Ruf",
                "num_bikes_available": 0,
                "num_docks_available": 18,
                "rental_uris": {
                    "android": "todo://app?sid=cpbfghs0a5bcngo02ssg",
                    "ios": "todo://app?sid=cpbfghs0a5bcngo02ssg"
                },
                "station_id": "cpbfghs0a5bcngo02ssg",
                "vehicle_type_capacity": {
                    "1": 20,
                    "10": 0,
                    "14": 0,
                    "15": 0,
                    "2": 20,
                    "4": 20,
                    "5": 0,
                    "6": 0,
                    "7": 20
                },
                "vehicle_types_available": [
                    {
                        "count": 0,
                        "vehicle_type_id": "1"
                    },
                    {
                        "count": 0,
                        "vehicle_type_id": "2"
                    },
                    {
                        "count": 0,
                        "vehicle_type_id": "7"
                    },
                    {
                        "count": 0,
                        "vehicle_type_id": "4"
                    }
                ]
            },
            "type": "Feature"
        },
        {
            "geometry": {
                "coordinates": [
                    4.82594,
                    43.93072
                ],
                "type": "Point"
            },
            "properties": {
                "capacity": 20,
                "is_charging_station": true,
                "is_installed": true,
                "is_renting": true,
                "is_returning": true,
                "is_valet_station": false,
                "is_virtual_station": false,
                "last_reported": 1789249715,
                "name": "Les Sources",
                "num_bikes_available": 0,
                "num_docks_available": 20,
                "rental_uris": {
                    "android": "todo://app?sid=cpbfghs0a5bcngo02t6g",
                    "ios": "todo://app?sid=cpbfghs0a5bcngo02t6g"
                },
                "station_id": "cpbfghs0a5bcngo02t6g",
                "vehicle_type_capacity": {
                    "1": 20,
                    "10": 0,
                    "14": 0,
                    "15": 0,
                    "2": 20,
                    "4": 20,
                    "5": 0,
                    "6": 0,
                    "7": 20
                },
                "vehicle_types_available": [
                    {
                        "count": 0,
                        "vehicle_type_id": "1"
                    },
                    {
                        "count": 0,
                        "vehicle_type_id": "4"
                    },
                    {
                        "count": 0,
                        "vehicle_type_id": "2"
                    },
                    {
                        "count": 0,
                        "vehicle_type_id": "7"
                    }
                ]
            },
            "type": "Feature"
        },
        {
            "geometry": {
                "coordinates": [
                    4.82946,
                    43.9354
                ],
                "type": "Point"
            },
            "properties": {
                "capacity": 20,
                "is_charging_station": true,
                "is_installed": true,
                "is_renting": true,
                "is_returning": true,
                "is_valet_station": false,
                "is_virtual_station": false,
                "last_reported": 1789249715,
                "name": "Maria Casares",
                "num_bikes_available": 7,
                "num_docks_available": 11,
                "rental_uris": {
                    "android": "todo://app?sid=cpbfghs0a5bcngo02t9g",
                    "ios": "todo://app?sid=cpbfghs0a5bcngo02t9g"
                },
                "station_id": "cpbfghs0a5bcngo02t9g",
                "vehicle_type_capacity": {
                    "1": 17,
                    "10": 0,
                    "14": 0,
                    "15": 0,
                    "2": 17,
                    "4": 17,
                    "5": 0,
                    "6": 0,
                    "7": 17
                },
                "vehicle_types_available": [
                    {
                        "count": 0,
                        "vehicle_type_id": "1"
                    },
                    {
                        "count": 0,
                        "vehicle_type_id": "2"
                    },
                    {
                        "count": 7,
                        "vehicle_type_id": "4"
                    },
                    {
                        "count": 0,
                        "vehicle_type_id": "7"
                    }
                ]
            },
            "type": "Feature"
        },
        {
            "geometry": {
                "coordinates": [
                    4.8221,
                    43.9421
                ],
                "type": "Point"
            },
            "properties": {
                "capacity": 20,
                "is_charging_station": true,
                "is_installed": true,
                "is_renting": true,
                "is_returning": true,
                "is_valet_station": false,
                "is_virtual_station": false,
                "last_reported": 1789249715,
                "name": "Galaxie",
                "num_bikes_available": 3,
                "num_docks_available": 11,
                "rental_uris": {
                    "android": "todo://app?sid=cpbfghs0a5bcngo02tbg",
                    "ios": "todo://app?sid=cpbfghs0a5bcngo02tbg"
                },
                "station_id": "cpbfghs0a5bcngo02tbg",
                "vehicle_type_capacity": {
                    "1": 16,
                    "10": 0,
                    "14": 0,
                    "15": 0,
                    "2": 16,
                    "4": 16,
                    "5": 0,
                    "6": 0,
                    "7": 16
                },
                "vehicle_types_available": [
                    {
                        "count": 0,
                        "vehicle_type_id": "2"
                    },
                    {
                        "count": 0,
                        "vehicle_type_id": "7"
                    },
                    {
                        "count": 3,
                        "vehicle_type_id": "4"
                    },
                    {
                        "count": 0,
                        "vehicle_type_id": "1"
                    }
                ]
            },
            "type": "Feature"
        },
        {
            "geometry": {
                "coordinates": [
                    4.82751,
                    43.94737
                ],
                "type": "Point"
            },
            "properties": {
                "capacity": 10,
                "is_charging_station": true,
                "is_installed": true,
                "is_renting": true,
                "is_returning": true,
                "is_valet_station": false,
                "is_virtual_station": false,
                "last_reported": 1789249715,
                "name": "Saint Jean ",
                "num_bikes_available": 6,
                "num_docks_available": 0,
                "rental_uris": {
                    "android": "todo://app?sid=cpbfghs0a5bcngo02tdg",
                    "ios": "todo://app?sid=cpbfghs0a5bcngo02tdg"
                },
                "station_id": "cpbfghs0a5bcngo02tdg",
                "vehicle_type_capacity": {
                    "1": 9,
                    "10": 0,
                    "14": 0,
                    "15": 0,
                    "2": 9,
                    "4": 9,
                    "5": 0,
                    "6": 0,
                    "7": 9
                },
                "vehicle_types_available": [
                    {
                        "count": 0,
                        "vehicle_type_id": "1"
                    },
                    {
                        "count": 0,
                        "vehicle_type_id": "2"
                    },
                    {
                        "count": 8,
                        "vehicle_type_id": "4"
                    },
                    {
                        "count": 0,
                        "vehicle_type_id": "7"
                    }
                ]
            },
            "type": "Feature"
        },
        {
            "geometry": {
                "coordinates": [
                    4.78701,
                    43.92349
                ],
                "type": "Point"
            },
            "properties": {
                "capacity": 20,
                "is_charging_station": true,
                "is_installed": true,
                "is_renting": true,
                "is_returning": true,
                "is_valet_station": false,
                "is_virtual_station": false,
                "last_reported": 1789249715,
                "name": "Avignon TGV",
                "num_bikes_available": 6,
                "num_docks_available": 14,
                "rental_uris": {
                    "android": "todo://app?sid=cpbfghsqessegmi81de0",
                    "ios": "todo://app?sid=cpbfghsqessegmi81de0"
                },
                "station_id": "cpbfghsqessegmi81de0",
                "vehicle_type_capacity": {
                    "1": 20,
                    "10": 0,
                    "14": 0,
                    "15": 0,
                    "2": 20,
                    "4": 20,
                    "5": 0,
                    "6": 0,
                    "7": 20
                },
                "vehicle_types_available": [
                    {
                        "count": 0,
                        "vehicle_type_id": "7"
                    },
                    {
                        "count": 0,
                        "vehicle_type_id": "1"
                    },
                    {
                        "count": 6,
                        "vehicle_type_id": "4"
                    },
                    {
                        "count": 0,
                        "vehicle_type_id": "2"
                    }
                ]
            },
            "type": "Feature"
        },
        {
            "geometry": {
                "coordinates": [
                    4.82137,
                    43.9391
                ],
                "type": "Point"
            },
            "properties": {
                "capacity": 30,
                "is_charging_station": true,
                "is_installed": true,
                "is_renting": true,
                "is_returning": true,
                "is_valet_station": false,
                "is_virtual_station": false,
                "last_reported": 1789249715,
                "name": "Rotonde",
                "num_bikes_available": 1,
                "num_docks_available": 27,
                "rental_uris": {
                    "android": "todo://app?sid=cpbfghsqessegmi81dgg",
                    "ios": "todo://app?sid=cpbfghsqessegmi81dgg"
                },
                "station_id": "cpbfghsqessegmi81dgg",
                "vehicle_type_capacity": {
                    "1": 27,
                    "10": 0,
                    "14": 0,
                    "15": 0,
                    "2": 27,
                    "4": 27,
                    "5": 0,
                    "6": 0,
                    "7": 27
                },
                "vehicle_types_available": [
                    {
                        "count": 1,
                        "vehicle_type_id": "4"
                    },
                    {
                        "count": 0,
                        "vehicle_type_id": "1"
                    },
                    {
                        "count": 0,
                        "vehicle_type_id": "7"
                    },
                    {
                        "count": 0,
                        "vehicle_type_id": "2"
                    }
                ]
            },
            "type": "Feature"
        },
        {
            "geometry": {
                "coordinates": [
                    4.83266,
                    43.95332
                ],
                "type": "Point"
            },
            "properties": {
                "capacity": 15,
                "is_charging_station": true,
                "is_installed": true,
                "is_renting": true,
                "is_returning": true,
                "is_valet_station": false,
                "is_virtual_station": false,
                "last_reported": 1789249715,
                "name": "Combe",
                "num_bikes_available": 2,
                "num_docks_available": 10,
                "rental_uris": {
                    "android": "todo://app?sid=cpbfgi40a5bcngo02tfg",
                    "ios": "todo://app?sid=cpbfgi40a5bcngo02tfg"
                },
                "station_id": "cpbfgi40a5bcngo02tfg",
                "vehicle_type_capacity": {
                    "1": 13,
                    "10": 0,
                    "14": 0,
                    "15": 0,
                    "2": 13,
                    "4": 13,
                    "5": 0,
                    "6": 0,
                    "7": 13
                },
                "vehicle_types_available": [
                    {
                        "count": 0,
                        "vehicle_type_id": "2"
                    },
                    {
                        "count": 0,
                        "vehicle_type_id": "7"
                    },
                    {
                        "count": 2,
                        "vehicle_type_id": "4"
                    },
                    {
                        "count": 0,
                        "vehicle_type_id": "1"
                    }
                ]
            },
            "type": "Feature"
        },
        {
            "geometry": {
                "coordinates": [
                    4.84307,
                    43.94629
                ],
                "type": "Point"
            },
            "properties": {
                "capacity": 20,
                "is_charging_station": true,
                "is_installed": true,
                "is_renting": true,
                "is_returning": true,
                "is_valet_station": false,
                "is_virtual_station": false,
                "last_reported": 1789249715,
                "name": "Pont des Deux Eaux",
                "num_bikes_available": 10,
                "num_docks_available": 4,
                "rental_uris": {
                    "android": "todo://app?sid=cpbfgi40a5bcngo02tlg",
                    "ios": "todo://app?sid=cpbfgi40a5bcngo02tlg"
                },
                "station_id": "cpbfgi40a5bcngo02tlg",
                "vehicle_type_capacity": {
                    "1": 20,
                    "10": 0,
                    "14": 0,
                    "15": 0,
                    "2": 20,
                    "4": 20,
                    "5": 0,
                    "6": 0,
                    "7": 20
                },
                "vehicle_types_available": [
                    {
                        "count": 0,
                        "vehicle_type_id": "2"
                    },
                    {
                        "count": 10,
                        "vehicle_type_id": "4"
                    },
                    {
                        "count": 0,
                        "vehicle_type_id": "7"
                    },
                    {
                        "count": 0,
                        "vehicle_type_id": "1"
                    }
                ]
            },
            "type": "Feature"
        },
        {
            "geometry": {
                "coordinates": [
                    4.84114,
                    43.95533
                ],
                "type": "Point"
            },
            "properties": {
                "capacity": 15,
                "is_charging_station": true,
                "is_installed": true,
                "is_renting": true,
                "is_returning": true,
                "is_valet_station": false,
                "is_virtual_station": false,
                "last_reported": 1789249715,
                "name": "Pigeonnier",
                "num_bikes_available": 2,
                "num_docks_available": 11,
                "rental_uris": {
                    "android": "todo://app?sid=cpbfgi4qessegmi81dig",
                    "ios": "todo://app?sid=cpbfgi4qessegmi81dig"
                },
                "station_id": "cpbfgi4qessegmi81dig",
                "vehicle_type_capacity": {
                    "1": 11,
                    "10": 0,
                    "14": 0,
                    "15": 0,
                    "2": 11,
                    "4": 11,
                    "5": 0,
                    "6": 0,
                    "7": 11
                },
                "vehicle_types_available": [
                    {
                        "count": 0,
                        "vehicle_type_id": "7"
                    },
                    {
                        "count": 0,
                        "vehicle_type_id": "1"
                    },
                    {
                        "count": 0,
                        "vehicle_type_id": "2"
                    },
                    {
                        "count": 2,
                        "vehicle_type_id": "4"
                    }
                ]
            },
            "type": "Feature"
        },
        {
            "geometry": {
                "coordinates": [
                    4.84197,
                    43.93044
                ],
                "type": "Point"
            },
            "properties": {
                "capacity": 10,
                "is_charging_station": true,
                "is_installed": true,
                "is_renting": true,
                "is_returning": true,
                "is_valet_station": false,
                "is_virtual_station": false,
                "last_reported": 1789249715,
                "name": "Saint Chamand",
                "num_bikes_available": 3,
                "num_docks_available": 3,
                "rental_uris": {
                    "android": "todo://app?sid=cpbfgi4qessegmi81dkg",
                    "ios": "todo://app?sid=cpbfgi4qessegmi81dkg"
                },
                "station_id": "cpbfgi4qessegmi81dkg",
                "vehicle_type_capacity": {
                    "1": 5,
                    "10": 0,
                    "14": 0,
                    "15": 0,
                    "2": 5,
                    "4": 5,
                    "5": 0,
                    "6": 0,
                    "7": 5
                },
                "vehicle_types_available": [
                    {
                        "count": 3,
                        "vehicle_type_id": "4"
                    },
                    {
                        "count": 0,
                        "vehicle_type_id": "2"
                    },
                    {
                        "count": 0,
                        "vehicle_type_id": "7"
                    },
                    {
                        "count": 0,
                        "vehicle_type_id": "1"
                    }
                ]
            },
            "type": "Feature"
        },
        {
            "geometry": {
                "coordinates": [
                    4.89008,
                    43.91214
                ],
                "type": "Point"
            },
            "properties": {
                "capacity": 15,
                "is_charging_station": true,
                "is_installed": true,
                "is_renting": true,
                "is_returning": true,
                "is_valet_station": false,
                "is_virtual_station": false,
                "last_reported": 1789249715,
                "name": "Agrosciences",
                "num_bikes_available": 1,
                "num_docks_available": 14,
                "rental_uris": {
                    "android": "todo://app?sid=cpbfgi4qessegmi81dmg",
                    "ios": "todo://app?sid=cpbfgi4qessegmi81dmg"
                },
                "station_id": "cpbfgi4qessegmi81dmg",
                "vehicle_type_capacity": {
                    "1": 14,
                    "10": 0,
                    "14": 0,
                    "15": 0,
                    "2": 14,
                    "4": 14,
                    "5": 0,
                    "6": 0,
                    "7": 14
                },
                "vehicle_types_available": [
                    {
                        "count": 0,
                        "vehicle_type_id": "1"
                    },
                    {
                        "count": 3,
                        "vehicle_type_id": "4"
                    },
                    {
                        "count": 0,
                        "vehicle_type_id": "2"
                    },
                    {
                        "count": 0,
                        "vehicle_type_id": "7"
                    }
                ]
            },
            "type": "Feature"
        },
        {
            "geometry": {
                "coordinates": [
                    4.89074,
                    43.91569
                ],
                "type": "Point"
            },
            "properties": {
                "capacity": 25,
                "is_charging_station": true,
                "is_installed": true,
                "is_renting": true,
                "is_returning": true,
                "is_valet_station": false,
                "is_virtual_station": false,
                "last_reported": 1789249715,
                "name": "Agroparc",
                "num_bikes_available": 9,
                "num_docks_available": 17,
                "rental_uris": {
                    "android": "todo://app?sid=cpbfgi4qessegmi81dog",
                    "ios": "todo://app?sid=cpbfgi4qessegmi81dog"
                },
                "station_id": "cpbfgi4qessegmi81dog",
                "vehicle_type_capacity": {
                    "1": 20,
                    "10": 0,
                    "14": 0,
                    "15": 0,
                    "2": 20,
                    "4": 20,
                    "5": 0,
                    "6": 0,
                    "7": 20
                },
                "vehicle_types_available": [
                    {
                        "count": 9,
                        "vehicle_type_id": "4"
                    },
                    {
                        "count": 0,
                        "vehicle_type_id": "1"
                    },
                    {
                        "count": 0,
                        "vehicle_type_id": "2"
                    },
                    {
                        "count": 0,
                        "vehicle_type_id": "7"
                    }
                ]
            },
            "type": "Feature"
        },
        {
            "geometry": {
                "coordinates": [
                    4.87169,
                    43.93539
                ],
                "type": "Point"
            },
            "properties": {
                "capacity": 10,
                "is_charging_station": true,
                "is_installed": true,
                "is_renting": true,
                "is_returning": true,
                "is_valet_station": false,
                "is_virtual_station": false,
                "last_reported": 1789249715,
                "name": "Montfavet centre",
                "num_bikes_available": 14,
                "num_docks_available": 0,
                "rental_uris": {
                    "android": "todo://app?sid=cpbfgi4qessegmi81dqg",
                    "ios": "todo://app?sid=cpbfgi4qessegmi81dqg"
                },
                "station_id": "cpbfgi4qessegmi81dqg",
                "vehicle_type_capacity": {
                    "1": 4,
                    "10": 0,
                    "14": 0,
                    "15": 0,
                    "2": 4,
                    "4": 4,
                    "5": 0,
                    "6": 0,
                    "7": 4
                },
                "vehicle_types_available": [
                    {
                        "count": 14,
                        "vehicle_type_id": "4"
                    },
                    {
                        "count": 0,
                        "vehicle_type_id": "1"
                    },
                    {
                        "count": 0,
                        "vehicle_type_id": "2"
                    },
                    {
                        "count": 0,
                        "vehicle_type_id": "7"
                    }
                ]
            },
            "type": "Feature"
        },
        {
            "geometry": {
                "coordinates": [
                    4.85973,
                    43.96212
                ],
                "type": "Point"
            },
            "properties": {
                "capacity": 15,
                "is_charging_station": true,
                "is_installed": true,
                "is_renting": true,
                "is_returning": true,
                "is_valet_station": false,
                "is_virtual_station": false,
                "last_reported": 1789249715,
                "name": "Place Thomas",
                "num_bikes_available": 11,
                "num_docks_available": 0,
                "rental_uris": {
                    "android": "todo://app?sid=cpbfgi4qessegmi81dsg",
                    "ios": "todo://app?sid=cpbfgi4qessegmi81dsg"
                },
                "station_id": "cpbfgi4qessegmi81dsg",
                "vehicle_type_capacity": {
                    "1": 10,
                    "10": 0,
                    "14": 0,
                    "15": 0,
                    "2": 10,
                    "4": 10,
                    "5": 0,
                    "6": 0,
                    "7": 10
                },
                "vehicle_types_available": [
                    {
                        "count": 11,
                        "vehicle_type_id": "4"
                    },
                    {
                        "count": 0,
                        "vehicle_type_id": "1"
                    },
                    {
                        "count": 0,
                        "vehicle_type_id": "2"
                    },
                    {
                        "count": 0,
                        "vehicle_type_id": "7"
                    }
                ]
            },
            "type": "Feature"
        },
        {
            "geometry": {
                "coordinates": [
                    4.77597,
                    43.95856
                ],
                "type": "Point"
            },
            "properties": {
                "capacity": 10,
                "is_charging_station": true,
                "is_installed": true,
                "is_renting": true,
                "is_returning": true,
                "is_valet_station": false,
                "is_virtual_station": false,
                "last_reported": 1789249715,
                "name": "Bellevue",
                "num_bikes_available": 2,
                "num_docks_available": 7,
                "rental_uris": {
                    "android": "todo://app?sid=st_d4o1drtbiu5c73b3mlfg",
                    "ios": "todo://app?sid=st_d4o1drtbiu5c73b3mlfg"
                },
                "station_id": "st_d4o1drtbiu5c73b3mlfg",
                "vehicle_type_capacity": {
                    "1": 7,
                    "10": 0,
                    "14": 0,
                    "15": 0,
                    "2": 7,
                    "4": 7,
                    "5": 0,
                    "6": 0,
                    "7": 7
                },
                "vehicle_types_available": [
                    {
                        "count": 2,
                        "vehicle_type_id": "4"
                    },
                    {
                        "count": 0,
                        "vehicle_type_id": "2"
                    },
                    {
                        "count": 0,
                        "vehicle_type_id": "7"
                    },
                    {
                        "count": 0,
                        "vehicle_type_id": "1"
                    }
                ]
            },
            "type": "Feature"
        }
    ],
    "gbfs": {
        "station_information": {
            "last_updated": 1789249715,
            "ttl": 60,
            "version": "2.2"
        },
        "station_status": {
            "last_updated": 1789249715,
            "ttl": 60,
            "version": "2.2"
        }
    },
    "type": "FeatureCollection"
}