{
    "features": [
        {
            "geometry": {
                "coordinates": [
                    0.456986,
                    46.831799
                ],
                "type": "Point"
            },
            "properties": {
                "capacity": 7,
                "is_charging_station": true,
                "is_installed": true,
                "is_renting": true,
                "is_returning": true,
                "is_virtual_station": false,
                "last_reported": "2026-09-13T09:22:21+02:00",
                "name": [
                    {
                        "language": "fr",
                        "text": "Thure"
                    }
                ],
                "num_docks_available": 4,
                "num_vehicles_available": 3,
                "station_id": "281",
                "vehicle_types_available": [
                    {
                        "count": 3,
                        "vehicle_type_id": "ELECTRIC"
                    }
                ]
            },
            "type": "Feature"
        },
        {
            "geometry": {
                "coordinates": [
                    0.536247,
                    46.774101
                ],
                "type": "Point"
            },
            "properties": {
                "capacity": 7,
                "is_charging_station": true,
                "is_installed": true,
                "is_renting": false,
                "is_returning": true,
                "is_virtual_station": false,
                "last_reported": "2024-12-12T14:25:09+01:00",
                "name": [
                    {
                        "language": "fr",
                        "text": "Cenon-sur-Vienne"
                    }
                ],
                "num_docks_available": 5,
                "num_vehicles_available": 0,
                "station_id": "282",
                "vehicle_types_available": [
                    {
                        "count": 0,
                        "vehicle_type_id": "ELECTRIC"
                    }
                ]
            },
            "type": "Feature"
        },
        {
            "geometry": {
                "coordinates": [
                    0.545703,
                    46.818699
                ],
                "type": "Point"
            },
            "properties": {
                "capacity": 7,
                "is_charging_station": true,
                "is_installed": true,
                "is_renting": true,
                "is_returning": true,
                "is_virtual_station": false,
                "last_reported": "2026-09-13T09:21:57+02:00",
                "name": [
                    {
                        "language": "fr",
                        "text": "Chatellerault Hotel de Ville"
                    }
                ],
                "num_docks_available": 4,
                "num_vehicles_available": 2,
                "station_id": "313",
                "vehicle_types_available": [
                    {
                        "count": 2,
                        "vehicle_type_id": "ELECTRIC"
                    }
                ]
            },
            "type": "Feature"
        },
        {
            "geometry": {
                "coordinates": [
                    0.535307,
                    46.834301
                ],
                "type": "Point"
            },
            "properties": {
                "capacity": 7,
                "is_charging_station": true,
                "is_installed": true,
                "is_renting": true,
                "is_returning": true,
                "is_virtual_station": false,
                "last_reported": "2026-09-13T09:22:19+02:00",
                "name": [
                    {
                        "language": "fr",
                        "text": "Chatellerault Nobel"
                    }
                ],
                "num_docks_available": 5,
                "num_vehicles_available": 2,
                "station_id": "314",
                "vehicle_types_available": [
                    {
                        "count": 2,
                        "vehicle_type_id": "ELECTRIC"
                    }
                ]
            },
            "type": "Feature"
        },
        {
            "geometry": {
                "coordinates": [
                    0.538896,
                    46.839199
                ],
                "type": "Point"
            },
            "properties": {
                "capacity": 7,
                "is_charging_station": true,
                "is_installed": true,
                "is_renting": true,
                "is_returning": true,
                "is_virtual_station": false,
                "last_reported": "2026-09-13T09:22:38+02:00",
                "name": [
                    {
                        "language": "fr",
                        "text": "Chatellerault Papin"
                    }
                ],
                "num_docks_available": 6,
                "num_vehicles_available": 1,
                "station_id": "315",
                "vehicle_types_available": [
                    {
                        "count": 1,
                        "vehicle_type_id": "ELECTRIC"
                    }
                ]
            },
            "type": "Feature"
        },
        {
            "geometry": {
                "coordinates": [
                    0.482709,
                    46.763
                ],
                "type": "Point"
            },
            "properties": {
                "capacity": 7,
                "is_charging_station": true,
                "is_installed": true,
                "is_renting": false,
                "is_returning": true,
                "is_virtual_station": false,
                "last_reported": "2024-11-05T14:58:19+01:00",
                "name": [
                    {
                        "language": "fr",
                        "text": "Naintr\u00e9"
                    }
                ],
                "num_docks_available": 7,
                "num_vehicles_available": 0,
                "station_id": "316",
                "vehicle_types_available": [
                    {
                        "count": 0,
                        "vehicle_type_id": "ELECTRIC"
                    }
                ]
            },
            "type": "Feature"
        },
        {
            "geometry": {
                "coordinates": [
                    0.327637,
                    46.816716
                ],
                "type": "Point"
            },
            "properties": {
                "capacity": 7,
                "is_charging_station": true,
                "is_installed": true,
                "is_renting": true,
                "is_returning": true,
                "is_virtual_station": false,
                "last_reported": "2026-09-13T09:22:26+02:00",
                "name": [
                    {
                        "language": "fr",
                        "text": "Lencloitre"
                    }
                ],
                "num_docks_available": 5,
                "num_vehicles_available": 1,
                "station_id": "362",
                "vehicle_types_available": [
                    {
                        "count": 1,
                        "vehicle_type_id": "ELECTRIC"
                    }
                ]
            },
            "type": "Feature"
        },
        {
            "geometry": {
                "coordinates": [
                    0.812009,
                    46.785595
                ],
                "type": "Point"
            },
            "properties": {
                "capacity": 7,
                "is_charging_station": true,
                "is_installed": true,
                "is_renting": true,
                "is_returning": true,
                "is_virtual_station": false,
                "last_reported": "2026-09-13T09:21:40+02:00",
                "name": [
                    {
                        "language": "fr",
                        "text": "La Roche Posay"
                    }
                ],
                "num_docks_available": 5,
                "num_vehicles_available": 2,
                "station_id": "363",
                "vehicle_types_available": [
                    {
                        "count": 2,
                        "vehicle_type_id": "ELECTRIC"
                    }
                ]
            },
            "type": "Feature"
        },
        {
            "geometry": {
                "coordinates": [
                    0.549515,
                    46.818104
                ],
                "type": "Point"
            },
            "properties": {
                "capacity": 5,
                "is_charging_station": true,
                "is_installed": true,
                "is_renting": true,
                "is_returning": true,
                "is_virtual_station": false,
                "last_reported": "2026-09-13T09:22:16+02:00",
                "name": [
                    {
                        "language": "fr",
                        "text": "Ch\u00e2tellerault Gare SNCF"
                    }
                ],
                "num_docks_available": 3,
                "num_vehicles_available": 2,
                "station_id": "566",
                "vehicle_types_available": [
                    {
                        "count": 2,
                        "vehicle_type_id": "ELECTRIC"
                    }
                ]
            },
            "type": "Feature"
        },
        {
            "geometry": {
                "coordinates": [
                    0.56626,
                    46.876355
                ],
                "type": "Point"
            },
            "properties": {
                "capacity": 7,
                "is_charging_station": true,
                "is_installed": true,
                "is_renting": true,
                "is_returning": true,
                "is_virtual_station": false,
                "last_reported": "2026-09-13T09:22:15+02:00",
                "name": [
                    {
                        "language": "fr",
                        "text": "Ingrandes"
                    }
                ],
                "num_docks_available": 5,
                "num_vehicles_available": 1,
                "station_id": "567",
                "vehicle_types_available": [
                    {
                        "count": 1,
                        "vehicle_type_id": "ELECTRIC"
                    }
                ]
            },
            "type": "Feature"
        },
        {
            "geometry": {
                "coordinates": [
                    0.415725,
                    46.813351
                ],
                "type": "Point"
            },
            "properties": {
                "capacity": 7,
                "is_charging_station": true,
                "is_installed": true,
                "is_renting": true,
                "is_returning": true,
                "is_virtual_station": false,
                "last_reported": "2026-09-13T09:21:46+02:00",
                "name": [
                    {
                        "language": "fr",
                        "text": "Mairie  Scorb\u00e9 Clairvaux"
                    }
                ],
                "num_docks_available": 6,
                "num_vehicles_available": 1,
                "station_id": "675",
                "vehicle_types_available": [
                    {
                        "count": 1,
                        "vehicle_type_id": "ELECTRIC"
                    }
                ]
            },
            "type": "Feature"
        },
        {
            "geometry": {
                "coordinates": [
                    0.605704,
                    46.93758
                ],
                "type": "Point"
            },
            "properties": {
                "capacity": 7,
                "is_charging_station": true,
                "is_installed": true,
                "is_renting": false,
                "is_returning": true,
                "is_virtual_station": false,
                "last_reported": "2026-06-22T08:53:08+02:00",
                "name": [
                    {
                        "language": "fr",
                        "text": "Mairie Dang\u00e9 St Romain"
                    }
                ],
                "num_docks_available": 7,
                "num_vehicles_available": 0,
                "station_id": "676",
                "vehicle_types_available": [
                    {
                        "count": 0,
                        "vehicle_type_id": "ELECTRIC"
                    }
                ]
            },
            "type": "Feature"
        },
        {
            "geometry": {
                "coordinates": [
                    0.808094,
                    46.778922
                ],
                "type": "Point"
            },
            "properties": {
                "capacity": 7,
                "is_charging_station": true,
                "is_installed": true,
                "is_renting": true,
                "is_returning": true,
                "is_virtual_station": false,
                "last_reported": "2026-09-13T09:21:30+02:00",
                "name": [
                    {
                        "language": "fr",
                        "text": "Therme La Roche Posay"
                    }
                ],
                "num_docks_available": 4,
                "num_vehicles_available": 3,
                "station_id": "678",
                "vehicle_types_available": [
                    {
                        "count": 3,
                        "vehicle_type_id": "ELECTRIC"
                    }
                ]
            },
            "type": "Feature"
        }
    ],
    "gbfs": {
        "station_information": {
            "last_updated": "2026-09-13T09:22:42.97+02:00",
            "ttl": 300,
            "version": "3.0"
        },
        "station_status": {
            "last_updated": "2026-09-13T09:22:42.982+02:00",
            "ttl": 300,
            "version": "3.0"
        }
    },
    "type": "FeatureCollection"
}