{
    "features": [
        {
            "geometry": {
                "coordinates": [
                    -122.05488,
                    36.98856
                ],
                "type": "Point"
            },
            "properties": {
                "address": "The UCSC Village Lounge",
                "name": "UCSC - The Village Lounge",
                "region_id": "bcycle_santacruz_region_49",
                "rental_uris": {
                    "android": "https://www.bcycle.com/applink?system_id=bcycle_santacruz&station_id=bcycle_santacruz_7429&platform=android",
                    "ios": "https://www.bcycle.com/applink?system_id=bcycle_santacruz&station_id=bcycle_santacruz_7429&platform=iOS"
                },
                "station_id": "bcycle_santacruz_7429"
            },
            "type": "Feature"
        },
        {
            "geometry": {
                "coordinates": [
                    -122.06188,
                    36.99502
                ],
                "type": "Point"
            },
            "properties": {
                "address": "453 Kerr Rd",
                "name": "UCSC - Theatre Arts",
                "region_id": "bcycle_santacruz_region_49",
                "rental_uris": {
                    "android": "https://www.bcycle.com/applink?system_id=bcycle_santacruz&station_id=bcycle_santacruz_7431&platform=android",
                    "ios": "https://www.bcycle.com/applink?system_id=bcycle_santacruz&station_id=bcycle_santacruz_7431&platform=iOS"
                },
                "station_id": "bcycle_santacruz_7431"
            },
            "type": "Feature"
        },
        {
            "geometry": {
                "coordinates": [
                    -122.06681,
                    36.99177
                ],
                "type": "Point"
            },
            "properties": {
                "address": "Heller Dr",
                "name": "UCSC - Family Student Housing Transit Stop",
                "region_id": "bcycle_santacruz_region_49",
                "rental_uris": {
                    "android": "https://www.bcycle.com/applink?system_id=bcycle_santacruz&station_id=bcycle_santacruz_7433&platform=android",
                    "ios": "https://www.bcycle.com/applink?system_id=bcycle_santacruz&station_id=bcycle_santacruz_7433&platform=iOS"
                },
                "station_id": "bcycle_santacruz_7433"
            },
            "type": "Feature"
        },
        {
            "geometry": {
                "coordinates": [
                    -122.06031,
                    36.9989
                ],
                "type": "Point"
            },
            "properties": {
                "address": "580 Red Hill Rd",
                "name": "UCSC - Science & Engineering Library",
                "region_id": "bcycle_santacruz_region_49",
                "rental_uris": {
                    "android": "https://www.bcycle.com/applink?system_id=bcycle_santacruz&station_id=bcycle_santacruz_7434&platform=android",
                    "ios": "https://www.bcycle.com/applink?system_id=bcycle_santacruz&station_id=bcycle_santacruz_7434&platform=iOS"
                },
                "station_id": "bcycle_santacruz_7434"
            },
            "type": "Feature"
        },
        {
            "geometry": {
                "coordinates": [
                    -122.05844,
                    36.95699
                ],
                "type": "Point"
            },
            "properties": {
                "address": "2300 Delaware Ave",
                "name": "UCSC - Westside Research Park",
                "region_id": "bcycle_santacruz_region_49",
                "rental_uris": {
                    "android": "https://www.bcycle.com/applink?system_id=bcycle_santacruz&station_id=bcycle_santacruz_7437&platform=android",
                    "ios": "https://www.bcycle.com/applink?system_id=bcycle_santacruz&station_id=bcycle_santacruz_7437&platform=iOS"
                },
                "station_id": "bcycle_santacruz_7437"
            },
            "type": "Feature"
        },
        {
            "geometry": {
                "coordinates": [
                    -122.06539,
                    36.95266
                ],
                "type": "Point"
            },
            "properties": {
                "address": "McAllister Way",
                "name": "UCSC - Coastal Biology Building",
                "region_id": "bcycle_santacruz_region_49",
                "rental_uris": {
                    "android": "https://www.bcycle.com/applink?system_id=bcycle_santacruz&station_id=bcycle_santacruz_7438&platform=android",
                    "ios": "https://www.bcycle.com/applink?system_id=bcycle_santacruz&station_id=bcycle_santacruz_7438&platform=iOS"
                },
                "station_id": "bcycle_santacruz_7438"
            },
            "type": "Feature"
        },
        {
            "geometry": {
                "coordinates": [
                    -122.06146,
                    36.99928
                ],
                "type": "Point"
            },
            "properties": {
                "address": "Between Steinhart Way and Red Hill Rd",
                "name": "UCSC - Perk Coffee-Physical Sciences",
                "region_id": "bcycle_santacruz_region_49",
                "rental_uris": {
                    "android": "https://www.bcycle.com/applink?system_id=bcycle_santacruz&station_id=bcycle_santacruz_7439&platform=android",
                    "ios": "https://www.bcycle.com/applink?system_id=bcycle_santacruz&station_id=bcycle_santacruz_7439&platform=iOS"
                },
                "station_id": "bcycle_santacruz_7439"
            },
            "type": "Feature"
        },
        {
            "geometry": {
                "coordinates": [
                    -122.06221,
                    37.00084
                ],
                "type": "Point"
            },
            "properties": {
                "address": "McLaughlin Dr",
                "name": "UCSC - Baskin Engineering",
                "region_id": "bcycle_santacruz_region_49",
                "rental_uris": {
                    "android": "https://www.bcycle.com/applink?system_id=bcycle_santacruz&station_id=bcycle_santacruz_7440&platform=android",
                    "ios": "https://www.bcycle.com/applink?system_id=bcycle_santacruz&station_id=bcycle_santacruz_7440&platform=iOS"
                },
                "station_id": "bcycle_santacruz_7440"
            },
            "type": "Feature"
        },
        {
            "geometry": {
                "coordinates": [
                    -122.06536,
                    36.9502
                ],
                "type": "Point"
            },
            "properties": {
                "address": "100 McAllister Way",
                "name": "UCSC - Seymour Marine Discovery Center ",
                "region_id": "bcycle_santacruz_region_49",
                "rental_uris": {
                    "android": "https://www.bcycle.com/applink?system_id=bcycle_santacruz&station_id=bcycle_santacruz_7443&platform=android",
                    "ios": "https://www.bcycle.com/applink?system_id=bcycle_santacruz&station_id=bcycle_santacruz_7443&platform=iOS"
                },
                "station_id": "bcycle_santacruz_7443"
            },
            "type": "Feature"
        },
        {
            "geometry": {
                "coordinates": [
                    -122.0542,
                    36.9982
                ],
                "type": "Point"
            },
            "properties": {
                "address": "Cowell & Stevenson Road",
                "name": "UCSC - Humanities",
                "region_id": "bcycle_santacruz_region_49",
                "rental_uris": {
                    "android": "https://www.bcycle.com/applink?system_id=bcycle_santacruz&station_id=bcycle_santacruz_7444&platform=android",
                    "ios": "https://www.bcycle.com/applink?system_id=bcycle_santacruz&station_id=bcycle_santacruz_7444&platform=iOS"
                },
                "station_id": "bcycle_santacruz_7444"
            },
            "type": "Feature"
        },
        {
            "geometry": {
                "coordinates": [
                    -122.05394,
                    36.99515
                ],
                "type": "Point"
            },
            "properties": {
                "address": "East Field Service Rd",
                "name": "UCSC - East Field House Main Entrance",
                "region_id": "bcycle_santacruz_region_49",
                "rental_uris": {
                    "android": "https://www.bcycle.com/applink?system_id=bcycle_santacruz&station_id=bcycle_santacruz_7460&platform=android",
                    "ios": "https://www.bcycle.com/applink?system_id=bcycle_santacruz&station_id=bcycle_santacruz_7460&platform=iOS"
                },
                "station_id": "bcycle_santacruz_7460"
            },
            "type": "Feature"
        },
        {
            "geometry": {
                "coordinates": [
                    -122.06445,
                    36.9995
                ],
                "type": "Point"
            },
            "properties": {
                "address": "Heller Dr. & McLaughlin Dr.",
                "name": "UCSC - Graduate Student Housing",
                "region_id": "bcycle_santacruz_region_49",
                "rental_uris": {
                    "android": "https://www.bcycle.com/applink?system_id=bcycle_santacruz&station_id=bcycle_santacruz_7461&platform=android",
                    "ios": "https://www.bcycle.com/applink?system_id=bcycle_santacruz&station_id=bcycle_santacruz_7461&platform=iOS"
                },
                "station_id": "bcycle_santacruz_7461"
            },
            "type": "Feature"
        },
        {
            "geometry": {
                "coordinates": [
                    -122.05695,
                    36.9956
                ],
                "type": "Point"
            },
            "properties": {
                "address": "Parking Lot 101",
                "name": "UCSC - Hahn",
                "region_id": "bcycle_santacruz_region_49",
                "rental_uris": {
                    "android": "https://www.bcycle.com/applink?system_id=bcycle_santacruz&station_id=bcycle_santacruz_7462&platform=android",
                    "ios": "https://www.bcycle.com/applink?system_id=bcycle_santacruz&station_id=bcycle_santacruz_7462&platform=iOS"
                },
                "station_id": "bcycle_santacruz_7462"
            },
            "type": "Feature"
        },
        {
            "geometry": {
                "coordinates": [
                    -122.06537,
                    36.99641
                ],
                "type": "Point"
            },
            "properties": {
                "address": "Porter-Kresge Road",
                "name": "UCSC - I-Lounge",
                "region_id": "bcycle_santacruz_region_49",
                "rental_uris": {
                    "android": "https://www.bcycle.com/applink?system_id=bcycle_santacruz&station_id=bcycle_santacruz_7463&platform=android",
                    "ios": "https://www.bcycle.com/applink?system_id=bcycle_santacruz&station_id=bcycle_santacruz_7463&platform=iOS"
                },
                "station_id": "bcycle_santacruz_7463"
            },
            "type": "Feature"
        },
        {
            "geometry": {
                "coordinates": [
                    -122.05336,
                    36.97709
                ],
                "type": "Point"
            },
            "properties": {
                "address": "Bay Drive & High Street",
                "name": "Santa Cruz - Bay & High ",
                "region_id": "bcycle_santacruz_region_72",
                "rental_uris": {
                    "android": "https://www.bcycle.com/applink?system_id=bcycle_santacruz&station_id=bcycle_santacruz_7470&platform=android",
                    "ios": "https://www.bcycle.com/applink?system_id=bcycle_santacruz&station_id=bcycle_santacruz_7470&platform=iOS"
                },
                "station_id": "bcycle_santacruz_7470"
            },
            "type": "Feature"
        },
        {
            "geometry": {
                "coordinates": [
                    -122.02615,
                    36.97509
                ],
                "type": "Point"
            },
            "properties": {
                "address": "100-198 Cooper St",
                "name": "Santa Cruz - Pacific & Cooper",
                "region_id": "bcycle_santacruz_region_73",
                "rental_uris": {
                    "android": "https://www.bcycle.com/applink?system_id=bcycle_santacruz&station_id=bcycle_santacruz_7471&platform=android",
                    "ios": "https://www.bcycle.com/applink?system_id=bcycle_santacruz&station_id=bcycle_santacruz_7471&platform=iOS"
                },
                "station_id": "bcycle_santacruz_7471"
            },
            "type": "Feature"
        },
        {
            "geometry": {
                "coordinates": [
                    -122.02567,
                    36.97246
                ],
                "type": "Point"
            },
            "properties": {
                "address": "1126 Pacific Ave",
                "name": "Santa Cruz - Pacific & Lincoln",
                "region_id": "bcycle_santacruz_region_73",
                "rental_uris": {
                    "android": "https://www.bcycle.com/applink?system_id=bcycle_santacruz&station_id=bcycle_santacruz_7472&platform=android",
                    "ios": "https://www.bcycle.com/applink?system_id=bcycle_santacruz&station_id=bcycle_santacruz_7472&platform=iOS"
                },
                "station_id": "bcycle_santacruz_7472"
            },
            "type": "Feature"
        },
        {
            "geometry": {
                "coordinates": [
                    -122.01189,
                    36.97927
                ],
                "type": "Point"
            },
            "properties": {
                "address": "Soquel Ave",
                "name": "Santa Cruz - Soquel & Cayuga",
                "region_id": "bcycle_santacruz_region_50",
                "rental_uris": {
                    "android": "https://www.bcycle.com/applink?system_id=bcycle_santacruz&station_id=bcycle_santacruz_7479&platform=android",
                    "ios": "https://www.bcycle.com/applink?system_id=bcycle_santacruz&station_id=bcycle_santacruz_7479&platform=iOS"
                },
                "station_id": "bcycle_santacruz_7479"
            },
            "type": "Feature"
        },
        {
            "geometry": {
                "coordinates": [
                    -122.01577,
                    36.97698
                ],
                "type": "Point"
            },
            "properties": {
                "address": "702 Soquel Ave",
                "name": "Santa Cruz - The Buttery",
                "region_id": "bcycle_santacruz_region_50",
                "rental_uris": {
                    "android": "https://www.bcycle.com/applink?system_id=bcycle_santacruz&station_id=bcycle_santacruz_7480&platform=android",
                    "ios": "https://www.bcycle.com/applink?system_id=bcycle_santacruz&station_id=bcycle_santacruz_7480&platform=iOS"
                },
                "station_id": "bcycle_santacruz_7480"
            },
            "type": "Feature"
        },
        {
            "geometry": {
                "coordinates": [
                    -122.05286,
                    36.99948
                ],
                "type": "Point"
            },
            "properties": {
                "address": "Merrill Road/Circle",
                "name": "UCSC - Merrill College",
                "region_id": "bcycle_santacruz_region_49",
                "rental_uris": {
                    "android": "https://www.bcycle.com/applink?system_id=bcycle_santacruz&station_id=bcycle_santacruz_7482&platform=android",
                    "ios": "https://www.bcycle.com/applink?system_id=bcycle_santacruz&station_id=bcycle_santacruz_7482&platform=iOS"
                },
                "station_id": "bcycle_santacruz_7482"
            },
            "type": "Feature"
        },
        {
            "geometry": {
                "coordinates": [
                    -122.02447,
                    36.96311
                ],
                "type": "Point"
            },
            "properties": {
                "address": "35 Pacific Ave",
                "name": "Santa Cruz - Wharf Roundabout",
                "region_id": "bcycle_santacruz_region_73",
                "rental_uris": {
                    "android": "https://www.bcycle.com/applink?system_id=bcycle_santacruz&station_id=bcycle_santacruz_7483&platform=android",
                    "ios": "https://www.bcycle.com/applink?system_id=bcycle_santacruz&station_id=bcycle_santacruz_7483&platform=iOS"
                },
                "station_id": "bcycle_santacruz_7483"
            },
            "type": "Feature"
        },
        {
            "geometry": {
                "coordinates": [
                    -122.02028,
                    36.96893
                ],
                "type": "Point"
            },
            "properties": {
                "address": "250 San Lorenzo",
                "name": "Santa Cruz - Mike Fox Skatepark",
                "region_id": "bcycle_santacruz_region_50",
                "rental_uris": {
                    "android": "https://www.bcycle.com/applink?system_id=bcycle_santacruz&station_id=bcycle_santacruz_7484&platform=android",
                    "ios": "https://www.bcycle.com/applink?system_id=bcycle_santacruz&station_id=bcycle_santacruz_7484&platform=iOS"
                },
                "station_id": "bcycle_santacruz_7484"
            },
            "type": "Feature"
        },
        {
            "geometry": {
                "coordinates": [
                    -122.02885,
                    36.97422
                ],
                "type": "Point"
            },
            "properties": {
                "address": "809 Center St",
                "name": "Santa Cruz - City Hall",
                "region_id": "bcycle_santacruz_region_73",
                "rental_uris": {
                    "android": "https://www.bcycle.com/applink?system_id=bcycle_santacruz&station_id=bcycle_santacruz_7485&platform=android",
                    "ios": "https://www.bcycle.com/applink?system_id=bcycle_santacruz&station_id=bcycle_santacruz_7485&platform=iOS"
                },
                "station_id": "bcycle_santacruz_7485"
            },
            "type": "Feature"
        },
        {
            "geometry": {
                "coordinates": [
                    -122.03497,
                    36.96298
                ],
                "type": "Point"
            },
            "properties": {
                "address": "528 California Ave",
                "name": "Santa Cruz - Bay & California",
                "region_id": "bcycle_santacruz_region_72",
                "rental_uris": {
                    "android": "https://www.bcycle.com/applink?system_id=bcycle_santacruz&station_id=bcycle_santacruz_7489&platform=android",
                    "ios": "https://www.bcycle.com/applink?system_id=bcycle_santacruz&station_id=bcycle_santacruz_7489&platform=iOS"
                },
                "station_id": "bcycle_santacruz_7489"
            },
            "type": "Feature"
        },
        {
            "geometry": {
                "coordinates": [
                    -122.02697,
                    36.95186
                ],
                "type": "Point"
            },
            "properties": {
                "address": "701 W Cliff Dr",
                "name": "Santa Cruz - West Cliff Lighthouse",
                "region_id": "bcycle_santacruz_region_72",
                "rental_uris": {
                    "android": "https://www.bcycle.com/applink?system_id=bcycle_santacruz&station_id=bcycle_santacruz_7490&platform=android",
                    "ios": "https://www.bcycle.com/applink?system_id=bcycle_santacruz&station_id=bcycle_santacruz_7490&platform=iOS"
                },
                "station_id": "bcycle_santacruz_7490"
            },
            "type": "Feature"
        },
        {
            "geometry": {
                "coordinates": [
                    -122.05583,
                    36.94983
                ],
                "type": "Point"
            },
            "properties": {
                "address": "204 Swanton Blvd",
                "name": "Santa Cruz - Natural Bridges State Park",
                "region_id": "bcycle_santacruz_region_72",
                "rental_uris": {
                    "android": "https://www.bcycle.com/applink?system_id=bcycle_santacruz&station_id=bcycle_santacruz_7491&platform=android",
                    "ios": "https://www.bcycle.com/applink?system_id=bcycle_santacruz&station_id=bcycle_santacruz_7491&platform=iOS"
                },
                "station_id": "bcycle_santacruz_7491"
            },
            "type": "Feature"
        },
        {
            "geometry": {
                "coordinates": [
                    -122.06469,
                    36.98854
                ],
                "type": "Point"
            },
            "properties": {
                "address": "Parking Lot 127",
                "name": "UCSC - West Remote Parking Lot",
                "region_id": "bcycle_santacruz_region_49",
                "rental_uris": {
                    "android": "https://www.bcycle.com/applink?system_id=bcycle_santacruz&station_id=bcycle_santacruz_7506&platform=android",
                    "ios": "https://www.bcycle.com/applink?system_id=bcycle_santacruz&station_id=bcycle_santacruz_7506&platform=iOS"
                },
                "station_id": "bcycle_santacruz_7506"
            },
            "type": "Feature"
        },
        {
            "geometry": {
                "coordinates": [
                    -122.06328,
                    36.99003
                ],
                "type": "Point"
            },
            "properties": {
                "address": "Oakes Rd/Circle",
                "name": "UCSC - Oakes College",
                "region_id": "bcycle_santacruz_region_49",
                "rental_uris": {
                    "android": "https://www.bcycle.com/applink?system_id=bcycle_santacruz&station_id=bcycle_santacruz_7507&platform=android",
                    "ios": "https://www.bcycle.com/applink?system_id=bcycle_santacruz&station_id=bcycle_santacruz_7507&platform=iOS"
                },
                "station_id": "bcycle_santacruz_7507"
            },
            "type": "Feature"
        },
        {
            "geometry": {
                "coordinates": [
                    -122.06458,
                    36.99205
                ],
                "type": "Point"
            },
            "properties": {
                "address": "Parking Lot 146",
                "name": "UCSC - Rachel Carson College",
                "region_id": "bcycle_santacruz_region_49",
                "rental_uris": {
                    "android": "https://www.bcycle.com/applink?system_id=bcycle_santacruz&station_id=bcycle_santacruz_7508&platform=android",
                    "ios": "https://www.bcycle.com/applink?system_id=bcycle_santacruz&station_id=bcycle_santacruz_7508&platform=iOS"
                },
                "station_id": "bcycle_santacruz_7508"
            },
            "type": "Feature"
        },
        {
            "geometry": {
                "coordinates": [
                    -122.0655,
                    36.995
                ],
                "type": "Point"
            },
            "properties": {
                "address": "Porter College House B",
                "name": "UCSC - Porter College Quad",
                "region_id": "bcycle_santacruz_region_49",
                "rental_uris": {
                    "android": "https://www.bcycle.com/applink?system_id=bcycle_santacruz&station_id=bcycle_santacruz_7509&platform=android",
                    "ios": "https://www.bcycle.com/applink?system_id=bcycle_santacruz&station_id=bcycle_santacruz_7509&platform=iOS"
                },
                "station_id": "bcycle_santacruz_7509"
            },
            "type": "Feature"
        },
        {
            "geometry": {
                "coordinates": [
                    -122.05557,
                    36.99734
                ],
                "type": "Point"
            },
            "properties": {
                "address": "Parking Lot 102",
                "name": "UCSC - Quarry Plaza",
                "region_id": "bcycle_santacruz_region_49",
                "rental_uris": {
                    "android": "https://www.bcycle.com/applink?system_id=bcycle_santacruz&station_id=bcycle_santacruz_7512&platform=android",
                    "ios": "https://www.bcycle.com/applink?system_id=bcycle_santacruz&station_id=bcycle_santacruz_7512&platform=iOS"
                },
                "station_id": "bcycle_santacruz_7512"
            },
            "type": "Feature"
        },
        {
            "geometry": {
                "coordinates": [
                    -122.06,
                    36.99833
                ],
                "type": "Point"
            },
            "properties": {
                "address": "Red Hill Dr",
                "name": "UCSC - Earth & Marine Sciences",
                "region_id": "bcycle_santacruz_region_49",
                "rental_uris": {
                    "android": "https://www.bcycle.com/applink?system_id=bcycle_santacruz&station_id=bcycle_santacruz_7519&platform=android",
                    "ios": "https://www.bcycle.com/applink?system_id=bcycle_santacruz&station_id=bcycle_santacruz_7519&platform=iOS"
                },
                "station_id": "bcycle_santacruz_7519"
            },
            "type": "Feature"
        },
        {
            "geometry": {
                "coordinates": [
                    -122.06114,
                    36.99329
                ],
                "type": "Point"
            },
            "properties": {
                "address": "Parking Lot 126",
                "name": "UCSC - Lot 126 (Arts)",
                "region_id": "bcycle_santacruz_region_49",
                "rental_uris": {
                    "android": "https://www.bcycle.com/applink?system_id=bcycle_santacruz&station_id=bcycle_santacruz_7520&platform=android",
                    "ios": "https://www.bcycle.com/applink?system_id=bcycle_santacruz&station_id=bcycle_santacruz_7520&platform=iOS"
                },
                "station_id": "bcycle_santacruz_7520"
            },
            "type": "Feature"
        },
        {
            "geometry": {
                "coordinates": [
                    -122.05945,
                    36.99543
                ],
                "type": "Point"
            },
            "properties": {
                "address": "McHenry Library Courtyard",
                "name": "UCSC - McHenry Library South",
                "region_id": "bcycle_santacruz_region_49",
                "rental_uris": {
                    "android": "https://www.bcycle.com/applink?system_id=bcycle_santacruz&station_id=bcycle_santacruz_7525&platform=android",
                    "ios": "https://www.bcycle.com/applink?system_id=bcycle_santacruz&station_id=bcycle_santacruz_7525&platform=iOS"
                },
                "station_id": "bcycle_santacruz_7525"
            },
            "type": "Feature"
        },
        {
            "geometry": {
                "coordinates": [
                    -122.05212,
                    36.98027
                ],
                "type": "Point"
            },
            "properties": {
                "address": "Parking Lot 115",
                "name": "UCSC - Carriage House",
                "region_id": "bcycle_santacruz_region_49",
                "rental_uris": {
                    "android": "https://www.bcycle.com/applink?system_id=bcycle_santacruz&station_id=bcycle_santacruz_7526&platform=android",
                    "ios": "https://www.bcycle.com/applink?system_id=bcycle_santacruz&station_id=bcycle_santacruz_7526&platform=iOS"
                },
                "station_id": "bcycle_santacruz_7526"
            },
            "type": "Feature"
        },
        {
            "geometry": {
                "coordinates": [
                    -122.04326,
                    36.96803
                ],
                "type": "Point"
            },
            "properties": {
                "address": "King St",
                "name": "Santa Cruz - Bay & King",
                "region_id": "bcycle_santacruz_region_72",
                "rental_uris": {
                    "android": "https://www.bcycle.com/applink?system_id=bcycle_santacruz&station_id=bcycle_santacruz_7527&platform=android",
                    "ios": "https://www.bcycle.com/applink?system_id=bcycle_santacruz&station_id=bcycle_santacruz_7527&platform=iOS"
                },
                "station_id": "bcycle_santacruz_7527"
            },
            "type": "Feature"
        },
        {
            "geometry": {
                "coordinates": [
                    -122.00773,
                    36.96768
                ],
                "type": "Point"
            },
            "properties": {
                "address": "Seabright Ave",
                "name": "Santa Cruz - Day's Market",
                "region_id": "bcycle_santacruz_region_50",
                "rental_uris": {
                    "android": "https://www.bcycle.com/applink?system_id=bcycle_santacruz&station_id=bcycle_santacruz_7528&platform=android",
                    "ios": "https://www.bcycle.com/applink?system_id=bcycle_santacruz&station_id=bcycle_santacruz_7528&platform=iOS"
                },
                "station_id": "bcycle_santacruz_7528"
            },
            "type": "Feature"
        },
        {
            "geometry": {
                "coordinates": [
                    -122.01027,
                    36.97525
                ],
                "type": "Point"
            },
            "properties": {
                "address": "1205 Broadway",
                "name": "Santa Cruz - Broadway & Cayuga",
                "region_id": "bcycle_santacruz_region_50",
                "rental_uris": {
                    "android": "https://www.bcycle.com/applink?system_id=bcycle_santacruz&station_id=bcycle_santacruz_7529&platform=android",
                    "ios": "https://www.bcycle.com/applink?system_id=bcycle_santacruz&station_id=bcycle_santacruz_7529&platform=iOS"
                },
                "station_id": "bcycle_santacruz_7529"
            },
            "type": "Feature"
        },
        {
            "geometry": {
                "coordinates": [
                    -122.03805,
                    36.95798
                ],
                "type": "Point"
            },
            "properties": {
                "address": "Woodrow Ave",
                "name": "Santa Cruz - Garfield Library",
                "region_id": "bcycle_santacruz_region_72",
                "rental_uris": {
                    "android": "https://www.bcycle.com/applink?system_id=bcycle_santacruz&station_id=bcycle_santacruz_7530&platform=android",
                    "ios": "https://www.bcycle.com/applink?system_id=bcycle_santacruz&station_id=bcycle_santacruz_7530&platform=iOS"
                },
                "station_id": "bcycle_santacruz_7530"
            },
            "type": "Feature"
        },
        {
            "geometry": {
                "coordinates": [
                    -122.04917,
                    36.96003
                ],
                "type": "Point"
            },
            "properties": {
                "address": "McPherson st",
                "name": "Santa Cruz - Swift & McPherson",
                "region_id": "bcycle_santacruz_region_72",
                "rental_uris": {
                    "android": "https://www.bcycle.com/applink?system_id=bcycle_santacruz&station_id=bcycle_santacruz_7531&platform=android",
                    "ios": "https://www.bcycle.com/applink?system_id=bcycle_santacruz&station_id=bcycle_santacruz_7531&platform=iOS"
                },
                "station_id": "bcycle_santacruz_7531"
            },
            "type": "Feature"
        },
        {
            "geometry": {
                "coordinates": [
                    -122.02335,
                    36.97885
                ],
                "type": "Point"
            },
            "properties": {
                "address": "Water st",
                "name": "Santa Cruz - County Government",
                "region_id": "bcycle_santacruz_region_50",
                "rental_uris": {
                    "android": "https://www.bcycle.com/applink?system_id=bcycle_santacruz&station_id=bcycle_santacruz_7535&platform=android",
                    "ios": "https://www.bcycle.com/applink?system_id=bcycle_santacruz&station_id=bcycle_santacruz_7535&platform=iOS"
                },
                "station_id": "bcycle_santacruz_7535"
            },
            "type": "Feature"
        },
        {
            "geometry": {
                "coordinates": [
                    -122.02963,
                    36.98756
                ],
                "type": "Point"
            },
            "properties": {
                "address": "River St.",
                "name": "Santa Cruz - Tannery Arts South Studios",
                "region_id": "bcycle_santacruz_region_73",
                "rental_uris": {
                    "android": "https://www.bcycle.com/applink?system_id=bcycle_santacruz&station_id=bcycle_santacruz_7538&platform=android",
                    "ios": "https://www.bcycle.com/applink?system_id=bcycle_santacruz&station_id=bcycle_santacruz_7538&platform=iOS"
                },
                "station_id": "bcycle_santacruz_7538"
            },
            "type": "Feature"
        },
        {
            "geometry": {
                "coordinates": [
                    -122.02353,
                    36.96807
                ],
                "type": "Point"
            },
            "properties": {
                "address": "Front St",
                "name": "Santa Cruz - Warrior's Stadium",
                "region_id": "bcycle_santacruz_region_73",
                "rental_uris": {
                    "android": "https://www.bcycle.com/applink?system_id=bcycle_santacruz&station_id=bcycle_santacruz_7542&platform=android",
                    "ios": "https://www.bcycle.com/applink?system_id=bcycle_santacruz&station_id=bcycle_santacruz_7542&platform=iOS"
                },
                "station_id": "bcycle_santacruz_7542"
            },
            "type": "Feature"
        },
        {
            "geometry": {
                "coordinates": [
                    -122.02065,
                    36.9766
                ],
                "type": "Point"
            },
            "properties": {
                "address": "Dakota Ave",
                "name": "Santa Cruz - Hotel Paradox",
                "region_id": "bcycle_santacruz_region_50",
                "rental_uris": {
                    "android": "https://www.bcycle.com/applink?system_id=bcycle_santacruz&station_id=bcycle_santacruz_7543&platform=android",
                    "ios": "https://www.bcycle.com/applink?system_id=bcycle_santacruz&station_id=bcycle_santacruz_7543&platform=iOS"
                },
                "station_id": "bcycle_santacruz_7543"
            },
            "type": "Feature"
        },
        {
            "geometry": {
                "coordinates": [
                    -122.05808,
                    37.00181
                ],
                "type": "Point"
            },
            "properties": {
                "address": "Parking Lot 166",
                "name": "UCSC - College 9-John R. Lewis College",
                "region_id": "bcycle_santacruz_region_49",
                "rental_uris": {
                    "android": "https://www.bcycle.com/applink?system_id=bcycle_santacruz&station_id=bcycle_santacruz_7544&platform=android",
                    "ios": "https://www.bcycle.com/applink?system_id=bcycle_santacruz&station_id=bcycle_santacruz_7544&platform=iOS"
                },
                "station_id": "bcycle_santacruz_7544"
            },
            "type": "Feature"
        },
        {
            "geometry": {
                "coordinates": [
                    -122.05757,
                    36.95975
                ],
                "type": "Point"
            },
            "properties": {
                "address": "2901 Mission St",
                "name": "Santa Cruz - Mission & Nat. Bridges",
                "region_id": "bcycle_santacruz_region_72",
                "rental_uris": {
                    "android": "https://www.bcycle.com/applink?system_id=bcycle_santacruz&station_id=bcycle_santacruz_7589&platform=android",
                    "ios": "https://www.bcycle.com/applink?system_id=bcycle_santacruz&station_id=bcycle_santacruz_7589&platform=iOS"
                },
                "station_id": "bcycle_santacruz_7589"
            },
            "type": "Feature"
        },
        {
            "geometry": {
                "coordinates": [
                    -122.05336,
                    36.9979
                ],
                "type": "Point"
            },
            "properties": {
                "address": "Parking Lot 107",
                "name": "UCSC - Cowell Circle",
                "region_id": "bcycle_santacruz_region_49",
                "rental_uris": {
                    "android": "https://www.bcycle.com/applink?system_id=bcycle_santacruz&station_id=bcycle_santacruz_7592&platform=android",
                    "ios": "https://www.bcycle.com/applink?system_id=bcycle_santacruz&station_id=bcycle_santacruz_7592&platform=iOS"
                },
                "station_id": "bcycle_santacruz_7592"
            },
            "type": "Feature"
        },
        {
            "geometry": {
                "coordinates": [
                    -122.0437,
                    36.96196
                ],
                "type": "Point"
            },
            "properties": {
                "address": "844 Almar Ave",
                "name": "Santa Cruz - Almar & Mission",
                "region_id": "bcycle_santacruz_region_72",
                "rental_uris": {
                    "android": "https://www.bcycle.com/applink?system_id=bcycle_santacruz&station_id=bcycle_santacruz_7593&platform=android",
                    "ios": "https://www.bcycle.com/applink?system_id=bcycle_santacruz&station_id=bcycle_santacruz_7593&platform=iOS"
                },
                "station_id": "bcycle_santacruz_7593"
            },
            "type": "Feature"
        },
        {
            "geometry": {
                "coordinates": [
                    -122.05476,
                    36.99175
                ],
                "type": "Point"
            },
            "properties": {
                "address": "Parking Lot 104",
                "name": "UCSC - East Remote Lot Exterior",
                "region_id": "bcycle_santacruz_region_49",
                "rental_uris": {
                    "android": "https://www.bcycle.com/applink?system_id=bcycle_santacruz&station_id=bcycle_santacruz_7601&platform=android",
                    "ios": "https://www.bcycle.com/applink?system_id=bcycle_santacruz&station_id=bcycle_santacruz_7601&platform=iOS"
                },
                "station_id": "bcycle_santacruz_7601"
            },
            "type": "Feature"
        },
        {
            "geometry": {
                "coordinates": [
                    -122.05142,
                    36.96142
                ],
                "type": "Point"
            },
            "properties": {
                "address": "41 Grandview St",
                "name": "Santa Cruz - Grandview & Arroyo Seco",
                "region_id": "bcycle_santacruz_region_72",
                "rental_uris": {
                    "android": "https://www.bcycle.com/applink?system_id=bcycle_santacruz&station_id=bcycle_santacruz_7604&platform=android",
                    "ios": "https://www.bcycle.com/applink?system_id=bcycle_santacruz&station_id=bcycle_santacruz_7604&platform=iOS"
                },
                "station_id": "bcycle_santacruz_7604"
            },
            "type": "Feature"
        },
        {
            "geometry": {
                "coordinates": [
                    -122.02615,
                    36.96141
                ],
                "type": "Point"
            },
            "properties": {
                "address": "122-178 Bay St",
                "name": "Santa Cruz - Bay and West Cliff",
                "region_id": "bcycle_santacruz_region_73",
                "rental_uris": {
                    "android": "https://www.bcycle.com/applink?system_id=bcycle_santacruz&station_id=bcycle_santacruz_7613&platform=android",
                    "ios": "https://www.bcycle.com/applink?system_id=bcycle_santacruz&station_id=bcycle_santacruz_7613&platform=iOS"
                },
                "station_id": "bcycle_santacruz_7613"
            },
            "type": "Feature"
        },
        {
            "geometry": {
                "coordinates": [
                    -122.01821,
                    36.95885
                ],
                "type": "Point"
            },
            "properties": {
                "address": "21 Municipal Wharf",
                "name": "Santa Cruz - Wharf Middle",
                "region_id": "bcycle_santacruz_region_73",
                "rental_uris": {
                    "android": "https://www.bcycle.com/applink?system_id=bcycle_santacruz&station_id=bcycle_santacruz_7617&platform=android",
                    "ios": "https://www.bcycle.com/applink?system_id=bcycle_santacruz&station_id=bcycle_santacruz_7617&platform=iOS"
                },
                "station_id": "bcycle_santacruz_7617"
            },
            "type": "Feature"
        },
        {
            "geometry": {
                "coordinates": [
                    -122.02028,
                    36.96426
                ],
                "type": "Point"
            },
            "properties": {
                "address": "399 Beach St",
                "name": "Santa Cruz - Beach and Cliff",
                "region_id": "bcycle_santacruz_region_73",
                "rental_uris": {
                    "android": "https://www.bcycle.com/applink?system_id=bcycle_santacruz&station_id=bcycle_santacruz_7625&platform=android",
                    "ios": "https://www.bcycle.com/applink?system_id=bcycle_santacruz&station_id=bcycle_santacruz_7625&platform=iOS"
                },
                "station_id": "bcycle_santacruz_7625"
            },
            "type": "Feature"
        },
        {
            "geometry": {
                "coordinates": [
                    -122.02655,
                    36.97457
                ],
                "type": "Point"
            },
            "properties": {
                "address": "Pacific & Church",
                "name": "Santa Cruz - Pacific & Church",
                "region_id": "bcycle_santacruz_region_73",
                "rental_uris": {
                    "android": "https://www.bcycle.com/applink?system_id=bcycle_santacruz&station_id=bcycle_santacruz_7660&platform=android",
                    "ios": "https://www.bcycle.com/applink?system_id=bcycle_santacruz&station_id=bcycle_santacruz_7660&platform=iOS"
                },
                "station_id": "bcycle_santacruz_7660"
            },
            "type": "Feature"
        },
        {
            "geometry": {
                "coordinates": [
                    -122.04992,
                    36.9765
                ],
                "type": "Point"
            },
            "properties": {
                "address": "Cardiff Pl",
                "name": "Santa Cruz - Surf City Laundry",
                "region_id": "bcycle_santacruz_region_72",
                "rental_uris": {
                    "android": "https://www.bcycle.com/applink?system_id=bcycle_santacruz&station_id=bcycle_santacruz_7667&platform=android",
                    "ios": "https://www.bcycle.com/applink?system_id=bcycle_santacruz&station_id=bcycle_santacruz_7667&platform=iOS"
                },
                "station_id": "bcycle_santacruz_7667"
            },
            "type": "Feature"
        },
        {
            "geometry": {
                "coordinates": [
                    -122.06674,
                    36.99829
                ],
                "type": "Point"
            },
            "properties": {
                "address": "510 Porter-Kresge Rd",
                "name": "UCSC - Kresge College",
                "region_id": "bcycle_santacruz_region_49",
                "rental_uris": {
                    "android": "https://www.bcycle.com/applink?system_id=bcycle_santacruz&station_id=bcycle_santacruz_7679&platform=android",
                    "ios": "https://www.bcycle.com/applink?system_id=bcycle_santacruz&station_id=bcycle_santacruz_7679&platform=iOS"
                },
                "station_id": "bcycle_santacruz_7679"
            },
            "type": "Feature"
        },
        {
            "geometry": {
                "coordinates": [
                    -121.99555,
                    36.9728
                ],
                "type": "Point"
            },
            "properties": {
                "address": "1025 7th Ave",
                "name": "Live Oak - 7th & Brommer",
                "region_id": "bcycle_santacruz_region_80",
                "rental_uris": {
                    "android": "https://www.bcycle.com/applink?system_id=bcycle_santacruz&station_id=bcycle_santacruz_7702&platform=android",
                    "ios": "https://www.bcycle.com/applink?system_id=bcycle_santacruz&station_id=bcycle_santacruz_7702&platform=iOS"
                },
                "station_id": "bcycle_santacruz_7702"
            },
            "type": "Feature"
        },
        {
            "geometry": {
                "coordinates": [
                    -121.99982,
                    36.96298
                ],
                "type": "Point"
            },
            "properties": {
                "address": "2 6th Ave",
                "name": "Twin Lakes - Santa Cruz Harbor",
                "region_id": "bcycle_santacruz_region_82",
                "rental_uris": {
                    "android": "https://www.bcycle.com/applink?system_id=bcycle_santacruz&station_id=bcycle_santacruz_7711&platform=android",
                    "ios": "https://www.bcycle.com/applink?system_id=bcycle_santacruz&station_id=bcycle_santacruz_7711&platform=iOS"
                },
                "station_id": "bcycle_santacruz_7711"
            },
            "type": "Feature"
        },
        {
            "geometry": {
                "coordinates": [
                    -122.02582,
                    36.97579
                ],
                "type": "Point"
            },
            "properties": {
                "address": "811 Front St",
                "name": "Santa Cruz - Front & River",
                "region_id": "bcycle_santacruz_region_73",
                "rental_uris": {
                    "android": "https://www.bcycle.com/applink?system_id=bcycle_santacruz&station_id=bcycle_santacruz_7716&platform=android",
                    "ios": "https://www.bcycle.com/applink?system_id=bcycle_santacruz&station_id=bcycle_santacruz_7716&platform=iOS"
                },
                "station_id": "bcycle_santacruz_7716"
            },
            "type": "Feature"
        },
        {
            "geometry": {
                "coordinates": [
                    -121.95597,
                    36.96955
                ],
                "type": "Point"
            },
            "properties": {
                "address": "4910 Cliff Drive",
                "name": "Capitola - Cliff Drive",
                "region_id": "bcycle_santacruz_region_53",
                "rental_uris": {
                    "android": "https://www.bcycle.com/applink?system_id=bcycle_santacruz&station_id=bcycle_santacruz_7724&platform=android",
                    "ios": "https://www.bcycle.com/applink?system_id=bcycle_santacruz&station_id=bcycle_santacruz_7724&platform=iOS"
                },
                "station_id": "bcycle_santacruz_7724"
            },
            "type": "Feature"
        },
        {
            "geometry": {
                "coordinates": [
                    -121.95321,
                    36.97447
                ],
                "type": "Point"
            },
            "properties": {
                "address": "420 Capitola Ave",
                "name": "Capitola - City Hall",
                "region_id": "bcycle_santacruz_region_53",
                "rental_uris": {
                    "android": "https://www.bcycle.com/applink?system_id=bcycle_santacruz&station_id=bcycle_santacruz_7727&platform=android",
                    "ios": "https://www.bcycle.com/applink?system_id=bcycle_santacruz&station_id=bcycle_santacruz_7727&platform=iOS"
                },
                "station_id": "bcycle_santacruz_7727"
            },
            "type": "Feature"
        },
        {
            "geometry": {
                "coordinates": [
                    -121.95167,
                    36.97207
                ],
                "type": "Point"
            },
            "properties": {
                "address": "195 Esplanade",
                "name": "Capitola - The Village",
                "region_id": "bcycle_santacruz_region_53",
                "rental_uris": {
                    "android": "https://www.bcycle.com/applink?system_id=bcycle_santacruz&station_id=bcycle_santacruz_7737&platform=android",
                    "ios": "https://www.bcycle.com/applink?system_id=bcycle_santacruz&station_id=bcycle_santacruz_7737&platform=iOS"
                },
                "station_id": "bcycle_santacruz_7737"
            },
            "type": "Feature"
        },
        {
            "geometry": {
                "coordinates": [
                    -122.02691,
                    36.97148
                ],
                "type": "Point"
            },
            "properties": {
                "address": "523 Cedar St. ",
                "name": "Santa Cruz - Cedar & Cathcart",
                "region_id": "bcycle_santacruz_region_73",
                "rental_uris": {
                    "android": "https://www.bcycle.com/applink?system_id=bcycle_santacruz&station_id=bcycle_santacruz_7781&platform=android",
                    "ios": "https://www.bcycle.com/applink?system_id=bcycle_santacruz&station_id=bcycle_santacruz_7781&platform=iOS"
                },
                "station_id": "bcycle_santacruz_7781"
            },
            "type": "Feature"
        },
        {
            "geometry": {
                "coordinates": [
                    -122.02647,
                    36.96476
                ],
                "type": "Point"
            },
            "properties": {
                "address": "119 Center St",
                "name": "Santa Cruz - Depot Park",
                "rental_uris": {
                    "android": "https://www.bcycle.com/applink?system_id=bcycle_santacruz&station_id=bcycle_santacruz_7782&platform=android",
                    "ios": "https://www.bcycle.com/applink?system_id=bcycle_santacruz&station_id=bcycle_santacruz_7782&platform=iOS"
                },
                "station_id": "bcycle_santacruz_7782"
            },
            "type": "Feature"
        },
        {
            "geometry": {
                "coordinates": [
                    -122.05235,
                    36.9774
                ],
                "type": "Point"
            },
            "properties": {
                "address": "1156 High St",
                "name": "UCSC - Book Store",
                "region_id": "bcycle_santacruz_region_49",
                "rental_uris": {
                    "android": "https://www.bcycle.com/applink?system_id=bcycle_santacruz&station_id=bcycle_santacruz_7792&platform=android",
                    "ios": "https://www.bcycle.com/applink?system_id=bcycle_santacruz&station_id=bcycle_santacruz_7792&platform=iOS"
                },
                "station_id": "bcycle_santacruz_7792"
            },
            "type": "Feature"
        },
        {
            "geometry": {
                "coordinates": [
                    -122.05282,
                    36.97751
                ],
                "type": "Point"
            },
            "properties": {
                "address": "Parking Lot 118",
                "name": "UCSC - Granary",
                "region_id": "bcycle_santacruz_region_49",
                "rental_uris": {
                    "android": "https://www.bcycle.com/applink?system_id=bcycle_santacruz&station_id=bcycle_santacruz_7793&platform=android",
                    "ios": "https://www.bcycle.com/applink?system_id=bcycle_santacruz&station_id=bcycle_santacruz_7793&platform=iOS"
                },
                "station_id": "bcycle_santacruz_7793"
            },
            "type": "Feature"
        },
        {
            "geometry": {
                "coordinates": [
                    -122.0188,
                    36.96449
                ],
                "type": "Point"
            },
            "properties": {
                "address": "400 Beach St",
                "name": "Santa Cruz - Boardwalk Ticket Booth",
                "region_id": "bcycle_santacruz_region_73",
                "rental_uris": {
                    "android": "https://www.bcycle.com/applink?system_id=bcycle_santacruz&station_id=bcycle_santacruz_8823&platform=android",
                    "ios": "https://www.bcycle.com/applink?system_id=bcycle_santacruz&station_id=bcycle_santacruz_8823&platform=iOS"
                },
                "station_id": "bcycle_santacruz_8823"
            },
            "type": "Feature"
        },
        {
            "geometry": {
                "coordinates": [
                    -122.01566,
                    36.96493
                ],
                "type": "Point"
            },
            "properties": {
                "address": "400 Beach St",
                "name": "Santa Cruz - Boardwalk and Leibrandt",
                "region_id": "bcycle_santacruz_region_73",
                "rental_uris": {
                    "android": "https://www.bcycle.com/applink?system_id=bcycle_santacruz&station_id=bcycle_santacruz_8842&platform=android",
                    "ios": "https://www.bcycle.com/applink?system_id=bcycle_santacruz&station_id=bcycle_santacruz_8842&platform=iOS"
                },
                "station_id": "bcycle_santacruz_8842"
            },
            "type": "Feature"
        },
        {
            "geometry": {
                "coordinates": [
                    -122.02542,
                    36.96416
                ],
                "type": "Point"
            },
            "properties": {
                "address": "102 Pacific Ave",
                "name": "Santa Cruz - Pacific and Second",
                "region_id": "bcycle_santacruz_region_73",
                "rental_uris": {
                    "android": "https://www.bcycle.com/applink?system_id=bcycle_santacruz&station_id=bcycle_santacruz_8857&platform=android",
                    "ios": "https://www.bcycle.com/applink?system_id=bcycle_santacruz&station_id=bcycle_santacruz_8857&platform=iOS"
                },
                "station_id": "bcycle_santacruz_8857"
            },
            "type": "Feature"
        },
        {
            "geometry": {
                "coordinates": [
                    -122.0508,
                    36.956
                ],
                "type": "Point"
            },
            "properties": {
                "address": "100 Panetta Ave",
                "name": "UCSC - Institute of the Arts and Sciences",
                "region_id": "bcycle_santacruz_region_49",
                "rental_uris": {
                    "android": "https://www.bcycle.com/applink?system_id=bcycle_santacruz&station_id=bcycle_santacruz_8936&platform=android",
                    "ios": "https://www.bcycle.com/applink?system_id=bcycle_santacruz&station_id=bcycle_santacruz_8936&platform=iOS"
                },
                "station_id": "bcycle_santacruz_8936"
            },
            "type": "Feature"
        },
        {
            "geometry": {
                "coordinates": [
                    -121.76368,
                    36.92697
                ],
                "type": "Point"
            },
            "properties": {
                "address": "1432 Freedom Blvd",
                "name": "Watsonville Pilot - Watsonville Health Center",
                "region_id": "bcycle_santacruz_region_54",
                "rental_uris": {
                    "android": "https://www.bcycle.com/applink?system_id=bcycle_santacruz&station_id=bcycle_santacruz_9016&platform=android",
                    "ios": "https://www.bcycle.com/applink?system_id=bcycle_santacruz&station_id=bcycle_santacruz_9016&platform=iOS"
                },
                "station_id": "bcycle_santacruz_9016"
            },
            "type": "Feature"
        },
        {
            "geometry": {
                "coordinates": [
                    -121.95027,
                    36.97212
                ],
                "type": "Point"
            },
            "properties": {
                "address": "Esplande",
                "name": "Capitola - Esplanade Park",
                "region_id": "bcycle_santacruz_region_53",
                "rental_uris": {
                    "android": "https://www.bcycle.com/applink?system_id=bcycle_santacruz&station_id=bcycle_santacruz_9085&platform=android",
                    "ios": "https://www.bcycle.com/applink?system_id=bcycle_santacruz&station_id=bcycle_santacruz_9085&platform=iOS"
                },
                "station_id": "bcycle_santacruz_9085"
            },
            "type": "Feature"
        }
    ],
    "gbfs": {
        "station_information": {
            "last_updated": 1790640815,
            "ttl": 60,
            "version": "1.1"
        },
        "station_status": {
            "last_updated": 1790640776,
            "ttl": 60,
            "version": "1.1"
        }
    },
    "type": "FeatureCollection"
}