{
    "features": [
        {
            "geometry": {
                "coordinates": [
                    15.213025,
                    50.025256
                ],
                "type": "Point"
            },
            "properties": {
                "is_installed": true,
                "is_renting": true,
                "is_returning": true,
                "is_virtual_station": false,
                "last_reported": 1789331826,
                "name": "N\u00e1dra\u017e\u00ed Kol\u00edn",
                "num_bikes_available": 0,
                "num_docks_available": 0,
                "region_id": "1137",
                "rental_uris": {
                    "android": "https://app.nextbike.net/station?id=518135016",
                    "ios": "https://app.nextbike.net/station?id=518135016",
                    "web": "https://nxtb.it/p/518135016"
                },
                "short_name": "49627",
                "station_id": "518135016",
                "vehicle_types_available": []
            },
            "type": "Feature"
        },
        {
            "geometry": {
                "coordinates": [
                    15.201005,
                    50.028679
                ],
                "type": "Point"
            },
            "properties": {
                "is_installed": true,
                "is_renting": true,
                "is_returning": true,
                "is_virtual_station": false,
                "last_reported": 1789331826,
                "name": "Karlovo n\u00e1m\u011bst\u00ed",
                "num_bikes_available": 0,
                "num_docks_available": 0,
                "region_id": "1137",
                "rental_uris": {
                    "android": "https://app.nextbike.net/station?id=518135643",
                    "ios": "https://app.nextbike.net/station?id=518135643",
                    "web": "https://nxtb.it/p/518135643"
                },
                "short_name": "49628",
                "station_id": "518135643",
                "vehicle_types_available": []
            },
            "type": "Feature"
        },
        {
            "geometry": {
                "coordinates": [
                    15.196772,
                    50.01934
                ],
                "type": "Point"
            },
            "properties": {
                "is_installed": true,
                "is_renting": true,
                "is_returning": true,
                "is_virtual_station": false,
                "last_reported": 1789331826,
                "name": "Nemocnice Kol\u00edn",
                "num_bikes_available": 2,
                "num_docks_available": 0,
                "region_id": "1137",
                "rental_uris": {
                    "android": "https://app.nextbike.net/station?id=518136007",
                    "ios": "https://app.nextbike.net/station?id=518136007",
                    "web": "https://nxtb.it/p/518136007"
                },
                "short_name": "49629",
                "station_id": "518136007",
                "vehicle_types_available": [
                    {
                        "count": 2,
                        "vehicle_type_id": "254"
                    }
                ]
            },
            "type": "Feature"
        },
        {
            "geometry": {
                "coordinates": [
                    15.202154,
                    50.017678
                ],
                "type": "Point"
            },
            "properties": {
                "is_installed": true,
                "is_renting": true,
                "is_returning": true,
                "is_virtual_station": false,
                "last_reported": 1789331826,
                "name": "U J\u00e1na",
                "num_bikes_available": 0,
                "num_docks_available": 0,
                "region_id": "1137",
                "rental_uris": {
                    "android": "https://app.nextbike.net/station?id=518293673",
                    "ios": "https://app.nextbike.net/station?id=518293673",
                    "web": "https://nxtb.it/p/518293673"
                },
                "short_name": "49630",
                "station_id": "518293673",
                "vehicle_types_available": []
            },
            "type": "Feature"
        },
        {
            "geometry": {
                "coordinates": [
                    15.197392,
                    50.027752
                ],
                "type": "Point"
            },
            "properties": {
                "is_installed": true,
                "is_renting": true,
                "is_returning": true,
                "is_virtual_station": false,
                "last_reported": 1789331826,
                "name": "N\u00e1m\u011bst\u00ed Republiky",
                "num_bikes_available": 1,
                "num_docks_available": 0,
                "region_id": "1137",
                "rental_uris": {
                    "android": "https://app.nextbike.net/station?id=518293755",
                    "ios": "https://app.nextbike.net/station?id=518293755",
                    "web": "https://nxtb.it/p/518293755"
                },
                "short_name": "49631",
                "station_id": "518293755",
                "vehicle_types_available": [
                    {
                        "count": 1,
                        "vehicle_type_id": "245"
                    }
                ]
            },
            "type": "Feature"
        },
        {
            "geometry": {
                "coordinates": [
                    15.190018,
                    50.03235
                ],
                "type": "Point"
            },
            "properties": {
                "is_installed": true,
                "is_renting": true,
                "is_returning": true,
                "is_virtual_station": false,
                "last_reported": 1789331826,
                "name": "Tesco Kol\u00edn",
                "num_bikes_available": 3,
                "num_docks_available": 0,
                "region_id": "1137",
                "rental_uris": {
                    "android": "https://app.nextbike.net/station?id=518293837",
                    "ios": "https://app.nextbike.net/station?id=518293837",
                    "web": "https://nxtb.it/p/518293837"
                },
                "short_name": "49632",
                "station_id": "518293837",
                "vehicle_types_available": [
                    {
                        "count": 2,
                        "vehicle_type_id": "254"
                    },
                    {
                        "count": 1,
                        "vehicle_type_id": "245"
                    }
                ]
            },
            "type": "Feature"
        },
        {
            "geometry": {
                "coordinates": [
                    15.184382,
                    50.021496
                ],
                "type": "Point"
            },
            "properties": {
                "is_installed": true,
                "is_renting": true,
                "is_returning": true,
                "is_virtual_station": false,
                "last_reported": 1789331826,
                "name": "Kaufland, Kol\u00edn",
                "num_bikes_available": 0,
                "num_docks_available": 0,
                "region_id": "1137",
                "rental_uris": {
                    "android": "https://app.nextbike.net/station?id=518294076",
                    "ios": "https://app.nextbike.net/station?id=518294076",
                    "web": "https://nxtb.it/p/518294076"
                },
                "short_name": "49634",
                "station_id": "518294076",
                "vehicle_types_available": []
            },
            "type": "Feature"
        },
        {
            "geometry": {
                "coordinates": [
                    15.180455,
                    50.028386
                ],
                "type": "Point"
            },
            "properties": {
                "is_installed": true,
                "is_renting": true,
                "is_returning": true,
                "is_virtual_station": false,
                "last_reported": 1789331826,
                "name": "Vod\u00e1rna",
                "num_bikes_available": 0,
                "num_docks_available": 0,
                "region_id": "1137",
                "rental_uris": {
                    "android": "https://app.nextbike.net/station?id=518294164",
                    "ios": "https://app.nextbike.net/station?id=518294164",
                    "web": "https://nxtb.it/p/518294164"
                },
                "short_name": "49635",
                "station_id": "518294164",
                "vehicle_types_available": []
            },
            "type": "Feature"
        },
        {
            "geometry": {
                "coordinates": [
                    15.19012,
                    50.024141
                ],
                "type": "Point"
            },
            "properties": {
                "is_installed": true,
                "is_renting": true,
                "is_returning": true,
                "is_virtual_station": false,
                "last_reported": 1789331826,
                "name": "\u0160estn\u00e1ctipatr\u00e1k",
                "num_bikes_available": 2,
                "num_docks_available": 0,
                "region_id": "1137",
                "rental_uris": {
                    "android": "https://app.nextbike.net/station?id=518294236",
                    "ios": "https://app.nextbike.net/station?id=518294236",
                    "web": "https://nxtb.it/p/518294236"
                },
                "short_name": "49636",
                "station_id": "518294236",
                "vehicle_types_available": [
                    {
                        "count": 2,
                        "vehicle_type_id": "254"
                    }
                ]
            },
            "type": "Feature"
        },
        {
            "geometry": {
                "coordinates": [
                    15.192274,
                    50.021164
                ],
                "type": "Point"
            },
            "properties": {
                "is_installed": true,
                "is_renting": true,
                "is_returning": true,
                "is_virtual_station": false,
                "last_reported": 1789331826,
                "name": "Venkovn\u00ed posilovna",
                "num_bikes_available": 1,
                "num_docks_available": 0,
                "region_id": "1137",
                "rental_uris": {
                    "android": "https://app.nextbike.net/station?id=518294312",
                    "ios": "https://app.nextbike.net/station?id=518294312",
                    "web": "https://nxtb.it/p/518294312"
                },
                "short_name": "49637",
                "station_id": "518294312",
                "vehicle_types_available": [
                    {
                        "count": 1,
                        "vehicle_type_id": "254"
                    }
                ]
            },
            "type": "Feature"
        },
        {
            "geometry": {
                "coordinates": [
                    15.194706,
                    50.022065
                ],
                "type": "Point"
            },
            "properties": {
                "is_installed": true,
                "is_renting": true,
                "is_returning": true,
                "is_virtual_station": false,
                "last_reported": 1789331826,
                "name": "Vodn\u00ed sv\u011bt",
                "num_bikes_available": 0,
                "num_docks_available": 0,
                "region_id": "1137",
                "rental_uris": {
                    "android": "https://app.nextbike.net/station?id=518297241",
                    "ios": "https://app.nextbike.net/station?id=518297241",
                    "web": "https://nxtb.it/p/518297241"
                },
                "short_name": "49638",
                "station_id": "518297241",
                "vehicle_types_available": []
            },
            "type": "Feature"
        },
        {
            "geometry": {
                "coordinates": [
                    15.198081,
                    50.021665
                ],
                "type": "Point"
            },
            "properties": {
                "is_installed": true,
                "is_renting": true,
                "is_returning": true,
                "is_virtual_station": false,
                "last_reported": 1789331826,
                "name": "Gymn\u00e1zium Kol\u00edn",
                "num_bikes_available": 1,
                "num_docks_available": 0,
                "region_id": "1137",
                "rental_uris": {
                    "android": "https://app.nextbike.net/station?id=518297319",
                    "ios": "https://app.nextbike.net/station?id=518297319",
                    "web": "https://nxtb.it/p/518297319"
                },
                "short_name": "49639",
                "station_id": "518297319",
                "vehicle_types_available": [
                    {
                        "count": 1,
                        "vehicle_type_id": "254"
                    }
                ]
            },
            "type": "Feature"
        },
        {
            "geometry": {
                "coordinates": [
                    15.205884,
                    50.025055
                ],
                "type": "Point"
            },
            "properties": {
                "is_installed": true,
                "is_renting": true,
                "is_returning": true,
                "is_virtual_station": false,
                "last_reported": 1789331826,
                "name": "Kino 99",
                "num_bikes_available": 0,
                "num_docks_available": 0,
                "region_id": "1137",
                "rental_uris": {
                    "android": "https://app.nextbike.net/station?id=518297412",
                    "ios": "https://app.nextbike.net/station?id=518297412",
                    "web": "https://nxtb.it/p/518297412"
                },
                "short_name": "49640",
                "station_id": "518297412",
                "vehicle_types_available": []
            },
            "type": "Feature"
        },
        {
            "geometry": {
                "coordinates": [
                    15.196071,
                    50.030262
                ],
                "type": "Point"
            },
            "properties": {
                "is_installed": true,
                "is_renting": true,
                "is_returning": true,
                "is_virtual_station": false,
                "last_reported": 1789331826,
                "name": "Kol\u00edn zast\u00e1vka",
                "num_bikes_available": 2,
                "num_docks_available": 0,
                "region_id": "1137",
                "rental_uris": {
                    "android": "https://app.nextbike.net/station?id=518297469",
                    "ios": "https://app.nextbike.net/station?id=518297469",
                    "web": "https://nxtb.it/p/518297469"
                },
                "short_name": "49641",
                "station_id": "518297469",
                "vehicle_types_available": [
                    {
                        "count": 2,
                        "vehicle_type_id": "254"
                    }
                ]
            },
            "type": "Feature"
        },
        {
            "geometry": {
                "coordinates": [
                    15.187662,
                    50.025928
                ],
                "type": "Point"
            },
            "properties": {
                "is_installed": true,
                "is_renting": true,
                "is_returning": true,
                "is_virtual_station": false,
                "last_reported": 1789331826,
                "name": "Samoobsluha",
                "num_bikes_available": 0,
                "num_docks_available": 0,
                "region_id": "1137",
                "rental_uris": {
                    "android": "https://app.nextbike.net/station?id=518297546",
                    "ios": "https://app.nextbike.net/station?id=518297546",
                    "web": "https://nxtb.it/p/518297546"
                },
                "short_name": "49642",
                "station_id": "518297546",
                "vehicle_types_available": []
            },
            "type": "Feature"
        },
        {
            "geometry": {
                "coordinates": [
                    15.210866,
                    50.020519
                ],
                "type": "Point"
            },
            "properties": {
                "is_installed": true,
                "is_renting": true,
                "is_returning": true,
                "is_virtual_station": false,
                "last_reported": 1789331826,
                "name": "OC Star\u00e1 plyn\u00e1rna",
                "num_bikes_available": 1,
                "num_docks_available": 0,
                "region_id": "1137",
                "rental_uris": {
                    "android": "https://app.nextbike.net/station?id=518297808",
                    "ios": "https://app.nextbike.net/station?id=518297808",
                    "web": "https://nxtb.it/p/518297808"
                },
                "short_name": "49643",
                "station_id": "518297808",
                "vehicle_types_available": [
                    {
                        "count": 1,
                        "vehicle_type_id": "254"
                    }
                ]
            },
            "type": "Feature"
        },
        {
            "geometry": {
                "coordinates": [
                    15.183055,
                    50.017929
                ],
                "type": "Point"
            },
            "properties": {
                "is_installed": true,
                "is_renting": true,
                "is_returning": true,
                "is_virtual_station": false,
                "last_reported": 1789331826,
                "name": "V\u00fdfuk",
                "num_bikes_available": 0,
                "num_docks_available": 0,
                "region_id": "1137",
                "rental_uris": {
                    "android": "https://app.nextbike.net/station?id=518297878",
                    "ios": "https://app.nextbike.net/station?id=518297878",
                    "web": "https://nxtb.it/p/518297878"
                },
                "short_name": "49644",
                "station_id": "518297878",
                "vehicle_types_available": []
            },
            "type": "Feature"
        },
        {
            "geometry": {
                "coordinates": [
                    15.233708,
                    50.006869
                ],
                "type": "Point"
            },
            "properties": {
                "is_installed": true,
                "is_renting": true,
                "is_returning": true,
                "is_virtual_station": false,
                "last_reported": 1789331826,
                "name": "\u0160\u0165\u00e1ralka (+15 minut na p\u0159\u00edjezd/odjezd)",
                "num_bikes_available": 3,
                "num_docks_available": 0,
                "region_id": "1137",
                "rental_uris": {
                    "android": "https://app.nextbike.net/station?id=518297939",
                    "ios": "https://app.nextbike.net/station?id=518297939",
                    "web": "https://nxtb.it/p/518297939"
                },
                "short_name": "49645",
                "station_id": "518297939",
                "vehicle_types_available": [
                    {
                        "count": 3,
                        "vehicle_type_id": "254"
                    }
                ]
            },
            "type": "Feature"
        },
        {
            "geometry": {
                "coordinates": [
                    15.174608,
                    50.018914
                ],
                "type": "Point"
            },
            "properties": {
                "is_installed": true,
                "is_renting": true,
                "is_returning": true,
                "is_virtual_station": false,
                "last_reported": 1789331826,
                "name": "\u0160t\u00edtary",
                "num_bikes_available": 1,
                "num_docks_available": 0,
                "region_id": "1137",
                "rental_uris": {
                    "android": "https://app.nextbike.net/station?id=518298020",
                    "ios": "https://app.nextbike.net/station?id=518298020",
                    "web": "https://nxtb.it/p/518298020"
                },
                "short_name": "49646",
                "station_id": "518298020",
                "vehicle_types_available": [
                    {
                        "count": 1,
                        "vehicle_type_id": "254"
                    }
                ]
            },
            "type": "Feature"
        },
        {
            "geometry": {
                "coordinates": [
                    15.157927,
                    50.000899
                ],
                "type": "Point"
            },
            "properties": {
                "is_installed": true,
                "is_renting": true,
                "is_returning": true,
                "is_virtual_station": false,
                "last_reported": 1789331826,
                "name": "Zibohlavy (+15 minut na p\u0159\u00edjezd/odjezd)",
                "num_bikes_available": 3,
                "num_docks_available": 0,
                "region_id": "1137",
                "rental_uris": {
                    "android": "https://app.nextbike.net/station?id=518298083",
                    "ios": "https://app.nextbike.net/station?id=518298083",
                    "web": "https://nxtb.it/p/518298083"
                },
                "short_name": "49647",
                "station_id": "518298083",
                "vehicle_types_available": [
                    {
                        "count": 2,
                        "vehicle_type_id": "254"
                    },
                    {
                        "count": 1,
                        "vehicle_type_id": "245"
                    }
                ]
            },
            "type": "Feature"
        },
        {
            "geometry": {
                "coordinates": [
                    15.202154,
                    50.024031
                ],
                "type": "Point"
            },
            "properties": {
                "is_installed": true,
                "is_renting": true,
                "is_returning": true,
                "is_virtual_station": false,
                "last_reported": 1789331826,
                "name": "Husovo n\u00e1m\u011bst\u00ed",
                "num_bikes_available": 2,
                "num_docks_available": 0,
                "region_id": "1137",
                "rental_uris": {
                    "android": "https://app.nextbike.net/station?id=518298222",
                    "ios": "https://app.nextbike.net/station?id=518298222",
                    "web": "https://nxtb.it/p/518298222"
                },
                "short_name": "49648",
                "station_id": "518298222",
                "vehicle_types_available": [
                    {
                        "count": 1,
                        "vehicle_type_id": "245"
                    },
                    {
                        "count": 1,
                        "vehicle_type_id": "254"
                    }
                ]
            },
            "type": "Feature"
        },
        {
            "geometry": {
                "coordinates": [
                    15.205775,
                    50.0322
                ],
                "type": "Point"
            },
            "properties": {
                "is_installed": true,
                "is_renting": true,
                "is_returning": true,
                "is_virtual_station": false,
                "last_reported": 1789331826,
                "name": "N\u00e1m\u011bst\u00ed Svobody",
                "num_bikes_available": 3,
                "num_docks_available": 0,
                "region_id": "1137",
                "rental_uris": {
                    "android": "https://app.nextbike.net/station?id=518298282",
                    "ios": "https://app.nextbike.net/station?id=518298282",
                    "web": "https://nxtb.it/p/518298282"
                },
                "short_name": "49649",
                "station_id": "518298282",
                "vehicle_types_available": [
                    {
                        "count": 3,
                        "vehicle_type_id": "254"
                    }
                ]
            },
            "type": "Feature"
        },
        {
            "geometry": {
                "coordinates": [
                    15.19985,
                    50.0325
                ],
                "type": "Point"
            },
            "properties": {
                "is_installed": true,
                "is_renting": true,
                "is_returning": true,
                "is_virtual_station": false,
                "last_reported": 1789331826,
                "name": "Zimn\u00ed stadion Kol\u00edn",
                "num_bikes_available": 33,
                "num_docks_available": 0,
                "region_id": "1137",
                "rental_uris": {
                    "android": "https://app.nextbike.net/station?id=518299751",
                    "ios": "https://app.nextbike.net/station?id=518299751",
                    "web": "https://nxtb.it/p/518299751"
                },
                "short_name": "49650",
                "station_id": "518299751",
                "vehicle_types_available": [
                    {
                        "count": 33,
                        "vehicle_type_id": "254"
                    }
                ]
            },
            "type": "Feature"
        },
        {
            "geometry": {
                "coordinates": [
                    15.186295,
                    50.03716
                ],
                "type": "Point"
            },
            "properties": {
                "is_installed": true,
                "is_renting": true,
                "is_returning": true,
                "is_virtual_station": false,
                "last_reported": 1789331826,
                "name": "Sportovn\u00ed hala Borky",
                "num_bikes_available": 8,
                "num_docks_available": 0,
                "region_id": "1137",
                "rental_uris": {
                    "android": "https://app.nextbike.net/station?id=518299881",
                    "ios": "https://app.nextbike.net/station?id=518299881",
                    "web": "https://nxtb.it/p/518299881"
                },
                "short_name": "49651",
                "station_id": "518299881",
                "vehicle_types_available": [
                    {
                        "count": 8,
                        "vehicle_type_id": "254"
                    }
                ]
            },
            "type": "Feature"
        },
        {
            "geometry": {
                "coordinates": [
                    15.19072,
                    50.0451
                ],
                "type": "Point"
            },
            "properties": {
                "is_installed": true,
                "is_renting": true,
                "is_returning": true,
                "is_virtual_station": false,
                "last_reported": 1789331826,
                "name": "Sp\u00e1lenka",
                "num_bikes_available": 9,
                "num_docks_available": 0,
                "region_id": "1137",
                "rental_uris": {
                    "android": "https://app.nextbike.net/station?id=518299943",
                    "ios": "https://app.nextbike.net/station?id=518299943",
                    "web": "https://nxtb.it/p/518299943"
                },
                "short_name": "49652",
                "station_id": "518299943",
                "vehicle_types_available": [
                    {
                        "count": 9,
                        "vehicle_type_id": "254"
                    }
                ]
            },
            "type": "Feature"
        },
        {
            "geometry": {
                "coordinates": [
                    15.197098,
                    50.034356
                ],
                "type": "Point"
            },
            "properties": {
                "is_installed": true,
                "is_renting": true,
                "is_returning": true,
                "is_virtual_station": false,
                "last_reported": 1789331826,
                "name": "U medv\u011bd\u016f",
                "num_bikes_available": 3,
                "num_docks_available": 0,
                "region_id": "1137",
                "rental_uris": {
                    "android": "https://app.nextbike.net/station?id=518300030",
                    "ios": "https://app.nextbike.net/station?id=518300030",
                    "web": "https://nxtb.it/p/518300030"
                },
                "short_name": "49653",
                "station_id": "518300030",
                "vehicle_types_available": [
                    {
                        "count": 3,
                        "vehicle_type_id": "254"
                    }
                ]
            },
            "type": "Feature"
        },
        {
            "geometry": {
                "coordinates": [
                    15.214636,
                    50.033509
                ],
                "type": "Point"
            },
            "properties": {
                "is_installed": true,
                "is_renting": true,
                "is_returning": true,
                "is_virtual_station": false,
                "last_reported": 1789331826,
                "name": "T\u0159\u00eddvorsk\u00e1",
                "num_bikes_available": 6,
                "num_docks_available": 0,
                "region_id": "1137",
                "rental_uris": {
                    "android": "https://app.nextbike.net/station?id=518300119",
                    "ios": "https://app.nextbike.net/station?id=518300119",
                    "web": "https://nxtb.it/p/518300119"
                },
                "short_name": "49654",
                "station_id": "518300119",
                "vehicle_types_available": [
                    {
                        "count": 6,
                        "vehicle_type_id": "254"
                    }
                ]
            },
            "type": "Feature"
        },
        {
            "geometry": {
                "coordinates": [
                    15.227983,
                    50.039102
                ],
                "type": "Point"
            },
            "properties": {
                "is_installed": true,
                "is_renting": true,
                "is_returning": true,
                "is_virtual_station": false,
                "last_reported": 1789331826,
                "name": "Vinice",
                "num_bikes_available": 6,
                "num_docks_available": 0,
                "region_id": "1137",
                "rental_uris": {
                    "android": "https://app.nextbike.net/station?id=518300200",
                    "ios": "https://app.nextbike.net/station?id=518300200",
                    "web": "https://nxtb.it/p/518300200"
                },
                "short_name": "49655",
                "station_id": "518300200",
                "vehicle_types_available": [
                    {
                        "count": 6,
                        "vehicle_type_id": "254"
                    }
                ]
            },
            "type": "Feature"
        },
        {
            "geometry": {
                "coordinates": [
                    15.213386,
                    50.052583
                ],
                "type": "Point"
            },
            "properties": {
                "is_installed": true,
                "is_renting": true,
                "is_returning": true,
                "is_virtual_station": false,
                "last_reported": 1789331826,
                "name": "Sendra\u017eice (+15 minut na p\u0159\u00edjezd/odjezd)",
                "num_bikes_available": 3,
                "num_docks_available": 0,
                "region_id": "1137",
                "rental_uris": {
                    "android": "https://app.nextbike.net/station?id=518300273",
                    "ios": "https://app.nextbike.net/station?id=518300273",
                    "web": "https://nxtb.it/p/518300273"
                },
                "short_name": "49656",
                "station_id": "518300273",
                "vehicle_types_available": [
                    {
                        "count": 3,
                        "vehicle_type_id": "254"
                    }
                ]
            },
            "type": "Feature"
        },
        {
            "geometry": {
                "coordinates": [
                    15.186934,
                    50.028999
                ],
                "type": "Point"
            },
            "properties": {
                "is_installed": true,
                "is_renting": true,
                "is_returning": true,
                "is_virtual_station": false,
                "last_reported": 1789331826,
                "name": "Zborovsk\u00e1",
                "num_bikes_available": 0,
                "num_docks_available": 0,
                "region_id": "1137",
                "rental_uris": {
                    "android": "https://app.nextbike.net/station?id=537929378",
                    "ios": "https://app.nextbike.net/station?id=537929378",
                    "web": "https://nxtb.it/p/537929378"
                },
                "short_name": "49657",
                "station_id": "537929378",
                "vehicle_types_available": []
            },
            "type": "Feature"
        },
        {
            "geometry": {
                "coordinates": [
                    15.2097,
                    50.0366
                ],
                "type": "Point"
            },
            "properties": {
                "is_installed": true,
                "is_renting": true,
                "is_returning": true,
                "is_virtual_station": false,
                "last_reported": 1789331826,
                "name": "Z\u00e1labsk\u00e1 zast\u00e1vka",
                "num_bikes_available": 1,
                "num_docks_available": 0,
                "region_id": "1137",
                "rental_uris": {
                    "android": "https://app.nextbike.net/station?id=547641653",
                    "ios": "https://app.nextbike.net/station?id=547641653",
                    "web": "https://nxtb.it/p/547641653"
                },
                "short_name": "49658",
                "station_id": "547641653",
                "vehicle_types_available": [
                    {
                        "count": 1,
                        "vehicle_type_id": "254"
                    }
                ]
            },
            "type": "Feature"
        },
        {
            "geometry": {
                "coordinates": [
                    15.21869,
                    50.01703
                ],
                "type": "Point"
            },
            "properties": {
                "is_installed": true,
                "is_renting": true,
                "is_returning": true,
                "is_virtual_station": false,
                "last_reported": 1789331826,
                "name": "Draslovka",
                "num_bikes_available": 7,
                "num_docks_available": 0,
                "region_id": "1137",
                "rental_uris": {
                    "android": "https://app.nextbike.net/station?id=547642895",
                    "ios": "https://app.nextbike.net/station?id=547642895",
                    "web": "https://nxtb.it/p/547642895"
                },
                "short_name": "49659",
                "station_id": "547642895",
                "vehicle_types_available": [
                    {
                        "count": 7,
                        "vehicle_type_id": "254"
                    }
                ]
            },
            "type": "Feature"
        },
        {
            "geometry": {
                "coordinates": [
                    15.20322,
                    50.01299
                ],
                "type": "Point"
            },
            "properties": {
                "is_installed": true,
                "is_renting": true,
                "is_returning": true,
                "is_virtual_station": false,
                "last_reported": 1789331826,
                "name": "15 kop",
                "num_bikes_available": 0,
                "num_docks_available": 0,
                "region_id": "1137",
                "rental_uris": {
                    "android": "https://app.nextbike.net/station?id=547643350",
                    "ios": "https://app.nextbike.net/station?id=547643350",
                    "web": "https://nxtb.it/p/547643350"
                },
                "short_name": "49660",
                "station_id": "547643350",
                "vehicle_types_available": []
            },
            "type": "Feature"
        },
        {
            "geometry": {
                "coordinates": [
                    15.1938,
                    50.01475
                ],
                "type": "Point"
            },
            "properties": {
                "is_installed": true,
                "is_renting": true,
                "is_returning": true,
                "is_virtual_station": false,
                "last_reported": 1789331826,
                "name": "Za J\u00edzd\u00e1rnou",
                "num_bikes_available": 1,
                "num_docks_available": 0,
                "region_id": "1137",
                "rental_uris": {
                    "android": "https://app.nextbike.net/station?id=599891667",
                    "ios": "https://app.nextbike.net/station?id=599891667",
                    "web": "https://nxtb.it/p/599891667"
                },
                "short_name": "49661",
                "station_id": "599891667",
                "vehicle_types_available": [
                    {
                        "count": 1,
                        "vehicle_type_id": "254"
                    }
                ]
            },
            "type": "Feature"
        },
        {
            "geometry": {
                "coordinates": [
                    15.210485,
                    50.025601
                ],
                "type": "Point"
            },
            "properties": {
                "is_installed": true,
                "is_renting": true,
                "is_returning": true,
                "is_virtual_station": false,
                "last_reported": 1789331826,
                "name": "Futurum (nov\u00e9 um\u00edst\u011bn\u00ed)",
                "num_bikes_available": 1,
                "num_docks_available": 0,
                "region_id": "1137",
                "rental_uris": {
                    "android": "https://app.nextbike.net/station?id=599891733",
                    "ios": "https://app.nextbike.net/station?id=599891733",
                    "web": "https://nxtb.it/p/599891733"
                },
                "short_name": "49662",
                "station_id": "599891733",
                "vehicle_types_available": [
                    {
                        "count": 1,
                        "vehicle_type_id": "254"
                    }
                ]
            },
            "type": "Feature"
        },
        {
            "geometry": {
                "coordinates": [
                    15.22878,
                    50.0635
                ],
                "type": "Point"
            },
            "properties": {
                "is_installed": true,
                "is_renting": true,
                "is_returning": true,
                "is_virtual_station": false,
                "last_reported": 1789331826,
                "name": "Retailpark Ov\u010d\u00e1ry (+15 minut na p\u0159\u00edjezd/odjezd)",
                "num_bikes_available": 1,
                "num_docks_available": 0,
                "region_id": "1137",
                "rental_uris": {
                    "android": "https://app.nextbike.net/station?id=599891786",
                    "ios": "https://app.nextbike.net/station?id=599891786",
                    "web": "https://nxtb.it/p/599891786"
                },
                "short_name": "49663",
                "station_id": "599891786",
                "vehicle_types_available": [
                    {
                        "count": 1,
                        "vehicle_type_id": "254"
                    }
                ]
            },
            "type": "Feature"
        },
        {
            "geometry": {
                "coordinates": [
                    15.24415,
                    50.07261
                ],
                "type": "Point"
            },
            "properties": {
                "is_installed": true,
                "is_renting": true,
                "is_returning": true,
                "is_virtual_station": false,
                "last_reported": 1789331826,
                "name": "Thermo King (+15 minut na p\u0159\u00edjezd/odjezd)",
                "num_bikes_available": 3,
                "num_docks_available": 0,
                "region_id": "1137",
                "rental_uris": {
                    "android": "https://app.nextbike.net/station?id=599891954",
                    "ios": "https://app.nextbike.net/station?id=599891954",
                    "web": "https://nxtb.it/p/599891954"
                },
                "short_name": "49720",
                "station_id": "599891954",
                "vehicle_types_available": [
                    {
                        "count": 3,
                        "vehicle_type_id": "254"
                    }
                ]
            },
            "type": "Feature"
        },
        {
            "geometry": {
                "coordinates": [
                    15.20534,
                    50.00494
                ],
                "type": "Point"
            },
            "properties": {
                "is_installed": true,
                "is_renting": true,
                "is_returning": true,
                "is_virtual_station": false,
                "last_reported": 1789331826,
                "name": "Polepy, centrum (+15 minut na p\u0159\u00edjezd/odjezd)",
                "num_bikes_available": 2,
                "num_docks_available": 0,
                "region_id": "1137",
                "rental_uris": {
                    "android": "https://app.nextbike.net/station?id=599891994",
                    "ios": "https://app.nextbike.net/station?id=599891994",
                    "web": "https://nxtb.it/p/599891994"
                },
                "short_name": "49721",
                "station_id": "599891994",
                "vehicle_types_available": [
                    {
                        "count": 2,
                        "vehicle_type_id": "254"
                    }
                ]
            },
            "type": "Feature"
        },
        {
            "geometry": {
                "coordinates": [
                    15.21,
                    50.0096
                ],
                "type": "Point"
            },
            "properties": {
                "is_installed": true,
                "is_renting": true,
                "is_returning": true,
                "is_virtual_station": false,
                "last_reported": 1789331826,
                "name": "Polepy, bytovky (+15 minut na p\u0159\u00edjezd/odjezd)",
                "num_bikes_available": 2,
                "num_docks_available": 0,
                "region_id": "1137",
                "rental_uris": {
                    "android": "https://app.nextbike.net/station?id=599892029",
                    "ios": "https://app.nextbike.net/station?id=599892029",
                    "web": "https://nxtb.it/p/599892029"
                },
                "short_name": "49722",
                "station_id": "599892029",
                "vehicle_types_available": [
                    {
                        "count": 2,
                        "vehicle_type_id": "254"
                    }
                ]
            },
            "type": "Feature"
        },
        {
            "geometry": {
                "coordinates": [
                    15.223,
                    50.00278
                ],
                "type": "Point"
            },
            "properties": {
                "is_installed": true,
                "is_renting": true,
                "is_returning": true,
                "is_virtual_station": false,
                "last_reported": 1789331826,
                "name": "Hlubok\u00fd D\u016fl (+15 minut na p\u0159\u00edjezd/odjezd)",
                "num_bikes_available": 2,
                "num_docks_available": 0,
                "region_id": "1137",
                "rental_uris": {
                    "android": "https://app.nextbike.net/station?id=599892055",
                    "ios": "https://app.nextbike.net/station?id=599892055",
                    "web": "https://nxtb.it/p/599892055"
                },
                "short_name": "49723",
                "station_id": "599892055",
                "vehicle_types_available": [
                    {
                        "count": 2,
                        "vehicle_type_id": "254"
                    }
                ]
            },
            "type": "Feature"
        },
        {
            "geometry": {
                "coordinates": [
                    15.2192,
                    49.9915
                ],
                "type": "Point"
            },
            "properties": {
                "is_installed": true,
                "is_renting": true,
                "is_returning": true,
                "is_virtual_station": false,
                "last_reported": 1789331826,
                "name": "Nebovidy (+15 minut na p\u0159\u00edjezd/odjezd)",
                "num_bikes_available": 8,
                "num_docks_available": 0,
                "region_id": "1137",
                "rental_uris": {
                    "android": "https://app.nextbike.net/station?id=599892107",
                    "ios": "https://app.nextbike.net/station?id=599892107",
                    "web": "https://nxtb.it/p/599892107"
                },
                "short_name": "49724",
                "station_id": "599892107",
                "vehicle_types_available": [
                    {
                        "count": 8,
                        "vehicle_type_id": "254"
                    }
                ]
            },
            "type": "Feature"
        },
        {
            "geometry": {
                "coordinates": [
                    15.192839,
                    50.035551
                ],
                "type": "Point"
            },
            "properties": {
                "is_installed": true,
                "is_renting": true,
                "is_returning": true,
                "is_virtual_station": false,
                "last_reported": 1789331826,
                "name": "FK Kol\u00edn",
                "num_bikes_available": 2,
                "num_docks_available": 0,
                "region_id": "1137",
                "rental_uris": {
                    "android": "https://app.nextbike.net/station?id=618886478",
                    "ios": "https://app.nextbike.net/station?id=618886478",
                    "web": "https://nxtb.it/p/618886478"
                },
                "short_name": "49725",
                "station_id": "618886478",
                "vehicle_types_available": [
                    {
                        "count": 2,
                        "vehicle_type_id": "254"
                    }
                ]
            },
            "type": "Feature"
        },
        {
            "geometry": {
                "coordinates": [
                    15.196898,
                    50.023083
                ],
                "type": "Point"
            },
            "properties": {
                "is_installed": true,
                "is_renting": true,
                "is_returning": true,
                "is_virtual_station": false,
                "last_reported": 1789331826,
                "name": "Billa Seifertova",
                "num_bikes_available": 1,
                "num_docks_available": 0,
                "region_id": "1137",
                "rental_uris": {
                    "android": "https://app.nextbike.net/station?id=618887418",
                    "ios": "https://app.nextbike.net/station?id=618887418",
                    "web": "https://nxtb.it/p/618887418"
                },
                "short_name": "49726",
                "station_id": "618887418",
                "vehicle_types_available": [
                    {
                        "count": 1,
                        "vehicle_type_id": "254"
                    }
                ]
            },
            "type": "Feature"
        },
        {
            "geometry": {
                "coordinates": [
                    15.19307,
                    50.028825
                ],
                "type": "Point"
            },
            "properties": {
                "is_installed": true,
                "is_renting": true,
                "is_returning": true,
                "is_virtual_station": false,
                "last_reported": 1789331826,
                "name": "Stavebka",
                "num_bikes_available": 1,
                "num_docks_available": 0,
                "region_id": "1137",
                "rental_uris": {
                    "android": "https://app.nextbike.net/station?id=618888158",
                    "ios": "https://app.nextbike.net/station?id=618888158",
                    "web": "https://nxtb.it/p/618888158"
                },
                "short_name": "49727",
                "station_id": "618888158",
                "vehicle_types_available": [
                    {
                        "count": 1,
                        "vehicle_type_id": "254"
                    }
                ]
            },
            "type": "Feature"
        },
        {
            "geometry": {
                "coordinates": [
                    15.23031,
                    50.008413
                ],
                "type": "Point"
            },
            "properties": {
                "is_installed": true,
                "is_renting": true,
                "is_returning": true,
                "is_virtual_station": false,
                "last_reported": 1789331826,
                "name": "Obchodn\u00ed akademie a SP\u0160",
                "num_bikes_available": 4,
                "num_docks_available": 0,
                "region_id": "1137",
                "rental_uris": {
                    "android": "https://app.nextbike.net/station?id=618888679",
                    "ios": "https://app.nextbike.net/station?id=618888679",
                    "web": "https://nxtb.it/p/618888679"
                },
                "short_name": "49728",
                "station_id": "618888679",
                "vehicle_types_available": [
                    {
                        "count": 4,
                        "vehicle_type_id": "254"
                    }
                ]
            },
            "type": "Feature"
        },
        {
            "geometry": {
                "coordinates": [
                    15.213088,
                    50.039979
                ],
                "type": "Point"
            },
            "properties": {
                "is_installed": true,
                "is_renting": true,
                "is_returning": true,
                "is_virtual_station": false,
                "last_reported": 1789331826,
                "name": "Penny Ov\u010d\u00e1reck\u00e1",
                "num_bikes_available": 2,
                "num_docks_available": 0,
                "region_id": "1137",
                "rental_uris": {
                    "android": "https://app.nextbike.net/station?id=618891462",
                    "ios": "https://app.nextbike.net/station?id=618891462",
                    "web": "https://nxtb.it/p/618891462"
                },
                "short_name": "495581",
                "station_id": "618891462",
                "vehicle_types_available": [
                    {
                        "count": 2,
                        "vehicle_type_id": "254"
                    }
                ]
            },
            "type": "Feature"
        },
        {
            "geometry": {
                "coordinates": [
                    15.200908,
                    50.019287
                ],
                "type": "Point"
            },
            "properties": {
                "is_installed": true,
                "is_renting": true,
                "is_returning": true,
                "is_virtual_station": false,
                "last_reported": 1789331826,
                "name": "Prokopa Velik\u00e9ho",
                "num_bikes_available": 0,
                "num_docks_available": 0,
                "region_id": "1137",
                "rental_uris": {
                    "android": "https://app.nextbike.net/station?id=618891627",
                    "ios": "https://app.nextbike.net/station?id=618891627",
                    "web": "https://nxtb.it/p/618891627"
                },
                "short_name": "495582",
                "station_id": "618891627",
                "vehicle_types_available": []
            },
            "type": "Feature"
        }
    ],
    "gbfs": {
        "station_information": {
            "last_updated": 1789331826,
            "ttl": 60,
            "version": "2.3"
        },
        "station_status": {
            "last_updated": 1789331826,
            "ttl": 60,
            "version": "2.3"
        }
    },
    "type": "FeatureCollection"
}