{
    "features": [
        {
            "geometry": {
                "coordinates": [
                    8.41519,
                    49.994984
                ],
                "type": "Point"
            },
            "properties": {
                "is_installed": true,
                "is_renting": true,
                "is_returning": true,
                "is_virtual_station": false,
                "last_reported": 1789284303,
                "name": "Friedensplatz",
                "num_bikes_available": 5,
                "num_docks_available": 0,
                "region_id": "439",
                "rental_uris": {
                    "android": "https://app.nextbike.net/station?id=143844852",
                    "ios": "https://app.nextbike.net/station?id=143844852",
                    "web": "https://nxtb.it/p/143844852"
                },
                "short_name": "5117",
                "station_id": "143844852",
                "vehicle_types_available": [
                    {
                        "count": 5,
                        "vehicle_type_id": "196"
                    }
                ]
            },
            "type": "Feature"
        },
        {
            "geometry": {
                "coordinates": [
                    8.399692,
                    49.992991
                ],
                "type": "Point"
            },
            "properties": {
                "is_installed": true,
                "is_renting": true,
                "is_returning": true,
                "is_virtual_station": false,
                "last_reported": 1789284303,
                "name": "Opelwerk Tor 20",
                "num_bikes_available": 3,
                "num_docks_available": 0,
                "region_id": "439",
                "rental_uris": {
                    "android": "https://app.nextbike.net/station?id=143845173",
                    "ios": "https://app.nextbike.net/station?id=143845173",
                    "web": "https://nxtb.it/p/143845173"
                },
                "short_name": "5119",
                "station_id": "143845173",
                "vehicle_types_available": [
                    {
                        "count": 2,
                        "vehicle_type_id": "150"
                    },
                    {
                        "count": 1,
                        "vehicle_type_id": "196"
                    }
                ]
            },
            "type": "Feature"
        },
        {
            "geometry": {
                "coordinates": [
                    8.45346,
                    49.9943
                ],
                "type": "Point"
            },
            "properties": {
                "is_installed": true,
                "is_renting": true,
                "is_returning": true,
                "is_virtual_station": false,
                "last_reported": 1789284303,
                "name": "Waldschwimmbad",
                "num_bikes_available": 4,
                "num_docks_available": 0,
                "region_id": "439",
                "rental_uris": {
                    "android": "https://app.nextbike.net/station?id=235082190",
                    "ios": "https://app.nextbike.net/station?id=235082190",
                    "web": "https://nxtb.it/p/235082190"
                },
                "short_name": "5116",
                "station_id": "235082190",
                "vehicle_types_available": [
                    {
                        "count": 2,
                        "vehicle_type_id": "150"
                    },
                    {
                        "count": 2,
                        "vehicle_type_id": "196"
                    }
                ]
            },
            "type": "Feature"
        },
        {
            "geometry": {
                "coordinates": [
                    8.411762,
                    49.995236
                ],
                "type": "Point"
            },
            "properties": {
                "capacity": 3,
                "is_installed": true,
                "is_renting": true,
                "is_returning": true,
                "is_virtual_station": false,
                "last_reported": 1789284303,
                "name": "Marktplatz",
                "num_bikes_available": 11,
                "num_docks_available": 0,
                "region_id": "439",
                "rental_uris": {
                    "android": "https://app.nextbike.net/station?id=4648298",
                    "ios": "https://app.nextbike.net/station?id=4648298",
                    "web": "https://nxtb.it/p/4648298"
                },
                "short_name": "5130",
                "station_id": "4648298",
                "vehicle_types_available": [
                    {
                        "count": 4,
                        "vehicle_type_id": "150"
                    },
                    {
                        "count": 7,
                        "vehicle_type_id": "196"
                    }
                ]
            },
            "type": "Feature"
        },
        {
            "geometry": {
                "coordinates": [
                    8.401875,
                    49.99296
                ],
                "type": "Point"
            },
            "properties": {
                "capacity": 4,
                "is_installed": true,
                "is_renting": true,
                "is_returning": true,
                "is_virtual_station": false,
                "last_reported": 1789284303,
                "name": "Studierendenwohnheim Auf dem Steinweg",
                "num_bikes_available": 4,
                "num_docks_available": 0,
                "region_id": "439",
                "rental_uris": {
                    "android": "https://app.nextbike.net/station?id=4648309",
                    "ios": "https://app.nextbike.net/station?id=4648309",
                    "web": "https://nxtb.it/p/4648309"
                },
                "short_name": "5131",
                "station_id": "4648309",
                "vehicle_types_available": [
                    {
                        "count": 3,
                        "vehicle_type_id": "150"
                    },
                    {
                        "count": 1,
                        "vehicle_type_id": "196"
                    }
                ]
            },
            "type": "Feature"
        },
        {
            "geometry": {
                "coordinates": [
                    8.409669,
                    49.984579
                ],
                "type": "Point"
            },
            "properties": {
                "capacity": 5,
                "is_installed": true,
                "is_renting": true,
                "is_returning": true,
                "is_virtual_station": false,
                "last_reported": 1789284303,
                "name": "Studierendenwohnheim An der Feuerwache",
                "num_bikes_available": 4,
                "num_docks_available": 0,
                "region_id": "439",
                "rental_uris": {
                    "android": "https://app.nextbike.net/station?id=4648317",
                    "ios": "https://app.nextbike.net/station?id=4648317",
                    "web": "https://nxtb.it/p/4648317"
                },
                "short_name": "5132",
                "station_id": "4648317",
                "vehicle_types_available": [
                    {
                        "count": 4,
                        "vehicle_type_id": "196"
                    }
                ]
            },
            "type": "Feature"
        },
        {
            "geometry": {
                "coordinates": [
                    8.412346,
                    49.992208
                ],
                "type": "Point"
            },
            "properties": {
                "capacity": 5,
                "is_installed": true,
                "is_renting": true,
                "is_returning": true,
                "is_virtual_station": false,
                "last_reported": 1789284303,
                "name": "Bahnhof Nordseite",
                "num_bikes_available": 5,
                "num_docks_available": 0,
                "region_id": "439",
                "rental_uris": {
                    "android": "https://app.nextbike.net/station?id=4648324",
                    "ios": "https://app.nextbike.net/station?id=4648324",
                    "web": "https://nxtb.it/p/4648324"
                },
                "short_name": "5133",
                "station_id": "4648324",
                "vehicle_types_available": [
                    {
                        "count": 2,
                        "vehicle_type_id": "150"
                    },
                    {
                        "count": 3,
                        "vehicle_type_id": "196"
                    }
                ]
            },
            "type": "Feature"
        },
        {
            "geometry": {
                "coordinates": [
                    8.411847,
                    49.991029
                ],
                "type": "Point"
            },
            "properties": {
                "capacity": 22,
                "is_installed": true,
                "is_renting": true,
                "is_returning": true,
                "is_virtual_station": false,
                "last_reported": 1789284303,
                "name": "Bahnhof S\u00fcdseite",
                "num_bikes_available": 36,
                "num_docks_available": 0,
                "region_id": "439",
                "rental_uris": {
                    "android": "https://app.nextbike.net/station?id=4648333",
                    "ios": "https://app.nextbike.net/station?id=4648333",
                    "web": "https://nxtb.it/p/4648333"
                },
                "short_name": "5134",
                "station_id": "4648333",
                "vehicle_types_available": [
                    {
                        "count": 8,
                        "vehicle_type_id": "150"
                    },
                    {
                        "count": 28,
                        "vehicle_type_id": "196"
                    }
                ]
            },
            "type": "Feature"
        },
        {
            "geometry": {
                "coordinates": [
                    8.424631,
                    49.985586
                ],
                "type": "Point"
            },
            "properties": {
                "capacity": 25,
                "is_installed": true,
                "is_renting": true,
                "is_returning": true,
                "is_virtual_station": false,
                "last_reported": 1789284303,
                "name": "Campus Am Br\u00fcckweg",
                "num_bikes_available": 38,
                "num_docks_available": 0,
                "region_id": "439",
                "rental_uris": {
                    "android": "https://app.nextbike.net/station?id=4648340",
                    "ios": "https://app.nextbike.net/station?id=4648340",
                    "web": "https://nxtb.it/p/4648340"
                },
                "short_name": "5135",
                "station_id": "4648340",
                "vehicle_types_available": [
                    {
                        "count": 1,
                        "vehicle_type_id": "29"
                    },
                    {
                        "count": 8,
                        "vehicle_type_id": "150"
                    },
                    {
                        "count": 1,
                        "vehicle_type_id": "71"
                    },
                    {
                        "count": 28,
                        "vehicle_type_id": "196"
                    }
                ]
            },
            "type": "Feature"
        },
        {
            "geometry": {
                "coordinates": [
                    8.423971,
                    49.983758
                ],
                "type": "Point"
            },
            "properties": {
                "is_installed": true,
                "is_renting": true,
                "is_returning": true,
                "is_virtual_station": false,
                "last_reported": 1789284303,
                "name": "Studierendenwohnheim August-Bebel-Stra\u00dfe",
                "num_bikes_available": 4,
                "num_docks_available": 0,
                "region_id": "439",
                "rental_uris": {
                    "android": "https://app.nextbike.net/station?id=4648352",
                    "ios": "https://app.nextbike.net/station?id=4648352",
                    "web": "https://nxtb.it/p/4648352"
                },
                "short_name": "5136",
                "station_id": "4648352",
                "vehicle_types_available": [
                    {
                        "count": 1,
                        "vehicle_type_id": "71"
                    },
                    {
                        "count": 1,
                        "vehicle_type_id": "150"
                    },
                    {
                        "count": 2,
                        "vehicle_type_id": "196"
                    }
                ]
            },
            "type": "Feature"
        },
        {
            "geometry": {
                "coordinates": [
                    8.425076,
                    50.001764
                ],
                "type": "Point"
            },
            "properties": {
                "is_installed": true,
                "is_renting": true,
                "is_returning": true,
                "is_virtual_station": false,
                "last_reported": 1789284303,
                "name": "Stadion",
                "num_bikes_available": 4,
                "num_docks_available": 0,
                "region_id": "439",
                "rental_uris": {
                    "android": "https://app.nextbike.net/station?id=78889048",
                    "ios": "https://app.nextbike.net/station?id=78889048",
                    "web": "https://nxtb.it/p/78889048"
                },
                "short_name": "5137",
                "station_id": "78889048",
                "vehicle_types_available": [
                    {
                        "count": 1,
                        "vehicle_type_id": "150"
                    },
                    {
                        "count": 3,
                        "vehicle_type_id": "196"
                    }
                ]
            },
            "type": "Feature"
        },
        {
            "geometry": {
                "coordinates": [
                    8.42974,
                    49.998378
                ],
                "type": "Point"
            },
            "properties": {
                "is_installed": true,
                "is_renting": true,
                "is_returning": true,
                "is_virtual_station": false,
                "last_reported": 1789284303,
                "name": "Berliner Platz",
                "num_bikes_available": 4,
                "num_docks_available": 0,
                "region_id": "439",
                "rental_uris": {
                    "android": "https://app.nextbike.net/station?id=78889491",
                    "ios": "https://app.nextbike.net/station?id=78889491",
                    "web": "https://nxtb.it/p/78889491"
                },
                "short_name": "5138",
                "station_id": "78889491",
                "vehicle_types_available": [
                    {
                        "count": 2,
                        "vehicle_type_id": "150"
                    },
                    {
                        "count": 2,
                        "vehicle_type_id": "196"
                    }
                ]
            },
            "type": "Feature"
        },
        {
            "geometry": {
                "coordinates": [
                    8.446625,
                    49.996547
                ],
                "type": "Point"
            },
            "properties": {
                "is_installed": true,
                "is_renting": true,
                "is_returning": true,
                "is_virtual_station": false,
                "last_reported": 1789284303,
                "name": "Waldweg",
                "num_bikes_available": 3,
                "num_docks_available": 0,
                "region_id": "439",
                "rental_uris": {
                    "android": "https://app.nextbike.net/station?id=78889761",
                    "ios": "https://app.nextbike.net/station?id=78889761",
                    "web": "https://nxtb.it/p/78889761"
                },
                "short_name": "5139",
                "station_id": "78889761",
                "vehicle_types_available": [
                    {
                        "count": 1,
                        "vehicle_type_id": "150"
                    },
                    {
                        "count": 2,
                        "vehicle_type_id": "196"
                    }
                ]
            },
            "type": "Feature"
        },
        {
            "geometry": {
                "coordinates": [
                    8.443768,
                    49.990786
                ],
                "type": "Point"
            },
            "properties": {
                "is_installed": true,
                "is_renting": true,
                "is_returning": true,
                "is_virtual_station": false,
                "last_reported": 1789284303,
                "name": "Lucas-Cranach-Stra\u00dfe",
                "num_bikes_available": 6,
                "num_docks_available": 0,
                "region_id": "439",
                "rental_uris": {
                    "android": "https://app.nextbike.net/station?id=78890049",
                    "ios": "https://app.nextbike.net/station?id=78890049",
                    "web": "https://nxtb.it/p/78890049"
                },
                "short_name": "5118",
                "station_id": "78890049",
                "vehicle_types_available": [
                    {
                        "count": 3,
                        "vehicle_type_id": "150"
                    },
                    {
                        "count": 3,
                        "vehicle_type_id": "196"
                    }
                ]
            },
            "type": "Feature"
        },
        {
            "geometry": {
                "coordinates": [
                    8.456318,
                    49.986552
                ],
                "type": "Point"
            },
            "properties": {
                "is_installed": true,
                "is_renting": true,
                "is_returning": true,
                "is_virtual_station": false,
                "last_reported": 1789284303,
                "name": "R\u00fcsselsheimer Stra\u00dfe",
                "num_bikes_available": 4,
                "num_docks_available": 0,
                "region_id": "439",
                "rental_uris": {
                    "android": "https://app.nextbike.net/station?id=78890378",
                    "ios": "https://app.nextbike.net/station?id=78890378",
                    "web": "https://nxtb.it/p/78890378"
                },
                "short_name": "5120",
                "station_id": "78890378",
                "vehicle_types_available": [
                    {
                        "count": 2,
                        "vehicle_type_id": "150"
                    },
                    {
                        "count": 2,
                        "vehicle_type_id": "196"
                    }
                ]
            },
            "type": "Feature"
        },
        {
            "geometry": {
                "coordinates": [
                    8.439689,
                    49.981832
                ],
                "type": "Point"
            },
            "properties": {
                "is_installed": true,
                "is_renting": true,
                "is_returning": true,
                "is_virtual_station": false,
                "last_reported": 1789284303,
                "name": "Liebigstra\u00dfe",
                "num_bikes_available": 4,
                "num_docks_available": 0,
                "region_id": "439",
                "rental_uris": {
                    "android": "https://app.nextbike.net/station?id=78890940",
                    "ios": "https://app.nextbike.net/station?id=78890940",
                    "web": "https://nxtb.it/p/78890940"
                },
                "short_name": "5121",
                "station_id": "78890940",
                "vehicle_types_available": [
                    {
                        "count": 1,
                        "vehicle_type_id": "150"
                    },
                    {
                        "count": 3,
                        "vehicle_type_id": "196"
                    }
                ]
            },
            "type": "Feature"
        },
        {
            "geometry": {
                "coordinates": [
                    8.42555,
                    49.991619
                ],
                "type": "Point"
            },
            "properties": {
                "is_installed": true,
                "is_renting": true,
                "is_returning": true,
                "is_virtual_station": false,
                "last_reported": 1789284303,
                "name": "Theater",
                "num_bikes_available": 3,
                "num_docks_available": 0,
                "region_id": "439",
                "rental_uris": {
                    "android": "https://app.nextbike.net/station?id=78891469",
                    "ios": "https://app.nextbike.net/station?id=78891469",
                    "web": "https://nxtb.it/p/78891469"
                },
                "short_name": "5122",
                "station_id": "78891469",
                "vehicle_types_available": [
                    {
                        "count": 1,
                        "vehicle_type_id": "150"
                    },
                    {
                        "count": 2,
                        "vehicle_type_id": "196"
                    }
                ]
            },
            "type": "Feature"
        }
    ],
    "gbfs": {
        "station_information": {
            "last_updated": 1789284303,
            "ttl": 60,
            "version": "2.3"
        },
        "station_status": {
            "last_updated": 1789284303,
            "ttl": 60,
            "version": "2.3"
        }
    },
    "type": "FeatureCollection"
}