{
    "features": [
        {
            "geometry": {
                "coordinates": [
                    1.01297,
                    44.936116
                ],
                "type": "Point"
            },
            "properties": {
                "capacity": 5,
                "is_charging_station": true,
                "is_installed": true,
                "is_renting": true,
                "is_returning": true,
                "is_virtual_station": false,
                "last_reported": "2026-09-13T13:11:03+02:00",
                "name": [
                    {
                        "language": "fr",
                        "text": "Les Eyzies"
                    }
                ],
                "num_docks_available": 5,
                "num_vehicles_available": 0,
                "station_id": "278",
                "vehicle_types_available": [
                    {
                        "count": 0,
                        "vehicle_type_id": "ELECTRIC"
                    }
                ]
            },
            "type": "Feature"
        },
        {
            "geometry": {
                "coordinates": [
                    0.9781,
                    45.0473
                ],
                "type": "Point"
            },
            "properties": {
                "capacity": 3,
                "is_charging_station": true,
                "is_installed": true,
                "is_renting": true,
                "is_returning": true,
                "is_virtual_station": false,
                "last_reported": "2026-09-13T13:11:29+02:00",
                "name": [
                    {
                        "language": "fr",
                        "text": "Rouffignac"
                    }
                ],
                "num_docks_available": 0,
                "num_vehicles_available": 3,
                "station_id": "312",
                "vehicle_types_available": [
                    {
                        "count": 3,
                        "vehicle_type_id": "ELECTRIC"
                    }
                ]
            },
            "type": "Feature"
        },
        {
            "geometry": {
                "coordinates": [
                    0.9275,
                    44.9182
                ],
                "type": "Point"
            },
            "properties": {
                "capacity": 5,
                "is_charging_station": true,
                "is_installed": true,
                "is_renting": true,
                "is_returning": true,
                "is_virtual_station": false,
                "last_reported": "2026-09-13T13:11:47+02:00",
                "name": [
                    {
                        "language": "fr",
                        "text": "Le Bugue"
                    }
                ],
                "num_docks_available": 4,
                "num_vehicles_available": 1,
                "station_id": "361",
                "vehicle_types_available": [
                    {
                        "count": 1,
                        "vehicle_type_id": "ELECTRIC"
                    }
                ]
            },
            "type": "Feature"
        },
        {
            "geometry": {
                "coordinates": [
                    1.163,
                    45.0642
                ],
                "type": "Point"
            },
            "properties": {
                "capacity": 5,
                "is_charging_station": true,
                "is_installed": true,
                "is_renting": true,
                "is_returning": true,
                "is_virtual_station": false,
                "last_reported": "2026-09-13T13:11:53+02:00",
                "name": [
                    {
                        "language": "fr",
                        "text": "Montignac"
                    }
                ],
                "num_docks_available": 3,
                "num_vehicles_available": 1,
                "station_id": "388",
                "vehicle_types_available": [
                    {
                        "count": 1,
                        "vehicle_type_id": "ELECTRIC"
                    }
                ]
            },
            "type": "Feature"
        },
        {
            "geometry": {
                "coordinates": [
                    1.08914,
                    45.01137
                ],
                "type": "Point"
            },
            "properties": {
                "capacity": 5,
                "is_charging_station": true,
                "is_installed": true,
                "is_renting": true,
                "is_returning": true,
                "is_virtual_station": false,
                "last_reported": "2026-09-13T13:10:44+02:00",
                "name": [
                    {
                        "language": "fr",
                        "text": "Saint Leon Sur Vezere"
                    }
                ],
                "num_docks_available": 0,
                "num_vehicles_available": 5,
                "station_id": "767",
                "vehicle_types_available": [
                    {
                        "count": 5,
                        "vehicle_type_id": "ELECTRIC"
                    }
                ]
            },
            "type": "Feature"
        }
    ],
    "gbfs": {
        "station_information": {
            "last_updated": "2026-09-13T13:12:03.307+02:00",
            "ttl": 300,
            "version": "3.0"
        },
        "station_status": {
            "last_updated": "2026-09-13T13:12:03.318+02:00",
            "ttl": 300,
            "version": "3.0"
        }
    },
    "type": "FeatureCollection"
}