{
    "features": [
        {
            "geometry": {
                "coordinates": [
                    21.15748,
                    42.646909
                ],
                "type": "Point"
            },
            "properties": {
                "is_installed": true,
                "is_renting": true,
                "is_returning": true,
                "is_virtual_station": false,
                "last_reported": 1789296504,
                "name": "Rrethi i Flamurit",
                "num_bikes_available": 2,
                "num_docks_available": 0,
                "region_id": "291",
                "rental_uris": {
                    "android": "https://app.nextbike.net/station?id=377734",
                    "ios": "https://app.nextbike.net/station?id=377734",
                    "web": "https://nxtb.it/p/377734"
                },
                "short_name": "87206",
                "station_id": "377734",
                "vehicle_types_available": [
                    {
                        "count": 2,
                        "vehicle_type_id": "150"
                    }
                ]
            },
            "type": "Feature"
        },
        {
            "geometry": {
                "coordinates": [
                    21.125111,
                    42.64704
                ],
                "type": "Point"
            },
            "properties": {
                "is_installed": true,
                "is_renting": true,
                "is_returning": true,
                "is_virtual_station": false,
                "last_reported": 1789296504,
                "name": "Zona Industriale ETC",
                "num_bikes_available": 26,
                "num_docks_available": 0,
                "region_id": "291",
                "rental_uris": {
                    "android": "https://app.nextbike.net/station?id=377741",
                    "ios": "https://app.nextbike.net/station?id=377741",
                    "web": "https://nxtb.it/p/377741"
                },
                "short_name": "87200",
                "station_id": "377741",
                "vehicle_types_available": [
                    {
                        "count": 26,
                        "vehicle_type_id": "150"
                    }
                ]
            },
            "type": "Feature"
        },
        {
            "geometry": {
                "coordinates": [
                    21.155752,
                    42.654825
                ],
                "type": "Point"
            },
            "properties": {
                "is_installed": true,
                "is_renting": true,
                "is_returning": true,
                "is_virtual_station": false,
                "last_reported": 1789296504,
                "name": "Bill Klinton",
                "num_bikes_available": 4,
                "num_docks_available": 0,
                "region_id": "291",
                "rental_uris": {
                    "android": "https://app.nextbike.net/station?id=426552042",
                    "ios": "https://app.nextbike.net/station?id=426552042",
                    "web": "https://nxtb.it/p/426552042"
                },
                "short_name": "87208",
                "station_id": "426552042",
                "vehicle_types_available": [
                    {
                        "count": 4,
                        "vehicle_type_id": "150"
                    }
                ]
            },
            "type": "Feature"
        },
        {
            "geometry": {
                "coordinates": [
                    21.147367,
                    42.650722
                ],
                "type": "Point"
            },
            "properties": {
                "capacity": 13,
                "is_installed": true,
                "is_renting": true,
                "is_returning": true,
                "is_virtual_station": false,
                "last_reported": 1789296504,
                "name": "Stacioni i autobuseve",
                "num_bikes_available": 16,
                "num_docks_available": 0,
                "region_id": "291",
                "rental_uris": {
                    "android": "https://app.nextbike.net/station?id=426552429",
                    "ios": "https://app.nextbike.net/station?id=426552429",
                    "web": "https://nxtb.it/p/426552429"
                },
                "short_name": "87207",
                "station_id": "426552429",
                "vehicle_types_available": [
                    {
                        "count": 16,
                        "vehicle_type_id": "150"
                    }
                ]
            },
            "type": "Feature"
        },
        {
            "geometry": {
                "coordinates": [
                    21.162835,
                    42.647499
                ],
                "type": "Point"
            },
            "properties": {
                "is_installed": true,
                "is_renting": true,
                "is_returning": true,
                "is_virtual_station": false,
                "last_reported": 1789296504,
                "name": "Rrethi i spitalit",
                "num_bikes_available": 2,
                "num_docks_available": 0,
                "region_id": "291",
                "rental_uris": {
                    "android": "https://app.nextbike.net/station?id=426554890",
                    "ios": "https://app.nextbike.net/station?id=426554890",
                    "web": "https://nxtb.it/p/426554890"
                },
                "short_name": "87205",
                "station_id": "426554890",
                "vehicle_types_available": [
                    {
                        "count": 2,
                        "vehicle_type_id": "150"
                    }
                ]
            },
            "type": "Feature"
        },
        {
            "geometry": {
                "coordinates": [
                    21.175474,
                    42.652719
                ],
                "type": "Point"
            },
            "properties": {
                "is_installed": true,
                "is_renting": true,
                "is_returning": true,
                "is_virtual_station": false,
                "last_reported": 1789296504,
                "name": "Rruga B",
                "num_bikes_available": 0,
                "num_docks_available": 0,
                "region_id": "291",
                "rental_uris": {
                    "android": "https://app.nextbike.net/station?id=426555030",
                    "ios": "https://app.nextbike.net/station?id=426555030",
                    "web": "https://nxtb.it/p/426555030"
                },
                "short_name": "87204",
                "station_id": "426555030",
                "vehicle_types_available": []
            },
            "type": "Feature"
        },
        {
            "geometry": {
                "coordinates": [
                    21.164057,
                    42.651725
                ],
                "type": "Point"
            },
            "properties": {
                "is_installed": true,
                "is_renting": true,
                "is_returning": true,
                "is_virtual_station": false,
                "last_reported": 1789296504,
                "name": "Ulpiane",
                "num_bikes_available": 0,
                "num_docks_available": 0,
                "region_id": "291",
                "rental_uris": {
                    "android": "https://app.nextbike.net/station?id=426555203",
                    "ios": "https://app.nextbike.net/station?id=426555203",
                    "web": "https://nxtb.it/p/426555203"
                },
                "short_name": "87203",
                "station_id": "426555203",
                "vehicle_types_available": []
            },
            "type": "Feature"
        },
        {
            "geometry": {
                "coordinates": [
                    21.16412,
                    42.66576
                ],
                "type": "Point"
            },
            "properties": {
                "is_installed": true,
                "is_renting": true,
                "is_returning": true,
                "is_virtual_station": false,
                "last_reported": 1789296504,
                "name": "Sheshi Adem Jashari",
                "num_bikes_available": 6,
                "num_docks_available": 0,
                "region_id": "291",
                "rental_uris": {
                    "android": "https://app.nextbike.net/station?id=426555353",
                    "ios": "https://app.nextbike.net/station?id=426555353",
                    "web": "https://nxtb.it/p/426555353"
                },
                "short_name": "87202",
                "station_id": "426555353",
                "vehicle_types_available": [
                    {
                        "count": 6,
                        "vehicle_type_id": "150"
                    }
                ]
            },
            "type": "Feature"
        },
        {
            "geometry": {
                "coordinates": [
                    21.177975,
                    42.66579
                ],
                "type": "Point"
            },
            "properties": {
                "is_installed": true,
                "is_renting": true,
                "is_returning": true,
                "is_virtual_station": false,
                "last_reported": 1789296504,
                "name": "Taukbashqe",
                "num_bikes_available": 0,
                "num_docks_available": 0,
                "region_id": "291",
                "rental_uris": {
                    "android": "https://app.nextbike.net/station?id=426555536",
                    "ios": "https://app.nextbike.net/station?id=426555536",
                    "web": "https://nxtb.it/p/426555536"
                },
                "short_name": "87201",
                "station_id": "426555536",
                "vehicle_types_available": []
            },
            "type": "Feature"
        },
        {
            "geometry": {
                "coordinates": [
                    21.160329,
                    42.659553
                ],
                "type": "Point"
            },
            "properties": {
                "is_installed": true,
                "is_renting": true,
                "is_returning": true,
                "is_virtual_station": false,
                "last_reported": 1789296504,
                "name": "Sheshe Nene Tereza",
                "num_bikes_available": 1,
                "num_docks_available": 0,
                "region_id": "291",
                "rental_uris": {
                    "android": "https://app.nextbike.net/station?id=427401803",
                    "ios": "https://app.nextbike.net/station?id=427401803",
                    "web": "https://nxtb.it/p/427401803"
                },
                "short_name": "87209",
                "station_id": "427401803",
                "vehicle_types_available": [
                    {
                        "count": 1,
                        "vehicle_type_id": "150"
                    }
                ]
            },
            "type": "Feature"
        }
    ],
    "gbfs": {
        "station_information": {
            "last_updated": 1789296504,
            "ttl": 60,
            "version": "2.3"
        },
        "station_status": {
            "last_updated": 1789296504,
            "ttl": 60,
            "version": "2.3"
        }
    },
    "type": "FeatureCollection"
}